<?xml version='1.0' encoding='utf-8'?>
<gpx xmlns="http://www.topografix.com/GPX/1/1" xmlns:xsi="http://www.w3.org/2001/XMLSchema-instance" version="1.1" creator="Gravelle Estrie" xsi:schemaLocation="http://www.topografix.com/GPX/1/1 http://www.topografix.com/GPX/1/1/gpx.xsd">
  <metadata>
    <name>1234</name>
  </metadata>
  <trk>
    <name>1234</name>
    <trkseg>
      <trkpt lat="45.22133" lon="-72.526529">
        <ele>203</ele>
      </trkpt>
      <trkpt lat="45.22113" lon="-72.52583">
        <ele>202.5</ele>
      </trkpt>
      <trkpt lat="45.22094" lon="-72.52513">
        <ele>202.6</ele>
      </trkpt>
      <trkpt lat="45.22029" lon="-72.52584">
        <ele>203.5</ele>
      </trkpt>
      <trkpt lat="45.21964" lon="-72.52656">
        <ele>204.2</ele>
      </trkpt>
      <trkpt lat="45.21904" lon="-72.52732">
        <ele>204.9</ele>
      </trkpt>
      <trkpt lat="45.21844" lon="-72.52808">
        <ele>205.8</ele>
      </trkpt>
      <trkpt lat="45.21784" lon="-72.52883">
        <ele>206.3</ele>
      </trkpt>
      <trkpt lat="45.21732" lon="-72.52946">
        <ele>207</ele>
      </trkpt>
      <trkpt lat="45.2168" lon="-72.5301">
        <ele>207.6</ele>
      </trkpt>
      <trkpt lat="45.21628" lon="-72.53073">
        <ele>208.2</ele>
      </trkpt>
      <trkpt lat="45.21561" lon="-72.53154">
        <ele>209</ele>
      </trkpt>
      <trkpt lat="45.21495" lon="-72.532349">
        <ele>209.9</ele>
      </trkpt>
      <trkpt lat="45.21429" lon="-72.53317">
        <ele>210.6</ele>
      </trkpt>
      <trkpt lat="45.21362" lon="-72.53398">
        <ele>211.4</ele>
      </trkpt>
      <trkpt lat="45.21357" lon="-72.53403">
        <ele>211.5</ele>
      </trkpt>
      <trkpt lat="45.2135" lon="-72.53407">
        <ele>211.6</ele>
      </trkpt>
      <trkpt lat="45.21334" lon="-72.53403">
        <ele>211.8</ele>
      </trkpt>
      <trkpt lat="45.21278" lon="-72.53383">
        <ele>212.6</ele>
      </trkpt>
      <trkpt lat="45.21223" lon="-72.53363">
        <ele>212.9</ele>
      </trkpt>
      <trkpt lat="45.21197" lon="-72.53354">
        <ele>212.9</ele>
      </trkpt>
      <trkpt lat="45.21176" lon="-72.53474">
        <ele>212.9</ele>
      </trkpt>
      <trkpt lat="45.21156" lon="-72.53595">
        <ele>212.9</ele>
      </trkpt>
      <trkpt lat="45.21084" lon="-72.53592">
        <ele>212.9</ele>
      </trkpt>
      <trkpt lat="45.21012" lon="-72.5359">
        <ele>214.9</ele>
      </trkpt>
      <trkpt lat="45.20953" lon="-72.53589">
        <ele>217.6</ele>
      </trkpt>
      <trkpt lat="45.20893" lon="-72.53589">
        <ele>220.8</ele>
      </trkpt>
      <trkpt lat="45.20812" lon="-72.53587">
        <ele>225.8</ele>
      </trkpt>
      <trkpt lat="45.20731" lon="-72.53585">
        <ele>230.9</ele>
      </trkpt>
      <trkpt lat="45.2065" lon="-72.53583">
        <ele>235.5</ele>
      </trkpt>
      <trkpt lat="45.20569" lon="-72.53582">
        <ele>239.6</ele>
      </trkpt>
      <trkpt lat="45.20509" lon="-72.53579">
        <ele>243.1</ele>
      </trkpt>
      <trkpt lat="45.20424" lon="-72.53583">
        <ele>247.5</ele>
      </trkpt>
      <trkpt lat="45.2034" lon="-72.53587">
        <ele>252.2</ele>
      </trkpt>
      <trkpt lat="45.2028" lon="-72.53576">
        <ele>256.3</ele>
      </trkpt>
      <trkpt lat="45.20271" lon="-72.53576">
        <ele>256.8</ele>
      </trkpt>
      <trkpt lat="45.202509" lon="-72.53579">
        <ele>257.8</ele>
      </trkpt>
      <trkpt lat="45.20212" lon="-72.53592">
        <ele>259.4</ele>
      </trkpt>
      <trkpt lat="45.20192" lon="-72.535929">
        <ele>260.3</ele>
      </trkpt>
      <trkpt lat="45.20183" lon="-72.535929">
        <ele>260.7</ele>
      </trkpt>
      <trkpt lat="45.20142" lon="-72.53581">
        <ele>262.8</ele>
      </trkpt>
      <trkpt lat="45.201099" lon="-72.53577">
        <ele>264.1</ele>
      </trkpt>
      <trkpt lat="45.20032" lon="-72.53577">
        <ele>267.4</ele>
      </trkpt>
      <trkpt lat="45.19954" lon="-72.53577">
        <ele>271.8</ele>
      </trkpt>
      <trkpt lat="45.19921" lon="-72.5358">
        <ele>273.6</ele>
      </trkpt>
      <trkpt lat="45.19895" lon="-72.53579">
        <ele>274.8</ele>
      </trkpt>
      <trkpt lat="45.19871" lon="-72.53586">
        <ele>275.5</ele>
      </trkpt>
      <trkpt lat="45.19847" lon="-72.536">
        <ele>275.9</ele>
      </trkpt>
      <trkpt lat="45.19834" lon="-72.53617">
        <ele>275.7</ele>
      </trkpt>
      <trkpt lat="45.198" lon="-72.53674">
        <ele>274.3</ele>
      </trkpt>
      <trkpt lat="45.19783" lon="-72.53694">
        <ele>273.8</ele>
      </trkpt>
      <trkpt lat="45.197629" lon="-72.53707">
        <ele>273.9</ele>
      </trkpt>
      <trkpt lat="45.197339" lon="-72.53712">
        <ele>274.9</ele>
      </trkpt>
      <trkpt lat="45.19711" lon="-72.5371">
        <ele>276.3</ele>
      </trkpt>
      <trkpt lat="45.19682" lon="-72.53697">
        <ele>278.8</ele>
      </trkpt>
      <trkpt lat="45.19662" lon="-72.53682">
        <ele>281</ele>
      </trkpt>
      <trkpt lat="45.196129" lon="-72.53635">
        <ele>286.6</ele>
      </trkpt>
      <trkpt lat="45.19587" lon="-72.53612">
        <ele>289.2</ele>
      </trkpt>
      <trkpt lat="45.195749" lon="-72.5361">
        <ele>290</ele>
      </trkpt>
      <trkpt lat="45.19489" lon="-72.53608">
        <ele>295.5</ele>
      </trkpt>
      <trkpt lat="45.19404" lon="-72.53607">
        <ele>301.3</ele>
      </trkpt>
      <trkpt lat="45.19374" lon="-72.53605">
        <ele>302.5</ele>
      </trkpt>
      <trkpt lat="45.19415" lon="-72.53512">
        <ele>303.4</ele>
      </trkpt>
      <trkpt lat="45.19457" lon="-72.5342">
        <ele>304</ele>
      </trkpt>
      <trkpt lat="45.19498" lon="-72.53327">
        <ele>303.2</ele>
      </trkpt>
      <trkpt lat="45.19539" lon="-72.53234">
        <ele>303.9</ele>
      </trkpt>
      <trkpt lat="45.1958" lon="-72.531409">
        <ele>303.9</ele>
      </trkpt>
      <trkpt lat="45.19621" lon="-72.53048">
        <ele>303.6</ele>
      </trkpt>
      <trkpt lat="45.19662" lon="-72.52955">
        <ele>303.9</ele>
      </trkpt>
      <trkpt lat="45.19699" lon="-72.52867">
        <ele>303.9</ele>
      </trkpt>
      <trkpt lat="45.19736" lon="-72.5278">
        <ele>307.1</ele>
      </trkpt>
      <trkpt lat="45.197809" lon="-72.52681">
        <ele>311.9</ele>
      </trkpt>
      <trkpt lat="45.19826" lon="-72.52583">
        <ele>315.6</ele>
      </trkpt>
      <trkpt lat="45.19872" lon="-72.52484">
        <ele>319.2</ele>
      </trkpt>
      <trkpt lat="45.19917" lon="-72.52385">
        <ele>322.2</ele>
      </trkpt>
      <trkpt lat="45.19963" lon="-72.52286">
        <ele>324.7</ele>
      </trkpt>
      <trkpt lat="45.20008" lon="-72.52188">
        <ele>323.5</ele>
      </trkpt>
      <trkpt lat="45.20053" lon="-72.52089">
        <ele>322.6</ele>
      </trkpt>
      <trkpt lat="45.20099" lon="-72.5199">
        <ele>322.7</ele>
      </trkpt>
      <trkpt lat="45.20144" lon="-72.51891">
        <ele>322.3</ele>
      </trkpt>
      <trkpt lat="45.20114" lon="-72.51855">
        <ele>325.7</ele>
      </trkpt>
      <trkpt lat="45.20097" lon="-72.51832">
        <ele>327.9</ele>
      </trkpt>
      <trkpt lat="45.2009" lon="-72.51819">
        <ele>329</ele>
      </trkpt>
      <trkpt lat="45.20079" lon="-72.5179">
        <ele>331.1</ele>
      </trkpt>
      <trkpt lat="45.20061" lon="-72.51729">
        <ele>333.8</ele>
      </trkpt>
      <trkpt lat="45.20042" lon="-72.51669">
        <ele>334.3</ele>
      </trkpt>
      <trkpt lat="45.20034" lon="-72.51649">
        <ele>334.3</ele>
      </trkpt>
      <trkpt lat="45.20027" lon="-72.51636">
        <ele>334.3</ele>
      </trkpt>
      <trkpt lat="45.20018" lon="-72.516319">
        <ele>334.2</ele>
      </trkpt>
      <trkpt lat="45.200069" lon="-72.5163">
        <ele>334.1</ele>
      </trkpt>
      <trkpt lat="45.19923" lon="-72.51633">
        <ele>333.9</ele>
      </trkpt>
      <trkpt lat="45.1984" lon="-72.51635">
        <ele>333.9</ele>
      </trkpt>
      <trkpt lat="45.19757" lon="-72.51638">
        <ele>334.4</ele>
      </trkpt>
      <trkpt lat="45.19677" lon="-72.51639">
        <ele>332.5</ele>
      </trkpt>
      <trkpt lat="45.19596" lon="-72.51639">
        <ele>323</ele>
      </trkpt>
      <trkpt lat="45.19515" lon="-72.5164">
        <ele>312.4</ele>
      </trkpt>
      <trkpt lat="45.19426" lon="-72.51644">
        <ele>304.7</ele>
      </trkpt>
      <trkpt lat="45.19337" lon="-72.51649">
        <ele>303</ele>
      </trkpt>
      <trkpt lat="45.19247" lon="-72.51653">
        <ele>302.5</ele>
      </trkpt>
      <trkpt lat="45.19158" lon="-72.51657">
        <ele>303.3</ele>
      </trkpt>
      <trkpt lat="45.190689" lon="-72.51661">
        <ele>303.4</ele>
      </trkpt>
      <trkpt lat="45.1898" lon="-72.51666">
        <ele>299.8</ele>
      </trkpt>
      <trkpt lat="45.18891" lon="-72.5167">
        <ele>297.4</ele>
      </trkpt>
      <trkpt lat="45.18802" lon="-72.51674">
        <ele>295.2</ele>
      </trkpt>
      <trkpt lat="45.18712" lon="-72.51678">
        <ele>292.5</ele>
      </trkpt>
      <trkpt lat="45.18623" lon="-72.51683">
        <ele>289.6</ele>
      </trkpt>
      <trkpt lat="45.185339" lon="-72.51687">
        <ele>287.1</ele>
      </trkpt>
      <trkpt lat="45.1846" lon="-72.51688">
        <ele>285.6</ele>
      </trkpt>
      <trkpt lat="45.18385" lon="-72.5169">
        <ele>285.2</ele>
      </trkpt>
      <trkpt lat="45.18311" lon="-72.51691">
        <ele>287.3</ele>
      </trkpt>
      <trkpt lat="45.18236" lon="-72.51692">
        <ele>290.6</ele>
      </trkpt>
      <trkpt lat="45.18165" lon="-72.51697">
        <ele>291.3</ele>
      </trkpt>
      <trkpt lat="45.18095" lon="-72.51701">
        <ele>291</ele>
      </trkpt>
      <trkpt lat="45.180259" lon="-72.517">
        <ele>290.6</ele>
      </trkpt>
      <trkpt lat="45.17958" lon="-72.517">
        <ele>289.2</ele>
      </trkpt>
      <trkpt lat="45.1789" lon="-72.51699">
        <ele>287.3</ele>
      </trkpt>
      <trkpt lat="45.17821" lon="-72.51699">
        <ele>284.9</ele>
      </trkpt>
      <trkpt lat="45.17736" lon="-72.51702">
        <ele>280.6</ele>
      </trkpt>
      <trkpt lat="45.17686" lon="-72.51703">
        <ele>277.8</ele>
      </trkpt>
      <trkpt lat="45.17636" lon="-72.51704">
        <ele>275.7</ele>
      </trkpt>
      <trkpt lat="45.1763" lon="-72.51669">
        <ele>275.8</ele>
      </trkpt>
      <trkpt lat="45.17618" lon="-72.5163">
        <ele>275.6</ele>
      </trkpt>
      <trkpt lat="45.17608" lon="-72.51613">
        <ele>275.4</ele>
      </trkpt>
      <trkpt lat="45.17592" lon="-72.51592">
        <ele>275.1</ele>
      </trkpt>
      <trkpt lat="45.17535" lon="-72.51532">
        <ele>274</ele>
      </trkpt>
      <trkpt lat="45.17477" lon="-72.51473">
        <ele>272.4</ele>
      </trkpt>
      <trkpt lat="45.17419" lon="-72.51413">
        <ele>271.8</ele>
      </trkpt>
      <trkpt lat="45.173609" lon="-72.51354">
        <ele>271.1</ele>
      </trkpt>
      <trkpt lat="45.17327" lon="-72.51314">
        <ele>271.1</ele>
      </trkpt>
      <trkpt lat="45.17287" lon="-72.51262">
        <ele>271.3</ele>
      </trkpt>
      <trkpt lat="45.1726" lon="-72.5122">
        <ele>271.8</ele>
      </trkpt>
      <trkpt lat="45.17207" lon="-72.51127">
        <ele>273</ele>
      </trkpt>
      <trkpt lat="45.17196" lon="-72.51104">
        <ele>273.2</ele>
      </trkpt>
      <trkpt lat="45.17157" lon="-72.51011">
        <ele>274.5</ele>
      </trkpt>
      <trkpt lat="45.17123" lon="-72.50917">
        <ele>274.9</ele>
      </trkpt>
      <trkpt lat="45.17103" lon="-72.50843">
        <ele>274.7</ele>
      </trkpt>
      <trkpt lat="45.1709" lon="-72.50801">
        <ele>274.4</ele>
      </trkpt>
      <trkpt lat="45.17061" lon="-72.50687">
        <ele>278.4</ele>
      </trkpt>
      <trkpt lat="45.17033" lon="-72.50574">
        <ele>279.8</ele>
      </trkpt>
      <trkpt lat="45.17004" lon="-72.5046">
        <ele>279.5</ele>
      </trkpt>
      <trkpt lat="45.169759" lon="-72.503469">
        <ele>280.2</ele>
      </trkpt>
      <trkpt lat="45.169469" lon="-72.50233">
        <ele>282.6</ele>
      </trkpt>
      <trkpt lat="45.169379" lon="-72.5018">
        <ele>284.7</ele>
      </trkpt>
      <trkpt lat="45.16935" lon="-72.50149">
        <ele>285.8</ele>
      </trkpt>
      <trkpt lat="45.16931" lon="-72.50055">
        <ele>287.6</ele>
      </trkpt>
      <trkpt lat="45.16927" lon="-72.49961">
        <ele>288.1</ele>
      </trkpt>
      <trkpt lat="45.16921" lon="-72.4989">
        <ele>288.5</ele>
      </trkpt>
      <trkpt lat="45.16916" lon="-72.498189">
        <ele>288.9</ele>
      </trkpt>
      <trkpt lat="45.16837" lon="-72.49822">
        <ele>287</ele>
      </trkpt>
      <trkpt lat="45.167589" lon="-72.49825">
        <ele>284.5</ele>
      </trkpt>
      <trkpt lat="45.16693" lon="-72.49828">
        <ele>282.5</ele>
      </trkpt>
      <trkpt lat="45.16628" lon="-72.49832">
        <ele>281.9</ele>
      </trkpt>
      <trkpt lat="45.165619" lon="-72.49835">
        <ele>284.8</ele>
      </trkpt>
      <trkpt lat="45.16543" lon="-72.49835">
        <ele>285.7</ele>
      </trkpt>
      <trkpt lat="45.16458" lon="-72.49839">
        <ele>289.6</ele>
      </trkpt>
      <trkpt lat="45.16373" lon="-72.49843">
        <ele>295.8</ele>
      </trkpt>
      <trkpt lat="45.16288" lon="-72.49847">
        <ele>301.4</ele>
      </trkpt>
      <trkpt lat="45.16203" lon="-72.4985">
        <ele>307.9</ele>
      </trkpt>
      <trkpt lat="45.16117" lon="-72.49854">
        <ele>316.2</ele>
      </trkpt>
      <trkpt lat="45.16032" lon="-72.49858">
        <ele>325.6</ele>
      </trkpt>
      <trkpt lat="45.15966" lon="-72.4986">
        <ele>332</ele>
      </trkpt>
      <trkpt lat="45.159" lon="-72.49861">
        <ele>334.9</ele>
      </trkpt>
      <trkpt lat="45.15834" lon="-72.49863">
        <ele>335.3</ele>
      </trkpt>
      <trkpt lat="45.15824" lon="-72.49867">
        <ele>335.4</ele>
      </trkpt>
      <trkpt lat="45.15819" lon="-72.49874">
        <ele>335.6</ele>
      </trkpt>
      <trkpt lat="45.15813" lon="-72.49888">
        <ele>335.9</ele>
      </trkpt>
      <trkpt lat="45.15809" lon="-72.49776">
        <ele>335.1</ele>
      </trkpt>
      <trkpt lat="45.15805" lon="-72.49663">
        <ele>336.6</ele>
      </trkpt>
      <trkpt lat="45.15801" lon="-72.4955">
        <ele>341.1</ele>
      </trkpt>
      <trkpt lat="45.15799" lon="-72.4945">
        <ele>342.4</ele>
      </trkpt>
      <trkpt lat="45.15797" lon="-72.4935">
        <ele>342.7</ele>
      </trkpt>
      <trkpt lat="45.15795" lon="-72.4925">
        <ele>345</ele>
      </trkpt>
      <trkpt lat="45.15792" lon="-72.49133">
        <ele>349</ele>
      </trkpt>
      <trkpt lat="45.1579" lon="-72.49017">
        <ele>353</ele>
      </trkpt>
      <trkpt lat="45.15788" lon="-72.489">
        <ele>357.7</ele>
      </trkpt>
      <trkpt lat="45.15786" lon="-72.48783">
        <ele>362.3</ele>
      </trkpt>
      <trkpt lat="45.15784" lon="-72.48766">
        <ele>363.1</ele>
      </trkpt>
      <trkpt lat="45.1578" lon="-72.48757">
        <ele>363.6</ele>
      </trkpt>
      <trkpt lat="45.15773" lon="-72.48751">
        <ele>364.1</ele>
      </trkpt>
      <trkpt lat="45.15764" lon="-72.487489">
        <ele>364.5</ele>
      </trkpt>
      <trkpt lat="45.15694" lon="-72.48777">
        <ele>365.3</ele>
      </trkpt>
      <trkpt lat="45.15664" lon="-72.48777">
        <ele>366.7</ele>
      </trkpt>
      <trkpt lat="45.15604" lon="-72.48772">
        <ele>371.5</ele>
      </trkpt>
      <trkpt lat="45.15519" lon="-72.48771">
        <ele>378.9</ele>
      </trkpt>
      <trkpt lat="45.15477" lon="-72.487799">
        <ele>382</ele>
      </trkpt>
      <trkpt lat="45.15464" lon="-72.48779">
        <ele>383.1</ele>
      </trkpt>
      <trkpt lat="45.15431" lon="-72.48772">
        <ele>386.3</ele>
      </trkpt>
      <trkpt lat="45.15357" lon="-72.48767">
        <ele>392.7</ele>
      </trkpt>
      <trkpt lat="45.15282" lon="-72.48763">
        <ele>396.5</ele>
      </trkpt>
      <trkpt lat="45.15208" lon="-72.48758">
        <ele>398.6</ele>
      </trkpt>
      <trkpt lat="45.15119" lon="-72.48755">
        <ele>400.9</ele>
      </trkpt>
      <trkpt lat="45.1503" lon="-72.48751">
        <ele>403.8</ele>
      </trkpt>
      <trkpt lat="45.14941" lon="-72.48747">
        <ele>406</ele>
      </trkpt>
      <trkpt lat="45.14853" lon="-72.48743">
        <ele>407.2</ele>
      </trkpt>
      <trkpt lat="45.14764" lon="-72.48739">
        <ele>407.8</ele>
      </trkpt>
      <trkpt lat="45.14675" lon="-72.48736">
        <ele>407.3</ele>
      </trkpt>
      <trkpt lat="45.14586" lon="-72.48732">
        <ele>406.2</ele>
      </trkpt>
      <trkpt lat="45.14497" lon="-72.48728">
        <ele>406.5</ele>
      </trkpt>
      <trkpt lat="45.14475" lon="-72.48732">
        <ele>406.7</ele>
      </trkpt>
      <trkpt lat="45.14465" lon="-72.48739">
        <ele>406.4</ele>
      </trkpt>
      <trkpt lat="45.14458" lon="-72.48747">
        <ele>406</ele>
      </trkpt>
      <trkpt lat="45.14452" lon="-72.48759">
        <ele>405.3</ele>
      </trkpt>
      <trkpt lat="45.14446" lon="-72.48787">
        <ele>403.2</ele>
      </trkpt>
      <trkpt lat="45.14444" lon="-72.48812">
        <ele>401.4</ele>
      </trkpt>
      <trkpt lat="45.14444" lon="-72.48868">
        <ele>397.5</ele>
      </trkpt>
      <trkpt lat="45.14444" lon="-72.48881">
        <ele>396.7</ele>
      </trkpt>
      <trkpt lat="45.14439" lon="-72.48902">
        <ele>395.7</ele>
      </trkpt>
      <trkpt lat="45.14398" lon="-72.48966">
        <ele>394</ele>
      </trkpt>
      <trkpt lat="45.14393" lon="-72.48976">
        <ele>393.7</ele>
      </trkpt>
      <trkpt lat="45.1439" lon="-72.48998">
        <ele>392.6</ele>
      </trkpt>
      <trkpt lat="45.14389" lon="-72.49086">
        <ele>387</ele>
      </trkpt>
      <trkpt lat="45.14393" lon="-72.49208">
        <ele>378.5</ele>
      </trkpt>
      <trkpt lat="45.14397" lon="-72.4933">
        <ele>370.8</ele>
      </trkpt>
      <trkpt lat="45.14401" lon="-72.49452">
        <ele>361.9</ele>
      </trkpt>
      <trkpt lat="45.14405" lon="-72.49574">
        <ele>351</ele>
      </trkpt>
      <trkpt lat="45.14409" lon="-72.49695">
        <ele>341.8</ele>
      </trkpt>
      <trkpt lat="45.14414" lon="-72.49817">
        <ele>336.1</ele>
      </trkpt>
      <trkpt lat="45.14415" lon="-72.49898">
        <ele>335.1</ele>
      </trkpt>
      <trkpt lat="45.14417" lon="-72.499799">
        <ele>332.8</ele>
      </trkpt>
      <trkpt lat="45.14412" lon="-72.50023">
        <ele>331.4</ele>
      </trkpt>
      <trkpt lat="45.14411" lon="-72.50066">
        <ele>329.8</ele>
      </trkpt>
      <trkpt lat="45.1442" lon="-72.50117">
        <ele>327.7</ele>
      </trkpt>
      <trkpt lat="45.14424" lon="-72.50157">
        <ele>325.8</ele>
      </trkpt>
      <trkpt lat="45.14431" lon="-72.50239">
        <ele>321.4</ele>
      </trkpt>
      <trkpt lat="45.14432" lon="-72.50311">
        <ele>316.6</ele>
      </trkpt>
      <trkpt lat="45.14434" lon="-72.50396">
        <ele>309.1</ele>
      </trkpt>
      <trkpt lat="45.14437" lon="-72.50482">
        <ele>304</ele>
      </trkpt>
      <trkpt lat="45.1444" lon="-72.505979">
        <ele>303.7</ele>
      </trkpt>
      <trkpt lat="45.14443" lon="-72.50715">
        <ele>303.8</ele>
      </trkpt>
      <trkpt lat="45.14446" lon="-72.50831">
        <ele>304</ele>
      </trkpt>
      <trkpt lat="45.14449" lon="-72.50948">
        <ele>303.9</ele>
      </trkpt>
      <trkpt lat="45.14454" lon="-72.51071">
        <ele>303.4</ele>
      </trkpt>
      <trkpt lat="45.144599" lon="-72.51195">
        <ele>302.6</ele>
      </trkpt>
      <trkpt lat="45.14467" lon="-72.51288">
        <ele>301.3</ele>
      </trkpt>
      <trkpt lat="45.14474" lon="-72.51327">
        <ele>300.7</ele>
      </trkpt>
      <trkpt lat="45.14474" lon="-72.51356">
        <ele>300.3</ele>
      </trkpt>
      <trkpt lat="45.14471" lon="-72.51391">
        <ele>299.7</ele>
      </trkpt>
      <trkpt lat="45.14472" lon="-72.51457">
        <ele>298.5</ele>
      </trkpt>
      <trkpt lat="45.14484" lon="-72.5155">
        <ele>296.5</ele>
      </trkpt>
      <trkpt lat="45.14477" lon="-72.51606">
        <ele>294.4</ele>
      </trkpt>
      <trkpt lat="45.14474" lon="-72.51651">
        <ele>292.3</ele>
      </trkpt>
      <trkpt lat="45.14478" lon="-72.51751">
        <ele>288.5</ele>
      </trkpt>
      <trkpt lat="45.14479" lon="-72.51825">
        <ele>285.1</ele>
      </trkpt>
      <trkpt lat="45.144889" lon="-72.51919">
        <ele>275.6</ele>
      </trkpt>
      <trkpt lat="45.14493" lon="-72.51973">
        <ele>273.2</ele>
      </trkpt>
      <trkpt lat="45.14487" lon="-72.52015">
        <ele>272.5</ele>
      </trkpt>
      <trkpt lat="45.14477" lon="-72.52051">
        <ele>271.5</ele>
      </trkpt>
      <trkpt lat="45.14469" lon="-72.521199">
        <ele>268.4</ele>
      </trkpt>
      <trkpt lat="45.14461" lon="-72.52189">
        <ele>264.3</ele>
      </trkpt>
      <trkpt lat="45.14454" lon="-72.52301">
        <ele>256.8</ele>
      </trkpt>
      <trkpt lat="45.1445" lon="-72.524">
        <ele>248.8</ele>
      </trkpt>
      <trkpt lat="45.14445" lon="-72.525">
        <ele>243.3</ele>
      </trkpt>
      <trkpt lat="45.14445" lon="-72.525989">
        <ele>242.7</ele>
      </trkpt>
      <trkpt lat="45.14447" lon="-72.52645">
        <ele>243.6</ele>
      </trkpt>
      <trkpt lat="45.14457" lon="-72.52732">
        <ele>244.2</ele>
      </trkpt>
      <trkpt lat="45.14459" lon="-72.52746">
        <ele>244.3</ele>
      </trkpt>
      <trkpt lat="45.14468" lon="-72.52801">
        <ele>244.8</ele>
      </trkpt>
      <trkpt lat="45.14469" lon="-72.52842">
        <ele>244.8</ele>
      </trkpt>
      <trkpt lat="45.144889" lon="-72.52953">
        <ele>242.5</ele>
      </trkpt>
      <trkpt lat="45.14499" lon="-72.52983">
        <ele>241.7</ele>
      </trkpt>
      <trkpt lat="45.14516" lon="-72.53019">
        <ele>240.8</ele>
      </trkpt>
      <trkpt lat="45.14551" lon="-72.53124">
        <ele>241.9</ele>
      </trkpt>
      <trkpt lat="45.14588" lon="-72.53214">
        <ele>244.1</ele>
      </trkpt>
      <trkpt lat="45.14625" lon="-72.53305">
        <ele>244.3</ele>
      </trkpt>
      <trkpt lat="45.14663" lon="-72.53395">
        <ele>242.9</ele>
      </trkpt>
      <trkpt lat="45.14671" lon="-72.53421">
        <ele>242.5</ele>
      </trkpt>
      <trkpt lat="45.146769" lon="-72.53448">
        <ele>242.2</ele>
      </trkpt>
      <trkpt lat="45.1468" lon="-72.535169">
        <ele>242.1</ele>
      </trkpt>
      <trkpt lat="45.14666" lon="-72.53544">
        <ele>242.8</ele>
      </trkpt>
      <trkpt lat="45.14661" lon="-72.53572">
        <ele>243.1</ele>
      </trkpt>
      <trkpt lat="45.14655" lon="-72.53632">
        <ele>243.4</ele>
      </trkpt>
      <trkpt lat="45.14653" lon="-72.536959">
        <ele>243.1</ele>
      </trkpt>
      <trkpt lat="45.14653" lon="-72.53707">
        <ele>242.9</ele>
      </trkpt>
      <trkpt lat="45.14649" lon="-72.53762">
        <ele>242.5</ele>
      </trkpt>
      <trkpt lat="45.14634" lon="-72.53846">
        <ele>242.5</ele>
      </trkpt>
      <trkpt lat="45.14619" lon="-72.53931">
        <ele>242.5</ele>
      </trkpt>
      <trkpt lat="45.1459" lon="-72.53993">
        <ele>243.4</ele>
      </trkpt>
      <trkpt lat="45.14572" lon="-72.54018">
        <ele>245.7</ele>
      </trkpt>
      <trkpt lat="45.14568" lon="-72.54025">
        <ele>246.7</ele>
      </trkpt>
      <trkpt lat="45.14558" lon="-72.54124">
        <ele>254.8</ele>
      </trkpt>
      <trkpt lat="45.14561" lon="-72.5419">
        <ele>258.3</ele>
      </trkpt>
      <trkpt lat="45.14562" lon="-72.54242">
        <ele>261.8</ele>
      </trkpt>
      <trkpt lat="45.14551" lon="-72.54361">
        <ele>270.4</ele>
      </trkpt>
      <trkpt lat="45.14542" lon="-72.54437">
        <ele>273.5</ele>
      </trkpt>
      <trkpt lat="45.1454" lon="-72.54442">
        <ele>273.6</ele>
      </trkpt>
      <trkpt lat="45.14531" lon="-72.54452">
        <ele>273.9</ele>
      </trkpt>
      <trkpt lat="45.145269" lon="-72.54453">
        <ele>274</ele>
      </trkpt>
      <trkpt lat="45.14514" lon="-72.54464">
        <ele>274.7</ele>
      </trkpt>
      <trkpt lat="45.145" lon="-72.54487">
        <ele>276</ele>
      </trkpt>
      <trkpt lat="45.14485" lon="-72.54546">
        <ele>279.5</ele>
      </trkpt>
      <trkpt lat="45.14477" lon="-72.546">
        <ele>282.7</ele>
      </trkpt>
      <trkpt lat="45.14474" lon="-72.54632">
        <ele>284.4</ele>
      </trkpt>
      <trkpt lat="45.144799" lon="-72.54688">
        <ele>286.2</ele>
      </trkpt>
      <trkpt lat="45.14487" lon="-72.54727">
        <ele>287.3</ele>
      </trkpt>
      <trkpt lat="45.14488" lon="-72.5481">
        <ele>290.8</ele>
      </trkpt>
      <trkpt lat="45.144889" lon="-72.54894">
        <ele>294.9</ele>
      </trkpt>
      <trkpt lat="45.1449" lon="-72.54967">
        <ele>300</ele>
      </trkpt>
      <trkpt lat="45.14494" lon="-72.54994">
        <ele>301.7</ele>
      </trkpt>
      <trkpt lat="45.14494" lon="-72.55025">
        <ele>303.1</ele>
      </trkpt>
      <trkpt lat="45.144979" lon="-72.55052">
        <ele>303.4</ele>
      </trkpt>
      <trkpt lat="45.145069" lon="-72.5509">
        <ele>303.3</ele>
      </trkpt>
      <trkpt lat="45.14514" lon="-72.55157">
        <ele>303.4</ele>
      </trkpt>
      <trkpt lat="45.14509" lon="-72.55223">
        <ele>303.7</ele>
      </trkpt>
      <trkpt lat="45.14512" lon="-72.55235">
        <ele>303.6</ele>
      </trkpt>
      <trkpt lat="45.14514" lon="-72.55283">
        <ele>303.7</ele>
      </trkpt>
      <trkpt lat="45.14519" lon="-72.55299">
        <ele>303.7</ele>
      </trkpt>
      <trkpt lat="45.14531" lon="-72.5532">
        <ele>303.8</ele>
      </trkpt>
      <trkpt lat="45.14541" lon="-72.55345">
        <ele>303.9</ele>
      </trkpt>
      <trkpt lat="45.14548" lon="-72.55382">
        <ele>303.9</ele>
      </trkpt>
      <trkpt lat="45.1455" lon="-72.55404">
        <ele>303.9</ele>
      </trkpt>
      <trkpt lat="45.1455" lon="-72.55439">
        <ele>303.9</ele>
      </trkpt>
      <trkpt lat="45.14548" lon="-72.55467">
        <ele>303.9</ele>
      </trkpt>
      <trkpt lat="45.145449" lon="-72.5549">
        <ele>303.9</ele>
      </trkpt>
      <trkpt lat="45.14518" lon="-72.5559">
        <ele>303.9</ele>
      </trkpt>
      <trkpt lat="45.14509" lon="-72.55647">
        <ele>303.9</ele>
      </trkpt>
      <trkpt lat="45.14513" lon="-72.556839">
        <ele>303.8</ele>
      </trkpt>
      <trkpt lat="45.14522" lon="-72.55713">
        <ele>303.6</ele>
      </trkpt>
      <trkpt lat="45.14526" lon="-72.55746">
        <ele>303</ele>
      </trkpt>
      <trkpt lat="45.14522" lon="-72.5579">
        <ele>301.8</ele>
      </trkpt>
      <trkpt lat="45.14521" lon="-72.55849">
        <ele>300</ele>
      </trkpt>
      <trkpt lat="45.14522" lon="-72.55866">
        <ele>299.6</ele>
      </trkpt>
      <trkpt lat="45.14524" lon="-72.55882">
        <ele>299.3</ele>
      </trkpt>
      <trkpt lat="45.14569" lon="-72.55945">
        <ele>297.7</ele>
      </trkpt>
      <trkpt lat="45.14582" lon="-72.55968">
        <ele>296.7</ele>
      </trkpt>
      <trkpt lat="45.145919" lon="-72.55994">
        <ele>295.4</ele>
      </trkpt>
      <trkpt lat="45.14603" lon="-72.56014">
        <ele>294.4</ele>
      </trkpt>
      <trkpt lat="45.146099" lon="-72.5603">
        <ele>293.6</ele>
      </trkpt>
      <trkpt lat="45.14618" lon="-72.560599">
        <ele>292.1</ele>
      </trkpt>
      <trkpt lat="45.14624" lon="-72.56108">
        <ele>290.1</ele>
      </trkpt>
      <trkpt lat="45.14627" lon="-72.561179">
        <ele>289.7</ele>
      </trkpt>
      <trkpt lat="45.146299" lon="-72.56161">
        <ele>288.2</ele>
      </trkpt>
      <trkpt lat="45.14638" lon="-72.5622">
        <ele>285.6</ele>
      </trkpt>
      <trkpt lat="45.1464" lon="-72.56225">
        <ele>285.4</ele>
      </trkpt>
      <trkpt lat="45.14641" lon="-72.56255">
        <ele>283.9</ele>
      </trkpt>
      <trkpt lat="45.146389" lon="-72.56272">
        <ele>283.1</ele>
      </trkpt>
      <trkpt lat="45.14644" lon="-72.56313">
        <ele>281.1</ele>
      </trkpt>
      <trkpt lat="45.14651" lon="-72.56422">
        <ele>274.7</ele>
      </trkpt>
      <trkpt lat="45.14654" lon="-72.56488">
        <ele>273.7</ele>
      </trkpt>
      <trkpt lat="45.14658" lon="-72.56554">
        <ele>273.4</ele>
      </trkpt>
      <trkpt lat="45.14667" lon="-72.566059">
        <ele>272.7</ele>
      </trkpt>
      <trkpt lat="45.14667" lon="-72.56623">
        <ele>272.5</ele>
      </trkpt>
      <trkpt lat="45.14659" lon="-72.56664">
        <ele>272.1</ele>
      </trkpt>
      <trkpt lat="45.14656" lon="-72.566909">
        <ele>271.7</ele>
      </trkpt>
      <trkpt lat="45.14656" lon="-72.56788">
        <ele>269</ele>
      </trkpt>
      <trkpt lat="45.14659" lon="-72.56823">
        <ele>267.7</ele>
      </trkpt>
      <trkpt lat="45.14653" lon="-72.56869">
        <ele>266.4</ele>
      </trkpt>
      <trkpt lat="45.14653" lon="-72.56895">
        <ele>265.7</ele>
      </trkpt>
      <trkpt lat="45.14656" lon="-72.56923">
        <ele>264.8</ele>
      </trkpt>
      <trkpt lat="45.14666" lon="-72.56962">
        <ele>263.4</ele>
      </trkpt>
      <trkpt lat="45.14673" lon="-72.57024">
        <ele>261.1</ele>
      </trkpt>
      <trkpt lat="45.14673" lon="-72.57093">
        <ele>258.6</ele>
      </trkpt>
      <trkpt lat="45.146769" lon="-72.57189">
        <ele>255.1</ele>
      </trkpt>
      <trkpt lat="45.1468" lon="-72.57285">
        <ele>251.5</ele>
      </trkpt>
      <trkpt lat="45.14682" lon="-72.57386">
        <ele>248.1</ele>
      </trkpt>
      <trkpt lat="45.14683" lon="-72.57486">
        <ele>244.9</ele>
      </trkpt>
      <trkpt lat="45.14685" lon="-72.57586">
        <ele>241.5</ele>
      </trkpt>
      <trkpt lat="45.146859" lon="-72.57686">
        <ele>238.4</ele>
      </trkpt>
      <trkpt lat="45.1469" lon="-72.57803">
        <ele>235.2</ele>
      </trkpt>
      <trkpt lat="45.14709" lon="-72.57768">
        <ele>235.8</ele>
      </trkpt>
      <trkpt lat="45.14749" lon="-72.57688">
        <ele>238.2</ele>
      </trkpt>
      <trkpt lat="45.14788" lon="-72.57607">
        <ele>240.3</ele>
      </trkpt>
      <trkpt lat="45.14828" lon="-72.57527">
        <ele>242.2</ele>
      </trkpt>
      <trkpt lat="45.14867" lon="-72.57447">
        <ele>246.3</ele>
      </trkpt>
      <trkpt lat="45.14902" lon="-72.57377">
        <ele>250.4</ele>
      </trkpt>
      <trkpt lat="45.14937" lon="-72.57307">
        <ele>253.7</ele>
      </trkpt>
      <trkpt lat="45.149859" lon="-72.57211">
        <ele>258.4</ele>
      </trkpt>
      <trkpt lat="45.15036" lon="-72.57114">
        <ele>263.3</ele>
      </trkpt>
      <trkpt lat="45.15054" lon="-72.57083">
        <ele>264.8</ele>
      </trkpt>
      <trkpt lat="45.15064" lon="-72.57071">
        <ele>265.4</ele>
      </trkpt>
      <trkpt lat="45.15078" lon="-72.57064">
        <ele>265.7</ele>
      </trkpt>
      <trkpt lat="45.15104" lon="-72.57057">
        <ele>265.9</ele>
      </trkpt>
      <trkpt lat="45.15133" lon="-72.57055">
        <ele>265.7</ele>
      </trkpt>
      <trkpt lat="45.15203" lon="-72.57058">
        <ele>264.3</ele>
      </trkpt>
      <trkpt lat="45.15272" lon="-72.5706">
        <ele>262.5</ele>
      </trkpt>
      <trkpt lat="45.15317" lon="-72.57064">
        <ele>261.3</ele>
      </trkpt>
      <trkpt lat="45.153619" lon="-72.57068">
        <ele>260.5</ele>
      </trkpt>
      <trkpt lat="45.154359" lon="-72.57069">
        <ele>259.3</ele>
      </trkpt>
      <trkpt lat="45.15509" lon="-72.57071">
        <ele>257.2</ele>
      </trkpt>
      <trkpt lat="45.15583" lon="-72.57072">
        <ele>254.4</ele>
      </trkpt>
      <trkpt lat="45.15657" lon="-72.57073">
        <ele>250.8</ele>
      </trkpt>
      <trkpt lat="45.15733" lon="-72.57076">
        <ele>246.9</ele>
      </trkpt>
      <trkpt lat="45.15809" lon="-72.57079">
        <ele>243.1</ele>
      </trkpt>
      <trkpt lat="45.15885" lon="-72.57082">
        <ele>239.3</ele>
      </trkpt>
      <trkpt lat="45.15961" lon="-72.570849">
        <ele>236.7</ele>
      </trkpt>
      <trkpt lat="45.16001" lon="-72.57082">
        <ele>235.7</ele>
      </trkpt>
      <trkpt lat="45.1606" lon="-72.57062">
        <ele>234.4</ele>
      </trkpt>
      <trkpt lat="45.16115" lon="-72.5704">
        <ele>233.5</ele>
      </trkpt>
      <trkpt lat="45.16144" lon="-72.57022">
        <ele>233</ele>
      </trkpt>
      <trkpt lat="45.16187" lon="-72.569999">
        <ele>232.3</ele>
      </trkpt>
      <trkpt lat="45.16229" lon="-72.56978">
        <ele>231.6</ele>
      </trkpt>
      <trkpt lat="45.16296" lon="-72.56939">
        <ele>230.4</ele>
      </trkpt>
      <trkpt lat="45.16364" lon="-72.569">
        <ele>228.7</ele>
      </trkpt>
      <trkpt lat="45.16431" lon="-72.56862">
        <ele>226.5</ele>
      </trkpt>
      <trkpt lat="45.16499" lon="-72.56823">
        <ele>224.9</ele>
      </trkpt>
      <trkpt lat="45.16559" lon="-72.5679">
        <ele>222.8</ele>
      </trkpt>
      <trkpt lat="45.16619" lon="-72.56757">
        <ele>219.9</ele>
      </trkpt>
      <trkpt lat="45.1666" lon="-72.56729">
        <ele>217.7</ele>
      </trkpt>
      <trkpt lat="45.16671" lon="-72.56719">
        <ele>217.2</ele>
      </trkpt>
      <trkpt lat="45.16707" lon="-72.56698">
        <ele>215.5</ele>
      </trkpt>
      <trkpt lat="45.16753" lon="-72.56682">
        <ele>213.7</ele>
      </trkpt>
      <trkpt lat="45.16798" lon="-72.56665">
        <ele>211.8</ele>
      </trkpt>
      <trkpt lat="45.16863" lon="-72.56646">
        <ele>209.7</ele>
      </trkpt>
      <trkpt lat="45.16927" lon="-72.56627">
        <ele>207.5</ele>
      </trkpt>
      <trkpt lat="45.16991" lon="-72.56608">
        <ele>207.2</ele>
      </trkpt>
      <trkpt lat="45.17002" lon="-72.56604">
        <ele>207.2</ele>
      </trkpt>
      <trkpt lat="45.17011" lon="-72.56599">
        <ele>207.1</ele>
      </trkpt>
      <trkpt lat="45.1706" lon="-72.56578">
        <ele>207</ele>
      </trkpt>
      <trkpt lat="45.17077" lon="-72.56567">
        <ele>208</ele>
      </trkpt>
      <trkpt lat="45.17098" lon="-72.56551">
        <ele>209.3</ele>
      </trkpt>
      <trkpt lat="45.17133" lon="-72.56519">
        <ele>210.5</ele>
      </trkpt>
      <trkpt lat="45.17152" lon="-72.565029">
        <ele>210.9</ele>
      </trkpt>
      <trkpt lat="45.17209" lon="-72.56473">
        <ele>212.2</ele>
      </trkpt>
      <trkpt lat="45.172759" lon="-72.56442">
        <ele>212.9</ele>
      </trkpt>
      <trkpt lat="45.17343" lon="-72.56412">
        <ele>212.9</ele>
      </trkpt>
      <trkpt lat="45.17409" lon="-72.56382">
        <ele>212.8</ele>
      </trkpt>
      <trkpt lat="45.17476" lon="-72.563509">
        <ele>212.1</ele>
      </trkpt>
      <trkpt lat="45.17496" lon="-72.56348">
        <ele>212</ele>
      </trkpt>
      <trkpt lat="45.17535" lon="-72.563509">
        <ele>211.8</ele>
      </trkpt>
      <trkpt lat="45.17548" lon="-72.56354">
        <ele>211.8</ele>
      </trkpt>
      <trkpt lat="45.17618" lon="-72.56382">
        <ele>211.8</ele>
      </trkpt>
      <trkpt lat="45.17659" lon="-72.56394">
        <ele>211.8</ele>
      </trkpt>
      <trkpt lat="45.177169" lon="-72.56404">
        <ele>211.8</ele>
      </trkpt>
      <trkpt lat="45.1776" lon="-72.564089">
        <ele>211.9</ele>
      </trkpt>
      <trkpt lat="45.17838" lon="-72.56406">
        <ele>212</ele>
      </trkpt>
      <trkpt lat="45.17916" lon="-72.56403">
        <ele>212</ele>
      </trkpt>
      <trkpt lat="45.18005" lon="-72.56397">
        <ele>212.3</ele>
      </trkpt>
      <trkpt lat="45.18063" lon="-72.56385">
        <ele>212.8</ele>
      </trkpt>
      <trkpt lat="45.181489" lon="-72.56364">
        <ele>212.7</ele>
      </trkpt>
      <trkpt lat="45.18234" lon="-72.563419">
        <ele>212.7</ele>
      </trkpt>
      <trkpt lat="45.18319" lon="-72.56321">
        <ele>212.2</ele>
      </trkpt>
      <trkpt lat="45.18379" lon="-72.56304">
        <ele>212.1</ele>
      </trkpt>
      <trkpt lat="45.18438" lon="-72.56286">
        <ele>211.8</ele>
      </trkpt>
      <trkpt lat="45.18498" lon="-72.56269">
        <ele>211.6</ele>
      </trkpt>
      <trkpt lat="45.18572" lon="-72.56246">
        <ele>211</ele>
      </trkpt>
      <trkpt lat="45.186459" lon="-72.56223">
        <ele>209.7</ele>
      </trkpt>
      <trkpt lat="45.1872" lon="-72.562">
        <ele>208.2</ele>
      </trkpt>
      <trkpt lat="45.18794" lon="-72.56176">
        <ele>208</ele>
      </trkpt>
      <trkpt lat="45.18802" lon="-72.56174">
        <ele>208</ele>
      </trkpt>
      <trkpt lat="45.18844" lon="-72.56158">
        <ele>207.9</ele>
      </trkpt>
      <trkpt lat="45.18879" lon="-72.56137">
        <ele>209.9</ele>
      </trkpt>
      <trkpt lat="45.188519" lon="-72.56058">
        <ele>211.8</ele>
      </trkpt>
      <trkpt lat="45.18826" lon="-72.55979">
        <ele>212.5</ele>
      </trkpt>
      <trkpt lat="45.18799" lon="-72.55901">
        <ele>212.7</ele>
      </trkpt>
      <trkpt lat="45.18774" lon="-72.558179">
        <ele>212.9</ele>
      </trkpt>
      <trkpt lat="45.18765" lon="-72.55776">
        <ele>212.9</ele>
      </trkpt>
      <trkpt lat="45.1876" lon="-72.55747">
        <ele>212.9</ele>
      </trkpt>
      <trkpt lat="45.18757" lon="-72.55717">
        <ele>212.8</ele>
      </trkpt>
      <trkpt lat="45.18756" lon="-72.55655">
        <ele>213</ele>
      </trkpt>
      <trkpt lat="45.187579" lon="-72.55607">
        <ele>213.3</ele>
      </trkpt>
      <trkpt lat="45.18765" lon="-72.55543">
        <ele>213.7</ele>
      </trkpt>
      <trkpt lat="45.18769" lon="-72.55467">
        <ele>214</ele>
      </trkpt>
      <trkpt lat="45.18774" lon="-72.5539">
        <ele>214.8</ele>
      </trkpt>
      <trkpt lat="45.18781" lon="-72.55309">
        <ele>215.2</ele>
      </trkpt>
      <trkpt lat="45.18784" lon="-72.55233">
        <ele>216.2</ele>
      </trkpt>
      <trkpt lat="45.187869" lon="-72.55108">
        <ele>221.6</ele>
      </trkpt>
      <trkpt lat="45.187869" lon="-72.55006">
        <ele>235.1</ele>
      </trkpt>
      <trkpt lat="45.187869" lon="-72.54904">
        <ele>239.3</ele>
      </trkpt>
      <trkpt lat="45.187869" lon="-72.548019">
        <ele>241.2</ele>
      </trkpt>
      <trkpt lat="45.18832" lon="-72.54726">
        <ele>242.3</ele>
      </trkpt>
      <trkpt lat="45.18877" lon="-72.54649">
        <ele>243.4</ele>
      </trkpt>
      <trkpt lat="45.18922" lon="-72.54573">
        <ele>247.5</ele>
      </trkpt>
      <trkpt lat="45.18954" lon="-72.54497">
        <ele>252.2</ele>
      </trkpt>
      <trkpt lat="45.18986" lon="-72.54421">
        <ele>257.5</ele>
      </trkpt>
      <trkpt lat="45.19005" lon="-72.54353">
        <ele>262.9</ele>
      </trkpt>
      <trkpt lat="45.19016" lon="-72.54301">
        <ele>268.8</ele>
      </trkpt>
      <trkpt lat="45.19029" lon="-72.54215">
        <ele>277</ele>
      </trkpt>
      <trkpt lat="45.19038" lon="-72.54171">
        <ele>280.4</ele>
      </trkpt>
      <trkpt lat="45.190489" lon="-72.54136">
        <ele>284</ele>
      </trkpt>
      <trkpt lat="45.19082" lon="-72.540809">
        <ele>291.8</ele>
      </trkpt>
      <trkpt lat="45.191249" lon="-72.54007">
        <ele>299.3</ele>
      </trkpt>
      <trkpt lat="45.19169" lon="-72.53934">
        <ele>302</ele>
      </trkpt>
      <trkpt lat="45.19213" lon="-72.5386">
        <ele>302.3</ele>
      </trkpt>
      <trkpt lat="45.19269" lon="-72.5378">
        <ele>302.3</ele>
      </trkpt>
      <trkpt lat="45.19325" lon="-72.53701">
        <ele>302.6</ele>
      </trkpt>
      <trkpt lat="45.19347" lon="-72.5366">
        <ele>302.7</ele>
      </trkpt>
      <trkpt lat="45.19374" lon="-72.53605">
        <ele>302.5</ele>
      </trkpt>
      <trkpt lat="45.19423" lon="-72.53609">
        <ele>300.1</ele>
      </trkpt>
      <trkpt lat="45.19499" lon="-72.53609">
        <ele>294.7</ele>
      </trkpt>
      <trkpt lat="45.195749" lon="-72.5361">
        <ele>290</ele>
      </trkpt>
      <trkpt lat="45.19587" lon="-72.53612">
        <ele>289.2</ele>
      </trkpt>
      <trkpt lat="45.196129" lon="-72.53635">
        <ele>286.6</ele>
      </trkpt>
      <trkpt lat="45.19662" lon="-72.53682">
        <ele>281</ele>
      </trkpt>
      <trkpt lat="45.19682" lon="-72.53697">
        <ele>278.8</ele>
      </trkpt>
      <trkpt lat="45.19711" lon="-72.5371">
        <ele>276.3</ele>
      </trkpt>
      <trkpt lat="45.197339" lon="-72.53712">
        <ele>274.9</ele>
      </trkpt>
      <trkpt lat="45.197629" lon="-72.53707">
        <ele>273.9</ele>
      </trkpt>
      <trkpt lat="45.19783" lon="-72.53694">
        <ele>273.8</ele>
      </trkpt>
      <trkpt lat="45.198" lon="-72.53674">
        <ele>274.3</ele>
      </trkpt>
      <trkpt lat="45.19834" lon="-72.53617">
        <ele>275.7</ele>
      </trkpt>
      <trkpt lat="45.19847" lon="-72.536">
        <ele>275.9</ele>
      </trkpt>
      <trkpt lat="45.19871" lon="-72.53586">
        <ele>275.5</ele>
      </trkpt>
      <trkpt lat="45.19895" lon="-72.53579">
        <ele>274.8</ele>
      </trkpt>
      <trkpt lat="45.19921" lon="-72.5358">
        <ele>273.6</ele>
      </trkpt>
      <trkpt lat="45.19954" lon="-72.53577">
        <ele>271.8</ele>
      </trkpt>
      <trkpt lat="45.20032" lon="-72.53577">
        <ele>267.4</ele>
      </trkpt>
      <trkpt lat="45.201099" lon="-72.53577">
        <ele>264.1</ele>
      </trkpt>
      <trkpt lat="45.20142" lon="-72.53581">
        <ele>262.8</ele>
      </trkpt>
      <trkpt lat="45.20183" lon="-72.535929">
        <ele>260.7</ele>
      </trkpt>
      <trkpt lat="45.20192" lon="-72.535929">
        <ele>260.3</ele>
      </trkpt>
      <trkpt lat="45.20212" lon="-72.53592">
        <ele>259.4</ele>
      </trkpt>
      <trkpt lat="45.202509" lon="-72.53579">
        <ele>257.8</ele>
      </trkpt>
      <trkpt lat="45.20271" lon="-72.53576">
        <ele>256.8</ele>
      </trkpt>
      <trkpt lat="45.2028" lon="-72.53576">
        <ele>256.3</ele>
      </trkpt>
      <trkpt lat="45.2034" lon="-72.53587">
        <ele>252.2</ele>
      </trkpt>
      <trkpt lat="45.20424" lon="-72.53583">
        <ele>247.5</ele>
      </trkpt>
      <trkpt lat="45.20509" lon="-72.53579">
        <ele>243.1</ele>
      </trkpt>
      <trkpt lat="45.20569" lon="-72.53582">
        <ele>239.6</ele>
      </trkpt>
      <trkpt lat="45.20638" lon="-72.53583">
        <ele>236.1</ele>
      </trkpt>
      <trkpt lat="45.20706" lon="-72.53585">
        <ele>232.4</ele>
      </trkpt>
      <trkpt lat="45.20775" lon="-72.53586">
        <ele>228.1</ele>
      </trkpt>
      <trkpt lat="45.20843" lon="-72.53588">
        <ele>223.9</ele>
      </trkpt>
      <trkpt lat="45.20928" lon="-72.53589">
        <ele>218.8</ele>
      </trkpt>
      <trkpt lat="45.21012" lon="-72.5359">
        <ele>214.9</ele>
      </trkpt>
      <trkpt lat="45.21084" lon="-72.53592">
        <ele>212.9</ele>
      </trkpt>
      <trkpt lat="45.21156" lon="-72.53595">
        <ele>212.9</ele>
      </trkpt>
      <trkpt lat="45.21176" lon="-72.53474">
        <ele>212.9</ele>
      </trkpt>
      <trkpt lat="45.21197" lon="-72.53354">
        <ele>212.9</ele>
      </trkpt>
      <trkpt lat="45.212649" lon="-72.533779">
        <ele>212.7</ele>
      </trkpt>
      <trkpt lat="45.21334" lon="-72.53403">
        <ele>211.8</ele>
      </trkpt>
      <trkpt lat="45.2135" lon="-72.53407">
        <ele>211.6</ele>
      </trkpt>
      <trkpt lat="45.21357" lon="-72.53403">
        <ele>211.5</ele>
      </trkpt>
      <trkpt lat="45.21362" lon="-72.53398">
        <ele>211.4</ele>
      </trkpt>
      <trkpt lat="45.21423" lon="-72.53324">
        <ele>210.7</ele>
      </trkpt>
      <trkpt lat="45.21483" lon="-72.53251">
        <ele>210</ele>
      </trkpt>
      <trkpt lat="45.21543" lon="-72.53177">
        <ele>209.3</ele>
      </trkpt>
      <trkpt lat="45.21603" lon="-72.53104">
        <ele>208.6</ele>
      </trkpt>
      <trkpt lat="45.21664" lon="-72.5303">
        <ele>207.8</ele>
      </trkpt>
      <trkpt lat="45.217239" lon="-72.52957">
        <ele>207</ele>
      </trkpt>
      <trkpt lat="45.21784" lon="-72.52883">
        <ele>206.3</ele>
      </trkpt>
      <trkpt lat="45.21844" lon="-72.52808">
        <ele>205.8</ele>
      </trkpt>
      <trkpt lat="45.21904" lon="-72.52732">
        <ele>204.9</ele>
      </trkpt>
      <trkpt lat="45.21964" lon="-72.52656">
        <ele>204.2</ele>
      </trkpt>
      <trkpt lat="45.22029" lon="-72.52584">
        <ele>203.5</ele>
      </trkpt>
      <trkpt lat="45.22094" lon="-72.52513">
        <ele>202.6</ele>
      </trkpt>
      <trkpt lat="45.22113" lon="-72.52583">
        <ele>202.5</ele>
      </trkpt>
      <trkpt lat="45.22133" lon="-72.526529">
        <ele>203</ele>
      </trkpt>
    </trkseg>
  </trk>
</gpx>