<?xml version='1.0' encoding='utf-8'?>
<gpx xmlns="http://www.topografix.com/GPX/1/1" xmlns:xsi="http://www.w3.org/2001/XMLSchema-instance" version="1.1" creator="Gravelle Estrie" xsi:schemaLocation="http://www.topografix.com/GPX/1/1 http://www.topografix.com/GPX/1/1/gpx.xsd">
  <metadata>
    <name>Back on Track</name>
  </metadata>
  <trk>
    <name>Back on Track</name>
    <trkseg>
      <trkpt lat="45.22234" lon="-72.53307">
        <ele>201.9</ele>
      </trkpt>
      <trkpt lat="45.222316" lon="-72.532186">
        <ele>202.2</ele>
      </trkpt>
      <trkpt lat="45.222293" lon="-72.531303">
        <ele>202.4</ele>
      </trkpt>
      <trkpt lat="45.22227" lon="-72.53042">
        <ele>202.7</ele>
      </trkpt>
      <trkpt lat="45.22218" lon="-72.52972">
        <ele>202.7</ele>
      </trkpt>
      <trkpt lat="45.22205" lon="-72.52914">
        <ele>202.6</ele>
      </trkpt>
      <trkpt lat="45.22188" lon="-72.52854">
        <ele>202.3</ele>
      </trkpt>
      <trkpt lat="45.221563" lon="-72.527396">
        <ele>201.8</ele>
      </trkpt>
      <trkpt lat="45.221246" lon="-72.526253">
        <ele>201.9</ele>
      </trkpt>
      <trkpt lat="45.22093" lon="-72.52511">
        <ele>202.6</ele>
      </trkpt>
      <trkpt lat="45.221345" lon="-72.5247">
        <ele>201.7</ele>
      </trkpt>
      <trkpt lat="45.22176" lon="-72.52429">
        <ele>201.7</ele>
      </trkpt>
      <trkpt lat="45.22245" lon="-72.52355">
        <ele>203.8</ele>
      </trkpt>
      <trkpt lat="45.22267" lon="-72.5232">
        <ele>205.1</ele>
      </trkpt>
      <trkpt lat="45.22276" lon="-72.52292">
        <ele>206.2</ele>
      </trkpt>
      <trkpt lat="45.22278" lon="-72.52248">
        <ele>206.3</ele>
      </trkpt>
      <trkpt lat="45.22274" lon="-72.5214">
        <ele>207.7</ele>
      </trkpt>
      <trkpt lat="45.22265" lon="-72.52095">
        <ele>208</ele>
      </trkpt>
      <trkpt lat="45.22241" lon="-72.5201">
        <ele>208.3</ele>
      </trkpt>
      <trkpt lat="45.22202" lon="-72.51912">
        <ele>209.6</ele>
      </trkpt>
      <trkpt lat="45.22196" lon="-72.51894">
        <ele>209.6</ele>
      </trkpt>
      <trkpt lat="45.22193" lon="-72.51876">
        <ele>209.7</ele>
      </trkpt>
      <trkpt lat="45.221915" lon="-72.517859">
        <ele>209.1</ele>
      </trkpt>
      <trkpt lat="45.2219" lon="-72.51696">
        <ele>208.9</ele>
      </trkpt>
      <trkpt lat="45.22188" lon="-72.51675">
        <ele>208.8</ele>
      </trkpt>
      <trkpt lat="45.22189" lon="-72.51678">
        <ele>208.8</ele>
      </trkpt>
      <trkpt lat="45.222436" lon="-72.515948">
        <ele>208.4</ele>
      </trkpt>
      <trkpt lat="45.222982" lon="-72.515116">
        <ele>207.4</ele>
      </trkpt>
      <trkpt lat="45.223528" lon="-72.514284">
        <ele>206.3</ele>
      </trkpt>
      <trkpt lat="45.224074" lon="-72.513452">
        <ele>205.9</ele>
      </trkpt>
      <trkpt lat="45.22462" lon="-72.51262">
        <ele>203.7</ele>
      </trkpt>
      <trkpt lat="45.225" lon="-72.51191">
        <ele>202.7</ele>
      </trkpt>
      <trkpt lat="45.22535" lon="-72.51097">
        <ele>202.4</ele>
      </trkpt>
      <trkpt lat="45.22545" lon="-72.51048">
        <ele>202.4</ele>
      </trkpt>
      <trkpt lat="45.22558" lon="-72.50925">
        <ele>202.1</ele>
      </trkpt>
      <trkpt lat="45.22559" lon="-72.50852">
        <ele>202.3</ele>
      </trkpt>
      <trkpt lat="45.22553" lon="-72.507354">
        <ele>202.2</ele>
      </trkpt>
      <trkpt lat="45.22547" lon="-72.50619">
        <ele>202</ele>
      </trkpt>
      <trkpt lat="45.2254" lon="-72.50551">
        <ele>201.8</ele>
      </trkpt>
      <trkpt lat="45.22539" lon="-72.50511">
        <ele>202.1</ele>
      </trkpt>
      <trkpt lat="45.22541" lon="-72.5047">
        <ele>202.2</ele>
      </trkpt>
      <trkpt lat="45.22545" lon="-72.5044">
        <ele>202.3</ele>
      </trkpt>
      <trkpt lat="45.22579" lon="-72.50337">
        <ele>202.6</ele>
      </trkpt>
      <trkpt lat="45.22579" lon="-72.50318">
        <ele>202.4</ele>
      </trkpt>
      <trkpt lat="45.22575" lon="-72.50297">
        <ele>202.2</ele>
      </trkpt>
      <trkpt lat="45.22588" lon="-72.50264">
        <ele>202</ele>
      </trkpt>
      <trkpt lat="45.22607" lon="-72.50232">
        <ele>202.1</ele>
      </trkpt>
      <trkpt lat="45.22665" lon="-72.50152">
        <ele>201.6</ele>
      </trkpt>
      <trkpt lat="45.227243" lon="-72.500636">
        <ele>201.4</ele>
      </trkpt>
      <trkpt lat="45.227836" lon="-72.499753">
        <ele>201.4</ele>
      </trkpt>
      <trkpt lat="45.22843" lon="-72.49887">
        <ele>201.3</ele>
      </trkpt>
      <trkpt lat="45.22874" lon="-72.49843">
        <ele>201</ele>
      </trkpt>
      <trkpt lat="45.2289" lon="-72.49822">
        <ele>200.5</ele>
      </trkpt>
      <trkpt lat="45.22918" lon="-72.49798">
        <ele>201.3</ele>
      </trkpt>
      <trkpt lat="45.22969" lon="-72.49767">
        <ele>201.7</ele>
      </trkpt>
      <trkpt lat="45.230485" lon="-72.497245">
        <ele>201.7</ele>
      </trkpt>
      <trkpt lat="45.23128" lon="-72.49682">
        <ele>201.4</ele>
      </trkpt>
      <trkpt lat="45.23127" lon="-72.49682">
        <ele>201.5</ele>
      </trkpt>
      <trkpt lat="45.23183" lon="-72.49651">
        <ele>202.7</ele>
      </trkpt>
      <trkpt lat="45.23232" lon="-72.49616">
        <ele>204.1</ele>
      </trkpt>
      <trkpt lat="45.233077" lon="-72.495585">
        <ele>204.2</ele>
      </trkpt>
      <trkpt lat="45.233835" lon="-72.49501">
        <ele>204.2</ele>
      </trkpt>
      <trkpt lat="45.234592" lon="-72.494435">
        <ele>204</ele>
      </trkpt>
      <trkpt lat="45.23535" lon="-72.49386">
        <ele>204.4</ele>
      </trkpt>
      <trkpt lat="45.23601" lon="-72.493396">
        <ele>204.6</ele>
      </trkpt>
      <trkpt lat="45.23667" lon="-72.492933">
        <ele>204.7</ele>
      </trkpt>
      <trkpt lat="45.23733" lon="-72.49247">
        <ele>204.6</ele>
      </trkpt>
      <trkpt lat="45.238096" lon="-72.49201">
        <ele>203.7</ele>
      </trkpt>
      <trkpt lat="45.238863" lon="-72.49155">
        <ele>203.4</ele>
      </trkpt>
      <trkpt lat="45.23963" lon="-72.49109">
        <ele>203.4</ele>
      </trkpt>
      <trkpt lat="45.23993" lon="-72.49082">
        <ele>203.5</ele>
      </trkpt>
      <trkpt lat="45.24017" lon="-72.49051">
        <ele>203.5</ele>
      </trkpt>
      <trkpt lat="45.24074" lon="-72.48968">
        <ele>203.3</ele>
      </trkpt>
      <trkpt lat="45.24131" lon="-72.48885">
        <ele>203.4</ele>
      </trkpt>
      <trkpt lat="45.24186" lon="-72.48808">
        <ele>203.7</ele>
      </trkpt>
      <trkpt lat="45.24186" lon="-72.48809">
        <ele>203.7</ele>
      </trkpt>
      <trkpt lat="45.24237" lon="-72.48738">
        <ele>203.9</ele>
      </trkpt>
      <trkpt lat="45.24246" lon="-72.4872">
        <ele>204.1</ele>
      </trkpt>
      <trkpt lat="45.24286" lon="-72.48679">
        <ele>203.9</ele>
      </trkpt>
      <trkpt lat="45.24328" lon="-72.48639">
        <ele>204.3</ele>
      </trkpt>
      <trkpt lat="45.24363" lon="-72.48613">
        <ele>204.4</ele>
      </trkpt>
      <trkpt lat="45.244055" lon="-72.48588">
        <ele>205</ele>
      </trkpt>
      <trkpt lat="45.24448" lon="-72.48563">
        <ele>205.2</ele>
      </trkpt>
      <trkpt lat="45.24477" lon="-72.4855">
        <ele>205.3</ele>
      </trkpt>
      <trkpt lat="45.24522" lon="-72.48539">
        <ele>205.4</ele>
      </trkpt>
      <trkpt lat="45.24521" lon="-72.48539">
        <ele>205.4</ele>
      </trkpt>
      <trkpt lat="45.24562" lon="-72.4853">
        <ele>205.3</ele>
      </trkpt>
      <trkpt lat="45.24604" lon="-72.48528">
        <ele>204.9</ele>
      </trkpt>
      <trkpt lat="45.246839" lon="-72.485369">
        <ele>203.9</ele>
      </trkpt>
      <trkpt lat="45.24764" lon="-72.48546">
        <ele>203.4</ele>
      </trkpt>
      <trkpt lat="45.2484" lon="-72.485547">
        <ele>203.1</ele>
      </trkpt>
      <trkpt lat="45.24916" lon="-72.485634">
        <ele>202.3</ele>
      </trkpt>
      <trkpt lat="45.24992" lon="-72.485722">
        <ele>200.4</ele>
      </trkpt>
      <trkpt lat="45.25068" lon="-72.48581">
        <ele>200.3</ele>
      </trkpt>
      <trkpt lat="45.25138" lon="-72.48591">
        <ele>200.6</ele>
      </trkpt>
      <trkpt lat="45.25157" lon="-72.48598">
        <ele>200.6</ele>
      </trkpt>
      <trkpt lat="45.252115" lon="-72.486034">
        <ele>200.8</ele>
      </trkpt>
      <trkpt lat="45.25266" lon="-72.48609">
        <ele>200.2</ele>
      </trkpt>
      <trkpt lat="45.253457" lon="-72.486189">
        <ele>200.1</ele>
      </trkpt>
      <trkpt lat="45.254254" lon="-72.486289">
        <ele>200.2</ele>
      </trkpt>
      <trkpt lat="45.255051" lon="-72.486389">
        <ele>200.4</ele>
      </trkpt>
      <trkpt lat="45.255848" lon="-72.486489">
        <ele>200.5</ele>
      </trkpt>
      <trkpt lat="45.256645" lon="-72.486589">
        <ele>200.4</ele>
      </trkpt>
      <trkpt lat="45.257442" lon="-72.486689">
        <ele>200.3</ele>
      </trkpt>
      <trkpt lat="45.25824" lon="-72.48679">
        <ele>200.4</ele>
      </trkpt>
      <trkpt lat="45.25842" lon="-72.48675">
        <ele>200.5</ele>
      </trkpt>
      <trkpt lat="45.25848" lon="-72.48675">
        <ele>200.5</ele>
      </trkpt>
      <trkpt lat="45.25867" lon="-72.48684">
        <ele>200.5</ele>
      </trkpt>
      <trkpt lat="45.259386" lon="-72.486913">
        <ele>200.3</ele>
      </trkpt>
      <trkpt lat="45.260103" lon="-72.486986">
        <ele>200.3</ele>
      </trkpt>
      <trkpt lat="45.26082" lon="-72.48706">
        <ele>200.5</ele>
      </trkpt>
      <trkpt lat="45.261546" lon="-72.487176">
        <ele>200.3</ele>
      </trkpt>
      <trkpt lat="45.262273" lon="-72.487293">
        <ele>200</ele>
      </trkpt>
      <trkpt lat="45.263" lon="-72.48741">
        <ele>199.8</ele>
      </trkpt>
      <trkpt lat="45.263726" lon="-72.487506">
        <ele>199.8</ele>
      </trkpt>
      <trkpt lat="45.264453" lon="-72.487603">
        <ele>199.8</ele>
      </trkpt>
      <trkpt lat="45.26518" lon="-72.4877">
        <ele>199.8</ele>
      </trkpt>
      <trkpt lat="45.266024" lon="-72.487794">
        <ele>199.8</ele>
      </trkpt>
      <trkpt lat="45.266869" lon="-72.487889">
        <ele>199.7</ele>
      </trkpt>
      <trkpt lat="45.267713" lon="-72.487983">
        <ele>199.8</ele>
      </trkpt>
      <trkpt lat="45.268558" lon="-72.488078">
        <ele>199.9</ele>
      </trkpt>
      <trkpt lat="45.269403" lon="-72.488173">
        <ele>199.8</ele>
      </trkpt>
      <trkpt lat="45.270247" lon="-72.488267">
        <ele>199.7</ele>
      </trkpt>
      <trkpt lat="45.271092" lon="-72.488362">
        <ele>199.7</ele>
      </trkpt>
      <trkpt lat="45.271936" lon="-72.488456">
        <ele>199.6</ele>
      </trkpt>
      <trkpt lat="45.272781" lon="-72.488551">
        <ele>199.3</ele>
      </trkpt>
      <trkpt lat="45.273626" lon="-72.488646">
        <ele>199.3</ele>
      </trkpt>
      <trkpt lat="45.27447" lon="-72.48874">
        <ele>199.6</ele>
      </trkpt>
      <trkpt lat="45.275315" lon="-72.488835">
        <ele>199.8</ele>
      </trkpt>
      <trkpt lat="45.27616" lon="-72.48893">
        <ele>200</ele>
      </trkpt>
      <trkpt lat="45.276983" lon="-72.489034">
        <ele>199.3</ele>
      </trkpt>
      <trkpt lat="45.277806" lon="-72.489139">
        <ele>198.8</ele>
      </trkpt>
      <trkpt lat="45.27863" lon="-72.489244">
        <ele>198.8</ele>
      </trkpt>
      <trkpt lat="45.279453" lon="-72.489349">
        <ele>198.8</ele>
      </trkpt>
      <trkpt lat="45.280276" lon="-72.489454">
        <ele>199.2</ele>
      </trkpt>
      <trkpt lat="45.2811" lon="-72.48956">
        <ele>200.3</ele>
      </trkpt>
      <trkpt lat="45.281736" lon="-72.489639">
        <ele>202.1</ele>
      </trkpt>
      <trkpt lat="45.282373" lon="-72.489719">
        <ele>203.8</ele>
      </trkpt>
      <trkpt lat="45.28301" lon="-72.4898">
        <ele>205.1</ele>
      </trkpt>
      <trkpt lat="45.28334" lon="-72.48988">
        <ele>206</ele>
      </trkpt>
      <trkpt lat="45.28376" lon="-72.49002">
        <ele>207</ele>
      </trkpt>
      <trkpt lat="45.28442" lon="-72.49038">
        <ele>208.6</ele>
      </trkpt>
      <trkpt lat="45.28495" lon="-72.490739">
        <ele>209.5</ele>
      </trkpt>
      <trkpt lat="45.28548" lon="-72.4911">
        <ele>211.6</ele>
      </trkpt>
      <trkpt lat="45.28565" lon="-72.49128">
        <ele>212</ele>
      </trkpt>
      <trkpt lat="45.28578" lon="-72.49154">
        <ele>212.5</ele>
      </trkpt>
      <trkpt lat="45.28639" lon="-72.49207">
        <ele>214.6</ele>
      </trkpt>
      <trkpt lat="45.2865" lon="-72.49207">
        <ele>214.7</ele>
      </trkpt>
      <trkpt lat="45.28651" lon="-72.49188">
        <ele>215</ele>
      </trkpt>
      <trkpt lat="45.28693" lon="-72.49235">
        <ele>214.7</ele>
      </trkpt>
      <trkpt lat="45.2871" lon="-72.49248">
        <ele>214.6</ele>
      </trkpt>
      <trkpt lat="45.28719" lon="-72.49251">
        <ele>214.6</ele>
      </trkpt>
      <trkpt lat="45.28722" lon="-72.49257">
        <ele>214.6</ele>
      </trkpt>
      <trkpt lat="45.287655" lon="-72.493014">
        <ele>214.9</ele>
      </trkpt>
      <trkpt lat="45.28809" lon="-72.49346">
        <ele>214.3</ele>
      </trkpt>
      <trkpt lat="45.28858" lon="-72.49391">
        <ele>213.9</ele>
      </trkpt>
      <trkpt lat="45.28926" lon="-72.49447">
        <ele>213.9</ele>
      </trkpt>
      <trkpt lat="45.289992" lon="-72.495104">
        <ele>213.5</ele>
      </trkpt>
      <trkpt lat="45.290725" lon="-72.495739">
        <ele>213.8</ele>
      </trkpt>
      <trkpt lat="45.291457" lon="-72.496374">
        <ele>213.1</ele>
      </trkpt>
      <trkpt lat="45.29219" lon="-72.49701">
        <ele>213.2</ele>
      </trkpt>
      <trkpt lat="45.29258" lon="-72.49727">
        <ele>213.2</ele>
      </trkpt>
      <trkpt lat="45.29306" lon="-72.49749">
        <ele>213.8</ele>
      </trkpt>
      <trkpt lat="45.29322" lon="-72.49753">
        <ele>213.8</ele>
      </trkpt>
      <trkpt lat="45.29332" lon="-72.49758">
        <ele>213.6</ele>
      </trkpt>
      <trkpt lat="45.2936" lon="-72.49763">
        <ele>213</ele>
      </trkpt>
      <trkpt lat="45.29393" lon="-72.49764">
        <ele>212.7</ele>
      </trkpt>
      <trkpt lat="45.2942" lon="-72.49763">
        <ele>212.8</ele>
      </trkpt>
      <trkpt lat="45.294823" lon="-72.49758">
        <ele>212.9</ele>
      </trkpt>
      <trkpt lat="45.295446" lon="-72.49753">
        <ele>213.1</ele>
      </trkpt>
      <trkpt lat="45.29607" lon="-72.49748">
        <ele>213.9</ele>
      </trkpt>
      <trkpt lat="45.29606" lon="-72.49748">
        <ele>213.9</ele>
      </trkpt>
      <trkpt lat="45.296675" lon="-72.497425">
        <ele>214.3</ele>
      </trkpt>
      <trkpt lat="45.29729" lon="-72.49737">
        <ele>214.1</ele>
      </trkpt>
      <trkpt lat="45.297995" lon="-72.497295">
        <ele>214.7</ele>
      </trkpt>
      <trkpt lat="45.2987" lon="-72.49722">
        <ele>215</ele>
      </trkpt>
      <trkpt lat="45.299405" lon="-72.497145">
        <ele>215.9</ele>
      </trkpt>
      <trkpt lat="45.30011" lon="-72.49707">
        <ele>216.1</ele>
      </trkpt>
      <trkpt lat="45.300743" lon="-72.497016">
        <ele>216</ele>
      </trkpt>
      <trkpt lat="45.301376" lon="-72.496963">
        <ele>216.7</ele>
      </trkpt>
      <trkpt lat="45.30201" lon="-72.49691">
        <ele>217.6</ele>
      </trkpt>
      <trkpt lat="45.30231" lon="-72.49691">
        <ele>217.9</ele>
      </trkpt>
      <trkpt lat="45.3029" lon="-72.49701">
        <ele>218.5</ele>
      </trkpt>
      <trkpt lat="45.30352" lon="-72.49723">
        <ele>218.8</ele>
      </trkpt>
      <trkpt lat="45.304336" lon="-72.497559">
        <ele>219.9</ele>
      </trkpt>
      <trkpt lat="45.305152" lon="-72.497889">
        <ele>220.8</ele>
      </trkpt>
      <trkpt lat="45.305968" lon="-72.498219">
        <ele>221</ele>
      </trkpt>
      <trkpt lat="45.306784" lon="-72.498549">
        <ele>221.8</ele>
      </trkpt>
      <trkpt lat="45.3076" lon="-72.49888">
        <ele>222.3</ele>
      </trkpt>
      <trkpt lat="45.30806" lon="-72.49902">
        <ele>223.3</ele>
      </trkpt>
      <trkpt lat="45.30828" lon="-72.49906">
        <ele>223.7</ele>
      </trkpt>
      <trkpt lat="45.30865" lon="-72.49906">
        <ele>224.3</ele>
      </trkpt>
      <trkpt lat="45.30878" lon="-72.49904">
        <ele>224.6</ele>
      </trkpt>
      <trkpt lat="45.30868" lon="-72.49864">
        <ele>224.8</ele>
      </trkpt>
      <trkpt lat="45.308346" lon="-72.497509">
        <ele>226.2</ele>
      </trkpt>
      <trkpt lat="45.308013" lon="-72.496379">
        <ele>229.7</ele>
      </trkpt>
      <trkpt lat="45.30768" lon="-72.49525">
        <ele>236.7</ele>
      </trkpt>
      <trkpt lat="45.30758" lon="-72.49463">
        <ele>241.9</ele>
      </trkpt>
      <trkpt lat="45.30755" lon="-72.49346">
        <ele>246.4</ele>
      </trkpt>
      <trkpt lat="45.307546" lon="-72.492429">
        <ele>250.3</ele>
      </trkpt>
      <trkpt lat="45.307543" lon="-72.491399">
        <ele>253.4</ele>
      </trkpt>
      <trkpt lat="45.30754" lon="-72.49037">
        <ele>256.9</ele>
      </trkpt>
      <trkpt lat="45.30752" lon="-72.48957">
        <ele>260.4</ele>
      </trkpt>
      <trkpt lat="45.30745" lon="-72.48905">
        <ele>263.3</ele>
      </trkpt>
      <trkpt lat="45.30741" lon="-72.48882">
        <ele>263.7</ele>
      </trkpt>
      <trkpt lat="45.307195" lon="-72.487989">
        <ele>265.5</ele>
      </trkpt>
      <trkpt lat="45.30698" lon="-72.48716">
        <ele>267.7</ele>
      </trkpt>
      <trkpt lat="45.30689" lon="-72.48707">
        <ele>267.9</ele>
      </trkpt>
      <trkpt lat="45.30683" lon="-72.48706">
        <ele>268</ele>
      </trkpt>
      <trkpt lat="45.30678" lon="-72.48706">
        <ele>268</ele>
      </trkpt>
      <trkpt lat="45.30646" lon="-72.48719">
        <ele>267.6</ele>
      </trkpt>
      <trkpt lat="45.305785" lon="-72.48748">
        <ele>264.6</ele>
      </trkpt>
      <trkpt lat="45.30511" lon="-72.48777">
        <ele>261.9</ele>
      </trkpt>
      <trkpt lat="45.30465" lon="-72.487935">
        <ele>260.5</ele>
      </trkpt>
      <trkpt lat="45.30419" lon="-72.4881">
        <ele>259.2</ele>
      </trkpt>
      <trkpt lat="45.30375" lon="-72.4883">
        <ele>256.9</ele>
      </trkpt>
      <trkpt lat="45.30321" lon="-72.4885">
        <ele>254.1</ele>
      </trkpt>
      <trkpt lat="45.30307" lon="-72.48858">
        <ele>253</ele>
      </trkpt>
      <trkpt lat="45.3028" lon="-72.4888">
        <ele>251.9</ele>
      </trkpt>
      <trkpt lat="45.30209" lon="-72.489506">
        <ele>247.9</ele>
      </trkpt>
      <trkpt lat="45.30138" lon="-72.490213">
        <ele>245.8</ele>
      </trkpt>
      <trkpt lat="45.30067" lon="-72.49092">
        <ele>243.1</ele>
      </trkpt>
      <trkpt lat="45.299975" lon="-72.491585">
        <ele>239.5</ele>
      </trkpt>
      <trkpt lat="45.29928" lon="-72.49225">
        <ele>235</ele>
      </trkpt>
      <trkpt lat="45.29899" lon="-72.49256">
        <ele>233.4</ele>
      </trkpt>
      <trkpt lat="45.29855" lon="-72.49306">
        <ele>230.6</ele>
      </trkpt>
      <trkpt lat="45.2981" lon="-72.49351">
        <ele>229.4</ele>
      </trkpt>
      <trkpt lat="45.297715" lon="-72.49393">
        <ele>227.2</ele>
      </trkpt>
      <trkpt lat="45.29733" lon="-72.49435">
        <ele>224.4</ele>
      </trkpt>
      <trkpt lat="45.29668" lon="-72.49485">
        <ele>221.3</ele>
      </trkpt>
      <trkpt lat="45.29596" lon="-72.49531">
        <ele>216.9</ele>
      </trkpt>
      <trkpt lat="45.29541" lon="-72.495625">
        <ele>215.2</ele>
      </trkpt>
      <trkpt lat="45.29486" lon="-72.49594">
        <ele>215.1</ele>
      </trkpt>
      <trkpt lat="45.294385" lon="-72.496185">
        <ele>215.5</ele>
      </trkpt>
      <trkpt lat="45.29391" lon="-72.49643">
        <ele>215.3</ele>
      </trkpt>
      <trkpt lat="45.29361" lon="-72.49664">
        <ele>214.7</ele>
      </trkpt>
      <trkpt lat="45.29348" lon="-72.49674">
        <ele>214.4</ele>
      </trkpt>
      <trkpt lat="45.29342" lon="-72.49683">
        <ele>214.4</ele>
      </trkpt>
      <trkpt lat="45.29327" lon="-72.4973">
        <ele>213.8</ele>
      </trkpt>
      <trkpt lat="45.29268" lon="-72.49702">
        <ele>213.6</ele>
      </trkpt>
      <trkpt lat="45.29189" lon="-72.49651">
        <ele>213.6</ele>
      </trkpt>
      <trkpt lat="45.29156" lon="-72.49623">
        <ele>212.8</ele>
      </trkpt>
      <trkpt lat="45.29084" lon="-72.49566">
        <ele>212.9</ele>
      </trkpt>
      <trkpt lat="45.29043" lon="-72.49526">
        <ele>212.3</ele>
      </trkpt>
      <trkpt lat="45.29005" lon="-72.49475">
        <ele>212</ele>
      </trkpt>
      <trkpt lat="45.28974" lon="-72.49427">
        <ele>212.8</ele>
      </trkpt>
      <trkpt lat="45.28953" lon="-72.49379">
        <ele>213.1</ele>
      </trkpt>
      <trkpt lat="45.28937" lon="-72.49351">
        <ele>213.2</ele>
      </trkpt>
      <trkpt lat="45.28924" lon="-72.49334">
        <ele>213.2</ele>
      </trkpt>
      <trkpt lat="45.2891" lon="-72.49324">
        <ele>213.2</ele>
      </trkpt>
      <trkpt lat="45.28864" lon="-72.493">
        <ele>213.3</ele>
      </trkpt>
      <trkpt lat="45.28787" lon="-72.49267">
        <ele>213.6</ele>
      </trkpt>
      <trkpt lat="45.28776" lon="-72.49263">
        <ele>213.7</ele>
      </trkpt>
      <trkpt lat="45.2871" lon="-72.49248">
        <ele>214.6</ele>
      </trkpt>
      <trkpt lat="45.28693" lon="-72.49235">
        <ele>214.7</ele>
      </trkpt>
      <trkpt lat="45.28651" lon="-72.49188">
        <ele>215</ele>
      </trkpt>
      <trkpt lat="45.28651" lon="-72.490899">
        <ele>216.4</ele>
      </trkpt>
      <trkpt lat="45.28651" lon="-72.48992">
        <ele>216.5</ele>
      </trkpt>
      <trkpt lat="45.28651" lon="-72.48991">
        <ele>216.5</ele>
      </trkpt>
      <trkpt lat="45.286518" lon="-72.488696">
        <ele>219.4</ele>
      </trkpt>
      <trkpt lat="45.286526" lon="-72.487483">
        <ele>223.9</ele>
      </trkpt>
      <trkpt lat="45.286535" lon="-72.48627">
        <ele>226.4</ele>
      </trkpt>
      <trkpt lat="45.286543" lon="-72.485056">
        <ele>227.4</ele>
      </trkpt>
      <trkpt lat="45.286551" lon="-72.483843">
        <ele>227.2</ele>
      </trkpt>
      <trkpt lat="45.28656" lon="-72.48263">
        <ele>226.8</ele>
      </trkpt>
      <trkpt lat="45.28657" lon="-72.481535">
        <ele>225.9</ele>
      </trkpt>
      <trkpt lat="45.28658" lon="-72.48044">
        <ele>227.5</ele>
      </trkpt>
      <trkpt lat="45.28659" lon="-72.479345">
        <ele>229.5</ele>
      </trkpt>
      <trkpt lat="45.2866" lon="-72.47825">
        <ele>227.4</ele>
      </trkpt>
      <trkpt lat="45.28663" lon="-72.477066">
        <ele>226.5</ele>
      </trkpt>
      <trkpt lat="45.28666" lon="-72.475883">
        <ele>225.1</ele>
      </trkpt>
      <trkpt lat="45.28669" lon="-72.4747">
        <ele>225.5</ele>
      </trkpt>
      <trkpt lat="45.28672" lon="-72.473516">
        <ele>221.9</ele>
      </trkpt>
      <trkpt lat="45.28675" lon="-72.472333">
        <ele>220.6</ele>
      </trkpt>
      <trkpt lat="45.28678" lon="-72.47115">
        <ele>221.8</ele>
      </trkpt>
      <trkpt lat="45.286816" lon="-72.470006">
        <ele>222.2</ele>
      </trkpt>
      <trkpt lat="45.286853" lon="-72.468863">
        <ele>222.4</ele>
      </trkpt>
      <trkpt lat="45.28689" lon="-72.46772">
        <ele>220.8</ele>
      </trkpt>
      <trkpt lat="45.28696" lon="-72.46736">
        <ele>220.9</ele>
      </trkpt>
      <trkpt lat="45.287175" lon="-72.46656">
        <ele>221.8</ele>
      </trkpt>
      <trkpt lat="45.28739" lon="-72.46576">
        <ele>222.5</ele>
      </trkpt>
      <trkpt lat="45.28775" lon="-72.46472">
        <ele>223.8</ele>
      </trkpt>
      <trkpt lat="45.28796" lon="-72.46424">
        <ele>225.5</ele>
      </trkpt>
      <trkpt lat="45.28828" lon="-72.46373">
        <ele>226</ele>
      </trkpt>
      <trkpt lat="45.28882" lon="-72.46291">
        <ele>225.7</ele>
      </trkpt>
      <trkpt lat="45.2885" lon="-72.46264">
        <ele>225</ele>
      </trkpt>
      <trkpt lat="45.28889" lon="-72.462205">
        <ele>222.7</ele>
      </trkpt>
      <trkpt lat="45.28928" lon="-72.46177">
        <ele>221.5</ele>
      </trkpt>
      <trkpt lat="45.28942" lon="-72.46159">
        <ele>221.2</ele>
      </trkpt>
      <trkpt lat="45.28952" lon="-72.46141">
        <ele>221.2</ele>
      </trkpt>
      <trkpt lat="45.2896" lon="-72.46123">
        <ele>221.2</ele>
      </trkpt>
      <trkpt lat="45.28971" lon="-72.46083">
        <ele>221.3</ele>
      </trkpt>
      <trkpt lat="45.28975" lon="-72.46011">
        <ele>221.3</ele>
      </trkpt>
      <trkpt lat="45.28963" lon="-72.458944">
        <ele>219.1</ele>
      </trkpt>
      <trkpt lat="45.28951" lon="-72.45778">
        <ele>218.9</ele>
      </trkpt>
      <trkpt lat="45.28952" lon="-72.4572">
        <ele>220.5</ele>
      </trkpt>
      <trkpt lat="45.28955" lon="-72.45693">
        <ele>221.1</ele>
      </trkpt>
      <trkpt lat="45.28975" lon="-72.45577">
        <ele>225.4</ele>
      </trkpt>
      <trkpt lat="45.28981" lon="-72.45532">
        <ele>225.4</ele>
      </trkpt>
      <trkpt lat="45.28988" lon="-72.45442">
        <ele>229</ele>
      </trkpt>
      <trkpt lat="45.2899" lon="-72.45324">
        <ele>230.4</ele>
      </trkpt>
      <trkpt lat="45.28992" lon="-72.45206">
        <ele>230.9</ele>
      </trkpt>
      <trkpt lat="45.28995" lon="-72.45114">
        <ele>225.6</ele>
      </trkpt>
      <trkpt lat="45.28998" lon="-72.45022">
        <ele>224</ele>
      </trkpt>
      <trkpt lat="45.28999" lon="-72.44918">
        <ele>226.5</ele>
      </trkpt>
      <trkpt lat="45.29" lon="-72.44814">
        <ele>230.9</ele>
      </trkpt>
      <trkpt lat="45.289985" lon="-72.447097">
        <ele>231.3</ele>
      </trkpt>
      <trkpt lat="45.28997" lon="-72.446054">
        <ele>231.5</ele>
      </trkpt>
      <trkpt lat="45.289955" lon="-72.445012">
        <ele>234.8</ele>
      </trkpt>
      <trkpt lat="45.28994" lon="-72.44397">
        <ele>239.6</ele>
      </trkpt>
      <trkpt lat="45.28996" lon="-72.44359">
        <ele>238.4</ele>
      </trkpt>
      <trkpt lat="45.29" lon="-72.44337">
        <ele>237.1</ele>
      </trkpt>
      <trkpt lat="45.29028" lon="-72.44243">
        <ele>234.8</ele>
      </trkpt>
      <trkpt lat="45.29056" lon="-72.44149">
        <ele>239.1</ele>
      </trkpt>
      <trkpt lat="45.29077" lon="-72.44084">
        <ele>244.5</ele>
      </trkpt>
      <trkpt lat="45.29098" lon="-72.44019">
        <ele>250</ele>
      </trkpt>
      <trkpt lat="45.29115" lon="-72.43952">
        <ele>254.4</ele>
      </trkpt>
      <trkpt lat="45.291285" lon="-72.43887">
        <ele>258.9</ele>
      </trkpt>
      <trkpt lat="45.29142" lon="-72.43822">
        <ele>262.9</ele>
      </trkpt>
      <trkpt lat="45.29158" lon="-72.43754">
        <ele>268</ele>
      </trkpt>
      <trkpt lat="45.291735" lon="-72.43694">
        <ele>271.9</ele>
      </trkpt>
      <trkpt lat="45.29189" lon="-72.43634">
        <ele>278.2</ele>
      </trkpt>
      <trkpt lat="45.2922" lon="-72.43531">
        <ele>287.6</ele>
      </trkpt>
      <trkpt lat="45.29229" lon="-72.43459">
        <ele>291.5</ele>
      </trkpt>
      <trkpt lat="45.29238" lon="-72.43427">
        <ele>292.5</ele>
      </trkpt>
      <trkpt lat="45.29247" lon="-72.43402">
        <ele>293.4</ele>
      </trkpt>
      <trkpt lat="45.29282" lon="-72.43347">
        <ele>294.8</ele>
      </trkpt>
      <trkpt lat="45.293443" lon="-72.43259">
        <ele>296.3</ele>
      </trkpt>
      <trkpt lat="45.294066" lon="-72.43171">
        <ele>301.3</ele>
      </trkpt>
      <trkpt lat="45.29469" lon="-72.43083">
        <ele>299.3</ele>
      </trkpt>
      <trkpt lat="45.295015" lon="-72.43031">
        <ele>298.3</ele>
      </trkpt>
      <trkpt lat="45.29534" lon="-72.42979">
        <ele>297.1</ele>
      </trkpt>
      <trkpt lat="45.29583" lon="-72.42876">
        <ele>302.5</ele>
      </trkpt>
      <trkpt lat="45.296075" lon="-72.42807">
        <ele>305.4</ele>
      </trkpt>
      <trkpt lat="45.29632" lon="-72.42738">
        <ele>306</ele>
      </trkpt>
      <trkpt lat="45.296615" lon="-72.42651">
        <ele>305.4</ele>
      </trkpt>
      <trkpt lat="45.29691" lon="-72.42564">
        <ele>304.3</ele>
      </trkpt>
      <trkpt lat="45.29713" lon="-72.42523">
        <ele>302.4</ele>
      </trkpt>
      <trkpt lat="45.29727" lon="-72.42506">
        <ele>302.1</ele>
      </trkpt>
      <trkpt lat="45.29767" lon="-72.424685">
        <ele>301.6</ele>
      </trkpt>
      <trkpt lat="45.29807" lon="-72.42431">
        <ele>302.1</ele>
      </trkpt>
      <trkpt lat="45.29824" lon="-72.42412">
        <ele>302.5</ele>
      </trkpt>
      <trkpt lat="45.2984" lon="-72.42389">
        <ele>303.2</ele>
      </trkpt>
      <trkpt lat="45.29853" lon="-72.42366">
        <ele>304.3</ele>
      </trkpt>
      <trkpt lat="45.29882" lon="-72.42287">
        <ele>308.6</ele>
      </trkpt>
      <trkpt lat="45.29894" lon="-72.42237">
        <ele>311.6</ele>
      </trkpt>
      <trkpt lat="45.29898" lon="-72.4221">
        <ele>313.4</ele>
      </trkpt>
      <trkpt lat="45.299" lon="-72.42157">
        <ele>315.9</ele>
      </trkpt>
      <trkpt lat="45.298905" lon="-72.420579">
        <ele>322.7</ele>
      </trkpt>
      <trkpt lat="45.29881" lon="-72.41959">
        <ele>326.6</ele>
      </trkpt>
      <trkpt lat="45.298065" lon="-72.419615">
        <ele>330.6</ele>
      </trkpt>
      <trkpt lat="45.29732" lon="-72.41964">
        <ele>333.8</ele>
      </trkpt>
      <trkpt lat="45.296544" lon="-72.419629">
        <ele>337.6</ele>
      </trkpt>
      <trkpt lat="45.29577" lon="-72.41962">
        <ele>338.7</ele>
      </trkpt>
      <trkpt lat="45.2953" lon="-72.4196">
        <ele>338.6</ele>
      </trkpt>
      <trkpt lat="45.29441" lon="-72.419605">
        <ele>333.2</ele>
      </trkpt>
      <trkpt lat="45.29352" lon="-72.41961">
        <ele>334</ele>
      </trkpt>
      <trkpt lat="45.29299" lon="-72.41961">
        <ele>338.8</ele>
      </trkpt>
      <trkpt lat="45.29246" lon="-72.41961">
        <ele>341.1</ele>
      </trkpt>
      <trkpt lat="45.291762" lon="-72.419642">
        <ele>339.2</ele>
      </trkpt>
      <trkpt lat="45.291065" lon="-72.419675">
        <ele>340.8</ele>
      </trkpt>
      <trkpt lat="45.290367" lon="-72.419707">
        <ele>343.5</ele>
      </trkpt>
      <trkpt lat="45.28967" lon="-72.41974">
        <ele>347.1</ele>
      </trkpt>
      <trkpt lat="45.288953" lon="-72.419736">
        <ele>345.6</ele>
      </trkpt>
      <trkpt lat="45.288236" lon="-72.419733">
        <ele>343.6</ele>
      </trkpt>
      <trkpt lat="45.28752" lon="-72.41973">
        <ele>342.2</ele>
      </trkpt>
      <trkpt lat="45.286715" lon="-72.41975">
        <ele>340.1</ele>
      </trkpt>
      <trkpt lat="45.28591" lon="-72.41977">
        <ele>338.2</ele>
      </trkpt>
      <trkpt lat="45.28534" lon="-72.41983">
        <ele>335.1</ele>
      </trkpt>
      <trkpt lat="45.284541" lon="-72.419844">
        <ele>333.5</ele>
      </trkpt>
      <trkpt lat="45.283743" lon="-72.419858">
        <ele>333.7</ele>
      </trkpt>
      <trkpt lat="45.282945" lon="-72.419872">
        <ele>334.7</ele>
      </trkpt>
      <trkpt lat="45.282147" lon="-72.419886">
        <ele>332.2</ele>
      </trkpt>
      <trkpt lat="45.28135" lon="-72.4199">
        <ele>328.3</ele>
      </trkpt>
      <trkpt lat="45.28071" lon="-72.419925">
        <ele>323.8</ele>
      </trkpt>
      <trkpt lat="45.28007" lon="-72.41995">
        <ele>325.3</ele>
      </trkpt>
      <trkpt lat="45.279383" lon="-72.419953">
        <ele>331.3</ele>
      </trkpt>
      <trkpt lat="45.278696" lon="-72.419956">
        <ele>341.1</ele>
      </trkpt>
      <trkpt lat="45.27801" lon="-72.41996">
        <ele>348.2</ele>
      </trkpt>
      <trkpt lat="45.27772" lon="-72.42">
        <ele>351.8</ele>
      </trkpt>
      <trkpt lat="45.27759" lon="-72.42004">
        <ele>352.5</ele>
      </trkpt>
      <trkpt lat="45.2773" lon="-72.42023">
        <ele>352.7</ele>
      </trkpt>
      <trkpt lat="45.27698" lon="-72.42059">
        <ele>351.7</ele>
      </trkpt>
      <trkpt lat="45.276408" lon="-72.421266">
        <ele>350.4</ele>
      </trkpt>
      <trkpt lat="45.275836" lon="-72.421942">
        <ele>347</ele>
      </trkpt>
      <trkpt lat="45.275264" lon="-72.422618">
        <ele>342.1</ele>
      </trkpt>
      <trkpt lat="45.274692" lon="-72.423294">
        <ele>334.2</ele>
      </trkpt>
      <trkpt lat="45.27412" lon="-72.42397">
        <ele>332.9</ele>
      </trkpt>
      <trkpt lat="45.27371" lon="-72.42447">
        <ele>333.5</ele>
      </trkpt>
      <trkpt lat="45.27332" lon="-72.425015">
        <ele>332.9</ele>
      </trkpt>
      <trkpt lat="45.27293" lon="-72.42556">
        <ele>331.5</ele>
      </trkpt>
      <trkpt lat="45.272436" lon="-72.42627">
        <ele>328.9</ele>
      </trkpt>
      <trkpt lat="45.271943" lon="-72.42698">
        <ele>326.2</ele>
      </trkpt>
      <trkpt lat="45.27145" lon="-72.42769">
        <ele>326.9</ele>
      </trkpt>
      <trkpt lat="45.27085" lon="-72.42853">
        <ele>327.2</ele>
      </trkpt>
      <trkpt lat="45.27025" lon="-72.42937">
        <ele>326.9</ele>
      </trkpt>
      <trkpt lat="45.269695" lon="-72.430105">
        <ele>326</ele>
      </trkpt>
      <trkpt lat="45.26914" lon="-72.43084">
        <ele>323.9</ele>
      </trkpt>
      <trkpt lat="45.268825" lon="-72.431305">
        <ele>323.2</ele>
      </trkpt>
      <trkpt lat="45.26851" lon="-72.43177">
        <ele>322.2</ele>
      </trkpt>
      <trkpt lat="45.26804" lon="-72.4325">
        <ele>320.7</ele>
      </trkpt>
      <trkpt lat="45.2676" lon="-72.43313">
        <ele>319.4</ele>
      </trkpt>
      <trkpt lat="45.26716" lon="-72.43376">
        <ele>317.4</ele>
      </trkpt>
      <trkpt lat="45.26672" lon="-72.43439">
        <ele>315.4</ele>
      </trkpt>
      <trkpt lat="45.26639" lon="-72.43489">
        <ele>313.1</ele>
      </trkpt>
      <trkpt lat="45.26606" lon="-72.43539">
        <ele>310.2</ele>
      </trkpt>
      <trkpt lat="45.26561" lon="-72.43598">
        <ele>307.2</ele>
      </trkpt>
      <trkpt lat="45.26512" lon="-72.43656">
        <ele>302.6</ele>
      </trkpt>
      <trkpt lat="45.26463" lon="-72.43714">
        <ele>300.2</ele>
      </trkpt>
      <trkpt lat="45.26407" lon="-72.43789">
        <ele>298.4</ele>
      </trkpt>
      <trkpt lat="45.26355" lon="-72.43862">
        <ele>296.2</ele>
      </trkpt>
      <trkpt lat="45.26335" lon="-72.43888">
        <ele>295.6</ele>
      </trkpt>
      <trkpt lat="45.26328" lon="-72.439">
        <ele>295.4</ele>
      </trkpt>
      <trkpt lat="45.26314" lon="-72.43893">
        <ele>295.4</ele>
      </trkpt>
      <trkpt lat="45.26255" lon="-72.43891">
        <ele>294.7</ele>
      </trkpt>
      <trkpt lat="45.26185" lon="-72.43895">
        <ele>292.6</ele>
      </trkpt>
      <trkpt lat="45.26115" lon="-72.43899">
        <ele>288.6</ele>
      </trkpt>
      <trkpt lat="45.260595" lon="-72.439005">
        <ele>289.6</ele>
      </trkpt>
      <trkpt lat="45.26004" lon="-72.43902">
        <ele>292.5</ele>
      </trkpt>
      <trkpt lat="45.25968" lon="-72.43911">
        <ele>292.6</ele>
      </trkpt>
      <trkpt lat="45.2595" lon="-72.43918">
        <ele>292.6</ele>
      </trkpt>
      <trkpt lat="45.25922" lon="-72.43934">
        <ele>291.7</ele>
      </trkpt>
      <trkpt lat="45.258456" lon="-72.4398">
        <ele>289.7</ele>
      </trkpt>
      <trkpt lat="45.257693" lon="-72.44026">
        <ele>287.4</ele>
      </trkpt>
      <trkpt lat="45.25693" lon="-72.44072">
        <ele>284.9</ele>
      </trkpt>
      <trkpt lat="45.256325" lon="-72.441215">
        <ele>289.8</ele>
      </trkpt>
      <trkpt lat="45.25572" lon="-72.44171">
        <ele>292.6</ele>
      </trkpt>
      <trkpt lat="45.25532" lon="-72.44218">
        <ele>293</ele>
      </trkpt>
      <trkpt lat="45.25492" lon="-72.44265">
        <ele>293</ele>
      </trkpt>
      <trkpt lat="45.254383" lon="-72.44338">
        <ele>291.6</ele>
      </trkpt>
      <trkpt lat="45.253846" lon="-72.44411">
        <ele>290.1</ele>
      </trkpt>
      <trkpt lat="45.25331" lon="-72.44484">
        <ele>288.7</ele>
      </trkpt>
      <trkpt lat="45.252703" lon="-72.445483">
        <ele>286.1</ele>
      </trkpt>
      <trkpt lat="45.252096" lon="-72.446126">
        <ele>286.9</ele>
      </trkpt>
      <trkpt lat="45.25149" lon="-72.44677">
        <ele>286.1</ele>
      </trkpt>
      <trkpt lat="45.25098" lon="-72.447293">
        <ele>283.6</ele>
      </trkpt>
      <trkpt lat="45.25047" lon="-72.447816">
        <ele>281.3</ele>
      </trkpt>
      <trkpt lat="45.24996" lon="-72.44834">
        <ele>278.8</ele>
      </trkpt>
      <trkpt lat="45.2493" lon="-72.44911">
        <ele>276.4</ele>
      </trkpt>
      <trkpt lat="45.24877" lon="-72.4498">
        <ele>275.3</ele>
      </trkpt>
      <trkpt lat="45.24824" lon="-72.45049">
        <ele>275</ele>
      </trkpt>
      <trkpt lat="45.24772" lon="-72.45102">
        <ele>271.6</ele>
      </trkpt>
      <trkpt lat="45.24742" lon="-72.45125">
        <ele>270.2</ele>
      </trkpt>
      <trkpt lat="45.24687" lon="-72.45156">
        <ele>268.9</ele>
      </trkpt>
      <trkpt lat="45.24635" lon="-72.45201">
        <ele>266.8</ele>
      </trkpt>
      <trkpt lat="45.24604" lon="-72.45237">
        <ele>265.4</ele>
      </trkpt>
      <trkpt lat="45.24548" lon="-72.452835">
        <ele>261.3</ele>
      </trkpt>
      <trkpt lat="45.24492" lon="-72.4533">
        <ele>259.3</ele>
      </trkpt>
      <trkpt lat="45.24429" lon="-72.45389">
        <ele>258.1</ele>
      </trkpt>
      <trkpt lat="45.243895" lon="-72.454305">
        <ele>258.2</ele>
      </trkpt>
      <trkpt lat="45.2435" lon="-72.45472">
        <ele>259.5</ele>
      </trkpt>
      <trkpt lat="45.24284" lon="-72.45551">
        <ele>261.4</ele>
      </trkpt>
      <trkpt lat="45.24261" lon="-72.45576">
        <ele>261.9</ele>
      </trkpt>
      <trkpt lat="45.2424" lon="-72.45594">
        <ele>262.2</ele>
      </trkpt>
      <trkpt lat="45.24201" lon="-72.45622">
        <ele>263.1</ele>
      </trkpt>
      <trkpt lat="45.24153" lon="-72.45648">
        <ele>261.9</ele>
      </trkpt>
      <trkpt lat="45.24099" lon="-72.45704">
        <ele>261.8</ele>
      </trkpt>
      <trkpt lat="45.24081" lon="-72.4572">
        <ele>262.7</ele>
      </trkpt>
      <trkpt lat="45.24038" lon="-72.4577">
        <ele>266.6</ele>
      </trkpt>
      <trkpt lat="45.24012" lon="-72.45792">
        <ele>268.4</ele>
      </trkpt>
      <trkpt lat="45.23956" lon="-72.458185">
        <ele>271.3</ele>
      </trkpt>
      <trkpt lat="45.239" lon="-72.45845">
        <ele>271.3</ele>
      </trkpt>
      <trkpt lat="45.23858" lon="-72.4585">
        <ele>272.7</ele>
      </trkpt>
      <trkpt lat="45.23782" lon="-72.45851">
        <ele>271.7</ele>
      </trkpt>
      <trkpt lat="45.23783" lon="-72.45851">
        <ele>271.7</ele>
      </trkpt>
      <trkpt lat="45.23698" lon="-72.45841">
        <ele>267.8</ele>
      </trkpt>
      <trkpt lat="45.2365" lon="-72.45837">
        <ele>266.3</ele>
      </trkpt>
      <trkpt lat="45.23607" lon="-72.45841">
        <ele>266.1</ele>
      </trkpt>
      <trkpt lat="45.23522" lon="-72.45862">
        <ele>267.3</ele>
      </trkpt>
      <trkpt lat="45.234655" lon="-72.458785">
        <ele>270.1</ele>
      </trkpt>
      <trkpt lat="45.23409" lon="-72.45895">
        <ele>269.9</ele>
      </trkpt>
      <trkpt lat="45.23396" lon="-72.45904">
        <ele>269.7</ele>
      </trkpt>
      <trkpt lat="45.23367" lon="-72.45913">
        <ele>267.4</ele>
      </trkpt>
      <trkpt lat="45.23351" lon="-72.45926">
        <ele>266.7</ele>
      </trkpt>
      <trkpt lat="45.232845" lon="-72.459955">
        <ele>265.7</ele>
      </trkpt>
      <trkpt lat="45.23218" lon="-72.46065">
        <ele>267.8</ele>
      </trkpt>
      <trkpt lat="45.23173" lon="-72.461075">
        <ele>270.9</ele>
      </trkpt>
      <trkpt lat="45.23128" lon="-72.4615">
        <ele>274.4</ele>
      </trkpt>
      <trkpt lat="45.23092" lon="-72.4619">
        <ele>278.2</ele>
      </trkpt>
      <trkpt lat="45.23077" lon="-72.46204">
        <ele>279</ele>
      </trkpt>
      <trkpt lat="45.23002" lon="-72.46245">
        <ele>277.3</ele>
      </trkpt>
      <trkpt lat="45.2299" lon="-72.46254">
        <ele>277.5</ele>
      </trkpt>
      <trkpt lat="45.22911" lon="-72.46293">
        <ele>278</ele>
      </trkpt>
      <trkpt lat="45.22862" lon="-72.46329">
        <ele>276.1</ele>
      </trkpt>
      <trkpt lat="45.22813" lon="-72.46365">
        <ele>275</ele>
      </trkpt>
      <trkpt lat="45.22747" lon="-72.46417">
        <ele>272.9</ele>
      </trkpt>
      <trkpt lat="45.22748" lon="-72.465214">
        <ele>268.4</ele>
      </trkpt>
      <trkpt lat="45.22749" lon="-72.46626">
        <ele>264.5</ele>
      </trkpt>
      <trkpt lat="45.227528" lon="-72.467483">
        <ele>257.9</ele>
      </trkpt>
      <trkpt lat="45.227566" lon="-72.468707">
        <ele>256</ele>
      </trkpt>
      <trkpt lat="45.227604" lon="-72.469931">
        <ele>255.7</ele>
      </trkpt>
      <trkpt lat="45.227642" lon="-72.471155">
        <ele>254.6</ele>
      </trkpt>
      <trkpt lat="45.22768" lon="-72.47238">
        <ele>251.1</ele>
      </trkpt>
      <trkpt lat="45.22777" lon="-72.47351">
        <ele>253.2</ele>
      </trkpt>
      <trkpt lat="45.22785" lon="-72.47426">
        <ele>257.5</ele>
      </trkpt>
      <trkpt lat="45.22786" lon="-72.47506">
        <ele>259.4</ele>
      </trkpt>
      <trkpt lat="45.22781" lon="-72.476">
        <ele>260.8</ele>
      </trkpt>
      <trkpt lat="45.22776" lon="-72.4765">
        <ele>261.3</ele>
      </trkpt>
      <trkpt lat="45.22751" lon="-72.47735">
        <ele>259.9</ele>
      </trkpt>
      <trkpt lat="45.22743" lon="-72.47749">
        <ele>259.5</ele>
      </trkpt>
      <trkpt lat="45.22717" lon="-72.47788">
        <ele>257.5</ele>
      </trkpt>
      <trkpt lat="45.22686" lon="-72.47825">
        <ele>255.2</ele>
      </trkpt>
      <trkpt lat="45.226214" lon="-72.479066">
        <ele>247.1</ele>
      </trkpt>
      <trkpt lat="45.225568" lon="-72.479882">
        <ele>242</ele>
      </trkpt>
      <trkpt lat="45.224922" lon="-72.480698">
        <ele>241</ele>
      </trkpt>
      <trkpt lat="45.224276" lon="-72.481514">
        <ele>241.8</ele>
      </trkpt>
      <trkpt lat="45.22363" lon="-72.48233">
        <ele>242.1</ele>
      </trkpt>
      <trkpt lat="45.22339" lon="-72.48271">
        <ele>240</ele>
      </trkpt>
      <trkpt lat="45.22321" lon="-72.48304">
        <ele>238.3</ele>
      </trkpt>
      <trkpt lat="45.22315" lon="-72.48321">
        <ele>238.1</ele>
      </trkpt>
      <trkpt lat="45.22304" lon="-72.48375">
        <ele>237.2</ele>
      </trkpt>
      <trkpt lat="45.22295" lon="-72.48464">
        <ele>237.5</ele>
      </trkpt>
      <trkpt lat="45.222936" lon="-72.48591">
        <ele>240.9</ele>
      </trkpt>
      <trkpt lat="45.222923" lon="-72.48718">
        <ele>243.6</ele>
      </trkpt>
      <trkpt lat="45.22291" lon="-72.48845">
        <ele>245.1</ele>
      </trkpt>
      <trkpt lat="45.22291" lon="-72.48873">
        <ele>244.8</ele>
      </trkpt>
      <trkpt lat="45.22282" lon="-72.4893">
        <ele>243.8</ele>
      </trkpt>
      <trkpt lat="45.2227" lon="-72.48961">
        <ele>242.9</ele>
      </trkpt>
      <trkpt lat="45.22254" lon="-72.48986">
        <ele>242.8</ele>
      </trkpt>
      <trkpt lat="45.22185" lon="-72.4906">
        <ele>244.3</ele>
      </trkpt>
      <trkpt lat="45.22164" lon="-72.49086">
        <ele>244.8</ele>
      </trkpt>
      <trkpt lat="45.22125" lon="-72.49176">
        <ele>245.6</ele>
      </trkpt>
      <trkpt lat="45.22098" lon="-72.492535">
        <ele>245</ele>
      </trkpt>
      <trkpt lat="45.22071" lon="-72.49331">
        <ele>244.2</ele>
      </trkpt>
      <trkpt lat="45.22061" lon="-72.49383">
        <ele>241.9</ele>
      </trkpt>
      <trkpt lat="45.22059" lon="-72.49401">
        <ele>240.8</ele>
      </trkpt>
      <trkpt lat="45.2206" lon="-72.49415">
        <ele>240.1</ele>
      </trkpt>
      <trkpt lat="45.22063" lon="-72.49445">
        <ele>238.3</ele>
      </trkpt>
      <trkpt lat="45.22072" lon="-72.49483">
        <ele>235.7</ele>
      </trkpt>
      <trkpt lat="45.220255" lon="-72.49502">
        <ele>233.6</ele>
      </trkpt>
      <trkpt lat="45.21979" lon="-72.49521">
        <ele>229.8</ele>
      </trkpt>
      <trkpt lat="45.21953" lon="-72.49525">
        <ele>226</ele>
      </trkpt>
      <trkpt lat="45.219084" lon="-72.495139">
        <ele>219</ele>
      </trkpt>
      <trkpt lat="45.21864" lon="-72.49503">
        <ele>214.8</ele>
      </trkpt>
      <trkpt lat="45.217919" lon="-72.494909">
        <ele>209.6</ele>
      </trkpt>
      <trkpt lat="45.2172" lon="-72.49479">
        <ele>209.1</ele>
      </trkpt>
      <trkpt lat="45.2169" lon="-72.49485">
        <ele>209.2</ele>
      </trkpt>
      <trkpt lat="45.21659" lon="-72.49502">
        <ele>209.8</ele>
      </trkpt>
      <trkpt lat="45.21652" lon="-72.49504">
        <ele>210.6</ele>
      </trkpt>
      <trkpt lat="45.21641" lon="-72.49504">
        <ele>210.6</ele>
      </trkpt>
      <trkpt lat="45.21624" lon="-72.49494">
        <ele>212.4</ele>
      </trkpt>
      <trkpt lat="45.21607" lon="-72.49469">
        <ele>213.3</ele>
      </trkpt>
      <trkpt lat="45.215445" lon="-72.493944">
        <ele>219.2</ele>
      </trkpt>
      <trkpt lat="45.21482" lon="-72.4932">
        <ele>225.9</ele>
      </trkpt>
      <trkpt lat="45.21457" lon="-72.49279">
        <ele>230.1</ele>
      </trkpt>
      <trkpt lat="45.21431" lon="-72.49208">
        <ele>233.1</ele>
      </trkpt>
      <trkpt lat="45.21409" lon="-72.49144">
        <ele>235.6</ele>
      </trkpt>
      <trkpt lat="45.21376" lon="-72.490439">
        <ele>238.8</ele>
      </trkpt>
      <trkpt lat="45.21343" lon="-72.48944">
        <ele>241.9</ele>
      </trkpt>
      <trkpt lat="45.213165" lon="-72.488694">
        <ele>244.1</ele>
      </trkpt>
      <trkpt lat="45.2129" lon="-72.48795">
        <ele>246.8</ele>
      </trkpt>
      <trkpt lat="45.21276" lon="-72.48778">
        <ele>248.6</ele>
      </trkpt>
      <trkpt lat="45.21201" lon="-72.4871">
        <ele>257.8</ele>
      </trkpt>
      <trkpt lat="45.21126" lon="-72.48648">
        <ele>263.8</ele>
      </trkpt>
      <trkpt lat="45.210623" lon="-72.486063">
        <ele>269.3</ele>
      </trkpt>
      <trkpt lat="45.209986" lon="-72.485646">
        <ele>271.3</ele>
      </trkpt>
      <trkpt lat="45.20935" lon="-72.48523">
        <ele>268</ele>
      </trkpt>
      <trkpt lat="45.20883" lon="-72.48487">
        <ele>270.5</ele>
      </trkpt>
      <trkpt lat="45.20832" lon="-72.48456">
        <ele>275.8</ele>
      </trkpt>
      <trkpt lat="45.20795" lon="-72.48442">
        <ele>279.1</ele>
      </trkpt>
      <trkpt lat="45.20776" lon="-72.48438">
        <ele>281.2</ele>
      </trkpt>
      <trkpt lat="45.20728" lon="-72.48433">
        <ele>286.5</ele>
      </trkpt>
      <trkpt lat="45.20705" lon="-72.48425">
        <ele>289.9</ele>
      </trkpt>
      <trkpt lat="45.20683" lon="-72.48424">
        <ele>290.8</ele>
      </trkpt>
      <trkpt lat="45.20663" lon="-72.48429">
        <ele>292.8</ele>
      </trkpt>
      <trkpt lat="45.20649" lon="-72.48438">
        <ele>296</ele>
      </trkpt>
      <trkpt lat="45.206075" lon="-72.484695">
        <ele>300</ele>
      </trkpt>
      <trkpt lat="45.20566" lon="-72.48501">
        <ele>305</ele>
      </trkpt>
      <trkpt lat="45.20547" lon="-72.48523">
        <ele>307</ele>
      </trkpt>
      <trkpt lat="45.20506" lon="-72.4859">
        <ele>310.9</ele>
      </trkpt>
      <trkpt lat="45.204715" lon="-72.48657">
        <ele>312.4</ele>
      </trkpt>
      <trkpt lat="45.20437" lon="-72.48724">
        <ele>313.7</ele>
      </trkpt>
      <trkpt lat="45.20391" lon="-72.4882">
        <ele>314.8</ele>
      </trkpt>
      <trkpt lat="45.2034" lon="-72.48922">
        <ele>314.2</ele>
      </trkpt>
      <trkpt lat="45.20296" lon="-72.4902">
        <ele>312.1</ele>
      </trkpt>
      <trkpt lat="45.20259" lon="-72.49114">
        <ele>310</ele>
      </trkpt>
      <trkpt lat="45.202245" lon="-72.4921">
        <ele>308.8</ele>
      </trkpt>
      <trkpt lat="45.2019" lon="-72.49306">
        <ele>307.2</ele>
      </trkpt>
      <trkpt lat="45.2018" lon="-72.49329">
        <ele>306.1</ele>
      </trkpt>
      <trkpt lat="45.20161" lon="-72.49382">
        <ele>301.8</ele>
      </trkpt>
      <trkpt lat="45.20158" lon="-72.49396">
        <ele>301</ele>
      </trkpt>
      <trkpt lat="45.20161" lon="-72.49495">
        <ele>295.9</ele>
      </trkpt>
      <trkpt lat="45.20176" lon="-72.49566">
        <ele>290.7</ele>
      </trkpt>
      <trkpt lat="45.20186" lon="-72.49596">
        <ele>288.8</ele>
      </trkpt>
      <trkpt lat="45.2021" lon="-72.496619">
        <ele>284.2</ele>
      </trkpt>
      <trkpt lat="45.20234" lon="-72.49728">
        <ele>281.8</ele>
      </trkpt>
      <trkpt lat="45.20248" lon="-72.49776">
        <ele>281.1</ele>
      </trkpt>
      <trkpt lat="45.20259" lon="-72.4979">
        <ele>280.5</ele>
      </trkpt>
      <trkpt lat="45.20291" lon="-72.49853">
        <ele>278.8</ele>
      </trkpt>
      <trkpt lat="45.20323" lon="-72.499289">
        <ele>278</ele>
      </trkpt>
      <trkpt lat="45.20355" lon="-72.50005">
        <ele>278.1</ele>
      </trkpt>
      <trkpt lat="45.203953" lon="-72.500869">
        <ele>278.7</ele>
      </trkpt>
      <trkpt lat="45.204356" lon="-72.501689">
        <ele>278.9</ele>
      </trkpt>
      <trkpt lat="45.20476" lon="-72.50251">
        <ele>277.1</ele>
      </trkpt>
      <trkpt lat="45.205326" lon="-72.503223">
        <ele>271.1</ele>
      </trkpt>
      <trkpt lat="45.205893" lon="-72.503936">
        <ele>265.2</ele>
      </trkpt>
      <trkpt lat="45.20646" lon="-72.50465">
        <ele>261.1</ele>
      </trkpt>
      <trkpt lat="45.20668" lon="-72.50502">
        <ele>259</ele>
      </trkpt>
      <trkpt lat="45.20706" lon="-72.506069">
        <ele>254.7</ele>
      </trkpt>
      <trkpt lat="45.20744" lon="-72.50712">
        <ele>252</ele>
      </trkpt>
      <trkpt lat="45.20762" lon="-72.50749">
        <ele>250.3</ele>
      </trkpt>
      <trkpt lat="45.20774" lon="-72.5077">
        <ele>248.4</ele>
      </trkpt>
      <trkpt lat="45.20808" lon="-72.50812">
        <ele>246.3</ele>
      </trkpt>
      <trkpt lat="45.20765" lon="-72.50842">
        <ele>252.9</ele>
      </trkpt>
      <trkpt lat="45.20705" lon="-72.50896">
        <ele>262.4</ele>
      </trkpt>
      <trkpt lat="45.206635" lon="-72.50934">
        <ele>268</ele>
      </trkpt>
      <trkpt lat="45.20622" lon="-72.50972">
        <ele>274.6</ele>
      </trkpt>
      <trkpt lat="45.20622" lon="-72.50973">
        <ele>274.6</ele>
      </trkpt>
      <trkpt lat="45.2058" lon="-72.51013">
        <ele>282.2</ele>
      </trkpt>
      <trkpt lat="45.20538" lon="-72.51053">
        <ele>289.3</ele>
      </trkpt>
      <trkpt lat="45.20525" lon="-72.51075">
        <ele>290.3</ele>
      </trkpt>
      <trkpt lat="45.204797" lon="-72.511735">
        <ele>295.9</ele>
      </trkpt>
      <trkpt lat="45.204345" lon="-72.51272">
        <ele>298.3</ele>
      </trkpt>
      <trkpt lat="45.203892" lon="-72.513705">
        <ele>300.6</ele>
      </trkpt>
      <trkpt lat="45.20344" lon="-72.51469">
        <ele>308.2</ele>
      </trkpt>
      <trkpt lat="45.20294" lon="-72.515747">
        <ele>313.4</ele>
      </trkpt>
      <trkpt lat="45.20244" lon="-72.516805">
        <ele>313.3</ele>
      </trkpt>
      <trkpt lat="45.20194" lon="-72.517862">
        <ele>314.1</ele>
      </trkpt>
      <trkpt lat="45.20144" lon="-72.51892">
        <ele>317.9</ele>
      </trkpt>
      <trkpt lat="45.200996" lon="-72.519882">
        <ele>317.6</ele>
      </trkpt>
      <trkpt lat="45.200552" lon="-72.520845">
        <ele>318.8</ele>
      </trkpt>
      <trkpt lat="45.200108" lon="-72.521807">
        <ele>315.6</ele>
      </trkpt>
      <trkpt lat="45.199665" lon="-72.52277">
        <ele>312.2</ele>
      </trkpt>
      <trkpt lat="45.199221" lon="-72.523732">
        <ele>310.1</ele>
      </trkpt>
      <trkpt lat="45.198777" lon="-72.524695">
        <ele>306.9</ele>
      </trkpt>
      <trkpt lat="45.198333" lon="-72.525657">
        <ele>304.1</ele>
      </trkpt>
      <trkpt lat="45.19789" lon="-72.52662">
        <ele>303.1</ele>
      </trkpt>
      <trkpt lat="45.19789" lon="-72.52663">
        <ele>303.1</ele>
      </trkpt>
      <trkpt lat="45.19762" lon="-72.52722">
        <ele>302.4</ele>
      </trkpt>
      <trkpt lat="45.19735" lon="-72.52781">
        <ele>301.5</ele>
      </trkpt>
      <trkpt lat="45.196985" lon="-72.52868">
        <ele>303.7</ele>
      </trkpt>
      <trkpt lat="45.19662" lon="-72.52955">
        <ele>301.8</ele>
      </trkpt>
      <trkpt lat="45.196208" lon="-72.53048">
        <ele>300.3</ele>
      </trkpt>
      <trkpt lat="45.195797" lon="-72.53141">
        <ele>300.5</ele>
      </trkpt>
      <trkpt lat="45.195385" lon="-72.53234">
        <ele>300.6</ele>
      </trkpt>
      <trkpt lat="45.194974" lon="-72.53327">
        <ele>298.3</ele>
      </trkpt>
      <trkpt lat="45.194562" lon="-72.5342">
        <ele>295.4</ele>
      </trkpt>
      <trkpt lat="45.194151" lon="-72.53513">
        <ele>294.7</ele>
      </trkpt>
      <trkpt lat="45.19374" lon="-72.53606">
        <ele>291.5</ele>
      </trkpt>
      <trkpt lat="45.19423" lon="-72.53609">
        <ele>289.7</ele>
      </trkpt>
      <trkpt lat="45.194984" lon="-72.536104">
        <ele>288.3</ele>
      </trkpt>
      <trkpt lat="45.19574" lon="-72.53612">
        <ele>282.4</ele>
      </trkpt>
      <trkpt lat="45.19586" lon="-72.53613">
        <ele>281.5</ele>
      </trkpt>
      <trkpt lat="45.19613" lon="-72.53636">
        <ele>277</ele>
      </trkpt>
      <trkpt lat="45.19661" lon="-72.53684">
        <ele>271.3</ele>
      </trkpt>
      <trkpt lat="45.19682" lon="-72.53698">
        <ele>269.7</ele>
      </trkpt>
      <trkpt lat="45.19711" lon="-72.53712">
        <ele>265.2</ele>
      </trkpt>
      <trkpt lat="45.19743" lon="-72.53712">
        <ele>261.5</ele>
      </trkpt>
      <trkpt lat="45.19762" lon="-72.53708">
        <ele>260.4</ele>
      </trkpt>
      <trkpt lat="45.19782" lon="-72.53695">
        <ele>260</ele>
      </trkpt>
      <trkpt lat="45.198" lon="-72.53676">
        <ele>259.4</ele>
      </trkpt>
      <trkpt lat="45.19834" lon="-72.53618">
        <ele>256.8</ele>
      </trkpt>
      <trkpt lat="45.19846" lon="-72.53601">
        <ele>255.7</ele>
      </trkpt>
      <trkpt lat="45.1987" lon="-72.53586">
        <ele>252.4</ele>
      </trkpt>
      <trkpt lat="45.19888" lon="-72.53582">
        <ele>250.6</ele>
      </trkpt>
      <trkpt lat="45.199616" lon="-72.535806">
        <ele>248.3</ele>
      </trkpt>
      <trkpt lat="45.200353" lon="-72.535793">
        <ele>257.4</ele>
      </trkpt>
      <trkpt lat="45.20109" lon="-72.53578">
        <ele>264.8</ele>
      </trkpt>
      <trkpt lat="45.20139" lon="-72.53582">
        <ele>265.2</ele>
      </trkpt>
      <trkpt lat="45.20183" lon="-72.53595">
        <ele>264.5</ele>
      </trkpt>
      <trkpt lat="45.20211" lon="-72.53592">
        <ele>263</ele>
      </trkpt>
      <trkpt lat="45.20271" lon="-72.53577">
        <ele>259.9</ele>
      </trkpt>
      <trkpt lat="45.20279" lon="-72.53577">
        <ele>259.4</ele>
      </trkpt>
      <trkpt lat="45.2034" lon="-72.53587">
        <ele>250.1</ele>
      </trkpt>
      <trkpt lat="45.20424" lon="-72.53584">
        <ele>239.5</ele>
      </trkpt>
      <trkpt lat="45.20508" lon="-72.53581">
        <ele>227.6</ele>
      </trkpt>
      <trkpt lat="45.205734" lon="-72.535829">
        <ele>219.6</ele>
      </trkpt>
      <trkpt lat="45.20639" lon="-72.53585">
        <ele>216.9</ele>
      </trkpt>
      <trkpt lat="45.207135" lon="-72.535859">
        <ele>215.9</ele>
      </trkpt>
      <trkpt lat="45.207881" lon="-72.535869">
        <ele>215.9</ele>
      </trkpt>
      <trkpt lat="45.208627" lon="-72.535879">
        <ele>216.2</ele>
      </trkpt>
      <trkpt lat="45.209373" lon="-72.535889">
        <ele>216.2</ele>
      </trkpt>
      <trkpt lat="45.21012" lon="-72.5359">
        <ele>211.1</ele>
      </trkpt>
      <trkpt lat="45.210835" lon="-72.535924">
        <ele>207.6</ele>
      </trkpt>
      <trkpt lat="45.21155" lon="-72.53595">
        <ele>206.8</ele>
      </trkpt>
      <trkpt lat="45.211755" lon="-72.534745">
        <ele>205.8</ele>
      </trkpt>
      <trkpt lat="45.21196" lon="-72.53354">
        <ele>204.7</ele>
      </trkpt>
      <trkpt lat="45.21261" lon="-72.53377">
        <ele>202.4</ele>
      </trkpt>
      <trkpt lat="45.21333" lon="-72.53403">
        <ele>205.5</ele>
      </trkpt>
      <trkpt lat="45.21345" lon="-72.53408">
        <ele>205.2</ele>
      </trkpt>
      <trkpt lat="45.21349" lon="-72.53408">
        <ele>205.2</ele>
      </trkpt>
      <trkpt lat="45.21357" lon="-72.53404">
        <ele>205</ele>
      </trkpt>
      <trkpt lat="45.214" lon="-72.53351">
        <ele>202.5</ele>
      </trkpt>
      <trkpt lat="45.214" lon="-72.53352">
        <ele>202.5</ele>
      </trkpt>
      <trkpt lat="45.214578" lon="-72.53281">
        <ele>202.2</ele>
      </trkpt>
      <trkpt lat="45.215156" lon="-72.5321">
        <ele>201.3</ele>
      </trkpt>
      <trkpt lat="45.215734" lon="-72.53139">
        <ele>200.6</ele>
      </trkpt>
      <trkpt lat="45.216312" lon="-72.53068">
        <ele>200.7</ele>
      </trkpt>
      <trkpt lat="45.21689" lon="-72.52997">
        <ele>202.8</ele>
      </trkpt>
      <trkpt lat="45.21725" lon="-72.53058">
        <ele>201.6</ele>
      </trkpt>
      <trkpt lat="45.21737" lon="-72.53067">
        <ele>201.7</ele>
      </trkpt>
      <trkpt lat="45.217895" lon="-72.530974">
        <ele>202.5</ele>
      </trkpt>
      <trkpt lat="45.21842" lon="-72.53128">
        <ele>202.5</ele>
      </trkpt>
      <trkpt lat="45.21913" lon="-72.5317">
        <ele>202.4</ele>
      </trkpt>
      <trkpt lat="45.21952" lon="-72.53187">
        <ele>202.6</ele>
      </trkpt>
      <trkpt lat="45.21973" lon="-72.53192">
        <ele>202.7</ele>
      </trkpt>
      <trkpt lat="45.22045" lon="-72.53188">
        <ele>202.6</ele>
      </trkpt>
      <trkpt lat="45.22044" lon="-72.53188">
        <ele>202.6</ele>
      </trkpt>
      <trkpt lat="45.22106" lon="-72.531836">
        <ele>202.4</ele>
      </trkpt>
      <trkpt lat="45.22168" lon="-72.531793">
        <ele>202.4</ele>
      </trkpt>
      <trkpt lat="45.2223" lon="-72.53175">
        <ele>202.4</ele>
      </trkpt>
      <trkpt lat="45.22232" lon="-72.532409">
        <ele>202.2</ele>
      </trkpt>
      <trkpt lat="45.22234" lon="-72.53307">
        <ele>201.9</ele>
      </trkpt>
    </trkseg>
  </trk>
</gpx>