<?xml version='1.0' encoding='utf-8'?>
<gpx xmlns="http://www.topografix.com/GPX/1/1" xmlns:xsi="http://www.w3.org/2001/XMLSchema-instance" version="1.1" creator="Gravelle Estrie" xsi:schemaLocation="http://www.topografix.com/GPX/1/1 http://www.topografix.com/GPX/1/1/gpx.xsd">
  <metadata>
    <name>Bigger Heart</name>
  </metadata>
  <trk>
    <name>Bigger Heart</name>
    <trkseg>
      <trkpt lat="45.22234" lon="-72.53294">
        <ele>202.1</ele>
      </trkpt>
      <trkpt lat="45.22231" lon="-72.53398">
        <ele>200.6</ele>
      </trkpt>
      <trkpt lat="45.222325" lon="-72.534969">
        <ele>199.8</ele>
      </trkpt>
      <trkpt lat="45.22234" lon="-72.53596">
        <ele>200.2</ele>
      </trkpt>
      <trkpt lat="45.222383" lon="-72.536913">
        <ele>205.8</ele>
      </trkpt>
      <trkpt lat="45.222426" lon="-72.537866">
        <ele>211.7</ele>
      </trkpt>
      <trkpt lat="45.22247" lon="-72.53882">
        <ele>213.4</ele>
      </trkpt>
      <trkpt lat="45.22263" lon="-72.53954">
        <ele>217.7</ele>
      </trkpt>
      <trkpt lat="45.22259" lon="-72.53977">
        <ele>220.2</ele>
      </trkpt>
      <trkpt lat="45.22248" lon="-72.54007">
        <ele>222.9</ele>
      </trkpt>
      <trkpt lat="45.22232" lon="-72.54042">
        <ele>225.8</ele>
      </trkpt>
      <trkpt lat="45.22203" lon="-72.54096">
        <ele>230.1</ele>
      </trkpt>
      <trkpt lat="45.22193" lon="-72.5411">
        <ele>231.9</ele>
      </trkpt>
      <trkpt lat="45.22159" lon="-72.54145">
        <ele>234.5</ele>
      </trkpt>
      <trkpt lat="45.22148" lon="-72.54159">
        <ele>236.9</ele>
      </trkpt>
      <trkpt lat="45.22141" lon="-72.54174">
        <ele>238.8</ele>
      </trkpt>
      <trkpt lat="45.22136" lon="-72.54209">
        <ele>239.7</ele>
      </trkpt>
      <trkpt lat="45.22139" lon="-72.5424">
        <ele>242.6</ele>
      </trkpt>
      <trkpt lat="45.22154" lon="-72.5428">
        <ele>244.5</ele>
      </trkpt>
      <trkpt lat="45.22198" lon="-72.543529">
        <ele>248.4</ele>
      </trkpt>
      <trkpt lat="45.22242" lon="-72.54426">
        <ele>252.8</ele>
      </trkpt>
      <trkpt lat="45.22258" lon="-72.54459">
        <ele>254.3</ele>
      </trkpt>
      <trkpt lat="45.2226" lon="-72.54465">
        <ele>255</ele>
      </trkpt>
      <trkpt lat="45.222635" lon="-72.545894">
        <ele>255.5</ele>
      </trkpt>
      <trkpt lat="45.22267" lon="-72.54714">
        <ele>253</ele>
      </trkpt>
      <trkpt lat="45.222683" lon="-72.548249">
        <ele>254.9</ele>
      </trkpt>
      <trkpt lat="45.222696" lon="-72.549359">
        <ele>258.4</ele>
      </trkpt>
      <trkpt lat="45.22271" lon="-72.55047">
        <ele>264.1</ele>
      </trkpt>
      <trkpt lat="45.222755" lon="-72.551114">
        <ele>268.6</ele>
      </trkpt>
      <trkpt lat="45.2228" lon="-72.55176">
        <ele>273.4</ele>
      </trkpt>
      <trkpt lat="45.222816" lon="-72.552797">
        <ele>276.4</ele>
      </trkpt>
      <trkpt lat="45.222832" lon="-72.553835">
        <ele>277.2</ele>
      </trkpt>
      <trkpt lat="45.222848" lon="-72.554873">
        <ele>275.7</ele>
      </trkpt>
      <trkpt lat="45.222864" lon="-72.555911">
        <ele>272.2</ele>
      </trkpt>
      <trkpt lat="45.22288" lon="-72.55695">
        <ele>270.3</ele>
      </trkpt>
      <trkpt lat="45.22287" lon="-72.55762">
        <ele>268.3</ele>
      </trkpt>
      <trkpt lat="45.22282" lon="-72.55816">
        <ele>263.5</ele>
      </trkpt>
      <trkpt lat="45.22283" lon="-72.559054">
        <ele>259.4</ele>
      </trkpt>
      <trkpt lat="45.22284" lon="-72.55995">
        <ele>257.4</ele>
      </trkpt>
      <trkpt lat="45.22282" lon="-72.56111">
        <ele>259.9</ele>
      </trkpt>
      <trkpt lat="45.2228" lon="-72.56227">
        <ele>264.4</ele>
      </trkpt>
      <trkpt lat="45.2228" lon="-72.56228">
        <ele>264.4</ele>
      </trkpt>
      <trkpt lat="45.222777" lon="-72.563365">
        <ele>267.7</ele>
      </trkpt>
      <trkpt lat="45.222755" lon="-72.56445">
        <ele>273.8</ele>
      </trkpt>
      <trkpt lat="45.222732" lon="-72.565535">
        <ele>283.3</ele>
      </trkpt>
      <trkpt lat="45.22271" lon="-72.56662">
        <ele>287.7</ele>
      </trkpt>
      <trkpt lat="45.222695" lon="-72.567778">
        <ele>286.9</ele>
      </trkpt>
      <trkpt lat="45.22268" lon="-72.568937">
        <ele>284</ele>
      </trkpt>
      <trkpt lat="45.222665" lon="-72.570096">
        <ele>280.3</ele>
      </trkpt>
      <trkpt lat="45.22265" lon="-72.571255">
        <ele>274.4</ele>
      </trkpt>
      <trkpt lat="45.222635" lon="-72.572413">
        <ele>267.8</ele>
      </trkpt>
      <trkpt lat="45.22262" lon="-72.573572">
        <ele>260.1</ele>
      </trkpt>
      <trkpt lat="45.222605" lon="-72.574731">
        <ele>252.9</ele>
      </trkpt>
      <trkpt lat="45.22259" lon="-72.57589">
        <ele>244.9</ele>
      </trkpt>
      <trkpt lat="45.222595" lon="-72.576669">
        <ele>237.5</ele>
      </trkpt>
      <trkpt lat="45.2226" lon="-72.57745">
        <ele>232.7</ele>
      </trkpt>
      <trkpt lat="45.22264" lon="-72.578654">
        <ele>226.9</ele>
      </trkpt>
      <trkpt lat="45.22268" lon="-72.579858">
        <ele>221.9</ele>
      </trkpt>
      <trkpt lat="45.22272" lon="-72.581063">
        <ele>217.6</ele>
      </trkpt>
      <trkpt lat="45.22276" lon="-72.582267">
        <ele>214.3</ele>
      </trkpt>
      <trkpt lat="45.2228" lon="-72.583472">
        <ele>208.1</ele>
      </trkpt>
      <trkpt lat="45.22284" lon="-72.584676">
        <ele>205</ele>
      </trkpt>
      <trkpt lat="45.22288" lon="-72.585881">
        <ele>202.3</ele>
      </trkpt>
      <trkpt lat="45.22292" lon="-72.587085">
        <ele>200.4</ele>
      </trkpt>
      <trkpt lat="45.22296" lon="-72.588289">
        <ele>201.2</ele>
      </trkpt>
      <trkpt lat="45.223" lon="-72.589494">
        <ele>204.7</ele>
      </trkpt>
      <trkpt lat="45.22304" lon="-72.590698">
        <ele>208.3</ele>
      </trkpt>
      <trkpt lat="45.22308" lon="-72.591903">
        <ele>211</ele>
      </trkpt>
      <trkpt lat="45.22312" lon="-72.593107">
        <ele>213.2</ele>
      </trkpt>
      <trkpt lat="45.22316" lon="-72.594312">
        <ele>216.9</ele>
      </trkpt>
      <trkpt lat="45.2232" lon="-72.595516">
        <ele>219.1</ele>
      </trkpt>
      <trkpt lat="45.22324" lon="-72.596721">
        <ele>219.7</ele>
      </trkpt>
      <trkpt lat="45.22328" lon="-72.597925">
        <ele>221.3</ele>
      </trkpt>
      <trkpt lat="45.22332" lon="-72.59913">
        <ele>221</ele>
      </trkpt>
      <trkpt lat="45.223382" lon="-72.600375">
        <ele>217.6</ele>
      </trkpt>
      <trkpt lat="45.223445" lon="-72.601621">
        <ele>212.3</ele>
      </trkpt>
      <trkpt lat="45.223508" lon="-72.602867">
        <ele>210.2</ele>
      </trkpt>
      <trkpt lat="45.223571" lon="-72.604112">
        <ele>211.1</ele>
      </trkpt>
      <trkpt lat="45.223634" lon="-72.605358">
        <ele>214.8</ele>
      </trkpt>
      <trkpt lat="45.223697" lon="-72.606604">
        <ele>214.6</ele>
      </trkpt>
      <trkpt lat="45.22376" lon="-72.60785">
        <ele>211.2</ele>
      </trkpt>
      <trkpt lat="45.223814" lon="-72.609087">
        <ele>209</ele>
      </trkpt>
      <trkpt lat="45.223868" lon="-72.610325">
        <ele>209.2</ele>
      </trkpt>
      <trkpt lat="45.223923" lon="-72.611563">
        <ele>210.2</ele>
      </trkpt>
      <trkpt lat="45.223977" lon="-72.612801">
        <ele>213.4</ele>
      </trkpt>
      <trkpt lat="45.224031" lon="-72.614039">
        <ele>214.6</ele>
      </trkpt>
      <trkpt lat="45.224086" lon="-72.615277">
        <ele>215.5</ele>
      </trkpt>
      <trkpt lat="45.22414" lon="-72.616514">
        <ele>217.6</ele>
      </trkpt>
      <trkpt lat="45.224194" lon="-72.617752">
        <ele>214.3</ele>
      </trkpt>
      <trkpt lat="45.224248" lon="-72.61899">
        <ele>214.2</ele>
      </trkpt>
      <trkpt lat="45.224303" lon="-72.620228">
        <ele>216.6</ele>
      </trkpt>
      <trkpt lat="45.224357" lon="-72.621466">
        <ele>217</ele>
      </trkpt>
      <trkpt lat="45.224411" lon="-72.622704">
        <ele>215.4</ele>
      </trkpt>
      <trkpt lat="45.224465" lon="-72.623942">
        <ele>214.5</ele>
      </trkpt>
      <trkpt lat="45.22452" lon="-72.62518">
        <ele>214.1</ele>
      </trkpt>
      <trkpt lat="45.224558" lon="-72.626278">
        <ele>215.7</ele>
      </trkpt>
      <trkpt lat="45.224596" lon="-72.627376">
        <ele>217.4</ele>
      </trkpt>
      <trkpt lat="45.224635" lon="-72.628474">
        <ele>218.3</ele>
      </trkpt>
      <trkpt lat="45.224673" lon="-72.629573">
        <ele>219.2</ele>
      </trkpt>
      <trkpt lat="45.224711" lon="-72.630671">
        <ele>218.4</ele>
      </trkpt>
      <trkpt lat="45.22475" lon="-72.63177">
        <ele>221.3</ele>
      </trkpt>
      <trkpt lat="45.22539" lon="-72.63177">
        <ele>220.5</ele>
      </trkpt>
      <trkpt lat="45.22603" lon="-72.63177">
        <ele>221.2</ele>
      </trkpt>
      <trkpt lat="45.226725" lon="-72.631765">
        <ele>223.3</ele>
      </trkpt>
      <trkpt lat="45.22742" lon="-72.63176">
        <ele>228.5</ele>
      </trkpt>
      <trkpt lat="45.22771" lon="-72.63172">
        <ele>230.4</ele>
      </trkpt>
      <trkpt lat="45.228523" lon="-72.631703">
        <ele>236.9</ele>
      </trkpt>
      <trkpt lat="45.229336" lon="-72.631686">
        <ele>244.7</ele>
      </trkpt>
      <trkpt lat="45.23015" lon="-72.63167">
        <ele>254</ele>
      </trkpt>
      <trkpt lat="45.23027" lon="-72.63172">
        <ele>254.6</ele>
      </trkpt>
      <trkpt lat="45.23031" lon="-72.6318">
        <ele>255.5</ele>
      </trkpt>
      <trkpt lat="45.23036" lon="-72.63198">
        <ele>255.9</ele>
      </trkpt>
      <trkpt lat="45.23038" lon="-72.63258">
        <ele>255.8</ele>
      </trkpt>
      <trkpt lat="45.230375" lon="-72.633539">
        <ele>261.8</ele>
      </trkpt>
      <trkpt lat="45.23037" lon="-72.6345">
        <ele>271.4</ele>
      </trkpt>
      <trkpt lat="45.230395" lon="-72.635345">
        <ele>278.8</ele>
      </trkpt>
      <trkpt lat="45.23042" lon="-72.63619">
        <ele>283.3</ele>
      </trkpt>
      <trkpt lat="45.23043" lon="-72.63745">
        <ele>285.6</ele>
      </trkpt>
      <trkpt lat="45.23047" lon="-72.63812">
        <ele>292.1</ele>
      </trkpt>
      <trkpt lat="45.2305" lon="-72.638924">
        <ele>296.4</ele>
      </trkpt>
      <trkpt lat="45.23053" lon="-72.63973">
        <ele>298.1</ele>
      </trkpt>
      <trkpt lat="45.23052" lon="-72.64018">
        <ele>298.6</ele>
      </trkpt>
      <trkpt lat="45.23041" lon="-72.64054">
        <ele>297.9</ele>
      </trkpt>
      <trkpt lat="45.23032" lon="-72.64068">
        <ele>297.2</ele>
      </trkpt>
      <trkpt lat="45.23014" lon="-72.6412">
        <ele>292.7</ele>
      </trkpt>
      <trkpt lat="45.229915" lon="-72.64197">
        <ele>284.3</ele>
      </trkpt>
      <trkpt lat="45.22969" lon="-72.64274">
        <ele>274.8</ele>
      </trkpt>
      <trkpt lat="45.22954" lon="-72.643385">
        <ele>270.1</ele>
      </trkpt>
      <trkpt lat="45.22939" lon="-72.64403">
        <ele>264.2</ele>
      </trkpt>
      <trkpt lat="45.22925" lon="-72.64448">
        <ele>259.5</ele>
      </trkpt>
      <trkpt lat="45.22925" lon="-72.64449">
        <ele>259.4</ele>
      </trkpt>
      <trkpt lat="45.22906" lon="-72.64515">
        <ele>253.3</ele>
      </trkpt>
      <trkpt lat="45.22898" lon="-72.6455">
        <ele>251.6</ele>
      </trkpt>
      <trkpt lat="45.22882" lon="-72.646315">
        <ele>244.8</ele>
      </trkpt>
      <trkpt lat="45.22866" lon="-72.64713">
        <ele>240.1</ele>
      </trkpt>
      <trkpt lat="45.22863" lon="-72.64748">
        <ele>239</ele>
      </trkpt>
      <trkpt lat="45.228625" lon="-72.64815">
        <ele>231.4</ele>
      </trkpt>
      <trkpt lat="45.22862" lon="-72.64882">
        <ele>226.8</ele>
      </trkpt>
      <trkpt lat="45.22864" lon="-72.649917">
        <ele>223.7</ele>
      </trkpt>
      <trkpt lat="45.22866" lon="-72.651014">
        <ele>220.3</ele>
      </trkpt>
      <trkpt lat="45.22868" lon="-72.652112">
        <ele>218.2</ele>
      </trkpt>
      <trkpt lat="45.2287" lon="-72.65321">
        <ele>217.1</ele>
      </trkpt>
      <trkpt lat="45.22876" lon="-72.654259">
        <ele>216.3</ele>
      </trkpt>
      <trkpt lat="45.22882" lon="-72.65531">
        <ele>217.9</ele>
      </trkpt>
      <trkpt lat="45.22885" lon="-72.656004">
        <ele>221.2</ele>
      </trkpt>
      <trkpt lat="45.22888" lon="-72.6567">
        <ele>226</ele>
      </trkpt>
      <trkpt lat="45.22887" lon="-72.65733">
        <ele>229.3</ele>
      </trkpt>
      <trkpt lat="45.22897" lon="-72.658596">
        <ele>229.6</ele>
      </trkpt>
      <trkpt lat="45.22907" lon="-72.659863">
        <ele>228.8</ele>
      </trkpt>
      <trkpt lat="45.22917" lon="-72.66113">
        <ele>226.5</ele>
      </trkpt>
      <trkpt lat="45.2293" lon="-72.66226">
        <ele>227.5</ele>
      </trkpt>
      <trkpt lat="45.22936" lon="-72.66238">
        <ele>227.5</ele>
      </trkpt>
      <trkpt lat="45.22943" lon="-72.66247">
        <ele>227.4</ele>
      </trkpt>
      <trkpt lat="45.22986" lon="-72.66279">
        <ele>221.9</ele>
      </trkpt>
      <trkpt lat="45.23006" lon="-72.66288">
        <ele>220.9</ele>
      </trkpt>
      <trkpt lat="45.23013" lon="-72.66296">
        <ele>219.5</ele>
      </trkpt>
      <trkpt lat="45.23021" lon="-72.66318">
        <ele>218</ele>
      </trkpt>
      <trkpt lat="45.230315" lon="-72.663969">
        <ele>214.6</ele>
      </trkpt>
      <trkpt lat="45.23042" lon="-72.66476">
        <ele>209</ele>
      </trkpt>
      <trkpt lat="45.23053" lon="-72.66579">
        <ele>203.9</ele>
      </trkpt>
      <trkpt lat="45.23052" lon="-72.66641">
        <ele>202.5</ele>
      </trkpt>
      <trkpt lat="45.23058" lon="-72.6673">
        <ele>200.6</ele>
      </trkpt>
      <trkpt lat="45.23063" lon="-72.66759">
        <ele>199.5</ele>
      </trkpt>
      <trkpt lat="45.23087" lon="-72.66854">
        <ele>199.8</ele>
      </trkpt>
      <trkpt lat="45.23102" lon="-72.66852">
        <ele>201.9</ele>
      </trkpt>
      <trkpt lat="45.23156" lon="-72.6683">
        <ele>207.3</ele>
      </trkpt>
      <trkpt lat="45.23184" lon="-72.66826">
        <ele>210.8</ele>
      </trkpt>
      <trkpt lat="45.23226" lon="-72.66825">
        <ele>208.8</ele>
      </trkpt>
      <trkpt lat="45.23249" lon="-72.6682">
        <ele>205.9</ele>
      </trkpt>
      <trkpt lat="45.23269" lon="-72.66807">
        <ele>202.8</ele>
      </trkpt>
      <trkpt lat="45.23296" lon="-72.66776">
        <ele>198</ele>
      </trkpt>
      <trkpt lat="45.23307" lon="-72.66753">
        <ele>195.8</ele>
      </trkpt>
      <trkpt lat="45.23313" lon="-72.66727">
        <ele>193.8</ele>
      </trkpt>
      <trkpt lat="45.23318" lon="-72.66718">
        <ele>193.5</ele>
      </trkpt>
      <trkpt lat="45.2335" lon="-72.66686">
        <ele>191.5</ele>
      </trkpt>
      <trkpt lat="45.2339" lon="-72.66624">
        <ele>186.8</ele>
      </trkpt>
      <trkpt lat="45.23407" lon="-72.66571">
        <ele>184.6</ele>
      </trkpt>
      <trkpt lat="45.23412" lon="-72.66559">
        <ele>184.3</ele>
      </trkpt>
      <trkpt lat="45.23412" lon="-72.6656">
        <ele>184.3</ele>
      </trkpt>
      <trkpt lat="45.23426" lon="-72.66529">
        <ele>183.1</ele>
      </trkpt>
      <trkpt lat="45.23431" lon="-72.66511">
        <ele>182.3</ele>
      </trkpt>
      <trkpt lat="45.23472" lon="-72.66431">
        <ele>181.7</ele>
      </trkpt>
      <trkpt lat="45.23503" lon="-72.66383">
        <ele>182.2</ele>
      </trkpt>
      <trkpt lat="45.23513" lon="-72.66379">
        <ele>182.2</ele>
      </trkpt>
      <trkpt lat="45.23526" lon="-72.66347">
        <ele>181.5</ele>
      </trkpt>
      <trkpt lat="45.235715" lon="-72.66253">
        <ele>182.5</ele>
      </trkpt>
      <trkpt lat="45.23617" lon="-72.66159">
        <ele>184.9</ele>
      </trkpt>
      <trkpt lat="45.23656" lon="-72.66086">
        <ele>188.7</ele>
      </trkpt>
      <trkpt lat="45.236925" lon="-72.6601">
        <ele>189.6</ele>
      </trkpt>
      <trkpt lat="45.23729" lon="-72.65934">
        <ele>186.9</ele>
      </trkpt>
      <trkpt lat="45.237695" lon="-72.658395">
        <ele>185.3</ele>
      </trkpt>
      <trkpt lat="45.2381" lon="-72.65745">
        <ele>183.8</ele>
      </trkpt>
      <trkpt lat="45.238848" lon="-72.657414">
        <ele>181.4</ele>
      </trkpt>
      <trkpt lat="45.239596" lon="-72.657378">
        <ele>177.9</ele>
      </trkpt>
      <trkpt lat="45.240344" lon="-72.657342">
        <ele>175.2</ele>
      </trkpt>
      <trkpt lat="45.241092" lon="-72.657306">
        <ele>169.8</ele>
      </trkpt>
      <trkpt lat="45.24184" lon="-72.65727">
        <ele>164.6</ele>
      </trkpt>
      <trkpt lat="45.242476" lon="-72.657213">
        <ele>162.7</ele>
      </trkpt>
      <trkpt lat="45.243113" lon="-72.657156">
        <ele>165.8</ele>
      </trkpt>
      <trkpt lat="45.24375" lon="-72.6571">
        <ele>171.7</ele>
      </trkpt>
      <trkpt lat="45.244229" lon="-72.65708">
        <ele>177.4</ele>
      </trkpt>
      <trkpt lat="45.24471" lon="-72.65706">
        <ele>180.4</ele>
      </trkpt>
      <trkpt lat="45.24558" lon="-72.65697">
        <ele>184.2</ele>
      </trkpt>
      <trkpt lat="45.24557" lon="-72.65697">
        <ele>184.2</ele>
      </trkpt>
      <trkpt lat="45.246154" lon="-72.65691">
        <ele>185</ele>
      </trkpt>
      <trkpt lat="45.24674" lon="-72.65685">
        <ele>187.2</ele>
      </trkpt>
      <trkpt lat="45.24762" lon="-72.65672">
        <ele>190.9</ele>
      </trkpt>
      <trkpt lat="45.24801" lon="-72.6567">
        <ele>192.6</ele>
      </trkpt>
      <trkpt lat="45.248773" lon="-72.656716">
        <ele>191</ele>
      </trkpt>
      <trkpt lat="45.249536" lon="-72.656733">
        <ele>189.1</ele>
      </trkpt>
      <trkpt lat="45.2503" lon="-72.65675">
        <ele>188</ele>
      </trkpt>
      <trkpt lat="45.25116" lon="-72.65679">
        <ele>187.1</ele>
      </trkpt>
      <trkpt lat="45.25201" lon="-72.65679">
        <ele>185.4</ele>
      </trkpt>
      <trkpt lat="45.25277" lon="-72.656755">
        <ele>177.5</ele>
      </trkpt>
      <trkpt lat="45.25353" lon="-72.65672">
        <ele>173</ele>
      </trkpt>
      <trkpt lat="45.25429" lon="-72.656685">
        <ele>171.2</ele>
      </trkpt>
      <trkpt lat="45.25505" lon="-72.65665">
        <ele>161.1</ele>
      </trkpt>
      <trkpt lat="45.25591" lon="-72.656633">
        <ele>153.3</ele>
      </trkpt>
      <trkpt lat="45.25677" lon="-72.656616">
        <ele>152.6</ele>
      </trkpt>
      <trkpt lat="45.25763" lon="-72.6566">
        <ele>155.1</ele>
      </trkpt>
      <trkpt lat="45.25787" lon="-72.65662">
        <ele>155</ele>
      </trkpt>
      <trkpt lat="45.258605" lon="-72.656644">
        <ele>151.2</ele>
      </trkpt>
      <trkpt lat="45.25934" lon="-72.65667">
        <ele>149.4</ele>
      </trkpt>
      <trkpt lat="45.26006" lon="-72.656679">
        <ele>151</ele>
      </trkpt>
      <trkpt lat="45.26078" lon="-72.65669">
        <ele>154.7</ele>
      </trkpt>
      <trkpt lat="45.26124" lon="-72.65664">
        <ele>156.6</ele>
      </trkpt>
      <trkpt lat="45.26131" lon="-72.65581">
        <ele>158.1</ele>
      </trkpt>
      <trkpt lat="45.26128" lon="-72.65532">
        <ele>158.5</ele>
      </trkpt>
      <trkpt lat="45.26118" lon="-72.654464">
        <ele>159.5</ele>
      </trkpt>
      <trkpt lat="45.26108" lon="-72.65361">
        <ele>162.1</ele>
      </trkpt>
      <trkpt lat="45.261056" lon="-72.652429">
        <ele>162.6</ele>
      </trkpt>
      <trkpt lat="45.261033" lon="-72.651249">
        <ele>159.1</ele>
      </trkpt>
      <trkpt lat="45.26101" lon="-72.65007">
        <ele>156.5</ele>
      </trkpt>
      <trkpt lat="45.26096" lon="-72.64943">
        <ele>158</ele>
      </trkpt>
      <trkpt lat="45.26087" lon="-72.64851">
        <ele>159.9</ele>
      </trkpt>
      <trkpt lat="45.26081" lon="-72.64819">
        <ele>160.4</ele>
      </trkpt>
      <trkpt lat="45.26078" lon="-72.64739">
        <ele>162.6</ele>
      </trkpt>
      <trkpt lat="45.26078" lon="-72.64661">
        <ele>167.8</ele>
      </trkpt>
      <trkpt lat="45.26078" lon="-72.64583">
        <ele>168.1</ele>
      </trkpt>
      <trkpt lat="45.2608" lon="-72.64508">
        <ele>166.2</ele>
      </trkpt>
      <trkpt lat="45.260855" lon="-72.64433">
        <ele>163</ele>
      </trkpt>
      <trkpt lat="45.26091" lon="-72.64358">
        <ele>160.6</ele>
      </trkpt>
      <trkpt lat="45.26091" lon="-72.64327">
        <ele>157.7</ele>
      </trkpt>
      <trkpt lat="45.260786" lon="-72.642203">
        <ele>153.9</ele>
      </trkpt>
      <trkpt lat="45.260663" lon="-72.641136">
        <ele>153.9</ele>
      </trkpt>
      <trkpt lat="45.26054" lon="-72.64007">
        <ele>154.8</ele>
      </trkpt>
      <trkpt lat="45.260412" lon="-72.639007">
        <ele>155.4</ele>
      </trkpt>
      <trkpt lat="45.260284" lon="-72.637945">
        <ele>156</ele>
      </trkpt>
      <trkpt lat="45.260156" lon="-72.636883">
        <ele>156.7</ele>
      </trkpt>
      <trkpt lat="45.260028" lon="-72.635821">
        <ele>157.6</ele>
      </trkpt>
      <trkpt lat="45.2599" lon="-72.63476">
        <ele>160.5</ele>
      </trkpt>
      <trkpt lat="45.25995" lon="-72.63435">
        <ele>163.3</ele>
      </trkpt>
      <trkpt lat="45.26004" lon="-72.63396">
        <ele>165.4</ele>
      </trkpt>
      <trkpt lat="45.26006" lon="-72.6337">
        <ele>165.9</ele>
      </trkpt>
      <trkpt lat="45.25993" lon="-72.63257">
        <ele>168.9</ele>
      </trkpt>
      <trkpt lat="45.25983" lon="-72.63202">
        <ele>171.9</ele>
      </trkpt>
      <trkpt lat="45.25977" lon="-72.63183">
        <ele>172.9</ele>
      </trkpt>
      <trkpt lat="45.26027" lon="-72.63212">
        <ele>177.5</ele>
      </trkpt>
      <trkpt lat="45.260835" lon="-72.632499">
        <ele>181.1</ele>
      </trkpt>
      <trkpt lat="45.2614" lon="-72.63288">
        <ele>180.5</ele>
      </trkpt>
      <trkpt lat="45.26155" lon="-72.63297">
        <ele>180.2</ele>
      </trkpt>
      <trkpt lat="45.26183" lon="-72.63324">
        <ele>178</ele>
      </trkpt>
      <trkpt lat="45.26209" lon="-72.6336">
        <ele>174.2</ele>
      </trkpt>
      <trkpt lat="45.2623" lon="-72.63382">
        <ele>172.4</ele>
      </trkpt>
      <trkpt lat="45.26247" lon="-72.63395">
        <ele>171.7</ele>
      </trkpt>
      <trkpt lat="45.2629" lon="-72.63413">
        <ele>168.4</ele>
      </trkpt>
      <trkpt lat="45.26318" lon="-72.63417">
        <ele>166.8</ele>
      </trkpt>
      <trkpt lat="45.2634" lon="-72.63414">
        <ele>165.9</ele>
      </trkpt>
      <trkpt lat="45.26362" lon="-72.6341">
        <ele>166</ele>
      </trkpt>
      <trkpt lat="45.26413" lon="-72.633965">
        <ele>169.7</ele>
      </trkpt>
      <trkpt lat="45.26464" lon="-72.63383">
        <ele>172.3</ele>
      </trkpt>
      <trkpt lat="45.26487" lon="-72.63373">
        <ele>171.7</ele>
      </trkpt>
      <trkpt lat="45.26555" lon="-72.63326">
        <ele>170.8</ele>
      </trkpt>
      <trkpt lat="45.26554" lon="-72.63326">
        <ele>170.7</ele>
      </trkpt>
      <trkpt lat="45.26573" lon="-72.63315">
        <ele>172.2</ele>
      </trkpt>
      <trkpt lat="45.26624" lon="-72.63293">
        <ele>179.1</ele>
      </trkpt>
      <trkpt lat="45.266835" lon="-72.632725">
        <ele>184.8</ele>
      </trkpt>
      <trkpt lat="45.26743" lon="-72.63252">
        <ele>192.6</ele>
      </trkpt>
      <trkpt lat="45.2677" lon="-72.63235">
        <ele>195.3</ele>
      </trkpt>
      <trkpt lat="45.26788" lon="-72.6321">
        <ele>196.8</ele>
      </trkpt>
      <trkpt lat="45.26805" lon="-72.63163">
        <ele>197.1</ele>
      </trkpt>
      <trkpt lat="45.268353" lon="-72.630673">
        <ele>200</ele>
      </trkpt>
      <trkpt lat="45.268656" lon="-72.629716">
        <ele>203.9</ele>
      </trkpt>
      <trkpt lat="45.26896" lon="-72.62876">
        <ele>204.8</ele>
      </trkpt>
      <trkpt lat="45.269316" lon="-72.628043">
        <ele>206.1</ele>
      </trkpt>
      <trkpt lat="45.269673" lon="-72.627326">
        <ele>206.2</ele>
      </trkpt>
      <trkpt lat="45.27003" lon="-72.62661">
        <ele>207.1</ele>
      </trkpt>
      <trkpt lat="45.270545" lon="-72.62563">
        <ele>207.5</ele>
      </trkpt>
      <trkpt lat="45.27106" lon="-72.62465">
        <ele>208.4</ele>
      </trkpt>
      <trkpt lat="45.27148" lon="-72.62379">
        <ele>208.6</ele>
      </trkpt>
      <trkpt lat="45.27192" lon="-72.62383">
        <ele>212.8</ele>
      </trkpt>
      <trkpt lat="45.272603" lon="-72.623726">
        <ele>219.4</ele>
      </trkpt>
      <trkpt lat="45.273286" lon="-72.623623">
        <ele>223.9</ele>
      </trkpt>
      <trkpt lat="45.27397" lon="-72.62352">
        <ele>230</ele>
      </trkpt>
      <trkpt lat="45.27484" lon="-72.623455">
        <ele>239.1</ele>
      </trkpt>
      <trkpt lat="45.27571" lon="-72.62339">
        <ele>244.3</ele>
      </trkpt>
      <trkpt lat="45.27631" lon="-72.62304">
        <ele>238.9</ele>
      </trkpt>
      <trkpt lat="45.27683" lon="-72.62278">
        <ele>232.9</ele>
      </trkpt>
      <trkpt lat="45.27735" lon="-72.62252">
        <ele>229.1</ele>
      </trkpt>
      <trkpt lat="45.27714" lon="-72.62147">
        <ele>227.1</ele>
      </trkpt>
      <trkpt lat="45.27707" lon="-72.62129">
        <ele>226.4</ele>
      </trkpt>
      <trkpt lat="45.27697" lon="-72.62115">
        <ele>226</ele>
      </trkpt>
      <trkpt lat="45.2768" lon="-72.62106">
        <ele>224.7</ele>
      </trkpt>
      <trkpt lat="45.27667" lon="-72.62088">
        <ele>222.8</ele>
      </trkpt>
      <trkpt lat="45.27662" lon="-72.62065">
        <ele>219</ele>
      </trkpt>
      <trkpt lat="45.27659" lon="-72.62015">
        <ele>214.5</ele>
      </trkpt>
      <trkpt lat="45.276526" lon="-72.618993">
        <ele>207.5</ele>
      </trkpt>
      <trkpt lat="45.276463" lon="-72.617836">
        <ele>206.1</ele>
      </trkpt>
      <trkpt lat="45.2764" lon="-72.61668">
        <ele>205.7</ele>
      </trkpt>
      <trkpt lat="45.276346" lon="-72.615594">
        <ele>206.4</ele>
      </trkpt>
      <trkpt lat="45.276293" lon="-72.614509">
        <ele>211.6</ele>
      </trkpt>
      <trkpt lat="45.27624" lon="-72.613424">
        <ele>221.7</ele>
      </trkpt>
      <trkpt lat="45.276186" lon="-72.612339">
        <ele>226</ele>
      </trkpt>
      <trkpt lat="45.276133" lon="-72.611254">
        <ele>232.1</ele>
      </trkpt>
      <trkpt lat="45.27608" lon="-72.61017">
        <ele>236.8</ele>
      </trkpt>
      <trkpt lat="45.27605" lon="-72.60924">
        <ele>238.4</ele>
      </trkpt>
      <trkpt lat="45.276053" lon="-72.60815">
        <ele>234.5</ele>
      </trkpt>
      <trkpt lat="45.276056" lon="-72.60706">
        <ele>235.8</ele>
      </trkpt>
      <trkpt lat="45.27606" lon="-72.60597">
        <ele>237.7</ele>
      </trkpt>
      <trkpt lat="45.27602" lon="-72.604754">
        <ele>227.6</ele>
      </trkpt>
      <trkpt lat="45.27598" lon="-72.603539">
        <ele>217.4</ele>
      </trkpt>
      <trkpt lat="45.27594" lon="-72.602324">
        <ele>211.8</ele>
      </trkpt>
      <trkpt lat="45.2759" lon="-72.601109">
        <ele>208.8</ele>
      </trkpt>
      <trkpt lat="45.27586" lon="-72.599894">
        <ele>204.7</ele>
      </trkpt>
      <trkpt lat="45.27582" lon="-72.59868">
        <ele>201.4</ele>
      </trkpt>
      <trkpt lat="45.2758" lon="-72.59774">
        <ele>198.7</ele>
      </trkpt>
      <trkpt lat="45.27578" lon="-72.596549">
        <ele>196.3</ele>
      </trkpt>
      <trkpt lat="45.27576" lon="-72.59536">
        <ele>193.3</ele>
      </trkpt>
      <trkpt lat="45.276514" lon="-72.595295">
        <ele>190</ele>
      </trkpt>
      <trkpt lat="45.27727" lon="-72.59523">
        <ele>187.7</ele>
      </trkpt>
      <trkpt lat="45.278093" lon="-72.595183">
        <ele>187.2</ele>
      </trkpt>
      <trkpt lat="45.278916" lon="-72.595136">
        <ele>187.3</ele>
      </trkpt>
      <trkpt lat="45.27974" lon="-72.59509">
        <ele>187</ele>
      </trkpt>
      <trkpt lat="45.280565" lon="-72.595046">
        <ele>186.4</ele>
      </trkpt>
      <trkpt lat="45.28139" lon="-72.595003">
        <ele>185.9</ele>
      </trkpt>
      <trkpt lat="45.282215" lon="-72.59496">
        <ele>186.2</ele>
      </trkpt>
      <trkpt lat="45.28304" lon="-72.594916">
        <ele>186.6</ele>
      </trkpt>
      <trkpt lat="45.283865" lon="-72.594873">
        <ele>187.2</ele>
      </trkpt>
      <trkpt lat="45.28469" lon="-72.59483">
        <ele>188</ele>
      </trkpt>
      <trkpt lat="45.28551" lon="-72.594792">
        <ele>187.9</ele>
      </trkpt>
      <trkpt lat="45.286331" lon="-72.594755">
        <ele>186.1</ele>
      </trkpt>
      <trkpt lat="45.287152" lon="-72.594718">
        <ele>183.9</ele>
      </trkpt>
      <trkpt lat="45.287973" lon="-72.59468">
        <ele>181.3</ele>
      </trkpt>
      <trkpt lat="45.288794" lon="-72.594643">
        <ele>178.5</ele>
      </trkpt>
      <trkpt lat="45.289615" lon="-72.594606">
        <ele>175.7</ele>
      </trkpt>
      <trkpt lat="45.290436" lon="-72.594569">
        <ele>173.4</ele>
      </trkpt>
      <trkpt lat="45.291257" lon="-72.594531">
        <ele>171.4</ele>
      </trkpt>
      <trkpt lat="45.292078" lon="-72.594494">
        <ele>170.5</ele>
      </trkpt>
      <trkpt lat="45.292899" lon="-72.594457">
        <ele>169.4</ele>
      </trkpt>
      <trkpt lat="45.29372" lon="-72.59442">
        <ele>169.3</ele>
      </trkpt>
      <trkpt lat="45.29371" lon="-72.59442">
        <ele>169.3</ele>
      </trkpt>
      <trkpt lat="45.294577" lon="-72.594375">
        <ele>169.6</ele>
      </trkpt>
      <trkpt lat="45.295445" lon="-72.59433">
        <ele>170.3</ele>
      </trkpt>
      <trkpt lat="45.296312" lon="-72.594285">
        <ele>170.8</ele>
      </trkpt>
      <trkpt lat="45.29718" lon="-72.59424">
        <ele>170.4</ele>
      </trkpt>
      <trkpt lat="45.29738" lon="-72.5942">
        <ele>169.8</ele>
      </trkpt>
      <trkpt lat="45.29806" lon="-72.593865">
        <ele>167.3</ele>
      </trkpt>
      <trkpt lat="45.29874" lon="-72.59353">
        <ele>162.3</ele>
      </trkpt>
      <trkpt lat="45.29945" lon="-72.59339">
        <ele>154.5</ele>
      </trkpt>
      <trkpt lat="45.29996" lon="-72.59343">
        <ele>151.3</ele>
      </trkpt>
      <trkpt lat="45.30036" lon="-72.59348">
        <ele>148.6</ele>
      </trkpt>
      <trkpt lat="45.300925" lon="-72.593684">
        <ele>147.4</ele>
      </trkpt>
      <trkpt lat="45.30149" lon="-72.59389">
        <ele>145.2</ele>
      </trkpt>
      <trkpt lat="45.30197" lon="-72.593954">
        <ele>143.6</ele>
      </trkpt>
      <trkpt lat="45.30245" lon="-72.59402">
        <ele>143</ele>
      </trkpt>
      <trkpt lat="45.303179" lon="-72.59398">
        <ele>145.6</ele>
      </trkpt>
      <trkpt lat="45.30391" lon="-72.59394">
        <ele>148.3</ele>
      </trkpt>
      <trkpt lat="45.30459" lon="-72.593876">
        <ele>150.7</ele>
      </trkpt>
      <trkpt lat="45.30527" lon="-72.593813">
        <ele>154.4</ele>
      </trkpt>
      <trkpt lat="45.30595" lon="-72.59375">
        <ele>156.7</ele>
      </trkpt>
      <trkpt lat="45.306624" lon="-72.593705">
        <ele>157.7</ele>
      </trkpt>
      <trkpt lat="45.3073" lon="-72.59366">
        <ele>158.9</ele>
      </trkpt>
      <trkpt lat="45.307302" lon="-72.592507">
        <ele>158.9</ele>
      </trkpt>
      <trkpt lat="45.307305" lon="-72.591355">
        <ele>160.3</ele>
      </trkpt>
      <trkpt lat="45.307307" lon="-72.590202">
        <ele>165.1</ele>
      </trkpt>
      <trkpt lat="45.30731" lon="-72.58905">
        <ele>167.5</ele>
      </trkpt>
      <trkpt lat="45.30731" lon="-72.58906">
        <ele>167.5</ele>
      </trkpt>
      <trkpt lat="45.30731" lon="-72.58799">
        <ele>170.4</ele>
      </trkpt>
      <trkpt lat="45.307296" lon="-72.587089">
        <ele>172.6</ele>
      </trkpt>
      <trkpt lat="45.307283" lon="-72.586189">
        <ele>173.1</ele>
      </trkpt>
      <trkpt lat="45.30727" lon="-72.58529">
        <ele>172.4</ele>
      </trkpt>
      <trkpt lat="45.307266" lon="-72.584078">
        <ele>167.8</ele>
      </trkpt>
      <trkpt lat="45.307262" lon="-72.582867">
        <ele>164</ele>
      </trkpt>
      <trkpt lat="45.307258" lon="-72.581656">
        <ele>165</ele>
      </trkpt>
      <trkpt lat="45.307255" lon="-72.580444">
        <ele>168</ele>
      </trkpt>
      <trkpt lat="45.307251" lon="-72.579233">
        <ele>166.9</ele>
      </trkpt>
      <trkpt lat="45.307247" lon="-72.578022">
        <ele>167.1</ele>
      </trkpt>
      <trkpt lat="45.307243" lon="-72.576811">
        <ele>170.1</ele>
      </trkpt>
      <trkpt lat="45.30724" lon="-72.5756">
        <ele>172.3</ele>
      </trkpt>
      <trkpt lat="45.307262" lon="-72.57435">
        <ele>177.9</ele>
      </trkpt>
      <trkpt lat="45.307285" lon="-72.5731">
        <ele>185.4</ele>
      </trkpt>
      <trkpt lat="45.307307" lon="-72.57185">
        <ele>192.2</ele>
      </trkpt>
      <trkpt lat="45.30733" lon="-72.5706">
        <ele>193.1</ele>
      </trkpt>
      <trkpt lat="45.30737" lon="-72.56998">
        <ele>193.6</ele>
      </trkpt>
      <trkpt lat="45.3076" lon="-72.56886">
        <ele>198.6</ele>
      </trkpt>
      <trkpt lat="45.30763" lon="-72.56827">
        <ele>204.6</ele>
      </trkpt>
      <trkpt lat="45.30754" lon="-72.567544">
        <ele>207.2</ele>
      </trkpt>
      <trkpt lat="45.30745" lon="-72.56682">
        <ele>207.4</ele>
      </trkpt>
      <trkpt lat="45.30736" lon="-72.56621">
        <ele>207.5</ele>
      </trkpt>
      <trkpt lat="45.30731" lon="-72.56563">
        <ele>208.2</ele>
      </trkpt>
      <trkpt lat="45.30728" lon="-72.56502">
        <ele>208.8</ele>
      </trkpt>
      <trkpt lat="45.307285" lon="-72.563865">
        <ele>210.8</ele>
      </trkpt>
      <trkpt lat="45.30729" lon="-72.56271">
        <ele>214.9</ele>
      </trkpt>
      <trkpt lat="45.307295" lon="-72.561555">
        <ele>221</ele>
      </trkpt>
      <trkpt lat="45.3073" lon="-72.5604">
        <ele>224.1</ele>
      </trkpt>
      <trkpt lat="45.307305" lon="-72.559245">
        <ele>227</ele>
      </trkpt>
      <trkpt lat="45.30731" lon="-72.55809">
        <ele>227.2</ele>
      </trkpt>
      <trkpt lat="45.307315" lon="-72.556935">
        <ele>225.8</ele>
      </trkpt>
      <trkpt lat="45.30732" lon="-72.55578">
        <ele>225.5</ele>
      </trkpt>
      <trkpt lat="45.307325" lon="-72.554625">
        <ele>225.5</ele>
      </trkpt>
      <trkpt lat="45.30733" lon="-72.55347">
        <ele>225.5</ele>
      </trkpt>
      <trkpt lat="45.30734" lon="-72.552206">
        <ele>226</ele>
      </trkpt>
      <trkpt lat="45.30735" lon="-72.550942">
        <ele>225.9</ele>
      </trkpt>
      <trkpt lat="45.30736" lon="-72.549678">
        <ele>226.4</ele>
      </trkpt>
      <trkpt lat="45.30737" lon="-72.548414">
        <ele>227.8</ele>
      </trkpt>
      <trkpt lat="45.30738" lon="-72.54715">
        <ele>228.1</ele>
      </trkpt>
      <trkpt lat="45.30739" lon="-72.545886">
        <ele>228.6</ele>
      </trkpt>
      <trkpt lat="45.3074" lon="-72.544623">
        <ele>228.6</ele>
      </trkpt>
      <trkpt lat="45.30741" lon="-72.543359">
        <ele>230.4</ele>
      </trkpt>
      <trkpt lat="45.30742" lon="-72.542095">
        <ele>230.7</ele>
      </trkpt>
      <trkpt lat="45.30743" lon="-72.540831">
        <ele>231.3</ele>
      </trkpt>
      <trkpt lat="45.30744" lon="-72.539567">
        <ele>230.4</ele>
      </trkpt>
      <trkpt lat="45.30745" lon="-72.538303">
        <ele>227.3</ele>
      </trkpt>
      <trkpt lat="45.30746" lon="-72.53704">
        <ele>226.5</ele>
      </trkpt>
      <trkpt lat="45.30746" lon="-72.53705">
        <ele>226.5</ele>
      </trkpt>
      <trkpt lat="45.307465" lon="-72.535845">
        <ele>229</ele>
      </trkpt>
      <trkpt lat="45.307471" lon="-72.534641">
        <ele>229.4</ele>
      </trkpt>
      <trkpt lat="45.307477" lon="-72.533437">
        <ele>227.2</ele>
      </trkpt>
      <trkpt lat="45.307482" lon="-72.532232">
        <ele>227.1</ele>
      </trkpt>
      <trkpt lat="45.307488" lon="-72.531028">
        <ele>226.6</ele>
      </trkpt>
      <trkpt lat="45.307494" lon="-72.529824">
        <ele>224.5</ele>
      </trkpt>
      <trkpt lat="45.3075" lon="-72.52862">
        <ele>224.9</ele>
      </trkpt>
      <trkpt lat="45.30749" lon="-72.52736">
        <ele>222.8</ele>
      </trkpt>
      <trkpt lat="45.30753" lon="-72.52695">
        <ele>220.4</ele>
      </trkpt>
      <trkpt lat="45.30777" lon="-72.525945">
        <ele>212.3</ele>
      </trkpt>
      <trkpt lat="45.30801" lon="-72.52494">
        <ele>208</ele>
      </trkpt>
      <trkpt lat="45.30816" lon="-72.52382">
        <ele>211.9</ele>
      </trkpt>
      <trkpt lat="45.30825" lon="-72.52325">
        <ele>213.9</ele>
      </trkpt>
      <trkpt lat="45.308485" lon="-72.52215">
        <ele>215.8</ele>
      </trkpt>
      <trkpt lat="45.30872" lon="-72.52105">
        <ele>219.5</ele>
      </trkpt>
      <trkpt lat="45.308955" lon="-72.51995">
        <ele>222.4</ele>
      </trkpt>
      <trkpt lat="45.30919" lon="-72.51885">
        <ele>225</ele>
      </trkpt>
      <trkpt lat="45.30933" lon="-72.51813">
        <ele>226.8</ele>
      </trkpt>
      <trkpt lat="45.30939" lon="-72.51764">
        <ele>226.9</ele>
      </trkpt>
      <trkpt lat="45.30949" lon="-72.51657">
        <ele>228.2</ele>
      </trkpt>
      <trkpt lat="45.30958" lon="-72.515455">
        <ele>229.9</ele>
      </trkpt>
      <trkpt lat="45.30967" lon="-72.51434">
        <ele>230.9</ele>
      </trkpt>
      <trkpt lat="45.30969" lon="-72.51374">
        <ele>229.8</ele>
      </trkpt>
      <trkpt lat="45.30963" lon="-72.512879">
        <ele>226.6</ele>
      </trkpt>
      <trkpt lat="45.30957" lon="-72.51202">
        <ele>226.1</ele>
      </trkpt>
      <trkpt lat="45.30937" lon="-72.51111">
        <ele>229.3</ele>
      </trkpt>
      <trkpt lat="45.30923" lon="-72.51066">
        <ele>230.2</ele>
      </trkpt>
      <trkpt lat="45.30877" lon="-72.509699">
        <ele>224.8</ele>
      </trkpt>
      <trkpt lat="45.30831" lon="-72.50874">
        <ele>222.7</ele>
      </trkpt>
      <trkpt lat="45.30807" lon="-72.508199">
        <ele>223.8</ele>
      </trkpt>
      <trkpt lat="45.30783" lon="-72.50766">
        <ele>226</ele>
      </trkpt>
      <trkpt lat="45.30765" lon="-72.50708">
        <ele>227.2</ele>
      </trkpt>
      <trkpt lat="45.30758" lon="-72.50672">
        <ele>226.9</ele>
      </trkpt>
      <trkpt lat="45.30754" lon="-72.50637">
        <ele>225.9</ele>
      </trkpt>
      <trkpt lat="45.307553" lon="-72.50544">
        <ele>223.5</ele>
      </trkpt>
      <trkpt lat="45.307566" lon="-72.50451">
        <ele>222.6</ele>
      </trkpt>
      <trkpt lat="45.30758" lon="-72.50358">
        <ele>223.7</ele>
      </trkpt>
      <trkpt lat="45.307576" lon="-72.502679">
        <ele>223.5</ele>
      </trkpt>
      <trkpt lat="45.307573" lon="-72.50178">
        <ele>223.7</ele>
      </trkpt>
      <trkpt lat="45.30757" lon="-72.50088">
        <ele>222.4</ele>
      </trkpt>
      <trkpt lat="45.30757" lon="-72.500055">
        <ele>220.2</ele>
      </trkpt>
      <trkpt lat="45.30757" lon="-72.49923">
        <ele>221</ele>
      </trkpt>
      <trkpt lat="45.30793" lon="-72.49933">
        <ele>221.3</ele>
      </trkpt>
      <trkpt lat="45.30815" lon="-72.49937">
        <ele>222.5</ele>
      </trkpt>
      <trkpt lat="45.30885" lon="-72.49937">
        <ele>224</ele>
      </trkpt>
      <trkpt lat="45.30876" lon="-72.49909">
        <ele>224.5</ele>
      </trkpt>
      <trkpt lat="45.30829" lon="-72.4991">
        <ele>223.4</ele>
      </trkpt>
      <trkpt lat="45.30791" lon="-72.49902">
        <ele>223.1</ele>
      </trkpt>
      <trkpt lat="45.30734" lon="-72.49884">
        <ele>222.4</ele>
      </trkpt>
      <trkpt lat="45.306753" lon="-72.498583">
        <ele>221.9</ele>
      </trkpt>
      <trkpt lat="45.306166" lon="-72.498326">
        <ele>221.6</ele>
      </trkpt>
      <trkpt lat="45.30558" lon="-72.49807">
        <ele>220.9</ele>
      </trkpt>
      <trkpt lat="45.304943" lon="-72.497803">
        <ele>220.6</ele>
      </trkpt>
      <trkpt lat="45.304306" lon="-72.497536">
        <ele>219.6</ele>
      </trkpt>
      <trkpt lat="45.30367" lon="-72.49727">
        <ele>218.6</ele>
      </trkpt>
      <trkpt lat="45.30313" lon="-72.497134">
        <ele>218.1</ele>
      </trkpt>
      <trkpt lat="45.30259" lon="-72.497">
        <ele>217.7</ele>
      </trkpt>
      <trkpt lat="45.30215" lon="-72.49695">
        <ele>217.3</ele>
      </trkpt>
      <trkpt lat="45.30184" lon="-72.49696">
        <ele>216.8</ele>
      </trkpt>
      <trkpt lat="45.300975" lon="-72.497045">
        <ele>215.9</ele>
      </trkpt>
      <trkpt lat="45.30011" lon="-72.49713">
        <ele>215.4</ele>
      </trkpt>
      <trkpt lat="45.299325" lon="-72.497197">
        <ele>214.7</ele>
      </trkpt>
      <trkpt lat="45.29854" lon="-72.497265">
        <ele>214.4</ele>
      </trkpt>
      <trkpt lat="45.297755" lon="-72.497332">
        <ele>213.9</ele>
      </trkpt>
      <trkpt lat="45.29697" lon="-72.4974">
        <ele>213.5</ele>
      </trkpt>
      <trkpt lat="45.296285" lon="-72.497465">
        <ele>213.6</ele>
      </trkpt>
      <trkpt lat="45.2956" lon="-72.49753">
        <ele>212.8</ele>
      </trkpt>
      <trkpt lat="45.29559" lon="-72.49753">
        <ele>212.7</ele>
      </trkpt>
      <trkpt lat="45.294955" lon="-72.4976">
        <ele>212.4</ele>
      </trkpt>
      <trkpt lat="45.29432" lon="-72.49767">
        <ele>212.2</ele>
      </trkpt>
      <trkpt lat="45.29399" lon="-72.49767">
        <ele>212.2</ele>
      </trkpt>
      <trkpt lat="45.29345" lon="-72.49763">
        <ele>212.4</ele>
      </trkpt>
      <trkpt lat="45.29322" lon="-72.49755">
        <ele>213.2</ele>
      </trkpt>
      <trkpt lat="45.292956" lon="-72.498666">
        <ele>211.8</ele>
      </trkpt>
      <trkpt lat="45.292693" lon="-72.499783">
        <ele>211.4</ele>
      </trkpt>
      <trkpt lat="45.29243" lon="-72.5009">
        <ele>212.7</ele>
      </trkpt>
      <trkpt lat="45.2925" lon="-72.50091">
        <ele>212.7</ele>
      </trkpt>
      <trkpt lat="45.29243" lon="-72.5009">
        <ele>212.7</ele>
      </trkpt>
      <trkpt lat="45.292693" lon="-72.499783">
        <ele>211.4</ele>
      </trkpt>
      <trkpt lat="45.292956" lon="-72.498666">
        <ele>211.8</ele>
      </trkpt>
      <trkpt lat="45.29322" lon="-72.49755">
        <ele>213.2</ele>
      </trkpt>
      <trkpt lat="45.29271" lon="-72.49735">
        <ele>212.7</ele>
      </trkpt>
      <trkpt lat="45.29243" lon="-72.49718">
        <ele>212.6</ele>
      </trkpt>
      <trkpt lat="45.29226" lon="-72.49705">
        <ele>212.6</ele>
      </trkpt>
      <trkpt lat="45.291563" lon="-72.496453">
        <ele>212.1</ele>
      </trkpt>
      <trkpt lat="45.290866" lon="-72.495856">
        <ele>212.4</ele>
      </trkpt>
      <trkpt lat="45.29017" lon="-72.49526">
        <ele>212.2</ele>
      </trkpt>
      <trkpt lat="45.28988" lon="-72.49503">
        <ele>212.3</ele>
      </trkpt>
      <trkpt lat="45.289285" lon="-72.494504">
        <ele>212.7</ele>
      </trkpt>
      <trkpt lat="45.28869" lon="-72.49398">
        <ele>212.8</ele>
      </trkpt>
      <trkpt lat="45.28817" lon="-72.493499">
        <ele>213.2</ele>
      </trkpt>
      <trkpt lat="45.28765" lon="-72.49302">
        <ele>214.2</ele>
      </trkpt>
      <trkpt lat="45.28721" lon="-72.49253">
        <ele>214.3</ele>
      </trkpt>
      <trkpt lat="45.28698" lon="-72.49235">
        <ele>214.4</ele>
      </trkpt>
      <trkpt lat="45.28654" lon="-72.49189">
        <ele>214.6</ele>
      </trkpt>
      <trkpt lat="45.28654" lon="-72.49213">
        <ele>214.5</ele>
      </trkpt>
      <trkpt lat="45.28593" lon="-72.49167">
        <ele>212.7</ele>
      </trkpt>
      <trkpt lat="45.2855" lon="-72.49118">
        <ele>211.3</ele>
      </trkpt>
      <trkpt lat="45.28488" lon="-72.490709">
        <ele>209.7</ele>
      </trkpt>
      <trkpt lat="45.28426" lon="-72.49024">
        <ele>208</ele>
      </trkpt>
      <trkpt lat="45.28376" lon="-72.49002">
        <ele>207.1</ele>
      </trkpt>
      <trkpt lat="45.28301" lon="-72.4898">
        <ele>205.3</ele>
      </trkpt>
      <trkpt lat="45.282139" lon="-72.48969">
        <ele>203.8</ele>
      </trkpt>
      <trkpt lat="45.281268" lon="-72.489581">
        <ele>201</ele>
      </trkpt>
      <trkpt lat="45.280397" lon="-72.489472">
        <ele>200.2</ele>
      </trkpt>
      <trkpt lat="45.279526" lon="-72.489363">
        <ele>199.5</ele>
      </trkpt>
      <trkpt lat="45.278656" lon="-72.489253">
        <ele>199.7</ele>
      </trkpt>
      <trkpt lat="45.277785" lon="-72.489144">
        <ele>199.5</ele>
      </trkpt>
      <trkpt lat="45.276914" lon="-72.489035">
        <ele>199.6</ele>
      </trkpt>
      <trkpt lat="45.276043" lon="-72.488926">
        <ele>200.5</ele>
      </trkpt>
      <trkpt lat="45.275173" lon="-72.488816">
        <ele>199.9</ele>
      </trkpt>
      <trkpt lat="45.274302" lon="-72.488707">
        <ele>199.6</ele>
      </trkpt>
      <trkpt lat="45.273431" lon="-72.488598">
        <ele>199.5</ele>
      </trkpt>
      <trkpt lat="45.27256" lon="-72.488489">
        <ele>199.4</ele>
      </trkpt>
      <trkpt lat="45.27169" lon="-72.48838">
        <ele>199.7</ele>
      </trkpt>
      <trkpt lat="45.27092" lon="-72.488284">
        <ele>199.7</ele>
      </trkpt>
      <trkpt lat="45.27015" lon="-72.488189">
        <ele>199.6</ele>
      </trkpt>
      <trkpt lat="45.26938" lon="-72.488094">
        <ele>199.7</ele>
      </trkpt>
      <trkpt lat="45.26861" lon="-72.488">
        <ele>199.8</ele>
      </trkpt>
      <trkpt lat="45.267734" lon="-72.487895">
        <ele>199.6</ele>
      </trkpt>
      <trkpt lat="45.266858" lon="-72.487791">
        <ele>199.5</ele>
      </trkpt>
      <trkpt lat="45.265982" lon="-72.487687">
        <ele>199.4</ele>
      </trkpt>
      <trkpt lat="45.265106" lon="-72.487583">
        <ele>199.5</ele>
      </trkpt>
      <trkpt lat="45.26423" lon="-72.487479">
        <ele>199.6</ele>
      </trkpt>
      <trkpt lat="45.263354" lon="-72.487375">
        <ele>199.6</ele>
      </trkpt>
      <trkpt lat="45.262478" lon="-72.487271">
        <ele>199.8</ele>
      </trkpt>
      <trkpt lat="45.261602" lon="-72.487167">
        <ele>200.2</ele>
      </trkpt>
      <trkpt lat="45.260726" lon="-72.487063">
        <ele>200.3</ele>
      </trkpt>
      <trkpt lat="45.25985" lon="-72.48696">
        <ele>200.2</ele>
      </trkpt>
      <trkpt lat="45.25985" lon="-72.48695">
        <ele>200.2</ele>
      </trkpt>
      <trkpt lat="45.25926" lon="-72.486894">
        <ele>200.2</ele>
      </trkpt>
      <trkpt lat="45.25867" lon="-72.48684">
        <ele>200.5</ele>
      </trkpt>
      <trkpt lat="45.25848" lon="-72.48675">
        <ele>200.6</ele>
      </trkpt>
      <trkpt lat="45.25842" lon="-72.48675">
        <ele>200.6</ele>
      </trkpt>
      <trkpt lat="45.25824" lon="-72.48679">
        <ele>200.6</ele>
      </trkpt>
      <trkpt lat="45.257403" lon="-72.486684">
        <ele>200.3</ele>
      </trkpt>
      <trkpt lat="45.256566" lon="-72.486579">
        <ele>200.4</ele>
      </trkpt>
      <trkpt lat="45.25573" lon="-72.486474">
        <ele>200.5</ele>
      </trkpt>
      <trkpt lat="45.254893" lon="-72.486369">
        <ele>200.4</ele>
      </trkpt>
      <trkpt lat="45.254056" lon="-72.486264">
        <ele>200.2</ele>
      </trkpt>
      <trkpt lat="45.25322" lon="-72.48616">
        <ele>200.1</ele>
      </trkpt>
      <trkpt lat="45.252609" lon="-72.486069">
        <ele>200.5</ele>
      </trkpt>
      <trkpt lat="45.251999" lon="-72.485979">
        <ele>200.8</ele>
      </trkpt>
      <trkpt lat="45.25139" lon="-72.48589">
        <ele>200.7</ele>
      </trkpt>
      <trkpt lat="45.25113" lon="-72.48652">
        <ele>200.3</ele>
      </trkpt>
      <trkpt lat="45.25103" lon="-72.4864">
        <ele>200.4</ele>
      </trkpt>
      <trkpt lat="45.25067" lon="-72.48609">
        <ele>200.4</ele>
      </trkpt>
      <trkpt lat="45.25052" lon="-72.486">
        <ele>200.3</ele>
      </trkpt>
      <trkpt lat="45.2503" lon="-72.48591">
        <ele>200.3</ele>
      </trkpt>
      <trkpt lat="45.24955" lon="-72.485799">
        <ele>201.3</ele>
      </trkpt>
      <trkpt lat="45.2488" lon="-72.48569">
        <ele>202.7</ele>
      </trkpt>
      <trkpt lat="45.24816" lon="-72.485713">
        <ele>202.5</ele>
      </trkpt>
      <trkpt lat="45.24752" lon="-72.485736">
        <ele>202.3</ele>
      </trkpt>
      <trkpt lat="45.24688" lon="-72.48576">
        <ele>204.3</ele>
      </trkpt>
      <trkpt lat="45.246239" lon="-72.485739">
        <ele>207</ele>
      </trkpt>
      <trkpt lat="45.2456" lon="-72.48572">
        <ele>207.1</ele>
      </trkpt>
      <trkpt lat="45.2451" lon="-72.48573">
        <ele>206.5</ele>
      </trkpt>
      <trkpt lat="45.2447" lon="-72.4858">
        <ele>205.9</ele>
      </trkpt>
      <trkpt lat="45.24437" lon="-72.4859">
        <ele>205.9</ele>
      </trkpt>
      <trkpt lat="45.24406" lon="-72.48608">
        <ele>205.3</ele>
      </trkpt>
      <trkpt lat="45.24346" lon="-72.48661">
        <ele>204.7</ele>
      </trkpt>
      <trkpt lat="45.24305" lon="-72.48693">
        <ele>204.3</ele>
      </trkpt>
      <trkpt lat="45.24284" lon="-72.48703">
        <ele>204.3</ele>
      </trkpt>
      <trkpt lat="45.24246" lon="-72.4872">
        <ele>204.7</ele>
      </trkpt>
      <trkpt lat="45.242155" lon="-72.487695">
        <ele>204</ele>
      </trkpt>
      <trkpt lat="45.24185" lon="-72.48819">
        <ele>204.3</ele>
      </trkpt>
      <trkpt lat="45.24121" lon="-72.489066">
        <ele>203.5</ele>
      </trkpt>
      <trkpt lat="45.24057" lon="-72.489943">
        <ele>203.4</ele>
      </trkpt>
      <trkpt lat="45.23993" lon="-72.49082">
        <ele>203.6</ele>
      </trkpt>
      <trkpt lat="45.23963" lon="-72.49109">
        <ele>203.5</ele>
      </trkpt>
      <trkpt lat="45.23913" lon="-72.4914">
        <ele>203.3</ele>
      </trkpt>
      <trkpt lat="45.23863" lon="-72.49171">
        <ele>203.4</ele>
      </trkpt>
      <trkpt lat="45.23862" lon="-72.49171">
        <ele>203.4</ele>
      </trkpt>
      <trkpt lat="45.23782" lon="-72.492205">
        <ele>203.8</ele>
      </trkpt>
      <trkpt lat="45.23702" lon="-72.4927">
        <ele>204.4</ele>
      </trkpt>
      <trkpt lat="45.236463" lon="-72.493086">
        <ele>204.5</ele>
      </trkpt>
      <trkpt lat="45.235906" lon="-72.493473">
        <ele>204.4</ele>
      </trkpt>
      <trkpt lat="45.23535" lon="-72.49386">
        <ele>204.3</ele>
      </trkpt>
      <trkpt lat="45.234592" lon="-72.494435">
        <ele>203.7</ele>
      </trkpt>
      <trkpt lat="45.233835" lon="-72.49501">
        <ele>204</ele>
      </trkpt>
      <trkpt lat="45.233077" lon="-72.495585">
        <ele>203.9</ele>
      </trkpt>
      <trkpt lat="45.23232" lon="-72.49616">
        <ele>203.7</ele>
      </trkpt>
      <trkpt lat="45.23183" lon="-72.49651">
        <ele>202.3</ele>
      </trkpt>
      <trkpt lat="45.23134" lon="-72.49678">
        <ele>201</ele>
      </trkpt>
      <trkpt lat="45.23085" lon="-72.49705">
        <ele>201.8</ele>
      </trkpt>
      <trkpt lat="45.23085" lon="-72.49706">
        <ele>201.8</ele>
      </trkpt>
      <trkpt lat="45.23027" lon="-72.497365">
        <ele>201.5</ele>
      </trkpt>
      <trkpt lat="45.22969" lon="-72.49767">
        <ele>201.5</ele>
      </trkpt>
      <trkpt lat="45.22918" lon="-72.49798">
        <ele>201</ele>
      </trkpt>
      <trkpt lat="45.2289" lon="-72.49822">
        <ele>200.4</ele>
      </trkpt>
      <trkpt lat="45.22874" lon="-72.49843">
        <ele>200.9</ele>
      </trkpt>
      <trkpt lat="45.22843" lon="-72.49887">
        <ele>201.1</ele>
      </trkpt>
      <trkpt lat="45.227836" lon="-72.499753">
        <ele>201.2</ele>
      </trkpt>
      <trkpt lat="45.227243" lon="-72.500636">
        <ele>201.1</ele>
      </trkpt>
      <trkpt lat="45.22665" lon="-72.50152">
        <ele>201.8</ele>
      </trkpt>
      <trkpt lat="45.22607" lon="-72.50232">
        <ele>201.9</ele>
      </trkpt>
      <trkpt lat="45.22588" lon="-72.50264">
        <ele>201.8</ele>
      </trkpt>
      <trkpt lat="45.22577" lon="-72.50291">
        <ele>202.1</ele>
      </trkpt>
      <trkpt lat="45.22575" lon="-72.50305">
        <ele>202.1</ele>
      </trkpt>
      <trkpt lat="45.22579" lon="-72.50332">
        <ele>202.3</ele>
      </trkpt>
      <trkpt lat="45.22545" lon="-72.5044">
        <ele>201.9</ele>
      </trkpt>
      <trkpt lat="45.22541" lon="-72.5047">
        <ele>201.6</ele>
      </trkpt>
      <trkpt lat="45.225435" lon="-72.505354">
        <ele>201.3</ele>
      </trkpt>
      <trkpt lat="45.22546" lon="-72.50601">
        <ele>201.3</ele>
      </trkpt>
      <trkpt lat="45.225525" lon="-72.507264">
        <ele>201.6</ele>
      </trkpt>
      <trkpt lat="45.22559" lon="-72.50852">
        <ele>201.6</ele>
      </trkpt>
      <trkpt lat="45.22558" lon="-72.50927">
        <ele>201.4</ele>
      </trkpt>
      <trkpt lat="45.22545" lon="-72.51048">
        <ele>202</ele>
      </trkpt>
      <trkpt lat="45.22535" lon="-72.51097">
        <ele>201.9</ele>
      </trkpt>
      <trkpt lat="45.22508" lon="-72.51177">
        <ele>202.2</ele>
      </trkpt>
      <trkpt lat="45.22462" lon="-72.51262">
        <ele>203.4</ele>
      </trkpt>
      <trkpt lat="45.22417" lon="-72.5133">
        <ele>205.2</ele>
      </trkpt>
      <trkpt lat="45.22464" lon="-72.51361">
        <ele>204.7</ele>
      </trkpt>
      <trkpt lat="45.22472" lon="-72.51339">
        <ele>204.7</ele>
      </trkpt>
      <trkpt lat="45.22477" lon="-72.51313">
        <ele>204.7</ele>
      </trkpt>
      <trkpt lat="45.22502" lon="-72.51249">
        <ele>204.7</ele>
      </trkpt>
      <trkpt lat="45.22521" lon="-72.5116">
        <ele>200.6</ele>
      </trkpt>
      <trkpt lat="45.22544" lon="-72.51093">
        <ele>200.6</ele>
      </trkpt>
      <trkpt lat="45.22555" lon="-72.51071">
        <ele>200.6</ele>
      </trkpt>
      <trkpt lat="45.22559" lon="-72.51065">
        <ele>200.5</ele>
      </trkpt>
      <trkpt lat="45.22544" lon="-72.51093">
        <ele>200.5</ele>
      </trkpt>
      <trkpt lat="45.22521" lon="-72.5116">
        <ele>200.5</ele>
      </trkpt>
      <trkpt lat="45.22502" lon="-72.51249">
        <ele>204.7</ele>
      </trkpt>
      <trkpt lat="45.22477" lon="-72.51313">
        <ele>204.7</ele>
      </trkpt>
      <trkpt lat="45.22472" lon="-72.51339">
        <ele>204.7</ele>
      </trkpt>
      <trkpt lat="45.22464" lon="-72.51361">
        <ele>204.7</ele>
      </trkpt>
      <trkpt lat="45.22417" lon="-72.5133">
        <ele>205.2</ele>
      </trkpt>
      <trkpt lat="45.223597" lon="-72.51416">
        <ele>206.1</ele>
      </trkpt>
      <trkpt lat="45.223025" lon="-72.51502">
        <ele>207.3</ele>
      </trkpt>
      <trkpt lat="45.222452" lon="-72.51588">
        <ele>208.1</ele>
      </trkpt>
      <trkpt lat="45.22188" lon="-72.51674">
        <ele>209.1</ele>
      </trkpt>
      <trkpt lat="45.2219" lon="-72.51696">
        <ele>209.2</ele>
      </trkpt>
      <trkpt lat="45.221915" lon="-72.517859">
        <ele>209.2</ele>
      </trkpt>
      <trkpt lat="45.22193" lon="-72.51876">
        <ele>209.7</ele>
      </trkpt>
      <trkpt lat="45.22197" lon="-72.51899">
        <ele>209.6</ele>
      </trkpt>
      <trkpt lat="45.22241" lon="-72.5201">
        <ele>208.5</ele>
      </trkpt>
      <trkpt lat="45.22265" lon="-72.52095">
        <ele>208.1</ele>
      </trkpt>
      <trkpt lat="45.22274" lon="-72.5214">
        <ele>207.6</ele>
      </trkpt>
      <trkpt lat="45.22278" lon="-72.52248">
        <ele>206.6</ele>
      </trkpt>
      <trkpt lat="45.22276" lon="-72.52292">
        <ele>206.3</ele>
      </trkpt>
      <trkpt lat="45.22267" lon="-72.5232">
        <ele>205.6</ele>
      </trkpt>
      <trkpt lat="45.22245" lon="-72.52355">
        <ele>204.6</ele>
      </trkpt>
      <trkpt lat="45.22176" lon="-72.52429">
        <ele>202.1</ele>
      </trkpt>
      <trkpt lat="45.221345" lon="-72.524715">
        <ele>202.1</ele>
      </trkpt>
      <trkpt lat="45.22093" lon="-72.52514">
        <ele>202.8</ele>
      </trkpt>
      <trkpt lat="45.221246" lon="-72.526273">
        <ele>201.9</ele>
      </trkpt>
      <trkpt lat="45.221563" lon="-72.527406">
        <ele>201.9</ele>
      </trkpt>
      <trkpt lat="45.22188" lon="-72.52854">
        <ele>202.5</ele>
      </trkpt>
      <trkpt lat="45.22205" lon="-72.52914">
        <ele>202.8</ele>
      </trkpt>
      <trkpt lat="45.22218" lon="-72.52972">
        <ele>203</ele>
      </trkpt>
      <trkpt lat="45.22226" lon="-72.5303">
        <ele>203</ele>
      </trkpt>
      <trkpt lat="45.222286" lon="-72.531166">
        <ele>202.7</ele>
      </trkpt>
      <trkpt lat="45.222313" lon="-72.532033">
        <ele>202.4</ele>
      </trkpt>
      <trkpt lat="45.22234" lon="-72.5329">
        <ele>202.1</ele>
      </trkpt>
    </trkseg>
  </trk>
</gpx>