<?xml version='1.0' encoding='utf-8'?>
<gpx xmlns="http://www.topografix.com/GPX/1/1" xmlns:xsi="http://www.w3.org/2001/XMLSchema-instance" version="1.1" creator="Gravelle Estrie" xsi:schemaLocation="http://www.topografix.com/GPX/1/1 http://www.topografix.com/GPX/1/1/gpx.xsd">
  <metadata>
    <name>Blue Sky Mine 71km/1100MD+</name>
  </metadata>
  <trk>
    <name>Blue Sky Mine 71km/1100MD+</name>
    <trkseg>
      <trkpt lat="45.13136" lon="-72.79962">
        <ele>156.2</ele>
      </trkpt>
      <trkpt lat="45.13137" lon="-72.79975">
        <ele>156.2</ele>
      </trkpt>
      <trkpt lat="45.13127" lon="-72.80001">
        <ele>155.9</ele>
      </trkpt>
      <trkpt lat="45.13128" lon="-72.80065">
        <ele>155.1</ele>
      </trkpt>
      <trkpt lat="45.13174" lon="-72.800625">
        <ele>154.4</ele>
      </trkpt>
      <trkpt lat="45.1322" lon="-72.8006">
        <ele>153.5</ele>
      </trkpt>
      <trkpt lat="45.132684" lon="-72.800595">
        <ele>152.4</ele>
      </trkpt>
      <trkpt lat="45.13317" lon="-72.80059">
        <ele>151.3</ele>
      </trkpt>
      <trkpt lat="45.133996" lon="-72.80058">
        <ele>149.3</ele>
      </trkpt>
      <trkpt lat="45.134823" lon="-72.80057">
        <ele>146.5</ele>
      </trkpt>
      <trkpt lat="45.13565" lon="-72.80056">
        <ele>144.9</ele>
      </trkpt>
      <trkpt lat="45.135648" lon="-72.799374">
        <ele>145.8</ele>
      </trkpt>
      <trkpt lat="45.135647" lon="-72.798189">
        <ele>149.1</ele>
      </trkpt>
      <trkpt lat="45.135646" lon="-72.797004">
        <ele>153</ele>
      </trkpt>
      <trkpt lat="45.135645" lon="-72.795819">
        <ele>157.9</ele>
      </trkpt>
      <trkpt lat="45.135643" lon="-72.794634">
        <ele>161.2</ele>
      </trkpt>
      <trkpt lat="45.135642" lon="-72.793449">
        <ele>162.2</ele>
      </trkpt>
      <trkpt lat="45.135641" lon="-72.792264">
        <ele>166.1</ele>
      </trkpt>
      <trkpt lat="45.13564" lon="-72.79108">
        <ele>171.6</ele>
      </trkpt>
      <trkpt lat="45.135643" lon="-72.789833">
        <ele>174.1</ele>
      </trkpt>
      <trkpt lat="45.135646" lon="-72.788586">
        <ele>175.9</ele>
      </trkpt>
      <trkpt lat="45.13565" lon="-72.78734">
        <ele>177.9</ele>
      </trkpt>
      <trkpt lat="45.135667" lon="-72.78628">
        <ele>181.8</ele>
      </trkpt>
      <trkpt lat="45.135685" lon="-72.78522">
        <ele>184.7</ele>
      </trkpt>
      <trkpt lat="45.135702" lon="-72.78416">
        <ele>187.2</ele>
      </trkpt>
      <trkpt lat="45.13572" lon="-72.7831">
        <ele>189.6</ele>
      </trkpt>
      <trkpt lat="45.134845" lon="-72.783125">
        <ele>190.9</ele>
      </trkpt>
      <trkpt lat="45.13397" lon="-72.78315">
        <ele>191.7</ele>
      </trkpt>
      <trkpt lat="45.133095" lon="-72.783175">
        <ele>191.9</ele>
      </trkpt>
      <trkpt lat="45.13222" lon="-72.7832">
        <ele>191.7</ele>
      </trkpt>
      <trkpt lat="45.131345" lon="-72.783225">
        <ele>192.3</ele>
      </trkpt>
      <trkpt lat="45.13047" lon="-72.78325">
        <ele>193.3</ele>
      </trkpt>
      <trkpt lat="45.129595" lon="-72.783275">
        <ele>193.8</ele>
      </trkpt>
      <trkpt lat="45.12872" lon="-72.7833">
        <ele>194.8</ele>
      </trkpt>
      <trkpt lat="45.12863" lon="-72.78335">
        <ele>194</ele>
      </trkpt>
      <trkpt lat="45.12848" lon="-72.78321">
        <ele>194.4</ele>
      </trkpt>
      <trkpt lat="45.12777" lon="-72.782609">
        <ele>195.1</ele>
      </trkpt>
      <trkpt lat="45.12706" lon="-72.78201">
        <ele>196.5</ele>
      </trkpt>
      <trkpt lat="45.12629" lon="-72.78138">
        <ele>198.1</ele>
      </trkpt>
      <trkpt lat="45.125562" lon="-72.780783">
        <ele>198.5</ele>
      </trkpt>
      <trkpt lat="45.124834" lon="-72.780186">
        <ele>197.5</ele>
      </trkpt>
      <trkpt lat="45.124106" lon="-72.779589">
        <ele>196.2</ele>
      </trkpt>
      <trkpt lat="45.123378" lon="-72.778993">
        <ele>194.9</ele>
      </trkpt>
      <trkpt lat="45.122651" lon="-72.778396">
        <ele>193.4</ele>
      </trkpt>
      <trkpt lat="45.121923" lon="-72.777799">
        <ele>192.5</ele>
      </trkpt>
      <trkpt lat="45.121195" lon="-72.777203">
        <ele>191.3</ele>
      </trkpt>
      <trkpt lat="45.120467" lon="-72.776606">
        <ele>189.8</ele>
      </trkpt>
      <trkpt lat="45.11974" lon="-72.77601">
        <ele>188</ele>
      </trkpt>
      <trkpt lat="45.11967" lon="-72.77592">
        <ele>188</ele>
      </trkpt>
      <trkpt lat="45.11964" lon="-72.77575">
        <ele>187.1</ele>
      </trkpt>
      <trkpt lat="45.11961" lon="-72.77485">
        <ele>185.9</ele>
      </trkpt>
      <trkpt lat="45.119605" lon="-72.773629">
        <ele>183.2</ele>
      </trkpt>
      <trkpt lat="45.119601" lon="-72.772409">
        <ele>182.9</ele>
      </trkpt>
      <trkpt lat="45.119597" lon="-72.771189">
        <ele>182</ele>
      </trkpt>
      <trkpt lat="45.119592" lon="-72.769969">
        <ele>181.8</ele>
      </trkpt>
      <trkpt lat="45.119588" lon="-72.768749">
        <ele>183.3</ele>
      </trkpt>
      <trkpt lat="45.119584" lon="-72.767529">
        <ele>184.5</ele>
      </trkpt>
      <trkpt lat="45.11958" lon="-72.76631">
        <ele>185.8</ele>
      </trkpt>
      <trkpt lat="45.119565" lon="-72.765319">
        <ele>188.7</ele>
      </trkpt>
      <trkpt lat="45.11955" lon="-72.76433">
        <ele>191.3</ele>
      </trkpt>
      <trkpt lat="45.11952" lon="-72.763139">
        <ele>192.8</ele>
      </trkpt>
      <trkpt lat="45.11949" lon="-72.76195">
        <ele>193.3</ele>
      </trkpt>
      <trkpt lat="45.119455" lon="-72.760989">
        <ele>193.8</ele>
      </trkpt>
      <trkpt lat="45.11942" lon="-72.76003">
        <ele>194.4</ele>
      </trkpt>
      <trkpt lat="45.11939" lon="-72.758776">
        <ele>195.2</ele>
      </trkpt>
      <trkpt lat="45.11936" lon="-72.757523">
        <ele>195.8</ele>
      </trkpt>
      <trkpt lat="45.11933" lon="-72.75627">
        <ele>197.2</ele>
      </trkpt>
      <trkpt lat="45.11929" lon="-72.75591">
        <ele>197.2</ele>
      </trkpt>
      <trkpt lat="45.11922" lon="-72.7556">
        <ele>197</ele>
      </trkpt>
      <trkpt lat="45.11908" lon="-72.75524">
        <ele>196.9</ele>
      </trkpt>
      <trkpt lat="45.11889" lon="-72.75488">
        <ele>196.9</ele>
      </trkpt>
      <trkpt lat="45.118475" lon="-72.754259">
        <ele>196.7</ele>
      </trkpt>
      <trkpt lat="45.11806" lon="-72.75364">
        <ele>196.1</ele>
      </trkpt>
      <trkpt lat="45.117715" lon="-72.753169">
        <ele>194.7</ele>
      </trkpt>
      <trkpt lat="45.11737" lon="-72.7527">
        <ele>194.9</ele>
      </trkpt>
      <trkpt lat="45.1168" lon="-72.752029">
        <ele>197</ele>
      </trkpt>
      <trkpt lat="45.11623" lon="-72.75136">
        <ele>197.8</ele>
      </trkpt>
      <trkpt lat="45.115656" lon="-72.750726">
        <ele>197.7</ele>
      </trkpt>
      <trkpt lat="45.115083" lon="-72.750093">
        <ele>199</ele>
      </trkpt>
      <trkpt lat="45.11451" lon="-72.74946">
        <ele>203.5</ele>
      </trkpt>
      <trkpt lat="45.11411" lon="-72.74905">
        <ele>207.4</ele>
      </trkpt>
      <trkpt lat="45.11371" lon="-72.74858">
        <ele>211.4</ele>
      </trkpt>
      <trkpt lat="45.113275" lon="-72.748059">
        <ele>215.3</ele>
      </trkpt>
      <trkpt lat="45.11284" lon="-72.74754">
        <ele>219.5</ele>
      </trkpt>
      <trkpt lat="45.11278" lon="-72.74749">
        <ele>219.5</ele>
      </trkpt>
      <trkpt lat="45.11258" lon="-72.74745">
        <ele>220.3</ele>
      </trkpt>
      <trkpt lat="45.11237" lon="-72.74745">
        <ele>220.6</ele>
      </trkpt>
      <trkpt lat="45.11188" lon="-72.74749">
        <ele>220.9</ele>
      </trkpt>
      <trkpt lat="45.11124" lon="-72.74748">
        <ele>220.1</ele>
      </trkpt>
      <trkpt lat="45.11037" lon="-72.74755">
        <ele>217.2</ele>
      </trkpt>
      <trkpt lat="45.1095" lon="-72.74762">
        <ele>220.6</ele>
      </trkpt>
      <trkpt lat="45.10908" lon="-72.74762">
        <ele>221.9</ele>
      </trkpt>
      <trkpt lat="45.10897" lon="-72.74758">
        <ele>223</ele>
      </trkpt>
      <trkpt lat="45.10887" lon="-72.74753">
        <ele>223</ele>
      </trkpt>
      <trkpt lat="45.1088" lon="-72.74745">
        <ele>224.2</ele>
      </trkpt>
      <trkpt lat="45.10866" lon="-72.74722">
        <ele>225.4</ele>
      </trkpt>
      <trkpt lat="45.10829" lon="-72.74647">
        <ele>229</ele>
      </trkpt>
      <trkpt lat="45.10774" lon="-72.74557">
        <ele>234.3</ele>
      </trkpt>
      <trkpt lat="45.10759" lon="-72.74535">
        <ele>236.1</ele>
      </trkpt>
      <trkpt lat="45.10729" lon="-72.74499">
        <ele>238</ele>
      </trkpt>
      <trkpt lat="45.10698" lon="-72.74467">
        <ele>238.3</ele>
      </trkpt>
      <trkpt lat="45.10662" lon="-72.74446">
        <ele>238.6</ele>
      </trkpt>
      <trkpt lat="45.10637" lon="-72.74437">
        <ele>239.1</ele>
      </trkpt>
      <trkpt lat="45.105643" lon="-72.744143">
        <ele>243.7</ele>
      </trkpt>
      <trkpt lat="45.104916" lon="-72.743916">
        <ele>247.3</ele>
      </trkpt>
      <trkpt lat="45.10419" lon="-72.74369">
        <ele>248.3</ele>
      </trkpt>
      <trkpt lat="45.10343" lon="-72.74341">
        <ele>248.4</ele>
      </trkpt>
      <trkpt lat="45.10351" lon="-72.742218">
        <ele>248.4</ele>
      </trkpt>
      <trkpt lat="45.10359" lon="-72.741026">
        <ele>249.8</ele>
      </trkpt>
      <trkpt lat="45.10367" lon="-72.739834">
        <ele>252.8</ele>
      </trkpt>
      <trkpt lat="45.10375" lon="-72.738642">
        <ele>254.8</ele>
      </trkpt>
      <trkpt lat="45.10383" lon="-72.73745">
        <ele>255.6</ele>
      </trkpt>
      <trkpt lat="45.10383" lon="-72.73746">
        <ele>255.6</ele>
      </trkpt>
      <trkpt lat="45.103895" lon="-72.736477">
        <ele>257.1</ele>
      </trkpt>
      <trkpt lat="45.10396" lon="-72.735495">
        <ele>259</ele>
      </trkpt>
      <trkpt lat="45.104025" lon="-72.734512">
        <ele>265.1</ele>
      </trkpt>
      <trkpt lat="45.10409" lon="-72.73353">
        <ele>269.9</ele>
      </trkpt>
      <trkpt lat="45.10422" lon="-72.7323">
        <ele>274.8</ele>
      </trkpt>
      <trkpt lat="45.10435" lon="-72.73107">
        <ele>274.3</ele>
      </trkpt>
      <trkpt lat="45.10444" lon="-72.73003">
        <ele>273.6</ele>
      </trkpt>
      <trkpt lat="45.1045" lon="-72.72886">
        <ele>274.4</ele>
      </trkpt>
      <trkpt lat="45.10449" lon="-72.72842">
        <ele>274.4</ele>
      </trkpt>
      <trkpt lat="45.104345" lon="-72.727244">
        <ele>275.6</ele>
      </trkpt>
      <trkpt lat="45.1042" lon="-72.726069">
        <ele>279.3</ele>
      </trkpt>
      <trkpt lat="45.104055" lon="-72.724894">
        <ele>279.1</ele>
      </trkpt>
      <trkpt lat="45.10391" lon="-72.72372">
        <ele>280.3</ele>
      </trkpt>
      <trkpt lat="45.10379" lon="-72.722701">
        <ele>285.4</ele>
      </trkpt>
      <trkpt lat="45.10367" lon="-72.721683">
        <ele>293.9</ele>
      </trkpt>
      <trkpt lat="45.10355" lon="-72.720665">
        <ele>305.6</ele>
      </trkpt>
      <trkpt lat="45.10343" lon="-72.719647">
        <ele>314.2</ele>
      </trkpt>
      <trkpt lat="45.10331" lon="-72.71863">
        <ele>317.9</ele>
      </trkpt>
      <trkpt lat="45.10317" lon="-72.717613">
        <ele>314.9</ele>
      </trkpt>
      <trkpt lat="45.10303" lon="-72.716597">
        <ele>305.5</ele>
      </trkpt>
      <trkpt lat="45.10289" lon="-72.715581">
        <ele>294.7</ele>
      </trkpt>
      <trkpt lat="45.10275" lon="-72.714565">
        <ele>283.5</ele>
      </trkpt>
      <trkpt lat="45.10261" lon="-72.71355">
        <ele>274.4</ele>
      </trkpt>
      <trkpt lat="45.102475" lon="-72.712364">
        <ele>266.6</ele>
      </trkpt>
      <trkpt lat="45.10234" lon="-72.71118">
        <ele>262.4</ele>
      </trkpt>
      <trkpt lat="45.10238" lon="-72.710008">
        <ele>256.3</ele>
      </trkpt>
      <trkpt lat="45.10242" lon="-72.708836">
        <ele>249.5</ele>
      </trkpt>
      <trkpt lat="45.10246" lon="-72.707664">
        <ele>246.3</ele>
      </trkpt>
      <trkpt lat="45.1025" lon="-72.706492">
        <ele>246.5</ele>
      </trkpt>
      <trkpt lat="45.10254" lon="-72.70532">
        <ele>241.4</ele>
      </trkpt>
      <trkpt lat="45.102596" lon="-72.704126">
        <ele>242.6</ele>
      </trkpt>
      <trkpt lat="45.102653" lon="-72.702933">
        <ele>253.9</ele>
      </trkpt>
      <trkpt lat="45.10271" lon="-72.70174">
        <ele>259.8</ele>
      </trkpt>
      <trkpt lat="45.10278" lon="-72.70089">
        <ele>260.6</ele>
      </trkpt>
      <trkpt lat="45.1028" lon="-72.69972">
        <ele>264.4</ele>
      </trkpt>
      <trkpt lat="45.10284" lon="-72.69946">
        <ele>263.8</ele>
      </trkpt>
      <trkpt lat="45.10292" lon="-72.69918">
        <ele>262.4</ele>
      </trkpt>
      <trkpt lat="45.10314" lon="-72.69881">
        <ele>259</ele>
      </trkpt>
      <trkpt lat="45.10314" lon="-72.69882">
        <ele>259.2</ele>
      </trkpt>
      <trkpt lat="45.10337" lon="-72.69847">
        <ele>256</ele>
      </trkpt>
      <trkpt lat="45.10348" lon="-72.69816">
        <ele>253.9</ele>
      </trkpt>
      <trkpt lat="45.10358" lon="-72.6977">
        <ele>253</ele>
      </trkpt>
      <trkpt lat="45.10368" lon="-72.6969">
        <ele>251.1</ele>
      </trkpt>
      <trkpt lat="45.10384" lon="-72.69614">
        <ele>253.5</ele>
      </trkpt>
      <trkpt lat="45.10386" lon="-72.69578">
        <ele>254.3</ele>
      </trkpt>
      <trkpt lat="45.10381" lon="-72.69564">
        <ele>254</ele>
      </trkpt>
      <trkpt lat="45.10371" lon="-72.69551">
        <ele>253.5</ele>
      </trkpt>
      <trkpt lat="45.10338" lon="-72.6952">
        <ele>251.3</ele>
      </trkpt>
      <trkpt lat="45.10329" lon="-72.6951">
        <ele>250.7</ele>
      </trkpt>
      <trkpt lat="45.10318" lon="-72.6949">
        <ele>246.9</ele>
      </trkpt>
      <trkpt lat="45.10288" lon="-72.69414">
        <ele>241.2</ele>
      </trkpt>
      <trkpt lat="45.10264" lon="-72.69378">
        <ele>238</ele>
      </trkpt>
      <trkpt lat="45.1019" lon="-72.69314">
        <ele>231.1</ele>
      </trkpt>
      <trkpt lat="45.101465" lon="-72.692669">
        <ele>237.5</ele>
      </trkpt>
      <trkpt lat="45.10103" lon="-72.6922">
        <ele>245.7</ele>
      </trkpt>
      <trkpt lat="45.10053" lon="-72.69149">
        <ele>243.2</ele>
      </trkpt>
      <trkpt lat="45.10027" lon="-72.69095">
        <ele>240.3</ele>
      </trkpt>
      <trkpt lat="45.10017" lon="-72.69077">
        <ele>238.4</ele>
      </trkpt>
      <trkpt lat="45.10005" lon="-72.69064">
        <ele>237.5</ele>
      </trkpt>
      <trkpt lat="45.09984" lon="-72.6905">
        <ele>235.3</ele>
      </trkpt>
      <trkpt lat="45.09929" lon="-72.69027">
        <ele>231.8</ele>
      </trkpt>
      <trkpt lat="45.09915" lon="-72.69014">
        <ele>230.1</ele>
      </trkpt>
      <trkpt lat="45.09895" lon="-72.68992">
        <ele>227.9</ele>
      </trkpt>
      <trkpt lat="45.09879" lon="-72.68956">
        <ele>223.1</ele>
      </trkpt>
      <trkpt lat="45.09868" lon="-72.6892">
        <ele>220.2</ele>
      </trkpt>
      <trkpt lat="45.09856" lon="-72.68832">
        <ele>215.2</ele>
      </trkpt>
      <trkpt lat="45.09851" lon="-72.68813">
        <ele>214.2</ele>
      </trkpt>
      <trkpt lat="45.09832" lon="-72.68768">
        <ele>208.7</ele>
      </trkpt>
      <trkpt lat="45.09806" lon="-72.68723">
        <ele>205.4</ele>
      </trkpt>
      <trkpt lat="45.09794" lon="-72.68697">
        <ele>205.5</ele>
      </trkpt>
      <trkpt lat="45.09777" lon="-72.68647">
        <ele>209.1</ele>
      </trkpt>
      <trkpt lat="45.097685" lon="-72.685774">
        <ele>209.4</ele>
      </trkpt>
      <trkpt lat="45.0976" lon="-72.68508">
        <ele>206</ele>
      </trkpt>
      <trkpt lat="45.09753" lon="-72.68394">
        <ele>200.8</ele>
      </trkpt>
      <trkpt lat="45.09742" lon="-72.68339">
        <ele>200.3</ele>
      </trkpt>
      <trkpt lat="45.09718" lon="-72.68267">
        <ele>197.6</ele>
      </trkpt>
      <trkpt lat="45.09712" lon="-72.68217">
        <ele>196.2</ele>
      </trkpt>
      <trkpt lat="45.09709" lon="-72.68173">
        <ele>195.7</ele>
      </trkpt>
      <trkpt lat="45.09686" lon="-72.68079">
        <ele>193</ele>
      </trkpt>
      <trkpt lat="45.09677" lon="-72.680164">
        <ele>192.5</ele>
      </trkpt>
      <trkpt lat="45.09668" lon="-72.67954">
        <ele>192.7</ele>
      </trkpt>
      <trkpt lat="45.09655" lon="-72.67891">
        <ele>195.1</ele>
      </trkpt>
      <trkpt lat="45.09651" lon="-72.67856">
        <ele>197.2</ele>
      </trkpt>
      <trkpt lat="45.0965" lon="-72.67828">
        <ele>198.2</ele>
      </trkpt>
      <trkpt lat="45.0966" lon="-72.67748">
        <ele>200.6</ele>
      </trkpt>
      <trkpt lat="45.09672" lon="-72.67675">
        <ele>205.4</ele>
      </trkpt>
      <trkpt lat="45.09672" lon="-72.6757">
        <ele>206.4</ele>
      </trkpt>
      <trkpt lat="45.09672" lon="-72.67465">
        <ele>207</ele>
      </trkpt>
      <trkpt lat="45.0967" lon="-72.67431">
        <ele>207.3</ele>
      </trkpt>
      <trkpt lat="45.09666" lon="-72.67327">
        <ele>202.4</ele>
      </trkpt>
      <trkpt lat="45.0966" lon="-72.67268">
        <ele>201.4</ele>
      </trkpt>
      <trkpt lat="45.09656" lon="-72.6725">
        <ele>201.3</ele>
      </trkpt>
      <trkpt lat="45.09643" lon="-72.67215">
        <ele>200.9</ele>
      </trkpt>
      <trkpt lat="45.09627" lon="-72.67197">
        <ele>200.9</ele>
      </trkpt>
      <trkpt lat="45.09619" lon="-72.67174">
        <ele>200.3</ele>
      </trkpt>
      <trkpt lat="45.09607" lon="-72.67138">
        <ele>199.8</ele>
      </trkpt>
      <trkpt lat="45.09596" lon="-72.67071">
        <ele>198.9</ele>
      </trkpt>
      <trkpt lat="45.09585" lon="-72.67036">
        <ele>197.7</ele>
      </trkpt>
      <trkpt lat="45.09568" lon="-72.66991">
        <ele>197.8</ele>
      </trkpt>
      <trkpt lat="45.09543" lon="-72.66933">
        <ele>198.2</ele>
      </trkpt>
      <trkpt lat="45.09511" lon="-72.6688">
        <ele>197.4</ele>
      </trkpt>
      <trkpt lat="45.09506" lon="-72.66861">
        <ele>197.8</ele>
      </trkpt>
      <trkpt lat="45.09506" lon="-72.66838">
        <ele>197.8</ele>
      </trkpt>
      <trkpt lat="45.09513" lon="-72.66807">
        <ele>197.3</ele>
      </trkpt>
      <trkpt lat="45.095355" lon="-72.667445">
        <ele>194.7</ele>
      </trkpt>
      <trkpt lat="45.09558" lon="-72.66682">
        <ele>192.5</ele>
      </trkpt>
      <trkpt lat="45.09582" lon="-72.66592">
        <ele>191</ele>
      </trkpt>
      <trkpt lat="45.09605" lon="-72.66477">
        <ele>190.2</ele>
      </trkpt>
      <trkpt lat="45.09621" lon="-72.66363">
        <ele>183</ele>
      </trkpt>
      <trkpt lat="45.09628" lon="-72.66283">
        <ele>183.8</ele>
      </trkpt>
      <trkpt lat="45.096285" lon="-72.661785">
        <ele>187.2</ele>
      </trkpt>
      <trkpt lat="45.09629" lon="-72.66074">
        <ele>187.1</ele>
      </trkpt>
      <trkpt lat="45.09646" lon="-72.65984">
        <ele>183.1</ele>
      </trkpt>
      <trkpt lat="45.09561" lon="-72.659679">
        <ele>178.3</ele>
      </trkpt>
      <trkpt lat="45.09476" lon="-72.65952">
        <ele>172</ele>
      </trkpt>
      <trkpt lat="45.0939" lon="-72.65925">
        <ele>168.3</ele>
      </trkpt>
      <trkpt lat="45.09333" lon="-72.65904">
        <ele>166.4</ele>
      </trkpt>
      <trkpt lat="45.092535" lon="-72.658724">
        <ele>162.6</ele>
      </trkpt>
      <trkpt lat="45.09174" lon="-72.658409">
        <ele>160.7</ele>
      </trkpt>
      <trkpt lat="45.090945" lon="-72.658094">
        <ele>157.2</ele>
      </trkpt>
      <trkpt lat="45.09015" lon="-72.65778">
        <ele>158.1</ele>
      </trkpt>
      <trkpt lat="45.08958" lon="-72.6576">
        <ele>161.7</ele>
      </trkpt>
      <trkpt lat="45.0889" lon="-72.657419">
        <ele>161.8</ele>
      </trkpt>
      <trkpt lat="45.08822" lon="-72.65724">
        <ele>157.7</ele>
      </trkpt>
      <trkpt lat="45.0875" lon="-72.657094">
        <ele>155.8</ele>
      </trkpt>
      <trkpt lat="45.08678" lon="-72.656949">
        <ele>156.3</ele>
      </trkpt>
      <trkpt lat="45.08606" lon="-72.656804">
        <ele>160.7</ele>
      </trkpt>
      <trkpt lat="45.08534" lon="-72.65666">
        <ele>166.4</ele>
      </trkpt>
      <trkpt lat="45.08519" lon="-72.65661">
        <ele>166.1</ele>
      </trkpt>
      <trkpt lat="45.08504" lon="-72.65652">
        <ele>165.6</ele>
      </trkpt>
      <trkpt lat="45.08489" lon="-72.65638">
        <ele>165.4</ele>
      </trkpt>
      <trkpt lat="45.08443" lon="-72.65567">
        <ele>166.6</ele>
      </trkpt>
      <trkpt lat="45.08398" lon="-72.65486">
        <ele>169</ele>
      </trkpt>
      <trkpt lat="45.08372" lon="-72.65438">
        <ele>168.8</ele>
      </trkpt>
      <trkpt lat="45.08328" lon="-72.653529">
        <ele>165.8</ele>
      </trkpt>
      <trkpt lat="45.08284" lon="-72.65268">
        <ele>163.6</ele>
      </trkpt>
      <trkpt lat="45.08244" lon="-72.651934">
        <ele>165</ele>
      </trkpt>
      <trkpt lat="45.08204" lon="-72.65119">
        <ele>165.2</ele>
      </trkpt>
      <trkpt lat="45.08172" lon="-72.650519">
        <ele>165.9</ele>
      </trkpt>
      <trkpt lat="45.0814" lon="-72.64985">
        <ele>164.7</ele>
      </trkpt>
      <trkpt lat="45.08119" lon="-72.64954">
        <ele>164</ele>
      </trkpt>
      <trkpt lat="45.08078" lon="-72.649174">
        <ele>163.1</ele>
      </trkpt>
      <trkpt lat="45.08037" lon="-72.64881">
        <ele>159.3</ele>
      </trkpt>
      <trkpt lat="45.079783" lon="-72.648339">
        <ele>156.1</ele>
      </trkpt>
      <trkpt lat="45.079196" lon="-72.647869">
        <ele>156.1</ele>
      </trkpt>
      <trkpt lat="45.07861" lon="-72.6474">
        <ele>158.9</ele>
      </trkpt>
      <trkpt lat="45.07803" lon="-72.646969">
        <ele>157.1</ele>
      </trkpt>
      <trkpt lat="45.07745" lon="-72.64654">
        <ele>152.7</ele>
      </trkpt>
      <trkpt lat="45.07692" lon="-72.64622">
        <ele>152.4</ele>
      </trkpt>
      <trkpt lat="45.07651" lon="-72.646">
        <ele>155.4</ele>
      </trkpt>
      <trkpt lat="45.07619" lon="-72.64587">
        <ele>156.6</ele>
      </trkpt>
      <trkpt lat="45.07617" lon="-72.646">
        <ele>156.7</ele>
      </trkpt>
      <trkpt lat="45.07626" lon="-72.64658">
        <ele>157</ele>
      </trkpt>
      <trkpt lat="45.07625" lon="-72.6468">
        <ele>157.5</ele>
      </trkpt>
      <trkpt lat="45.07622" lon="-72.64694">
        <ele>157.8</ele>
      </trkpt>
      <trkpt lat="45.07616" lon="-72.64703">
        <ele>158.3</ele>
      </trkpt>
      <trkpt lat="45.07601" lon="-72.6472">
        <ele>159</ele>
      </trkpt>
      <trkpt lat="45.07531" lon="-72.647765">
        <ele>164.6</ele>
      </trkpt>
      <trkpt lat="45.07461" lon="-72.64833">
        <ele>173.5</ele>
      </trkpt>
      <trkpt lat="45.07436" lon="-72.64847">
        <ele>176.1</ele>
      </trkpt>
      <trkpt lat="45.07382" lon="-72.64873">
        <ele>180.5</ele>
      </trkpt>
      <trkpt lat="45.07305" lon="-72.64914">
        <ele>184.1</ele>
      </trkpt>
      <trkpt lat="45.07255" lon="-72.649425">
        <ele>186.7</ele>
      </trkpt>
      <trkpt lat="45.07205" lon="-72.64971">
        <ele>190.4</ele>
      </trkpt>
      <trkpt lat="45.07193" lon="-72.6498">
        <ele>191.1</ele>
      </trkpt>
      <trkpt lat="45.07188" lon="-72.64986">
        <ele>191.4</ele>
      </trkpt>
      <trkpt lat="45.0717" lon="-72.65021">
        <ele>192.5</ele>
      </trkpt>
      <trkpt lat="45.07145" lon="-72.65088">
        <ele>192.7</ele>
      </trkpt>
      <trkpt lat="45.0713" lon="-72.65151">
        <ele>190.8</ele>
      </trkpt>
      <trkpt lat="45.07125" lon="-72.65274">
        <ele>190.5</ele>
      </trkpt>
      <trkpt lat="45.0712" lon="-72.65397">
        <ele>191.1</ele>
      </trkpt>
      <trkpt lat="45.071173" lon="-72.654823">
        <ele>195.5</ele>
      </trkpt>
      <trkpt lat="45.071146" lon="-72.655676">
        <ele>201.3</ele>
      </trkpt>
      <trkpt lat="45.07112" lon="-72.65653">
        <ele>204.4</ele>
      </trkpt>
      <trkpt lat="45.07113" lon="-72.657239">
        <ele>206.3</ele>
      </trkpt>
      <trkpt lat="45.07114" lon="-72.65795">
        <ele>210</ele>
      </trkpt>
      <trkpt lat="45.07122" lon="-72.65868">
        <ele>209.9</ele>
      </trkpt>
      <trkpt lat="45.071275" lon="-72.659614">
        <ele>212.6</ele>
      </trkpt>
      <trkpt lat="45.07133" lon="-72.66055">
        <ele>214.9</ele>
      </trkpt>
      <trkpt lat="45.0714" lon="-72.66108">
        <ele>216.1</ele>
      </trkpt>
      <trkpt lat="45.07145" lon="-72.66131">
        <ele>216.5</ele>
      </trkpt>
      <trkpt lat="45.07156" lon="-72.66167">
        <ele>217</ele>
      </trkpt>
      <trkpt lat="45.07184" lon="-72.662294">
        <ele>219.3</ele>
      </trkpt>
      <trkpt lat="45.07212" lon="-72.66292">
        <ele>224.8</ele>
      </trkpt>
      <trkpt lat="45.07262" lon="-72.663929">
        <ele>230.7</ele>
      </trkpt>
      <trkpt lat="45.07312" lon="-72.66494">
        <ele>236.7</ele>
      </trkpt>
      <trkpt lat="45.07321" lon="-72.66516">
        <ele>237.6</ele>
      </trkpt>
      <trkpt lat="45.0733" lon="-72.66547">
        <ele>238.5</ele>
      </trkpt>
      <trkpt lat="45.07343" lon="-72.66625">
        <ele>240.3</ele>
      </trkpt>
      <trkpt lat="45.07351" lon="-72.66668">
        <ele>242.1</ele>
      </trkpt>
      <trkpt lat="45.07353" lon="-72.66691">
        <ele>244.1</ele>
      </trkpt>
      <trkpt lat="45.07355" lon="-72.668159">
        <ele>247.1</ele>
      </trkpt>
      <trkpt lat="45.07357" lon="-72.66941">
        <ele>248.1</ele>
      </trkpt>
      <trkpt lat="45.073573" lon="-72.670273">
        <ele>249</ele>
      </trkpt>
      <trkpt lat="45.073576" lon="-72.671136">
        <ele>250.5</ele>
      </trkpt>
      <trkpt lat="45.07358" lon="-72.672">
        <ele>252.1</ele>
      </trkpt>
      <trkpt lat="45.073545" lon="-72.67297">
        <ele>252</ele>
      </trkpt>
      <trkpt lat="45.07351" lon="-72.67394">
        <ele>252.1</ele>
      </trkpt>
      <trkpt lat="45.0735" lon="-72.67519">
        <ele>250</ele>
      </trkpt>
      <trkpt lat="45.0737" lon="-72.676399">
        <ele>241.7</ele>
      </trkpt>
      <trkpt lat="45.0739" lon="-72.67761">
        <ele>240.8</ele>
      </trkpt>
      <trkpt lat="45.07405" lon="-72.678679">
        <ele>242.3</ele>
      </trkpt>
      <trkpt lat="45.0742" lon="-72.67975">
        <ele>244</ele>
      </trkpt>
      <trkpt lat="45.074357" lon="-72.680792">
        <ele>248.7</ele>
      </trkpt>
      <trkpt lat="45.074515" lon="-72.681834">
        <ele>255.1</ele>
      </trkpt>
      <trkpt lat="45.074672" lon="-72.682877">
        <ele>263.5</ele>
      </trkpt>
      <trkpt lat="45.07483" lon="-72.68392">
        <ele>266.3</ele>
      </trkpt>
      <trkpt lat="45.074943" lon="-72.684963">
        <ele>261</ele>
      </trkpt>
      <trkpt lat="45.075056" lon="-72.686006">
        <ele>258.3</ele>
      </trkpt>
      <trkpt lat="45.07517" lon="-72.68705">
        <ele>255.6</ele>
      </trkpt>
      <trkpt lat="45.075285" lon="-72.688014">
        <ele>254.2</ele>
      </trkpt>
      <trkpt lat="45.0754" lon="-72.68898">
        <ele>252.8</ele>
      </trkpt>
      <trkpt lat="45.075504" lon="-72.689991">
        <ele>253.1</ele>
      </trkpt>
      <trkpt lat="45.075608" lon="-72.691003">
        <ele>252.1</ele>
      </trkpt>
      <trkpt lat="45.075712" lon="-72.692015">
        <ele>250.8</ele>
      </trkpt>
      <trkpt lat="45.075816" lon="-72.693027">
        <ele>246.6</ele>
      </trkpt>
      <trkpt lat="45.07592" lon="-72.69404">
        <ele>244.3</ele>
      </trkpt>
      <trkpt lat="45.07593" lon="-72.69449">
        <ele>244</ele>
      </trkpt>
      <trkpt lat="45.075078" lon="-72.694498">
        <ele>239.8</ele>
      </trkpt>
      <trkpt lat="45.074227" lon="-72.694507">
        <ele>239.7</ele>
      </trkpt>
      <trkpt lat="45.073376" lon="-72.694516">
        <ele>238.7</ele>
      </trkpt>
      <trkpt lat="45.072525" lon="-72.694525">
        <ele>237.9</ele>
      </trkpt>
      <trkpt lat="45.071673" lon="-72.694533">
        <ele>238.4</ele>
      </trkpt>
      <trkpt lat="45.070822" lon="-72.694542">
        <ele>239.1</ele>
      </trkpt>
      <trkpt lat="45.069971" lon="-72.694551">
        <ele>240.5</ele>
      </trkpt>
      <trkpt lat="45.06912" lon="-72.69456">
        <ele>243.2</ele>
      </trkpt>
      <trkpt lat="45.068239" lon="-72.694585">
        <ele>240.9</ele>
      </trkpt>
      <trkpt lat="45.06736" lon="-72.69461">
        <ele>233.7</ele>
      </trkpt>
      <trkpt lat="45.066905" lon="-72.694584">
        <ele>231</ele>
      </trkpt>
      <trkpt lat="45.06645" lon="-72.69456">
        <ele>229.1</ele>
      </trkpt>
      <trkpt lat="45.06589" lon="-72.69453">
        <ele>224.4</ele>
      </trkpt>
      <trkpt lat="45.065113" lon="-72.69453">
        <ele>221.8</ele>
      </trkpt>
      <trkpt lat="45.064336" lon="-72.69453">
        <ele>221.3</ele>
      </trkpt>
      <trkpt lat="45.06356" lon="-72.69453">
        <ele>221.9</ele>
      </trkpt>
      <trkpt lat="45.062673" lon="-72.69455">
        <ele>218.5</ele>
      </trkpt>
      <trkpt lat="45.061786" lon="-72.69457">
        <ele>216.6</ele>
      </trkpt>
      <trkpt lat="45.0609" lon="-72.69459">
        <ele>218.2</ele>
      </trkpt>
      <trkpt lat="45.06061" lon="-72.69499">
        <ele>215.4</ele>
      </trkpt>
      <trkpt lat="45.06042" lon="-72.69546">
        <ele>214.1</ele>
      </trkpt>
      <trkpt lat="45.06035" lon="-72.69575">
        <ele>214.1</ele>
      </trkpt>
      <trkpt lat="45.06034" lon="-72.6962">
        <ele>214.6</ele>
      </trkpt>
      <trkpt lat="45.06035" lon="-72.69677">
        <ele>215.8</ele>
      </trkpt>
      <trkpt lat="45.0604" lon="-72.69714">
        <ele>217.4</ele>
      </trkpt>
      <trkpt lat="45.06053" lon="-72.697824">
        <ele>222</ele>
      </trkpt>
      <trkpt lat="45.06066" lon="-72.69851">
        <ele>229.4</ele>
      </trkpt>
      <trkpt lat="45.06071" lon="-72.69902">
        <ele>230.8</ele>
      </trkpt>
      <trkpt lat="45.0607" lon="-72.6995">
        <ele>235.3</ele>
      </trkpt>
      <trkpt lat="45.06063" lon="-72.70014">
        <ele>238.9</ele>
      </trkpt>
      <trkpt lat="45.06049" lon="-72.70098">
        <ele>241.2</ele>
      </trkpt>
      <trkpt lat="45.06037" lon="-72.70136">
        <ele>241.8</ele>
      </trkpt>
      <trkpt lat="45.06039" lon="-72.70148">
        <ele>242.1</ele>
      </trkpt>
      <trkpt lat="45.06035" lon="-72.70218">
        <ele>243.3</ele>
      </trkpt>
      <trkpt lat="45.06034" lon="-72.70303">
        <ele>246.2</ele>
      </trkpt>
      <trkpt lat="45.06037" lon="-72.7038">
        <ele>249</ele>
      </trkpt>
      <trkpt lat="45.06037" lon="-72.70483">
        <ele>253.6</ele>
      </trkpt>
      <trkpt lat="45.06041" lon="-72.70532">
        <ele>254.8</ele>
      </trkpt>
      <trkpt lat="45.06044" lon="-72.70634">
        <ele>256.6</ele>
      </trkpt>
      <trkpt lat="45.060436" lon="-72.70748">
        <ele>257.3</ele>
      </trkpt>
      <trkpt lat="45.060433" lon="-72.70862">
        <ele>258.2</ele>
      </trkpt>
      <trkpt lat="45.06043" lon="-72.70976">
        <ele>261.5</ele>
      </trkpt>
      <trkpt lat="45.060416" lon="-72.71076">
        <ele>265.3</ele>
      </trkpt>
      <trkpt lat="45.060403" lon="-72.71176">
        <ele>269.7</ele>
      </trkpt>
      <trkpt lat="45.06039" lon="-72.71276">
        <ele>270.8</ele>
      </trkpt>
      <trkpt lat="45.059509" lon="-72.712749">
        <ele>274.2</ele>
      </trkpt>
      <trkpt lat="45.05863" lon="-72.71274">
        <ele>280.3</ele>
      </trkpt>
      <trkpt lat="45.05776" lon="-72.712724">
        <ele>288.8</ele>
      </trkpt>
      <trkpt lat="45.05689" lon="-72.71271">
        <ele>298.1</ele>
      </trkpt>
      <trkpt lat="45.05617" lon="-72.71275">
        <ele>302.1</ele>
      </trkpt>
      <trkpt lat="45.05569" lon="-72.71271">
        <ele>304.7</ele>
      </trkpt>
      <trkpt lat="45.05512" lon="-72.71262">
        <ele>309.3</ele>
      </trkpt>
      <trkpt lat="45.05477" lon="-72.71262">
        <ele>311.6</ele>
      </trkpt>
      <trkpt lat="45.05419" lon="-72.71271">
        <ele>312.5</ele>
      </trkpt>
      <trkpt lat="45.05338" lon="-72.71275">
        <ele>313.6</ele>
      </trkpt>
      <trkpt lat="45.05257" lon="-72.71282">
        <ele>314.4</ele>
      </trkpt>
      <trkpt lat="45.05176" lon="-72.71289">
        <ele>315.4</ele>
      </trkpt>
      <trkpt lat="45.050919" lon="-72.71293">
        <ele>311.5</ele>
      </trkpt>
      <trkpt lat="45.05008" lon="-72.71297">
        <ele>307</ele>
      </trkpt>
      <trkpt lat="45.049183" lon="-72.712986">
        <ele>304.7</ele>
      </trkpt>
      <trkpt lat="45.048286" lon="-72.713003">
        <ele>302.8</ele>
      </trkpt>
      <trkpt lat="45.04739" lon="-72.71302">
        <ele>298.7</ele>
      </trkpt>
      <trkpt lat="45.046895" lon="-72.71302">
        <ele>295.2</ele>
      </trkpt>
      <trkpt lat="45.0464" lon="-72.71302">
        <ele>292</ele>
      </trkpt>
      <trkpt lat="45.045625" lon="-72.71306">
        <ele>284.7</ele>
      </trkpt>
      <trkpt lat="45.04485" lon="-72.7131">
        <ele>279.1</ele>
      </trkpt>
      <trkpt lat="45.04436" lon="-72.71316">
        <ele>271.4</ele>
      </trkpt>
      <trkpt lat="45.043519" lon="-72.71318">
        <ele>268</ele>
      </trkpt>
      <trkpt lat="45.04268" lon="-72.7132">
        <ele>272.8</ele>
      </trkpt>
      <trkpt lat="45.042194" lon="-72.7132">
        <ele>276.1</ele>
      </trkpt>
      <trkpt lat="45.04171" lon="-72.7132">
        <ele>279</ele>
      </trkpt>
      <trkpt lat="45.04117" lon="-72.713179">
        <ele>281.9</ele>
      </trkpt>
      <trkpt lat="45.04063" lon="-72.71316">
        <ele>283.4</ele>
      </trkpt>
      <trkpt lat="45.039943" lon="-72.713159">
        <ele>283.8</ele>
      </trkpt>
      <trkpt lat="45.039256" lon="-72.713159">
        <ele>284.4</ele>
      </trkpt>
      <trkpt lat="45.03857" lon="-72.71316">
        <ele>284.2</ele>
      </trkpt>
      <trkpt lat="45.03776" lon="-72.713144">
        <ele>285</ele>
      </trkpt>
      <trkpt lat="45.03695" lon="-72.713129">
        <ele>286.8</ele>
      </trkpt>
      <trkpt lat="45.03614" lon="-72.713114">
        <ele>285.5</ele>
      </trkpt>
      <trkpt lat="45.03533" lon="-72.713099">
        <ele>282.7</ele>
      </trkpt>
      <trkpt lat="45.03452" lon="-72.713084">
        <ele>278</ele>
      </trkpt>
      <trkpt lat="45.03371" lon="-72.71307">
        <ele>273.5</ele>
      </trkpt>
      <trkpt lat="45.03304" lon="-72.71302">
        <ele>271.5</ele>
      </trkpt>
      <trkpt lat="45.03278" lon="-72.71294">
        <ele>271.6</ele>
      </trkpt>
      <trkpt lat="45.03246" lon="-72.71281">
        <ele>272.3</ele>
      </trkpt>
      <trkpt lat="45.03189" lon="-72.71253">
        <ele>272.7</ele>
      </trkpt>
      <trkpt lat="45.03156" lon="-72.71244">
        <ele>272.9</ele>
      </trkpt>
      <trkpt lat="45.03139" lon="-72.71243">
        <ele>273.3</ele>
      </trkpt>
      <trkpt lat="45.03089" lon="-72.71244">
        <ele>274.3</ele>
      </trkpt>
      <trkpt lat="45.03018" lon="-72.712535">
        <ele>274.6</ele>
      </trkpt>
      <trkpt lat="45.02947" lon="-72.71263">
        <ele>273.1</ele>
      </trkpt>
      <trkpt lat="45.02946" lon="-72.71263">
        <ele>273.1</ele>
      </trkpt>
      <trkpt lat="45.02917" lon="-72.71266">
        <ele>272.5</ele>
      </trkpt>
      <trkpt lat="45.02841" lon="-72.7128">
        <ele>272.4</ele>
      </trkpt>
      <trkpt lat="45.027754" lon="-72.712865">
        <ele>272.2</ele>
      </trkpt>
      <trkpt lat="45.0271" lon="-72.71293">
        <ele>272.4</ele>
      </trkpt>
      <trkpt lat="45.026505" lon="-72.71293">
        <ele>273.2</ele>
      </trkpt>
      <trkpt lat="45.02591" lon="-72.71293">
        <ele>273.7</ele>
      </trkpt>
      <trkpt lat="45.02507" lon="-72.71284">
        <ele>272.8</ele>
      </trkpt>
      <trkpt lat="45.024215" lon="-72.712774">
        <ele>270.4</ele>
      </trkpt>
      <trkpt lat="45.02336" lon="-72.71271">
        <ele>267.7</ele>
      </trkpt>
      <trkpt lat="45.02266" lon="-72.712679">
        <ele>264.8</ele>
      </trkpt>
      <trkpt lat="45.02196" lon="-72.712649">
        <ele>262</ele>
      </trkpt>
      <trkpt lat="45.02126" lon="-72.71262">
        <ele>259.7</ele>
      </trkpt>
      <trkpt lat="45.02056" lon="-72.71262">
        <ele>255.1</ele>
      </trkpt>
      <trkpt lat="45.01974" lon="-72.71265">
        <ele>252.9</ele>
      </trkpt>
      <trkpt lat="45.01961" lon="-72.71158">
        <ele>252.1</ele>
      </trkpt>
      <trkpt lat="45.01946" lon="-72.7106">
        <ele>251.5</ele>
      </trkpt>
      <trkpt lat="45.01928" lon="-72.70985">
        <ele>251.2</ele>
      </trkpt>
      <trkpt lat="45.01913" lon="-72.70934">
        <ele>251.2</ele>
      </trkpt>
      <trkpt lat="45.018834" lon="-72.708401">
        <ele>250.7</ele>
      </trkpt>
      <trkpt lat="45.018538" lon="-72.707463">
        <ele>249.4</ele>
      </trkpt>
      <trkpt lat="45.018242" lon="-72.706525">
        <ele>248.5</ele>
      </trkpt>
      <trkpt lat="45.017946" lon="-72.705587">
        <ele>246.8</ele>
      </trkpt>
      <trkpt lat="45.01765" lon="-72.70465">
        <ele>245.7</ele>
      </trkpt>
      <trkpt lat="45.01751" lon="-72.70415">
        <ele>244.2</ele>
      </trkpt>
      <trkpt lat="45.01744" lon="-72.70384">
        <ele>243.4</ele>
      </trkpt>
      <trkpt lat="45.0173" lon="-72.703034">
        <ele>239.6</ele>
      </trkpt>
      <trkpt lat="45.01716" lon="-72.70223">
        <ele>236.4</ele>
      </trkpt>
      <trkpt lat="45.01696" lon="-72.7017">
        <ele>233.5</ele>
      </trkpt>
      <trkpt lat="45.01675" lon="-72.70125">
        <ele>231.1</ele>
      </trkpt>
      <trkpt lat="45.01646" lon="-72.70084">
        <ele>226.8</ele>
      </trkpt>
      <trkpt lat="45.01614" lon="-72.7005">
        <ele>226.3</ele>
      </trkpt>
      <trkpt lat="45.0161" lon="-72.70038">
        <ele>224.9</ele>
      </trkpt>
      <trkpt lat="45.01616" lon="-72.7">
        <ele>221.6</ele>
      </trkpt>
      <trkpt lat="45.01613" lon="-72.69985">
        <ele>219.5</ele>
      </trkpt>
      <trkpt lat="45.01574" lon="-72.69902">
        <ele>209.2</ele>
      </trkpt>
      <trkpt lat="45.01565" lon="-72.69866">
        <ele>203.6</ele>
      </trkpt>
      <trkpt lat="45.015643" lon="-72.697596">
        <ele>198.1</ele>
      </trkpt>
      <trkpt lat="45.015636" lon="-72.696533">
        <ele>206.2</ele>
      </trkpt>
      <trkpt lat="45.01563" lon="-72.69547">
        <ele>216.5</ele>
      </trkpt>
      <trkpt lat="45.01561" lon="-72.694306">
        <ele>219.4</ele>
      </trkpt>
      <trkpt lat="45.01559" lon="-72.693143">
        <ele>210.6</ele>
      </trkpt>
      <trkpt lat="45.01557" lon="-72.69198">
        <ele>197.2</ele>
      </trkpt>
      <trkpt lat="45.01559" lon="-72.69168">
        <ele>194.2</ele>
      </trkpt>
      <trkpt lat="45.0157" lon="-72.69135">
        <ele>190.4</ele>
      </trkpt>
      <trkpt lat="45.01607" lon="-72.69038">
        <ele>184.9</ele>
      </trkpt>
      <trkpt lat="45.01644" lon="-72.68941">
        <ele>181.3</ele>
      </trkpt>
      <trkpt lat="45.01681" lon="-72.68844">
        <ele>180.3</ele>
      </trkpt>
      <trkpt lat="45.017125" lon="-72.687577">
        <ele>181.5</ele>
      </trkpt>
      <trkpt lat="45.01744" lon="-72.686715">
        <ele>181.7</ele>
      </trkpt>
      <trkpt lat="45.017755" lon="-72.685852">
        <ele>181.4</ele>
      </trkpt>
      <trkpt lat="45.01807" lon="-72.68499">
        <ele>180.8</ele>
      </trkpt>
      <trkpt lat="45.01807" lon="-72.685">
        <ele>180.8</ele>
      </trkpt>
      <trkpt lat="45.01817" lon="-72.68473">
        <ele>180.2</ele>
      </trkpt>
      <trkpt lat="45.01822" lon="-72.6845">
        <ele>179.6</ele>
      </trkpt>
      <trkpt lat="45.01825" lon="-72.68427">
        <ele>179.2</ele>
      </trkpt>
      <trkpt lat="45.01832" lon="-72.683515">
        <ele>178.1</ele>
      </trkpt>
      <trkpt lat="45.01839" lon="-72.68276">
        <ele>177.5</ele>
      </trkpt>
      <trkpt lat="45.018485" lon="-72.68158">
        <ele>174.5</ele>
      </trkpt>
      <trkpt lat="45.01858" lon="-72.6804">
        <ele>166.7</ele>
      </trkpt>
      <trkpt lat="45.018676" lon="-72.67953">
        <ele>163.4</ele>
      </trkpt>
      <trkpt lat="45.018773" lon="-72.67866">
        <ele>160.5</ele>
      </trkpt>
      <trkpt lat="45.01887" lon="-72.67779">
        <ele>154.7</ele>
      </trkpt>
      <trkpt lat="45.01902" lon="-72.6772">
        <ele>150.4</ele>
      </trkpt>
      <trkpt lat="45.019315" lon="-72.676555">
        <ele>148.6</ele>
      </trkpt>
      <trkpt lat="45.01961" lon="-72.67591">
        <ele>148.8</ele>
      </trkpt>
      <trkpt lat="45.01977" lon="-72.67563">
        <ele>148.1</ele>
      </trkpt>
      <trkpt lat="45.02024" lon="-72.67501">
        <ele>143.6</ele>
      </trkpt>
      <trkpt lat="45.02071" lon="-72.67439">
        <ele>143.1</ele>
      </trkpt>
      <trkpt lat="45.021065" lon="-72.673915">
        <ele>146.1</ele>
      </trkpt>
      <trkpt lat="45.02142" lon="-72.67344">
        <ele>150.4</ele>
      </trkpt>
      <trkpt lat="45.021805" lon="-72.67295">
        <ele>153.2</ele>
      </trkpt>
      <trkpt lat="45.02219" lon="-72.67246">
        <ele>153.9</ele>
      </trkpt>
      <trkpt lat="45.022585" lon="-72.67192">
        <ele>153.1</ele>
      </trkpt>
      <trkpt lat="45.02298" lon="-72.67138">
        <ele>149.9</ele>
      </trkpt>
      <trkpt lat="45.023365" lon="-72.67089">
        <ele>148.9</ele>
      </trkpt>
      <trkpt lat="45.02375" lon="-72.6704">
        <ele>147.7</ele>
      </trkpt>
      <trkpt lat="45.0239" lon="-72.67026">
        <ele>147.5</ele>
      </trkpt>
      <trkpt lat="45.02397" lon="-72.67022">
        <ele>147.2</ele>
      </trkpt>
      <trkpt lat="45.02431" lon="-72.67022">
        <ele>145.7</ele>
      </trkpt>
      <trkpt lat="45.02512" lon="-72.67053">
        <ele>138.9</ele>
      </trkpt>
      <trkpt lat="45.02534" lon="-72.67049">
        <ele>138.2</ele>
      </trkpt>
      <trkpt lat="45.02548" lon="-72.67044">
        <ele>137.3</ele>
      </trkpt>
      <trkpt lat="45.02573" lon="-72.67026">
        <ele>136.6</ele>
      </trkpt>
      <trkpt lat="45.02625" lon="-72.66977">
        <ele>139.1</ele>
      </trkpt>
      <trkpt lat="45.02624" lon="-72.66977">
        <ele>139.2</ele>
      </trkpt>
      <trkpt lat="45.026825" lon="-72.669125">
        <ele>143.2</ele>
      </trkpt>
      <trkpt lat="45.02741" lon="-72.66848">
        <ele>143.4</ele>
      </trkpt>
      <trkpt lat="45.02802" lon="-72.66801">
        <ele>140.5</ele>
      </trkpt>
      <trkpt lat="45.02863" lon="-72.66754">
        <ele>137.7</ele>
      </trkpt>
      <trkpt lat="45.02914" lon="-72.66722">
        <ele>137.6</ele>
      </trkpt>
      <trkpt lat="45.02934" lon="-72.66713">
        <ele>138.1</ele>
      </trkpt>
      <trkpt lat="45.02947" lon="-72.66704">
        <ele>138.1</ele>
      </trkpt>
      <trkpt lat="45.03001" lon="-72.66629">
        <ele>137.3</ele>
      </trkpt>
      <trkpt lat="45.03023" lon="-72.6661">
        <ele>137.7</ele>
      </trkpt>
      <trkpt lat="45.03079" lon="-72.66574">
        <ele>137.9</ele>
      </trkpt>
      <trkpt lat="45.03092" lon="-72.66561">
        <ele>137.7</ele>
      </trkpt>
      <trkpt lat="45.031345" lon="-72.665275">
        <ele>137.7</ele>
      </trkpt>
      <trkpt lat="45.03177" lon="-72.66494">
        <ele>137.6</ele>
      </trkpt>
      <trkpt lat="45.03223" lon="-72.6645">
        <ele>138.3</ele>
      </trkpt>
      <trkpt lat="45.03242" lon="-72.66426">
        <ele>138.6</ele>
      </trkpt>
      <trkpt lat="45.03265" lon="-72.6639">
        <ele>138.9</ele>
      </trkpt>
      <trkpt lat="45.03281" lon="-72.6635">
        <ele>139.2</ele>
      </trkpt>
      <trkpt lat="45.03288" lon="-72.66314">
        <ele>140.2</ele>
      </trkpt>
      <trkpt lat="45.03357" lon="-72.662762">
        <ele>141.6</ele>
      </trkpt>
      <trkpt lat="45.03426" lon="-72.662385">
        <ele>145.9</ele>
      </trkpt>
      <trkpt lat="45.03495" lon="-72.662007">
        <ele>149.1</ele>
      </trkpt>
      <trkpt lat="45.03564" lon="-72.66163">
        <ele>152.2</ele>
      </trkpt>
      <trkpt lat="45.03594" lon="-72.66144">
        <ele>153.2</ele>
      </trkpt>
      <trkpt lat="45.03641" lon="-72.66108">
        <ele>154.1</ele>
      </trkpt>
      <trkpt lat="45.03694" lon="-72.66063">
        <ele>153.4</ele>
      </trkpt>
      <trkpt lat="45.03753" lon="-72.659973">
        <ele>152.4</ele>
      </trkpt>
      <trkpt lat="45.03812" lon="-72.659316">
        <ele>151</ele>
      </trkpt>
      <trkpt lat="45.03871" lon="-72.65866">
        <ele>150.6</ele>
      </trkpt>
      <trkpt lat="45.0387" lon="-72.65866">
        <ele>150.6</ele>
      </trkpt>
      <trkpt lat="45.039351" lon="-72.657931">
        <ele>150.9</ele>
      </trkpt>
      <trkpt lat="45.040003" lon="-72.657203">
        <ele>152.4</ele>
      </trkpt>
      <trkpt lat="45.040655" lon="-72.656475">
        <ele>154.2</ele>
      </trkpt>
      <trkpt lat="45.041306" lon="-72.655746">
        <ele>157.1</ele>
      </trkpt>
      <trkpt lat="45.041958" lon="-72.655018">
        <ele>158</ele>
      </trkpt>
      <trkpt lat="45.04261" lon="-72.65429">
        <ele>158.7</ele>
      </trkpt>
      <trkpt lat="45.04309" lon="-72.65384">
        <ele>158.5</ele>
      </trkpt>
      <trkpt lat="45.04357" lon="-72.65339">
        <ele>157.9</ele>
      </trkpt>
      <trkpt lat="45.04414" lon="-72.65295">
        <ele>157.1</ele>
      </trkpt>
      <trkpt lat="45.04465" lon="-72.65262">
        <ele>155.2</ele>
      </trkpt>
      <trkpt lat="45.045441" lon="-72.652206">
        <ele>151.7</ele>
      </trkpt>
      <trkpt lat="45.046232" lon="-72.651793">
        <ele>149.6</ele>
      </trkpt>
      <trkpt lat="45.047024" lon="-72.65138">
        <ele>148.5</ele>
      </trkpt>
      <trkpt lat="45.047815" lon="-72.650966">
        <ele>147.8</ele>
      </trkpt>
      <trkpt lat="45.048606" lon="-72.650553">
        <ele>150.1</ele>
      </trkpt>
      <trkpt lat="45.049398" lon="-72.65014">
        <ele>154.4</ele>
      </trkpt>
      <trkpt lat="45.050189" lon="-72.649726">
        <ele>159</ele>
      </trkpt>
      <trkpt lat="45.05098" lon="-72.649313">
        <ele>163.1</ele>
      </trkpt>
      <trkpt lat="45.051772" lon="-72.6489">
        <ele>165</ele>
      </trkpt>
      <trkpt lat="45.052563" lon="-72.648486">
        <ele>165.4</ele>
      </trkpt>
      <trkpt lat="45.053354" lon="-72.648073">
        <ele>165.1</ele>
      </trkpt>
      <trkpt lat="45.054146" lon="-72.64766">
        <ele>163.4</ele>
      </trkpt>
      <trkpt lat="45.054937" lon="-72.647246">
        <ele>159.3</ele>
      </trkpt>
      <trkpt lat="45.055728" lon="-72.646833">
        <ele>154.7</ele>
      </trkpt>
      <trkpt lat="45.05652" lon="-72.64642">
        <ele>152</ele>
      </trkpt>
      <trkpt lat="45.05651" lon="-72.64643">
        <ele>152</ele>
      </trkpt>
      <trkpt lat="45.057015" lon="-72.64617">
        <ele>151.8</ele>
      </trkpt>
      <trkpt lat="45.05752" lon="-72.64591">
        <ele>152.4</ele>
      </trkpt>
      <trkpt lat="45.05816" lon="-72.64551">
        <ele>154.9</ele>
      </trkpt>
      <trkpt lat="45.05875" lon="-72.6451">
        <ele>155.8</ele>
      </trkpt>
      <trkpt lat="45.05936" lon="-72.64457">
        <ele>155.9</ele>
      </trkpt>
      <trkpt lat="45.05933" lon="-72.64443">
        <ele>156</ele>
      </trkpt>
      <trkpt lat="45.059405" lon="-72.643355">
        <ele>156.3</ele>
      </trkpt>
      <trkpt lat="45.05948" lon="-72.64228">
        <ele>152.7</ele>
      </trkpt>
      <trkpt lat="45.05947" lon="-72.64179">
        <ele>149.2</ele>
      </trkpt>
      <trkpt lat="45.05941" lon="-72.64152">
        <ele>146.8</ele>
      </trkpt>
      <trkpt lat="45.05932" lon="-72.6413">
        <ele>145.6</ele>
      </trkpt>
      <trkpt lat="45.05894" lon="-72.64019">
        <ele>145.3</ele>
      </trkpt>
      <trkpt lat="45.05886" lon="-72.63978">
        <ele>146.1</ele>
      </trkpt>
      <trkpt lat="45.0588" lon="-72.63932">
        <ele>147.3</ele>
      </trkpt>
      <trkpt lat="45.05875" lon="-72.63866">
        <ele>149</ele>
      </trkpt>
      <trkpt lat="45.0587" lon="-72.637769">
        <ele>152.2</ele>
      </trkpt>
      <trkpt lat="45.05865" lon="-72.63688">
        <ele>154.3</ele>
      </trkpt>
      <trkpt lat="45.05858" lon="-72.635909">
        <ele>157</ele>
      </trkpt>
      <trkpt lat="45.05851" lon="-72.634939">
        <ele>164.9</ele>
      </trkpt>
      <trkpt lat="45.05844" lon="-72.633969">
        <ele>174.2</ele>
      </trkpt>
      <trkpt lat="45.05837" lon="-72.633">
        <ele>180.7</ele>
      </trkpt>
      <trkpt lat="45.0582" lon="-72.632016">
        <ele>190.6</ele>
      </trkpt>
      <trkpt lat="45.05803" lon="-72.631033">
        <ele>197.9</ele>
      </trkpt>
      <trkpt lat="45.05786" lon="-72.63005">
        <ele>204.8</ele>
      </trkpt>
      <trkpt lat="45.05773" lon="-72.62943">
        <ele>208.3</ele>
      </trkpt>
      <trkpt lat="45.05749" lon="-72.628674">
        <ele>210.8</ele>
      </trkpt>
      <trkpt lat="45.05725" lon="-72.62792">
        <ele>212.4</ele>
      </trkpt>
      <trkpt lat="45.057025" lon="-72.627164">
        <ele>212.3</ele>
      </trkpt>
      <trkpt lat="45.0568" lon="-72.62641">
        <ele>212.8</ele>
      </trkpt>
      <trkpt lat="45.056585" lon="-72.625684">
        <ele>213.3</ele>
      </trkpt>
      <trkpt lat="45.05637" lon="-72.62496">
        <ele>213.6</ele>
      </trkpt>
      <trkpt lat="45.055976" lon="-72.623973">
        <ele>213.9</ele>
      </trkpt>
      <trkpt lat="45.055583" lon="-72.622986">
        <ele>215.7</ele>
      </trkpt>
      <trkpt lat="45.05519" lon="-72.622">
        <ele>220.9</ele>
      </trkpt>
      <trkpt lat="45.05492" lon="-72.62151">
        <ele>226.9</ele>
      </trkpt>
      <trkpt lat="45.05448" lon="-72.62092">
        <ele>234.2</ele>
      </trkpt>
      <trkpt lat="45.05419" lon="-72.6203">
        <ele>239.1</ele>
      </trkpt>
      <trkpt lat="45.05408" lon="-72.6199">
        <ele>243.1</ele>
      </trkpt>
      <trkpt lat="45.05399" lon="-72.61936">
        <ele>246</ele>
      </trkpt>
      <trkpt lat="45.05395" lon="-72.61892">
        <ele>247.2</ele>
      </trkpt>
      <trkpt lat="45.05393" lon="-72.61824">
        <ele>249.8</ele>
      </trkpt>
      <trkpt lat="45.05392" lon="-72.61718">
        <ele>255.8</ele>
      </trkpt>
      <trkpt lat="45.05464" lon="-72.61731">
        <ele>253.3</ele>
      </trkpt>
      <trkpt lat="45.055395" lon="-72.617484">
        <ele>251.2</ele>
      </trkpt>
      <trkpt lat="45.05615" lon="-72.61766">
        <ele>249.3</ele>
      </trkpt>
      <trkpt lat="45.056744" lon="-72.617749">
        <ele>250.2</ele>
      </trkpt>
      <trkpt lat="45.05734" lon="-72.61784">
        <ele>254.7</ele>
      </trkpt>
      <trkpt lat="45.058096" lon="-72.617929">
        <ele>255.3</ele>
      </trkpt>
      <trkpt lat="45.058853" lon="-72.618019">
        <ele>252.5</ele>
      </trkpt>
      <trkpt lat="45.05961" lon="-72.61811">
        <ele>247.6</ele>
      </trkpt>
      <trkpt lat="45.060115" lon="-72.618209">
        <ele>242.6</ele>
      </trkpt>
      <trkpt lat="45.06062" lon="-72.61831">
        <ele>236.7</ele>
      </trkpt>
      <trkpt lat="45.06062" lon="-72.6183">
        <ele>236.7</ele>
      </trkpt>
      <trkpt lat="45.06148" lon="-72.618469">
        <ele>229.7</ele>
      </trkpt>
      <trkpt lat="45.06234" lon="-72.618639">
        <ele>221.3</ele>
      </trkpt>
      <trkpt lat="45.0632" lon="-72.618809">
        <ele>209.4</ele>
      </trkpt>
      <trkpt lat="45.06406" lon="-72.618979">
        <ele>208.4</ele>
      </trkpt>
      <trkpt lat="45.06492" lon="-72.619149">
        <ele>210.8</ele>
      </trkpt>
      <trkpt lat="45.06578" lon="-72.619319">
        <ele>214.4</ele>
      </trkpt>
      <trkpt lat="45.06664" lon="-72.61949">
        <ele>213.6</ele>
      </trkpt>
      <trkpt lat="45.067205" lon="-72.619559">
        <ele>211.7</ele>
      </trkpt>
      <trkpt lat="45.06777" lon="-72.61963">
        <ele>211.1</ele>
      </trkpt>
      <trkpt lat="45.068325" lon="-72.61961">
        <ele>209.5</ele>
      </trkpt>
      <trkpt lat="45.06888" lon="-72.61959">
        <ele>207.7</ele>
      </trkpt>
      <trkpt lat="45.069729" lon="-72.619607">
        <ele>208</ele>
      </trkpt>
      <trkpt lat="45.070579" lon="-72.619625">
        <ele>208.8</ele>
      </trkpt>
      <trkpt lat="45.071429" lon="-72.619643">
        <ele>213</ele>
      </trkpt>
      <trkpt lat="45.072279" lon="-72.619661">
        <ele>215.8</ele>
      </trkpt>
      <trkpt lat="45.07313" lon="-72.61968">
        <ele>215.9</ele>
      </trkpt>
      <trkpt lat="45.0736" lon="-72.61976">
        <ele>215</ele>
      </trkpt>
      <trkpt lat="45.07443" lon="-72.620054">
        <ele>210.9</ele>
      </trkpt>
      <trkpt lat="45.07526" lon="-72.62035">
        <ele>202</ele>
      </trkpt>
      <trkpt lat="45.0761" lon="-72.620663">
        <ele>197</ele>
      </trkpt>
      <trkpt lat="45.07694" lon="-72.620976">
        <ele>192.8</ele>
      </trkpt>
      <trkpt lat="45.07778" lon="-72.62129">
        <ele>188.6</ele>
      </trkpt>
      <trkpt lat="45.07858" lon="-72.621583">
        <ele>185.8</ele>
      </trkpt>
      <trkpt lat="45.07938" lon="-72.621876">
        <ele>183.3</ele>
      </trkpt>
      <trkpt lat="45.08018" lon="-72.62217">
        <ele>178.9</ele>
      </trkpt>
      <trkpt lat="45.08075" lon="-72.62228">
        <ele>180</ele>
      </trkpt>
      <trkpt lat="45.08146" lon="-72.62239">
        <ele>181.1</ele>
      </trkpt>
      <trkpt lat="45.082004" lon="-72.622439">
        <ele>180.2</ele>
      </trkpt>
      <trkpt lat="45.08255" lon="-72.62249">
        <ele>178.3</ele>
      </trkpt>
      <trkpt lat="45.083249" lon="-72.62249">
        <ele>173.4</ele>
      </trkpt>
      <trkpt lat="45.08395" lon="-72.62249">
        <ele>168.1</ele>
      </trkpt>
      <trkpt lat="45.08447" lon="-72.62245">
        <ele>166.1</ele>
      </trkpt>
      <trkpt lat="45.085216" lon="-72.62227">
        <ele>166.6</ele>
      </trkpt>
      <trkpt lat="45.085963" lon="-72.62209">
        <ele>165.7</ele>
      </trkpt>
      <trkpt lat="45.08671" lon="-72.62191">
        <ele>165.7</ele>
      </trkpt>
      <trkpt lat="45.087456" lon="-72.62173">
        <ele>167.1</ele>
      </trkpt>
      <trkpt lat="45.088203" lon="-72.62155">
        <ele>166.8</ele>
      </trkpt>
      <trkpt lat="45.08895" lon="-72.62137">
        <ele>167.5</ele>
      </trkpt>
      <trkpt lat="45.089554" lon="-72.621255">
        <ele>168.5</ele>
      </trkpt>
      <trkpt lat="45.09016" lon="-72.62114">
        <ele>170.2</ele>
      </trkpt>
      <trkpt lat="45.090298" lon="-72.622167">
        <ele>169.6</ele>
      </trkpt>
      <trkpt lat="45.090436" lon="-72.623195">
        <ele>167.9</ele>
      </trkpt>
      <trkpt lat="45.090574" lon="-72.624223">
        <ele>165.3</ele>
      </trkpt>
      <trkpt lat="45.090712" lon="-72.625251">
        <ele>163.9</ele>
      </trkpt>
      <trkpt lat="45.09085" lon="-72.62628">
        <ele>162.9</ele>
      </trkpt>
      <trkpt lat="45.091469" lon="-72.62614">
        <ele>162.6</ele>
      </trkpt>
      <trkpt lat="45.09209" lon="-72.626">
        <ele>162.8</ele>
      </trkpt>
      <trkpt lat="45.09291" lon="-72.62584">
        <ele>162.1</ele>
      </trkpt>
      <trkpt lat="45.09373" lon="-72.62568">
        <ele>162.1</ele>
      </trkpt>
      <trkpt lat="45.09405" lon="-72.62559">
        <ele>162.4</ele>
      </trkpt>
      <trkpt lat="45.09454" lon="-72.62536">
        <ele>162.6</ele>
      </trkpt>
      <trkpt lat="45.095263" lon="-72.6249">
        <ele>163.3</ele>
      </trkpt>
      <trkpt lat="45.095986" lon="-72.62444">
        <ele>163.9</ele>
      </trkpt>
      <trkpt lat="45.09671" lon="-72.62398">
        <ele>165</ele>
      </trkpt>
      <trkpt lat="45.097335" lon="-72.623545">
        <ele>167</ele>
      </trkpt>
      <trkpt lat="45.09796" lon="-72.62311">
        <ele>167.8</ele>
      </trkpt>
      <trkpt lat="45.098636" lon="-72.62255">
        <ele>166.9</ele>
      </trkpt>
      <trkpt lat="45.099313" lon="-72.62199">
        <ele>166.7</ele>
      </trkpt>
      <trkpt lat="45.09999" lon="-72.62143">
        <ele>167.9</ele>
      </trkpt>
      <trkpt lat="45.10057" lon="-72.62097">
        <ele>168.7</ele>
      </trkpt>
      <trkpt lat="45.101025" lon="-72.62057">
        <ele>168.7</ele>
      </trkpt>
      <trkpt lat="45.10148" lon="-72.62017">
        <ele>169.3</ele>
      </trkpt>
      <trkpt lat="45.10185" lon="-72.61976">
        <ele>169.9</ele>
      </trkpt>
      <trkpt lat="45.10221" lon="-72.61927">
        <ele>171.6</ele>
      </trkpt>
      <trkpt lat="45.1027" lon="-72.61852">
        <ele>172.4</ele>
      </trkpt>
      <trkpt lat="45.10271" lon="-72.61851">
        <ele>172.4</ele>
      </trkpt>
      <trkpt lat="45.10314" lon="-72.617856">
        <ele>173.5</ele>
      </trkpt>
      <trkpt lat="45.10357" lon="-72.617203">
        <ele>174.2</ele>
      </trkpt>
      <trkpt lat="45.104" lon="-72.61655">
        <ele>175.4</ele>
      </trkpt>
      <trkpt lat="45.10435" lon="-72.616055">
        <ele>176.8</ele>
      </trkpt>
      <trkpt lat="45.1047" lon="-72.61556">
        <ele>177.6</ele>
      </trkpt>
      <trkpt lat="45.10485" lon="-72.61538">
        <ele>177.8</ele>
      </trkpt>
      <trkpt lat="45.10517" lon="-72.61516">
        <ele>178.9</ele>
      </trkpt>
      <trkpt lat="45.10531" lon="-72.6151">
        <ele>179.2</ele>
      </trkpt>
      <trkpt lat="45.10554" lon="-72.61507">
        <ele>179.7</ele>
      </trkpt>
      <trkpt lat="45.10592" lon="-72.61507">
        <ele>180.6</ele>
      </trkpt>
      <trkpt lat="45.10596" lon="-72.61509">
        <ele>180.6</ele>
      </trkpt>
      <trkpt lat="45.10622" lon="-72.61516">
        <ele>181</ele>
      </trkpt>
      <trkpt lat="45.10639" lon="-72.61525">
        <ele>181.4</ele>
      </trkpt>
      <trkpt lat="45.106824" lon="-72.615494">
        <ele>181.8</ele>
      </trkpt>
      <trkpt lat="45.10726" lon="-72.61574">
        <ele>181.5</ele>
      </trkpt>
      <trkpt lat="45.10785" lon="-72.616104">
        <ele>180.4</ele>
      </trkpt>
      <trkpt lat="45.10844" lon="-72.61647">
        <ele>179.7</ele>
      </trkpt>
      <trkpt lat="45.108895" lon="-72.615385">
        <ele>180.4</ele>
      </trkpt>
      <trkpt lat="45.10935" lon="-72.6143">
        <ele>180.7</ele>
      </trkpt>
      <trkpt lat="45.10976" lon="-72.61435">
        <ele>179.2</ele>
      </trkpt>
      <trkpt lat="45.11026" lon="-72.61438">
        <ele>178.4</ele>
      </trkpt>
      <trkpt lat="45.1104" lon="-72.61434">
        <ele>178.3</ele>
      </trkpt>
      <trkpt lat="45.11063" lon="-72.61432">
        <ele>178.1</ele>
      </trkpt>
      <trkpt lat="45.111413" lon="-72.614203">
        <ele>177.5</ele>
      </trkpt>
      <trkpt lat="45.112196" lon="-72.614086">
        <ele>177.2</ele>
      </trkpt>
      <trkpt lat="45.11298" lon="-72.61397">
        <ele>177.2</ele>
      </trkpt>
      <trkpt lat="45.11297" lon="-72.61397">
        <ele>177.2</ele>
      </trkpt>
      <trkpt lat="45.113665" lon="-72.61387">
        <ele>177.6</ele>
      </trkpt>
      <trkpt lat="45.11436" lon="-72.61377">
        <ele>177.9</ele>
      </trkpt>
      <trkpt lat="45.11455" lon="-72.61375">
        <ele>177.9</ele>
      </trkpt>
      <trkpt lat="45.11452" lon="-72.61391">
        <ele>177.7</ele>
      </trkpt>
      <trkpt lat="45.11445" lon="-72.614">
        <ele>177.6</ele>
      </trkpt>
      <trkpt lat="45.11397" lon="-72.61429">
        <ele>177.5</ele>
      </trkpt>
      <trkpt lat="45.11396" lon="-72.61429">
        <ele>177.5</ele>
      </trkpt>
      <trkpt lat="45.11363" lon="-72.61449">
        <ele>177.4</ele>
      </trkpt>
      <trkpt lat="45.112895" lon="-72.615047">
        <ele>177.4</ele>
      </trkpt>
      <trkpt lat="45.11216" lon="-72.615605">
        <ele>177.5</ele>
      </trkpt>
      <trkpt lat="45.111425" lon="-72.616162">
        <ele>177.4</ele>
      </trkpt>
      <trkpt lat="45.11069" lon="-72.61672">
        <ele>177.3</ele>
      </trkpt>
      <trkpt lat="45.11068" lon="-72.61672">
        <ele>177.3</ele>
      </trkpt>
      <trkpt lat="45.11028" lon="-72.61703">
        <ele>177.6</ele>
      </trkpt>
      <trkpt lat="45.10975" lon="-72.61734">
        <ele>177.9</ele>
      </trkpt>
      <trkpt lat="45.11014" lon="-72.617834">
        <ele>177.7</ele>
      </trkpt>
      <trkpt lat="45.11053" lon="-72.61833">
        <ele>177.8</ele>
      </trkpt>
      <trkpt lat="45.111163" lon="-72.619166">
        <ele>180.8</ele>
      </trkpt>
      <trkpt lat="45.111796" lon="-72.620003">
        <ele>186.1</ele>
      </trkpt>
      <trkpt lat="45.11243" lon="-72.62084">
        <ele>190.8</ele>
      </trkpt>
      <trkpt lat="45.1127" lon="-72.62116">
        <ele>194</ele>
      </trkpt>
      <trkpt lat="45.11284" lon="-72.62128">
        <ele>194.5</ele>
      </trkpt>
      <trkpt lat="45.11301" lon="-72.62133">
        <ele>195.5</ele>
      </trkpt>
      <trkpt lat="45.11358" lon="-72.62146">
        <ele>198.3</ele>
      </trkpt>
      <trkpt lat="45.113595" lon="-72.622649">
        <ele>199.4</ele>
      </trkpt>
      <trkpt lat="45.11361" lon="-72.62384">
        <ele>197</ele>
      </trkpt>
      <trkpt lat="45.11363" lon="-72.62472">
        <ele>195.5</ele>
      </trkpt>
      <trkpt lat="45.11366" lon="-72.625841">
        <ele>197.1</ele>
      </trkpt>
      <trkpt lat="45.11369" lon="-72.626962">
        <ele>201.3</ele>
      </trkpt>
      <trkpt lat="45.11372" lon="-72.628084">
        <ele>204</ele>
      </trkpt>
      <trkpt lat="45.11375" lon="-72.629205">
        <ele>205.6</ele>
      </trkpt>
      <trkpt lat="45.11378" lon="-72.630327">
        <ele>208.6</ele>
      </trkpt>
      <trkpt lat="45.11381" lon="-72.631448">
        <ele>214.3</ele>
      </trkpt>
      <trkpt lat="45.11384" lon="-72.63257">
        <ele>225.9</ele>
      </trkpt>
      <trkpt lat="45.1139" lon="-72.633819">
        <ele>229.8</ele>
      </trkpt>
      <trkpt lat="45.11396" lon="-72.63507">
        <ele>229</ele>
      </trkpt>
      <trkpt lat="45.11399" lon="-72.636112">
        <ele>224.4</ele>
      </trkpt>
      <trkpt lat="45.11402" lon="-72.637154">
        <ele>221.2</ele>
      </trkpt>
      <trkpt lat="45.11405" lon="-72.638197">
        <ele>220.7</ele>
      </trkpt>
      <trkpt lat="45.11408" lon="-72.63924">
        <ele>222.3</ele>
      </trkpt>
      <trkpt lat="45.11404" lon="-72.63977">
        <ele>223.1</ele>
      </trkpt>
      <trkpt lat="45.11386" lon="-72.64071">
        <ele>221.6</ele>
      </trkpt>
      <trkpt lat="45.11368" lon="-72.64165">
        <ele>218</ele>
      </trkpt>
      <trkpt lat="45.1136" lon="-72.64216">
        <ele>217.3</ele>
      </trkpt>
      <trkpt lat="45.11359" lon="-72.64272">
        <ele>217.1</ele>
      </trkpt>
      <trkpt lat="45.11363" lon="-72.643964">
        <ele>221.1</ele>
      </trkpt>
      <trkpt lat="45.11367" lon="-72.645209">
        <ele>226.8</ele>
      </trkpt>
      <trkpt lat="45.11371" lon="-72.646454">
        <ele>226.4</ele>
      </trkpt>
      <trkpt lat="45.11375" lon="-72.6477">
        <ele>225.7</ele>
      </trkpt>
      <trkpt lat="45.11375" lon="-72.64846">
        <ele>226</ele>
      </trkpt>
      <trkpt lat="45.11369" lon="-72.64904">
        <ele>226.6</ele>
      </trkpt>
      <trkpt lat="45.11354" lon="-72.650005">
        <ele>227.6</ele>
      </trkpt>
      <trkpt lat="45.11339" lon="-72.65097">
        <ele>231.2</ele>
      </trkpt>
      <trkpt lat="45.113295" lon="-72.651685">
        <ele>235.7</ele>
      </trkpt>
      <trkpt lat="45.1132" lon="-72.6524">
        <ele>237.6</ele>
      </trkpt>
      <trkpt lat="45.11319" lon="-72.65262">
        <ele>238.2</ele>
      </trkpt>
      <trkpt lat="45.11322" lon="-72.65299">
        <ele>239</ele>
      </trkpt>
      <trkpt lat="45.11331" lon="-72.65339">
        <ele>240.8</ele>
      </trkpt>
      <trkpt lat="45.11345" lon="-72.65375">
        <ele>242.1</ele>
      </trkpt>
      <trkpt lat="45.11354" lon="-72.65397">
        <ele>242.6</ele>
      </trkpt>
      <trkpt lat="45.11366" lon="-72.65419">
        <ele>242.9</ele>
      </trkpt>
      <trkpt lat="45.11378" lon="-72.65437">
        <ele>243.5</ele>
      </trkpt>
      <trkpt lat="45.11392" lon="-72.65452">
        <ele>244.1</ele>
      </trkpt>
      <trkpt lat="45.114515" lon="-72.655064">
        <ele>247.8</ele>
      </trkpt>
      <trkpt lat="45.11511" lon="-72.65561">
        <ele>252.9</ele>
      </trkpt>
      <trkpt lat="45.11574" lon="-72.65626">
        <ele>253.9</ele>
      </trkpt>
      <trkpt lat="45.11596" lon="-72.65664">
        <ele>252.5</ele>
      </trkpt>
      <trkpt lat="45.11599" lon="-72.65688">
        <ele>251.6</ele>
      </trkpt>
      <trkpt lat="45.116" lon="-72.6579">
        <ele>250</ele>
      </trkpt>
      <trkpt lat="45.11598" lon="-72.65845">
        <ele>250.3</ele>
      </trkpt>
      <trkpt lat="45.11599" lon="-72.65884">
        <ele>250.8</ele>
      </trkpt>
      <trkpt lat="45.11602" lon="-72.65916">
        <ele>251.1</ele>
      </trkpt>
      <trkpt lat="45.11608" lon="-72.65944">
        <ele>251.2</ele>
      </trkpt>
      <trkpt lat="45.11634" lon="-72.66014">
        <ele>251.7</ele>
      </trkpt>
      <trkpt lat="45.11686" lon="-72.66117">
        <ele>245.6</ele>
      </trkpt>
      <trkpt lat="45.117305" lon="-72.661979">
        <ele>242.9</ele>
      </trkpt>
      <trkpt lat="45.11775" lon="-72.66279">
        <ele>240.5</ele>
      </trkpt>
      <trkpt lat="45.11809" lon="-72.66333">
        <ele>238.3</ele>
      </trkpt>
      <trkpt lat="45.1184" lon="-72.66364">
        <ele>237.4</ele>
      </trkpt>
      <trkpt lat="45.11857" lon="-72.66391">
        <ele>236.1</ele>
      </trkpt>
      <trkpt lat="45.11897" lon="-72.66471">
        <ele>229.9</ele>
      </trkpt>
      <trkpt lat="45.11911" lon="-72.66516">
        <ele>227.9</ele>
      </trkpt>
      <trkpt lat="45.11921" lon="-72.66575">
        <ele>226.4</ele>
      </trkpt>
      <trkpt lat="45.11936" lon="-72.66694">
        <ele>228.8</ele>
      </trkpt>
      <trkpt lat="45.11941" lon="-72.66753">
        <ele>232.4</ele>
      </trkpt>
      <trkpt lat="45.1194" lon="-72.66806">
        <ele>236.7</ele>
      </trkpt>
      <trkpt lat="45.11926" lon="-72.66928">
        <ele>241.1</ele>
      </trkpt>
      <trkpt lat="45.11926" lon="-72.66941">
        <ele>240.6</ele>
      </trkpt>
      <trkpt lat="45.1193" lon="-72.66968">
        <ele>239.3</ele>
      </trkpt>
      <trkpt lat="45.11939" lon="-72.67">
        <ele>237.6</ele>
      </trkpt>
      <trkpt lat="45.11948" lon="-72.67022">
        <ele>236.9</ele>
      </trkpt>
      <trkpt lat="45.11992" lon="-72.67103">
        <ele>230.3</ele>
      </trkpt>
      <trkpt lat="45.120235" lon="-72.671659">
        <ele>227.7</ele>
      </trkpt>
      <trkpt lat="45.12055" lon="-72.67229">
        <ele>226.1</ele>
      </trkpt>
      <trkpt lat="45.12072" lon="-72.67259">
        <ele>225.1</ele>
      </trkpt>
      <trkpt lat="45.1212" lon="-72.67327">
        <ele>220.8</ele>
      </trkpt>
      <trkpt lat="45.12148" lon="-72.67371">
        <ele>217</ele>
      </trkpt>
      <trkpt lat="45.1217" lon="-72.67411">
        <ele>213.7</ele>
      </trkpt>
      <trkpt lat="45.122275" lon="-72.674739">
        <ele>210.1</ele>
      </trkpt>
      <trkpt lat="45.12285" lon="-72.67537">
        <ele>208.5</ele>
      </trkpt>
      <trkpt lat="45.123405" lon="-72.675919">
        <ele>209</ele>
      </trkpt>
      <trkpt lat="45.12396" lon="-72.67647">
        <ele>208</ele>
      </trkpt>
      <trkpt lat="45.12451" lon="-72.67706">
        <ele>203.9</ele>
      </trkpt>
      <trkpt lat="45.12518" lon="-72.67783">
        <ele>197.1</ele>
      </trkpt>
      <trkpt lat="45.12574" lon="-72.678429">
        <ele>196</ele>
      </trkpt>
      <trkpt lat="45.1263" lon="-72.67903">
        <ele>196.8</ele>
      </trkpt>
      <trkpt lat="45.12644" lon="-72.67918">
        <ele>197.5</ele>
      </trkpt>
      <trkpt lat="45.12689" lon="-72.67994">
        <ele>201.8</ele>
      </trkpt>
      <trkpt lat="45.127423" lon="-72.680953">
        <ele>205.7</ele>
      </trkpt>
      <trkpt lat="45.127956" lon="-72.681966">
        <ele>211.1</ele>
      </trkpt>
      <trkpt lat="45.12849" lon="-72.68298">
        <ele>219.5</ele>
      </trkpt>
      <trkpt lat="45.12862" lon="-72.68334">
        <ele>220.5</ele>
      </trkpt>
      <trkpt lat="45.12866" lon="-72.68353">
        <ele>220.1</ele>
      </trkpt>
      <trkpt lat="45.12866" lon="-72.68405">
        <ele>216.3</ele>
      </trkpt>
      <trkpt lat="45.12873" lon="-72.68509">
        <ele>213</ele>
      </trkpt>
      <trkpt lat="45.12887" lon="-72.68634">
        <ele>211.7</ele>
      </trkpt>
      <trkpt lat="45.12898" lon="-72.68746">
        <ele>209.7</ele>
      </trkpt>
      <trkpt lat="45.12913" lon="-72.68822">
        <ele>209.3</ele>
      </trkpt>
      <trkpt lat="45.1292" lon="-72.6884">
        <ele>209.5</ele>
      </trkpt>
      <trkpt lat="45.12935" lon="-72.68867">
        <ele>209.9</ele>
      </trkpt>
      <trkpt lat="45.12981" lon="-72.68929">
        <ele>213.7</ele>
      </trkpt>
      <trkpt lat="45.12994" lon="-72.68939">
        <ele>214.4</ele>
      </trkpt>
      <trkpt lat="45.13016" lon="-72.68952">
        <ele>217</ele>
      </trkpt>
      <trkpt lat="45.13048" lon="-72.68961">
        <ele>218.7</ele>
      </trkpt>
      <trkpt lat="45.131139" lon="-72.689629">
        <ele>226.2</ele>
      </trkpt>
      <trkpt lat="45.1318" lon="-72.68965">
        <ele>230.3</ele>
      </trkpt>
      <trkpt lat="45.13203" lon="-72.68965">
        <ele>230.5</ele>
      </trkpt>
      <trkpt lat="45.132605" lon="-72.68954">
        <ele>228.3</ele>
      </trkpt>
      <trkpt lat="45.13318" lon="-72.68943">
        <ele>226.7</ele>
      </trkpt>
      <trkpt lat="45.13377" lon="-72.68938">
        <ele>223.8</ele>
      </trkpt>
      <trkpt lat="45.13392" lon="-72.68938">
        <ele>223.3</ele>
      </trkpt>
      <trkpt lat="45.13406" lon="-72.68943">
        <ele>222.6</ele>
      </trkpt>
      <trkpt lat="45.13444" lon="-72.6897">
        <ele>219</ele>
      </trkpt>
      <trkpt lat="45.134975" lon="-72.690169">
        <ele>216.6</ele>
      </trkpt>
      <trkpt lat="45.13551" lon="-72.69064">
        <ele>215.6</ele>
      </trkpt>
      <trkpt lat="45.136153" lon="-72.691056">
        <ele>210.5</ele>
      </trkpt>
      <trkpt lat="45.136796" lon="-72.691473">
        <ele>202.6</ele>
      </trkpt>
      <trkpt lat="45.13744" lon="-72.69189">
        <ele>194.7</ele>
      </trkpt>
      <trkpt lat="45.13765" lon="-72.69199">
        <ele>193</ele>
      </trkpt>
      <trkpt lat="45.13794" lon="-72.69208">
        <ele>192.3</ele>
      </trkpt>
      <trkpt lat="45.13815" lon="-72.69211">
        <ele>193.2</ele>
      </trkpt>
      <trkpt lat="45.13886" lon="-72.69204">
        <ele>200.4</ele>
      </trkpt>
      <trkpt lat="45.13921" lon="-72.69139">
        <ele>206.1</ele>
      </trkpt>
      <trkpt lat="45.13945" lon="-72.69081">
        <ele>209.3</ele>
      </trkpt>
      <trkpt lat="45.13969" lon="-72.69023">
        <ele>211.9</ele>
      </trkpt>
      <trkpt lat="45.13999" lon="-72.68934">
        <ele>215.4</ele>
      </trkpt>
      <trkpt lat="45.140255" lon="-72.68862">
        <ele>221.4</ele>
      </trkpt>
      <trkpt lat="45.14052" lon="-72.6879">
        <ele>224.5</ele>
      </trkpt>
      <trkpt lat="45.14052" lon="-72.68791">
        <ele>224.4</ele>
      </trkpt>
      <trkpt lat="45.14064" lon="-72.68764">
        <ele>226</ele>
      </trkpt>
      <trkpt lat="45.14078" lon="-72.68741">
        <ele>227.1</ele>
      </trkpt>
      <trkpt lat="45.14137" lon="-72.68661">
        <ele>229.1</ele>
      </trkpt>
      <trkpt lat="45.14182" lon="-72.68593">
        <ele>233.7</ele>
      </trkpt>
      <trkpt lat="45.14215" lon="-72.68553">
        <ele>235.8</ele>
      </trkpt>
      <trkpt lat="45.142775" lon="-72.6849">
        <ele>237</ele>
      </trkpt>
      <trkpt lat="45.1434" lon="-72.68427">
        <ele>236.3</ele>
      </trkpt>
      <trkpt lat="45.14383" lon="-72.68393">
        <ele>237.1</ele>
      </trkpt>
      <trkpt lat="45.14426" lon="-72.68359">
        <ele>238.3</ele>
      </trkpt>
      <trkpt lat="45.144496" lon="-72.684489">
        <ele>234.9</ele>
      </trkpt>
      <trkpt lat="45.144733" lon="-72.685389">
        <ele>232.8</ele>
      </trkpt>
      <trkpt lat="45.14497" lon="-72.68629">
        <ele>230.3</ele>
      </trkpt>
      <trkpt lat="45.1452" lon="-72.687029">
        <ele>225.8</ele>
      </trkpt>
      <trkpt lat="45.14543" lon="-72.68777">
        <ele>224.2</ele>
      </trkpt>
      <trkpt lat="45.1458" lon="-72.68893">
        <ele>222.4</ele>
      </trkpt>
      <trkpt lat="45.146086" lon="-72.689796">
        <ele>219.8</ele>
      </trkpt>
      <trkpt lat="45.146373" lon="-72.690663">
        <ele>216.6</ele>
      </trkpt>
      <trkpt lat="45.14666" lon="-72.69153">
        <ele>211.5</ele>
      </trkpt>
      <trkpt lat="45.146965" lon="-72.692289">
        <ele>207.6</ele>
      </trkpt>
      <trkpt lat="45.14727" lon="-72.69305">
        <ele>199.4</ele>
      </trkpt>
      <trkpt lat="45.14768" lon="-72.693979">
        <ele>194.5</ele>
      </trkpt>
      <trkpt lat="45.14809" lon="-72.694909">
        <ele>192.3</ele>
      </trkpt>
      <trkpt lat="45.1485" lon="-72.695839">
        <ele>192.5</ele>
      </trkpt>
      <trkpt lat="45.14891" lon="-72.69677">
        <ele>195.1</ele>
      </trkpt>
      <trkpt lat="45.14913" lon="-72.6974">
        <ele>198.9</ele>
      </trkpt>
      <trkpt lat="45.14928" lon="-72.69822">
        <ele>204.1</ele>
      </trkpt>
      <trkpt lat="45.14929" lon="-72.69865">
        <ele>203.6</ele>
      </trkpt>
      <trkpt lat="45.149175" lon="-72.69977">
        <ele>200.5</ele>
      </trkpt>
      <trkpt lat="45.14906" lon="-72.70089">
        <ele>200.1</ele>
      </trkpt>
      <trkpt lat="45.14892" lon="-72.70197">
        <ele>200</ele>
      </trkpt>
      <trkpt lat="45.14885" lon="-72.7024">
        <ele>198.6</ele>
      </trkpt>
      <trkpt lat="45.14861" lon="-72.70327">
        <ele>192.5</ele>
      </trkpt>
      <trkpt lat="45.14842" lon="-72.7038">
        <ele>190.6</ele>
      </trkpt>
      <trkpt lat="45.14802" lon="-72.704655">
        <ele>190.3</ele>
      </trkpt>
      <trkpt lat="45.14762" lon="-72.70551">
        <ele>195</ele>
      </trkpt>
      <trkpt lat="45.14752" lon="-72.70586">
        <ele>195.7</ele>
      </trkpt>
      <trkpt lat="45.14743" lon="-72.70628">
        <ele>197.1</ele>
      </trkpt>
      <trkpt lat="45.14743" lon="-72.70629">
        <ele>197.2</ele>
      </trkpt>
      <trkpt lat="45.147265" lon="-72.7071">
        <ele>201.5</ele>
      </trkpt>
      <trkpt lat="45.1471" lon="-72.70791">
        <ele>206.3</ele>
      </trkpt>
      <trkpt lat="45.14705" lon="-72.70827">
        <ele>206.6</ele>
      </trkpt>
      <trkpt lat="45.14702" lon="-72.70872">
        <ele>207.7</ele>
      </trkpt>
      <trkpt lat="45.14702" lon="-72.70975">
        <ele>214.2</ele>
      </trkpt>
      <trkpt lat="45.14704" lon="-72.71021">
        <ele>215.5</ele>
      </trkpt>
      <trkpt lat="45.14711" lon="-72.71083">
        <ele>217.1</ele>
      </trkpt>
      <trkpt lat="45.147225" lon="-72.711459">
        <ele>216.3</ele>
      </trkpt>
      <trkpt lat="45.14734" lon="-72.71209">
        <ele>215.7</ele>
      </trkpt>
      <trkpt lat="45.14749" lon="-72.712819">
        <ele>215.7</ele>
      </trkpt>
      <trkpt lat="45.14764" lon="-72.71355">
        <ele>216.7</ele>
      </trkpt>
      <trkpt lat="45.14769" lon="-72.71387">
        <ele>217.8</ele>
      </trkpt>
      <trkpt lat="45.14771" lon="-72.71414">
        <ele>219.1</ele>
      </trkpt>
      <trkpt lat="45.14772" lon="-72.71455">
        <ele>220.3</ele>
      </trkpt>
      <trkpt lat="45.14767" lon="-72.71516">
        <ele>223.7</ele>
      </trkpt>
      <trkpt lat="45.14757" lon="-72.71562">
        <ele>224.8</ele>
      </trkpt>
      <trkpt lat="45.14751" lon="-72.71602">
        <ele>226.5</ele>
      </trkpt>
      <trkpt lat="45.14748" lon="-72.7166">
        <ele>227.7</ele>
      </trkpt>
      <trkpt lat="45.147475" lon="-72.717275">
        <ele>227.9</ele>
      </trkpt>
      <trkpt lat="45.14747" lon="-72.71795">
        <ele>227.5</ele>
      </trkpt>
      <trkpt lat="45.14697" lon="-72.71895">
        <ele>230</ele>
      </trkpt>
      <trkpt lat="45.14647" lon="-72.71995">
        <ele>232</ele>
      </trkpt>
      <trkpt lat="45.146093" lon="-72.720646">
        <ele>232.7</ele>
      </trkpt>
      <trkpt lat="45.145716" lon="-72.721343">
        <ele>232.3</ele>
      </trkpt>
      <trkpt lat="45.14534" lon="-72.72204">
        <ele>232.9</ele>
      </trkpt>
      <trkpt lat="45.14533" lon="-72.72204">
        <ele>232.9</ele>
      </trkpt>
      <trkpt lat="45.144866" lon="-72.722904">
        <ele>233.9</ele>
      </trkpt>
      <trkpt lat="45.144402" lon="-72.723768">
        <ele>233.8</ele>
      </trkpt>
      <trkpt lat="45.143938" lon="-72.724632">
        <ele>232.5</ele>
      </trkpt>
      <trkpt lat="45.143474" lon="-72.725496">
        <ele>229</ele>
      </trkpt>
      <trkpt lat="45.14301" lon="-72.72636">
        <ele>226.2</ele>
      </trkpt>
      <trkpt lat="45.14279" lon="-72.72654">
        <ele>225.6</ele>
      </trkpt>
      <trkpt lat="45.14263" lon="-72.72662">
        <ele>223.8</ele>
      </trkpt>
      <trkpt lat="45.14175" lon="-72.726695">
        <ele>221.3</ele>
      </trkpt>
      <trkpt lat="45.14087" lon="-72.72677">
        <ele>215.6</ele>
      </trkpt>
      <trkpt lat="45.14002" lon="-72.726813">
        <ele>210.3</ele>
      </trkpt>
      <trkpt lat="45.13917" lon="-72.726857">
        <ele>209.1</ele>
      </trkpt>
      <trkpt lat="45.13832" lon="-72.726901">
        <ele>205.7</ele>
      </trkpt>
      <trkpt lat="45.13747" lon="-72.726945">
        <ele>204.3</ele>
      </trkpt>
      <trkpt lat="45.13662" lon="-72.726988">
        <ele>207.2</ele>
      </trkpt>
      <trkpt lat="45.13577" lon="-72.727032">
        <ele>208.4</ele>
      </trkpt>
      <trkpt lat="45.13492" lon="-72.727076">
        <ele>210.4</ele>
      </trkpt>
      <trkpt lat="45.13407" lon="-72.72712">
        <ele>217.9</ele>
      </trkpt>
      <trkpt lat="45.1332" lon="-72.727176">
        <ele>223.8</ele>
      </trkpt>
      <trkpt lat="45.13233" lon="-72.727232">
        <ele>227.9</ele>
      </trkpt>
      <trkpt lat="45.13146" lon="-72.727288">
        <ele>228.7</ele>
      </trkpt>
      <trkpt lat="45.13059" lon="-72.727345">
        <ele>230</ele>
      </trkpt>
      <trkpt lat="45.12972" lon="-72.727401">
        <ele>231.7</ele>
      </trkpt>
      <trkpt lat="45.12885" lon="-72.727457">
        <ele>231.6</ele>
      </trkpt>
      <trkpt lat="45.12798" lon="-72.727513">
        <ele>230.2</ele>
      </trkpt>
      <trkpt lat="45.12711" lon="-72.72757">
        <ele>227.7</ele>
      </trkpt>
      <trkpt lat="45.12655" lon="-72.727595">
        <ele>225.3</ele>
      </trkpt>
      <trkpt lat="45.12599" lon="-72.72762">
        <ele>221.4</ele>
      </trkpt>
      <trkpt lat="45.12563" lon="-72.72801">
        <ele>219.2</ele>
      </trkpt>
      <trkpt lat="45.125145" lon="-72.72864">
        <ele>215.6</ele>
      </trkpt>
      <trkpt lat="45.12466" lon="-72.72927">
        <ele>214.4</ele>
      </trkpt>
      <trkpt lat="45.12406" lon="-72.730125">
        <ele>214.8</ele>
      </trkpt>
      <trkpt lat="45.12346" lon="-72.73098">
        <ele>213.9</ele>
      </trkpt>
      <trkpt lat="45.123025" lon="-72.73167">
        <ele>213.7</ele>
      </trkpt>
      <trkpt lat="45.12259" lon="-72.73236">
        <ele>213.9</ele>
      </trkpt>
      <trkpt lat="45.12259" lon="-72.73237">
        <ele>213.9</ele>
      </trkpt>
      <trkpt lat="45.12204" lon="-72.733218">
        <ele>215.2</ele>
      </trkpt>
      <trkpt lat="45.12149" lon="-72.734067">
        <ele>215.5</ele>
      </trkpt>
      <trkpt lat="45.12094" lon="-72.734916">
        <ele>216.3</ele>
      </trkpt>
      <trkpt lat="45.12039" lon="-72.735765">
        <ele>216.7</ele>
      </trkpt>
      <trkpt lat="45.11984" lon="-72.736614">
        <ele>216.8</ele>
      </trkpt>
      <trkpt lat="45.11929" lon="-72.737463">
        <ele>218.1</ele>
      </trkpt>
      <trkpt lat="45.11874" lon="-72.738312">
        <ele>219.9</ele>
      </trkpt>
      <trkpt lat="45.11819" lon="-72.739161">
        <ele>218.4</ele>
      </trkpt>
      <trkpt lat="45.11764" lon="-72.74001">
        <ele>217.3</ele>
      </trkpt>
      <trkpt lat="45.117185" lon="-72.74074">
        <ele>216.4</ele>
      </trkpt>
      <trkpt lat="45.11673" lon="-72.74147">
        <ele>216.5</ele>
      </trkpt>
      <trkpt lat="45.116275" lon="-72.7422">
        <ele>218.1</ele>
      </trkpt>
      <trkpt lat="45.11582" lon="-72.74293">
        <ele>220.2</ele>
      </trkpt>
      <trkpt lat="45.115312" lon="-72.74372">
        <ele>223.2</ele>
      </trkpt>
      <trkpt lat="45.114804" lon="-72.74451">
        <ele>223.7</ele>
      </trkpt>
      <trkpt lat="45.114296" lon="-72.7453">
        <ele>223.8</ele>
      </trkpt>
      <trkpt lat="45.113788" lon="-72.74609">
        <ele>223.5</ele>
      </trkpt>
      <trkpt lat="45.11328" lon="-72.74688">
        <ele>221.9</ele>
      </trkpt>
      <trkpt lat="45.11284" lon="-72.74754">
        <ele>219.5</ele>
      </trkpt>
      <trkpt lat="45.11223" lon="-72.748393">
        <ele>214.4</ele>
      </trkpt>
      <trkpt lat="45.11162" lon="-72.749246">
        <ele>208</ele>
      </trkpt>
      <trkpt lat="45.11101" lon="-72.7501">
        <ele>205.8</ele>
      </trkpt>
      <trkpt lat="45.1106" lon="-72.750745">
        <ele>209.1</ele>
      </trkpt>
      <trkpt lat="45.11019" lon="-72.75139">
        <ele>211.6</ele>
      </trkpt>
      <trkpt lat="45.10983" lon="-72.75206">
        <ele>212.8</ele>
      </trkpt>
      <trkpt lat="45.10936" lon="-72.75305">
        <ele>213.7</ele>
      </trkpt>
      <trkpt lat="45.109" lon="-72.7539">
        <ele>214.2</ele>
      </trkpt>
      <trkpt lat="45.10857" lon="-72.754815">
        <ele>215.9</ele>
      </trkpt>
      <trkpt lat="45.10814" lon="-72.75573">
        <ele>218.9</ele>
      </trkpt>
      <trkpt lat="45.10783" lon="-72.75635">
        <ele>220.4</ele>
      </trkpt>
      <trkpt lat="45.10782" lon="-72.75635">
        <ele>220.4</ele>
      </trkpt>
      <trkpt lat="45.10764" lon="-72.75672">
        <ele>221.9</ele>
      </trkpt>
      <trkpt lat="45.10727" lon="-72.7574">
        <ele>226.4</ele>
      </trkpt>
      <trkpt lat="45.10688" lon="-72.75798">
        <ele>229.4</ele>
      </trkpt>
      <trkpt lat="45.10641" lon="-72.75856">
        <ele>230.3</ele>
      </trkpt>
      <trkpt lat="45.105825" lon="-72.759185">
        <ele>229.8</ele>
      </trkpt>
      <trkpt lat="45.10524" lon="-72.75981">
        <ele>229.7</ele>
      </trkpt>
      <trkpt lat="45.104655" lon="-72.760435">
        <ele>230.3</ele>
      </trkpt>
      <trkpt lat="45.10407" lon="-72.76106">
        <ele>231.3</ele>
      </trkpt>
      <trkpt lat="45.10348" lon="-72.76173">
        <ele>235.2</ele>
      </trkpt>
      <trkpt lat="45.10336" lon="-72.76195">
        <ele>236.2</ele>
      </trkpt>
      <trkpt lat="45.10295" lon="-72.76249">
        <ele>237.8</ele>
      </trkpt>
      <trkpt lat="45.10247" lon="-72.76325">
        <ele>238.9</ele>
      </trkpt>
      <trkpt lat="45.102063" lon="-72.76395">
        <ele>238.5</ele>
      </trkpt>
      <trkpt lat="45.101656" lon="-72.76465">
        <ele>237.7</ele>
      </trkpt>
      <trkpt lat="45.10125" lon="-72.76535">
        <ele>235.3</ele>
      </trkpt>
      <trkpt lat="45.10158" lon="-72.7654">
        <ele>232.3</ele>
      </trkpt>
      <trkpt lat="45.10241" lon="-72.7654">
        <ele>227.5</ele>
      </trkpt>
      <trkpt lat="45.103054" lon="-72.765355">
        <ele>223.7</ele>
      </trkpt>
      <trkpt lat="45.1037" lon="-72.76531">
        <ele>221.2</ele>
      </trkpt>
      <trkpt lat="45.10455" lon="-72.76522">
        <ele>215.7</ele>
      </trkpt>
      <trkpt lat="45.10505" lon="-72.76526">
        <ele>213.5</ele>
      </trkpt>
      <trkpt lat="45.105767" lon="-72.765205">
        <ele>211</ele>
      </trkpt>
      <trkpt lat="45.106485" lon="-72.76515">
        <ele>208.5</ele>
      </trkpt>
      <trkpt lat="45.107202" lon="-72.765095">
        <ele>205.7</ele>
      </trkpt>
      <trkpt lat="45.10792" lon="-72.76504">
        <ele>203.4</ele>
      </trkpt>
      <trkpt lat="45.10822" lon="-72.76505">
        <ele>202.3</ele>
      </trkpt>
      <trkpt lat="45.10876" lon="-72.76513">
        <ele>201.3</ele>
      </trkpt>
      <trkpt lat="45.10928" lon="-72.76528">
        <ele>200.8</ele>
      </trkpt>
      <trkpt lat="45.10975" lon="-72.76545">
        <ele>200.1</ele>
      </trkpt>
      <trkpt lat="45.11016" lon="-72.76567">
        <ele>199.4</ele>
      </trkpt>
      <trkpt lat="45.1107" lon="-72.76616">
        <ele>197.4</ele>
      </trkpt>
      <trkpt lat="45.11131" lon="-72.76692">
        <ele>192.5</ele>
      </trkpt>
      <trkpt lat="45.111905" lon="-72.767759">
        <ele>190.1</ele>
      </trkpt>
      <trkpt lat="45.1125" lon="-72.7686">
        <ele>186.5</ele>
      </trkpt>
      <trkpt lat="45.11307" lon="-72.769399">
        <ele>183.1</ele>
      </trkpt>
      <trkpt lat="45.11364" lon="-72.770199">
        <ele>181.4</ele>
      </trkpt>
      <trkpt lat="45.11421" lon="-72.771">
        <ele>180.8</ele>
      </trkpt>
      <trkpt lat="45.11458" lon="-72.771489">
        <ele>181.5</ele>
      </trkpt>
      <trkpt lat="45.11495" lon="-72.77198">
        <ele>181.8</ele>
      </trkpt>
      <trkpt lat="45.11527" lon="-72.77234">
        <ele>182.3</ele>
      </trkpt>
      <trkpt lat="45.11568" lon="-72.77271">
        <ele>183.5</ele>
      </trkpt>
      <trkpt lat="45.11636" lon="-72.77326">
        <ele>184.8</ele>
      </trkpt>
      <trkpt lat="45.117036" lon="-72.773809">
        <ele>186.4</ele>
      </trkpt>
      <trkpt lat="45.117712" lon="-72.774359">
        <ele>186.9</ele>
      </trkpt>
      <trkpt lat="45.118388" lon="-72.774909">
        <ele>186.4</ele>
      </trkpt>
      <trkpt lat="45.119064" lon="-72.775459">
        <ele>186.5</ele>
      </trkpt>
      <trkpt lat="45.11974" lon="-72.77601">
        <ele>187.7</ele>
      </trkpt>
      <trkpt lat="45.120472" lon="-72.776609">
        <ele>189.8</ele>
      </trkpt>
      <trkpt lat="45.121204" lon="-72.777209">
        <ele>191.3</ele>
      </trkpt>
      <trkpt lat="45.121936" lon="-72.777809">
        <ele>192.5</ele>
      </trkpt>
      <trkpt lat="45.122668" lon="-72.778409">
        <ele>193.4</ele>
      </trkpt>
      <trkpt lat="45.1234" lon="-72.779009">
        <ele>194.9</ele>
      </trkpt>
      <trkpt lat="45.124132" lon="-72.779609">
        <ele>196.2</ele>
      </trkpt>
      <trkpt lat="45.124864" lon="-72.780209">
        <ele>197.5</ele>
      </trkpt>
      <trkpt lat="45.125596" lon="-72.780809">
        <ele>198.5</ele>
      </trkpt>
      <trkpt lat="45.126328" lon="-72.781409">
        <ele>198.2</ele>
      </trkpt>
      <trkpt lat="45.12706" lon="-72.78201">
        <ele>196.5</ele>
      </trkpt>
      <trkpt lat="45.12777" lon="-72.782609">
        <ele>195.1</ele>
      </trkpt>
      <trkpt lat="45.12848" lon="-72.78321">
        <ele>194.4</ele>
      </trkpt>
      <trkpt lat="45.12863" lon="-72.78335">
        <ele>194</ele>
      </trkpt>
      <trkpt lat="45.1287" lon="-72.78353">
        <ele>194</ele>
      </trkpt>
      <trkpt lat="45.12876" lon="-72.78376">
        <ele>192.7</ele>
      </trkpt>
      <trkpt lat="45.12893" lon="-72.784767">
        <ele>190.8</ele>
      </trkpt>
      <trkpt lat="45.1291" lon="-72.785774">
        <ele>187.5</ele>
      </trkpt>
      <trkpt lat="45.12927" lon="-72.786782">
        <ele>185.6</ele>
      </trkpt>
      <trkpt lat="45.12944" lon="-72.78779">
        <ele>182.6</ele>
      </trkpt>
      <trkpt lat="45.12946" lon="-72.78815">
        <ele>179.8</ele>
      </trkpt>
      <trkpt lat="45.129456" lon="-72.78929">
        <ele>175.5</ele>
      </trkpt>
      <trkpt lat="45.129453" lon="-72.79043">
        <ele>172.2</ele>
      </trkpt>
      <trkpt lat="45.12945" lon="-72.79157">
        <ele>171</ele>
      </trkpt>
      <trkpt lat="45.129438" lon="-72.792725">
        <ele>169.9</ele>
      </trkpt>
      <trkpt lat="45.129426" lon="-72.79388">
        <ele>168.4</ele>
      </trkpt>
      <trkpt lat="45.129415" lon="-72.795035">
        <ele>166</ele>
      </trkpt>
      <trkpt lat="45.129403" lon="-72.79619">
        <ele>163.7</ele>
      </trkpt>
      <trkpt lat="45.129391" lon="-72.797345">
        <ele>161</ele>
      </trkpt>
      <trkpt lat="45.12938" lon="-72.7985">
        <ele>160</ele>
      </trkpt>
      <trkpt lat="45.12938" lon="-72.799609">
        <ele>158.6</ele>
      </trkpt>
      <trkpt lat="45.12938" lon="-72.80072">
        <ele>156.4</ele>
      </trkpt>
      <trkpt lat="45.13026" lon="-72.8007">
        <ele>156.4</ele>
      </trkpt>
      <trkpt lat="45.13082" lon="-72.80067">
        <ele>155.4</ele>
      </trkpt>
      <trkpt lat="45.13138" lon="-72.80064">
        <ele>155</ele>
      </trkpt>
    </trkseg>
  </trk>
</gpx>