<?xml version='1.0' encoding='utf-8'?>
<gpx xmlns="http://www.topografix.com/GPX/1/1" xmlns:xsi="http://www.w3.org/2001/XMLSchema-instance" version="1.1" creator="Gravelle Estrie" xsi:schemaLocation="http://www.topografix.com/GPX/1/1 http://www.topografix.com/GPX/1/1/gpx.xsd">
  <metadata>
    <name>Brown Eyed Girl 2025</name>
  </metadata>
  <trk>
    <name>Brown Eyed Girl 2025</name>
    <trkseg>
      <trkpt lat="45.22234" lon="-72.533">
        <ele>202.16</ele>
      </trkpt>
      <trkpt lat="45.2223167" lon="-72.53214">
        <ele>202.51</ele>
      </trkpt>
      <trkpt lat="45.2222933" lon="-72.53128">
        <ele>202.85</ele>
      </trkpt>
      <trkpt lat="45.22227" lon="-72.53042">
        <ele>203</ele>
      </trkpt>
      <trkpt lat="45.22218" lon="-72.52972">
        <ele>203.09</ele>
      </trkpt>
      <trkpt lat="45.22205" lon="-72.52914">
        <ele>202.94</ele>
      </trkpt>
      <trkpt lat="45.22188" lon="-72.52854">
        <ele>202.4</ele>
      </trkpt>
      <trkpt lat="45.2215633" lon="-72.5273967">
        <ele>202.11</ele>
      </trkpt>
      <trkpt lat="45.2212467" lon="-72.5262533">
        <ele>202.3</ele>
      </trkpt>
      <trkpt lat="45.22093" lon="-72.52511">
        <ele>202.91</ele>
      </trkpt>
      <trkpt lat="45.22156" lon="-72.52449">
        <ele>202.03</ele>
      </trkpt>
      <trkpt lat="45.2210967" lon="-72.52377">
        <ele>200.9</ele>
      </trkpt>
      <trkpt lat="45.2206333" lon="-72.52305">
        <ele>201.09</ele>
      </trkpt>
      <trkpt lat="45.22017" lon="-72.52233">
        <ele>202.91</ele>
      </trkpt>
      <trkpt lat="45.22017" lon="-72.52233">
        <ele>202.9</ele>
      </trkpt>
      <trkpt lat="45.21984" lon="-72.52183">
        <ele>205.74</ele>
      </trkpt>
      <trkpt lat="45.21922" lon="-72.52096">
        <ele>208.87</ele>
      </trkpt>
      <trkpt lat="45.2188" lon="-72.5204">
        <ele>208.9</ele>
      </trkpt>
      <trkpt lat="45.21879" lon="-72.5204">
        <ele>208.9</ele>
      </trkpt>
      <trkpt lat="45.21866" lon="-72.52027">
        <ele>209.06</ele>
      </trkpt>
      <trkpt lat="45.21854" lon="-72.5202">
        <ele>209.33</ele>
      </trkpt>
      <trkpt lat="45.21846" lon="-72.52019">
        <ele>209.33</ele>
      </trkpt>
      <trkpt lat="45.21814" lon="-72.52022">
        <ele>209.51</ele>
      </trkpt>
      <trkpt lat="45.2177" lon="-72.52033">
        <ele>209.15</ele>
      </trkpt>
      <trkpt lat="45.21741" lon="-72.52033">
        <ele>209.53</ele>
      </trkpt>
      <trkpt lat="45.21697" lon="-72.52018">
        <ele>212.15</ele>
      </trkpt>
      <trkpt lat="45.21683" lon="-72.52126">
        <ele>212.47</ele>
      </trkpt>
      <trkpt lat="45.21673" lon="-72.52189">
        <ele>212.6</ele>
      </trkpt>
      <trkpt lat="45.21658" lon="-72.52239">
        <ele>212.82</ele>
      </trkpt>
      <trkpt lat="45.21647" lon="-72.5227">
        <ele>212.98</ele>
      </trkpt>
      <trkpt lat="45.21615" lon="-72.52326">
        <ele>212.95</ele>
      </trkpt>
      <trkpt lat="45.21615" lon="-72.52325">
        <ele>212.95</ele>
      </trkpt>
      <trkpt lat="45.215635" lon="-72.523985">
        <ele>212.36</ele>
      </trkpt>
      <trkpt lat="45.21512" lon="-72.52472">
        <ele>210.6</ele>
      </trkpt>
      <trkpt lat="45.21492" lon="-72.52507">
        <ele>209.25</ele>
      </trkpt>
      <trkpt lat="45.21479" lon="-72.52534">
        <ele>208.93</ele>
      </trkpt>
      <trkpt lat="45.21469" lon="-72.52564">
        <ele>207.89</ele>
      </trkpt>
      <trkpt lat="45.21455" lon="-72.52635">
        <ele>206.24</ele>
      </trkpt>
      <trkpt lat="45.2143933" lon="-72.5274633">
        <ele>205.68</ele>
      </trkpt>
      <trkpt lat="45.2142367" lon="-72.5285767">
        <ele>206.86</ele>
      </trkpt>
      <trkpt lat="45.21408" lon="-72.52969">
        <ele>207.39</ele>
      </trkpt>
      <trkpt lat="45.21391" lon="-72.53074">
        <ele>207.05</ele>
      </trkpt>
      <trkpt lat="45.2137167" lon="-72.5318367">
        <ele>204.85</ele>
      </trkpt>
      <trkpt lat="45.2135233" lon="-72.5329333">
        <ele>203.76</ele>
      </trkpt>
      <trkpt lat="45.21333" lon="-72.53403">
        <ele>205.7</ele>
      </trkpt>
      <trkpt lat="45.212645" lon="-72.533785">
        <ele>202.86</ele>
      </trkpt>
      <trkpt lat="45.21196" lon="-72.53354">
        <ele>205.26</ele>
      </trkpt>
      <trkpt lat="45.21187" lon="-72.53411">
        <ele>205.44</ele>
      </trkpt>
      <trkpt lat="45.21187" lon="-72.5341">
        <ele>205.82</ele>
      </trkpt>
      <trkpt lat="45.21171" lon="-72.535025">
        <ele>206.42</ele>
      </trkpt>
      <trkpt lat="45.21155" lon="-72.53595">
        <ele>207.41</ele>
      </trkpt>
      <trkpt lat="45.210835" lon="-72.535925">
        <ele>208.35</ele>
      </trkpt>
      <trkpt lat="45.21012" lon="-72.5359">
        <ele>212.01</ele>
      </trkpt>
      <trkpt lat="45.20946" lon="-72.535895">
        <ele>216.89</ele>
      </trkpt>
      <trkpt lat="45.2088" lon="-72.53589">
        <ele>216.9</ele>
      </trkpt>
      <trkpt lat="45.2088" lon="-72.53589">
        <ele>216.06</ele>
      </trkpt>
      <trkpt lat="45.20843" lon="-72.53589">
        <ele>216.03</ele>
      </trkpt>
      <trkpt lat="45.2080657" lon="-72.5369658">
        <ele>215.4</ele>
      </trkpt>
      <trkpt lat="45.2077015" lon="-72.5380415">
        <ele>215.57</ele>
      </trkpt>
      <trkpt lat="45.2073372" lon="-72.5391172">
        <ele>216.03</ele>
      </trkpt>
      <trkpt lat="45.2069729" lon="-72.5401929">
        <ele>216.33</ele>
      </trkpt>
      <trkpt lat="45.2066086" lon="-72.5412686">
        <ele>214.87</ele>
      </trkpt>
      <trkpt lat="45.2062443" lon="-72.5423443">
        <ele>213.64</ele>
      </trkpt>
      <trkpt lat="45.20588" lon="-72.54342">
        <ele>213.08</ele>
      </trkpt>
      <trkpt lat="45.20562" lon="-72.54406">
        <ele>213.2</ele>
      </trkpt>
      <trkpt lat="45.20542" lon="-72.54442">
        <ele>213.36</ele>
      </trkpt>
      <trkpt lat="45.20496" lon="-72.54513">
        <ele>213.09</ele>
      </trkpt>
      <trkpt lat="45.20457" lon="-72.54557">
        <ele>213.23</ele>
      </trkpt>
      <trkpt lat="45.20383" lon="-72.54615">
        <ele>212.29</ele>
      </trkpt>
      <trkpt lat="45.20302" lon="-72.54665">
        <ele>212.15</ele>
      </trkpt>
      <trkpt lat="45.20242" lon="-72.54714">
        <ele>212.48</ele>
      </trkpt>
      <trkpt lat="45.2023" lon="-72.5473">
        <ele>212.25</ele>
      </trkpt>
      <trkpt lat="45.20229" lon="-72.54731">
        <ele>212.23</ele>
      </trkpt>
      <trkpt lat="45.20177" lon="-72.54799">
        <ele>211.58</ele>
      </trkpt>
      <trkpt lat="45.20125" lon="-72.54867">
        <ele>211.25</ele>
      </trkpt>
      <trkpt lat="45.2006014" lon="-72.5494815">
        <ele>211.08</ele>
      </trkpt>
      <trkpt lat="45.1999529" lon="-72.5502929">
        <ele>211.23</ele>
      </trkpt>
      <trkpt lat="45.1993043" lon="-72.5511044">
        <ele>209.45</ele>
      </trkpt>
      <trkpt lat="45.1986557" lon="-72.5519158">
        <ele>208.39</ele>
      </trkpt>
      <trkpt lat="45.1980072" lon="-72.5527272">
        <ele>207.01</ele>
      </trkpt>
      <trkpt lat="45.1973586" lon="-72.5535386">
        <ele>205.35</ele>
      </trkpt>
      <trkpt lat="45.19671" lon="-72.55435">
        <ele>204.81</ele>
      </trkpt>
      <trkpt lat="45.196165" lon="-72.55502">
        <ele>203.93</ele>
      </trkpt>
      <trkpt lat="45.19562" lon="-72.55569">
        <ele>203.39</ele>
      </trkpt>
      <trkpt lat="45.19559" lon="-72.55572">
        <ele>203.37</ele>
      </trkpt>
      <trkpt lat="45.194995" lon="-72.5564567">
        <ele>203</ele>
      </trkpt>
      <trkpt lat="45.1944" lon="-72.5571934">
        <ele>203.08</ele>
      </trkpt>
      <trkpt lat="45.193805" lon="-72.5579301">
        <ele>203.07</ele>
      </trkpt>
      <trkpt lat="45.19321" lon="-72.5586667">
        <ele>203.13</ele>
      </trkpt>
      <trkpt lat="45.192615" lon="-72.5594034">
        <ele>203.59</ele>
      </trkpt>
      <trkpt lat="45.19202" lon="-72.56014">
        <ele>204.88</ele>
      </trkpt>
      <trkpt lat="45.19183" lon="-72.56076">
        <ele>205.34</ele>
      </trkpt>
      <trkpt lat="45.19134" lon="-72.56128">
        <ele>205.67</ele>
      </trkpt>
      <trkpt lat="45.19085" lon="-72.5618">
        <ele>206.39</ele>
      </trkpt>
      <trkpt lat="45.19036" lon="-72.56232">
        <ele>207</ele>
      </trkpt>
      <trkpt lat="45.19036" lon="-72.56231">
        <ele>207</ele>
      </trkpt>
      <trkpt lat="45.18997" lon="-72.562725">
        <ele>207.57</ele>
      </trkpt>
      <trkpt lat="45.18958" lon="-72.56314">
        <ele>207.72</ele>
      </trkpt>
      <trkpt lat="45.18962" lon="-72.56324">
        <ele>207.6</ele>
      </trkpt>
      <trkpt lat="45.18958" lon="-72.56314">
        <ele>207.72</ele>
      </trkpt>
      <trkpt lat="45.18992" lon="-72.563905">
        <ele>206.73</ele>
      </trkpt>
      <trkpt lat="45.19026" lon="-72.56467">
        <ele>206.25</ele>
      </trkpt>
      <trkpt lat="45.19026" lon="-72.56467">
        <ele>206.25</ele>
      </trkpt>
      <trkpt lat="45.1906325" lon="-72.565515">
        <ele>205.96</ele>
      </trkpt>
      <trkpt lat="45.191005" lon="-72.56636">
        <ele>205.44</ele>
      </trkpt>
      <trkpt lat="45.1913775" lon="-72.567205">
        <ele>204.54</ele>
      </trkpt>
      <trkpt lat="45.19175" lon="-72.56805">
        <ele>205.51</ele>
      </trkpt>
      <trkpt lat="45.19199" lon="-72.5685">
        <ele>205</ele>
      </trkpt>
      <trkpt lat="45.19234" lon="-72.56902">
        <ele>204.55</ele>
      </trkpt>
      <trkpt lat="45.19261" lon="-72.56935">
        <ele>204.69</ele>
      </trkpt>
      <trkpt lat="45.19302" lon="-72.56979">
        <ele>207.62</ele>
      </trkpt>
      <trkpt lat="45.19317" lon="-72.56998">
        <ele>208.45</ele>
      </trkpt>
      <trkpt lat="45.19366" lon="-72.57078">
        <ele>208.37</ele>
      </trkpt>
      <trkpt lat="45.19366" lon="-72.57078">
        <ele>208.04</ele>
      </trkpt>
      <trkpt lat="45.19379" lon="-72.57101">
        <ele>207.87</ele>
      </trkpt>
      <trkpt lat="45.19412" lon="-72.57173">
        <ele>206.26</ele>
      </trkpt>
      <trkpt lat="45.19405" lon="-72.57181">
        <ele>206.19</ele>
      </trkpt>
      <trkpt lat="45.19399" lon="-72.57234">
        <ele>205.96</ele>
      </trkpt>
      <trkpt lat="45.19396" lon="-72.5724">
        <ele>206.01</ele>
      </trkpt>
      <trkpt lat="45.19392" lon="-72.57244">
        <ele>206.01</ele>
      </trkpt>
      <trkpt lat="45.194" lon="-72.5727">
        <ele>205.93</ele>
      </trkpt>
      <trkpt lat="45.19402" lon="-72.57289">
        <ele>206.02</ele>
      </trkpt>
      <trkpt lat="45.19402" lon="-72.57364">
        <ele>209.38</ele>
      </trkpt>
      <trkpt lat="45.19399" lon="-72.57388">
        <ele>210.89</ele>
      </trkpt>
      <trkpt lat="45.19381" lon="-72.57437">
        <ele>212.72</ele>
      </trkpt>
      <trkpt lat="45.19348" lon="-72.57503">
        <ele>212.74</ele>
      </trkpt>
      <trkpt lat="45.19326" lon="-72.5754">
        <ele>211.99</ele>
      </trkpt>
      <trkpt lat="45.19268" lon="-72.5762167">
        <ele>211.3</ele>
      </trkpt>
      <trkpt lat="45.1921" lon="-72.5770334">
        <ele>212.71</ele>
      </trkpt>
      <trkpt lat="45.19152" lon="-72.57785">
        <ele>215.31</ele>
      </trkpt>
      <trkpt lat="45.191" lon="-72.5786133">
        <ele>216.23</ele>
      </trkpt>
      <trkpt lat="45.19048" lon="-72.5793767">
        <ele>218.34</ele>
      </trkpt>
      <trkpt lat="45.18996" lon="-72.58014">
        <ele>224.53</ele>
      </trkpt>
      <trkpt lat="45.18968" lon="-72.58046">
        <ele>226.73</ele>
      </trkpt>
      <trkpt lat="45.1892" lon="-72.58095">
        <ele>229.92</ele>
      </trkpt>
      <trkpt lat="45.1892" lon="-72.58096">
        <ele>229.94</ele>
      </trkpt>
      <trkpt lat="45.18859" lon="-72.5815767">
        <ele>233.8</ele>
      </trkpt>
      <trkpt lat="45.18798" lon="-72.5821934">
        <ele>237.15</ele>
      </trkpt>
      <trkpt lat="45.18737" lon="-72.5828101">
        <ele>238.86</ele>
      </trkpt>
      <trkpt lat="45.18676" lon="-72.5834267">
        <ele>238.49</ele>
      </trkpt>
      <trkpt lat="45.18615" lon="-72.5840434">
        <ele>238.88</ele>
      </trkpt>
      <trkpt lat="45.18554" lon="-72.58466">
        <ele>240.22</ele>
      </trkpt>
      <trkpt lat="45.18491" lon="-72.58524">
        <ele>241.53</ele>
      </trkpt>
      <trkpt lat="45.18448" lon="-72.5856">
        <ele>240.08</ele>
      </trkpt>
      <trkpt lat="45.18405" lon="-72.58596">
        <ele>238.5</ele>
      </trkpt>
      <trkpt lat="45.183645" lon="-72.586255">
        <ele>237.59</ele>
      </trkpt>
      <trkpt lat="45.18324" lon="-72.58655">
        <ele>237.65</ele>
      </trkpt>
      <trkpt lat="45.182575" lon="-72.58697">
        <ele>238.18</ele>
      </trkpt>
      <trkpt lat="45.18191" lon="-72.58739">
        <ele>236.49</ele>
      </trkpt>
      <trkpt lat="45.18131" lon="-72.58789">
        <ele>234.74</ele>
      </trkpt>
      <trkpt lat="45.18116" lon="-72.58803">
        <ele>233.63</ele>
      </trkpt>
      <trkpt lat="45.180695" lon="-72.58865">
        <ele>229.23</ele>
      </trkpt>
      <trkpt lat="45.18023" lon="-72.58927">
        <ele>226.17</ele>
      </trkpt>
      <trkpt lat="45.17997" lon="-72.58968">
        <ele>225.61</ele>
      </trkpt>
      <trkpt lat="45.17975" lon="-72.59017">
        <ele>224.11</ele>
      </trkpt>
      <trkpt lat="45.179495" lon="-72.590835">
        <ele>222.83</ele>
      </trkpt>
      <trkpt lat="45.17924" lon="-72.5915">
        <ele>220.72</ele>
      </trkpt>
      <trkpt lat="45.17893" lon="-72.59218">
        <ele>218.3</ele>
      </trkpt>
      <trkpt lat="45.17882" lon="-72.59253">
        <ele>215.95</ele>
      </trkpt>
      <trkpt lat="45.17881" lon="-72.59253">
        <ele>215.89</ele>
      </trkpt>
      <trkpt lat="45.17857" lon="-72.59331">
        <ele>212.37</ele>
      </trkpt>
      <trkpt lat="45.17845" lon="-72.59375">
        <ele>208.56</ele>
      </trkpt>
      <trkpt lat="45.17837" lon="-72.59447">
        <ele>205.21</ele>
      </trkpt>
      <trkpt lat="45.17837" lon="-72.59492">
        <ele>204.32</ele>
      </trkpt>
      <trkpt lat="45.1784" lon="-72.59541">
        <ele>203.54</ele>
      </trkpt>
      <trkpt lat="45.17846" lon="-72.59576">
        <ele>202.69</ele>
      </trkpt>
      <trkpt lat="45.17867" lon="-72.596595">
        <ele>200.76</ele>
      </trkpt>
      <trkpt lat="45.17888" lon="-72.59743">
        <ele>197.67</ele>
      </trkpt>
      <trkpt lat="45.17895" lon="-72.598">
        <ele>196.24</ele>
      </trkpt>
      <trkpt lat="45.17895" lon="-72.59832">
        <ele>194.71</ele>
      </trkpt>
      <trkpt lat="45.17885" lon="-72.59908">
        <ele>191.52</ele>
      </trkpt>
      <trkpt lat="45.1789" lon="-72.59952">
        <ele>191.74</ele>
      </trkpt>
      <trkpt lat="45.17892" lon="-72.59962">
        <ele>191.74</ele>
      </trkpt>
      <trkpt lat="45.17908" lon="-72.59999">
        <ele>191.81</ele>
      </trkpt>
      <trkpt lat="45.17924" lon="-72.60047">
        <ele>192.03</ele>
      </trkpt>
      <trkpt lat="45.1794" lon="-72.60115">
        <ele>192.77</ele>
      </trkpt>
      <trkpt lat="45.17953" lon="-72.60145">
        <ele>193.01</ele>
      </trkpt>
      <trkpt lat="45.17981" lon="-72.60194">
        <ele>195.32</ele>
      </trkpt>
      <trkpt lat="45.17991" lon="-72.60217">
        <ele>195.95</ele>
      </trkpt>
      <trkpt lat="45.18014" lon="-72.60285">
        <ele>197.53</ele>
      </trkpt>
      <trkpt lat="45.180445" lon="-72.6035">
        <ele>198</ele>
      </trkpt>
      <trkpt lat="45.18075" lon="-72.60415">
        <ele>198.54</ele>
      </trkpt>
      <trkpt lat="45.18121" lon="-72.60499">
        <ele>198</ele>
      </trkpt>
      <trkpt lat="45.18133" lon="-72.60526">
        <ele>197.84</ele>
      </trkpt>
      <trkpt lat="45.18141" lon="-72.60557">
        <ele>197.3</ele>
      </trkpt>
      <trkpt lat="45.18151" lon="-72.60606">
        <ele>194.94</ele>
      </trkpt>
      <trkpt lat="45.181665" lon="-72.60718">
        <ele>193.81</ele>
      </trkpt>
      <trkpt lat="45.18182" lon="-72.6083">
        <ele>195.4</ele>
      </trkpt>
      <trkpt lat="45.18186" lon="-72.60874">
        <ele>195.5</ele>
      </trkpt>
      <trkpt lat="45.181895" lon="-72.60948">
        <ele>195.01</ele>
      </trkpt>
      <trkpt lat="45.18193" lon="-72.61022">
        <ele>192.37</ele>
      </trkpt>
      <trkpt lat="45.181975" lon="-72.610915">
        <ele>187.92</ele>
      </trkpt>
      <trkpt lat="45.18202" lon="-72.61161">
        <ele>181.14</ele>
      </trkpt>
      <trkpt lat="45.18212" lon="-72.61255">
        <ele>172.87</ele>
      </trkpt>
      <trkpt lat="45.1823525" lon="-72.61356">
        <ele>166.91</ele>
      </trkpt>
      <trkpt lat="45.182585" lon="-72.61457">
        <ele>165.13</ele>
      </trkpt>
      <trkpt lat="45.1828175" lon="-72.61558">
        <ele>160.14</ele>
      </trkpt>
      <trkpt lat="45.18305" lon="-72.61659">
        <ele>156.17</ele>
      </trkpt>
      <trkpt lat="45.1833367" lon="-72.6177867">
        <ele>158.5</ele>
      </trkpt>
      <trkpt lat="45.1836233" lon="-72.6189833">
        <ele>159.51</ele>
      </trkpt>
      <trkpt lat="45.18391" lon="-72.62018">
        <ele>162</ele>
      </trkpt>
      <trkpt lat="45.1834433" lon="-72.6207467">
        <ele>162.28</ele>
      </trkpt>
      <trkpt lat="45.1829767" lon="-72.6213133">
        <ele>159.82</ele>
      </trkpt>
      <trkpt lat="45.18251" lon="-72.62188">
        <ele>154.81</ele>
      </trkpt>
      <trkpt lat="45.1825" lon="-72.62188">
        <ele>154.79</ele>
      </trkpt>
      <trkpt lat="45.18212" lon="-72.622365">
        <ele>151.77</ele>
      </trkpt>
      <trkpt lat="45.18174" lon="-72.62285">
        <ele>148.4</ele>
      </trkpt>
      <trkpt lat="45.18158" lon="-72.62317">
        <ele>147.58</ele>
      </trkpt>
      <trkpt lat="45.18128" lon="-72.624065">
        <ele>146.53</ele>
      </trkpt>
      <trkpt lat="45.18098" lon="-72.62496">
        <ele>150.51</ele>
      </trkpt>
      <trkpt lat="45.18076" lon="-72.62553">
        <ele>151.93</ele>
      </trkpt>
      <trkpt lat="45.18071" lon="-72.62576">
        <ele>151.74</ele>
      </trkpt>
      <trkpt lat="45.18058" lon="-72.6266267">
        <ele>147.38</ele>
      </trkpt>
      <trkpt lat="45.18045" lon="-72.6274933">
        <ele>138.97</ele>
      </trkpt>
      <trkpt lat="45.18032" lon="-72.62836">
        <ele>140.1</ele>
      </trkpt>
      <trkpt lat="45.1803" lon="-72.62872">
        <ele>141.23</ele>
      </trkpt>
      <trkpt lat="45.18031" lon="-72.62908">
        <ele>144.83</ele>
      </trkpt>
      <trkpt lat="45.18034" lon="-72.62931">
        <ele>145.44</ele>
      </trkpt>
      <trkpt lat="45.18039" lon="-72.62952">
        <ele>145.98</ele>
      </trkpt>
      <trkpt lat="45.18046" lon="-72.6297">
        <ele>147.22</ele>
      </trkpt>
      <trkpt lat="45.18073" lon="-72.63002">
        <ele>148.6</ele>
      </trkpt>
      <trkpt lat="45.1813" lon="-72.6305">
        <ele>149.09</ele>
      </trkpt>
      <trkpt lat="45.18146" lon="-72.63065">
        <ele>149.07</ele>
      </trkpt>
      <trkpt lat="45.18159" lon="-72.63082">
        <ele>148.9</ele>
      </trkpt>
      <trkpt lat="45.18187" lon="-72.63135">
        <ele>149.3</ele>
      </trkpt>
      <trkpt lat="45.18201" lon="-72.63167">
        <ele>150.14</ele>
      </trkpt>
      <trkpt lat="45.18219" lon="-72.6323">
        <ele>150.36</ele>
      </trkpt>
      <trkpt lat="45.18226" lon="-72.63292">
        <ele>146.71</ele>
      </trkpt>
      <trkpt lat="45.18226" lon="-72.63324">
        <ele>142.87</ele>
      </trkpt>
      <trkpt lat="45.18222" lon="-72.63378">
        <ele>139.8</ele>
      </trkpt>
      <trkpt lat="45.18223" lon="-72.63462">
        <ele>137.41</ele>
      </trkpt>
      <trkpt lat="45.1822733" lon="-72.6358133">
        <ele>136.65</ele>
      </trkpt>
      <trkpt lat="45.1823167" lon="-72.6370067">
        <ele>135.57</ele>
      </trkpt>
      <trkpt lat="45.18236" lon="-72.6382">
        <ele>132.47</ele>
      </trkpt>
      <trkpt lat="45.18236" lon="-72.6382">
        <ele>132.46</ele>
      </trkpt>
      <trkpt lat="45.1824184" lon="-72.6393717">
        <ele>132.13</ele>
      </trkpt>
      <trkpt lat="45.1824767" lon="-72.6405433">
        <ele>128.18</ele>
      </trkpt>
      <trkpt lat="45.1825351" lon="-72.641715">
        <ele>126.58</ele>
      </trkpt>
      <trkpt lat="45.1825934" lon="-72.6428867">
        <ele>126.34</ele>
      </trkpt>
      <trkpt lat="45.1826517" lon="-72.6440583">
        <ele>127.08</ele>
      </trkpt>
      <trkpt lat="45.18271" lon="-72.64523">
        <ele>129.27</ele>
      </trkpt>
      <trkpt lat="45.18271" lon="-72.64581">
        <ele>131.94</ele>
      </trkpt>
      <trkpt lat="45.18269" lon="-72.64595">
        <ele>131.94</ele>
      </trkpt>
      <trkpt lat="45.18259" lon="-72.64628">
        <ele>132.89</ele>
      </trkpt>
      <trkpt lat="45.18239" lon="-72.64664">
        <ele>132.49</ele>
      </trkpt>
      <trkpt lat="45.18195" lon="-72.64739">
        <ele>131.15</ele>
      </trkpt>
      <trkpt lat="45.181635" lon="-72.647865">
        <ele>131.33</ele>
      </trkpt>
      <trkpt lat="45.18132" lon="-72.64834">
        <ele>132.93</ele>
      </trkpt>
      <trkpt lat="45.18095" lon="-72.64885">
        <ele>135.68</ele>
      </trkpt>
      <trkpt lat="45.18058" lon="-72.64936">
        <ele>137.03</ele>
      </trkpt>
      <trkpt lat="45.18051" lon="-72.64954">
        <ele>137.03</ele>
      </trkpt>
      <trkpt lat="45.18045" lon="-72.64976">
        <ele>138.85</ele>
      </trkpt>
      <trkpt lat="45.18025" lon="-72.65066">
        <ele>140.48</ele>
      </trkpt>
      <trkpt lat="45.18005" lon="-72.65156">
        <ele>141.59</ele>
      </trkpt>
      <trkpt lat="45.17985" lon="-72.65246">
        <ele>142.09</ele>
      </trkpt>
      <trkpt lat="45.17985" lon="-72.65247">
        <ele>142.09</ele>
      </trkpt>
      <trkpt lat="45.179595" lon="-72.653555">
        <ele>143.92</ele>
      </trkpt>
      <trkpt lat="45.17934" lon="-72.65464">
        <ele>146.28</ele>
      </trkpt>
      <trkpt lat="45.17929" lon="-72.655">
        <ele>146.06</ele>
      </trkpt>
      <trkpt lat="45.17926" lon="-72.65563">
        <ele>143.81</ele>
      </trkpt>
      <trkpt lat="45.1792625" lon="-72.6566925">
        <ele>138.29</ele>
      </trkpt>
      <trkpt lat="45.179265" lon="-72.657755">
        <ele>135.08</ele>
      </trkpt>
      <trkpt lat="45.1792675" lon="-72.6588175">
        <ele>133.63</ele>
      </trkpt>
      <trkpt lat="45.17927" lon="-72.65988">
        <ele>133.25</ele>
      </trkpt>
      <trkpt lat="45.17921" lon="-72.66055">
        <ele>132.21</ele>
      </trkpt>
      <trkpt lat="45.17905" lon="-72.66113">
        <ele>128.6</ele>
      </trkpt>
      <trkpt lat="45.17894" lon="-72.66132">
        <ele>127.24</ele>
      </trkpt>
      <trkpt lat="45.17849" lon="-72.66198">
        <ele>125.6</ele>
      </trkpt>
      <trkpt lat="45.17807" lon="-72.66252">
        <ele>127.58</ele>
      </trkpt>
      <trkpt lat="45.17762" lon="-72.66244">
        <ele>127.59</ele>
      </trkpt>
      <trkpt lat="45.17717" lon="-72.66236">
        <ele>127.53</ele>
      </trkpt>
      <trkpt lat="45.17717" lon="-72.66236">
        <ele>127.53</ele>
      </trkpt>
      <trkpt lat="45.17661" lon="-72.66224">
        <ele>127.19</ele>
      </trkpt>
      <trkpt lat="45.17605" lon="-72.66212">
        <ele>127.99</ele>
      </trkpt>
      <trkpt lat="45.17571" lon="-72.66278">
        <ele>127.12</ele>
      </trkpt>
      <trkpt lat="45.17516" lon="-72.66364">
        <ele>130.31</ele>
      </trkpt>
      <trkpt lat="45.174615" lon="-72.664545">
        <ele>137.64</ele>
      </trkpt>
      <trkpt lat="45.17407" lon="-72.66545">
        <ele>142.1</ele>
      </trkpt>
      <trkpt lat="45.17407" lon="-72.66546">
        <ele>142.13</ele>
      </trkpt>
      <trkpt lat="45.17371" lon="-72.666055">
        <ele>145.67</ele>
      </trkpt>
      <trkpt lat="45.17335" lon="-72.66665">
        <ele>147.78</ele>
      </trkpt>
      <trkpt lat="45.17329" lon="-72.66683">
        <ele>148.57</ele>
      </trkpt>
      <trkpt lat="45.17326" lon="-72.66709">
        <ele>148.9</ele>
      </trkpt>
      <trkpt lat="45.17328" lon="-72.668075">
        <ele>148.76</ele>
      </trkpt>
      <trkpt lat="45.1733" lon="-72.66906">
        <ele>148.27</ele>
      </trkpt>
      <trkpt lat="45.1733684" lon="-72.6701183">
        <ele>145.85</ele>
      </trkpt>
      <trkpt lat="45.1734367" lon="-72.6711767">
        <ele>142.51</ele>
      </trkpt>
      <trkpt lat="45.173505" lon="-72.672235">
        <ele>140.48</ele>
      </trkpt>
      <trkpt lat="45.1735734" lon="-72.6732933">
        <ele>140.28</ele>
      </trkpt>
      <trkpt lat="45.1736417" lon="-72.6743517">
        <ele>138.72</ele>
      </trkpt>
      <trkpt lat="45.17371" lon="-72.67541">
        <ele>136.08</ele>
      </trkpt>
      <trkpt lat="45.17379" lon="-72.67609">
        <ele>134.7</ele>
      </trkpt>
      <trkpt lat="45.17384" lon="-72.6771367">
        <ele>139.04</ele>
      </trkpt>
      <trkpt lat="45.17389" lon="-72.6781833">
        <ele>140.32</ele>
      </trkpt>
      <trkpt lat="45.17394" lon="-72.67923">
        <ele>134.89</ele>
      </trkpt>
      <trkpt lat="45.17403" lon="-72.6802">
        <ele>133.39</ele>
      </trkpt>
      <trkpt lat="45.17419" lon="-72.68124">
        <ele>133.54</ele>
      </trkpt>
      <trkpt lat="45.17427" lon="-72.68197">
        <ele>134.34</ele>
      </trkpt>
      <trkpt lat="45.17435" lon="-72.6827">
        <ele>135.66</ele>
      </trkpt>
      <trkpt lat="45.17441" lon="-72.68378">
        <ele>136.85</ele>
      </trkpt>
      <trkpt lat="45.17447" lon="-72.68486">
        <ele>137.36</ele>
      </trkpt>
      <trkpt lat="45.174565" lon="-72.6859">
        <ele>138.39</ele>
      </trkpt>
      <trkpt lat="45.17466" lon="-72.68694">
        <ele>139.64</ele>
      </trkpt>
      <trkpt lat="45.17466" lon="-72.68694">
        <ele>139.65</ele>
      </trkpt>
      <trkpt lat="45.17475" lon="-72.688115">
        <ele>141.92</ele>
      </trkpt>
      <trkpt lat="45.17484" lon="-72.68929">
        <ele>143.37</ele>
      </trkpt>
      <trkpt lat="45.17489" lon="-72.68953">
        <ele>143.69</ele>
      </trkpt>
      <trkpt lat="45.175535" lon="-72.69035">
        <ele>143.26</ele>
      </trkpt>
      <trkpt lat="45.17618" lon="-72.69117">
        <ele>142.61</ele>
      </trkpt>
      <trkpt lat="45.17658" lon="-72.69175">
        <ele>140.77</ele>
      </trkpt>
      <trkpt lat="45.1769" lon="-72.69211">
        <ele>135.18</ele>
      </trkpt>
      <trkpt lat="45.17707" lon="-72.69229">
        <ele>133.66</ele>
      </trkpt>
      <trkpt lat="45.1774" lon="-72.69252">
        <ele>130.26</ele>
      </trkpt>
      <trkpt lat="45.178" lon="-72.6927733">
        <ele>129.14</ele>
      </trkpt>
      <trkpt lat="45.1786" lon="-72.6930267">
        <ele>130.03</ele>
      </trkpt>
      <trkpt lat="45.1792" lon="-72.69328">
        <ele>132.52</ele>
      </trkpt>
      <trkpt lat="45.17947" lon="-72.69342">
        <ele>136</ele>
      </trkpt>
      <trkpt lat="45.180075" lon="-72.69384">
        <ele>140.59</ele>
      </trkpt>
      <trkpt lat="45.18068" lon="-72.69426">
        <ele>142.14</ele>
      </trkpt>
      <trkpt lat="45.18142" lon="-72.6947">
        <ele>143.05</ele>
      </trkpt>
      <trkpt lat="45.18202" lon="-72.6950733">
        <ele>143.22</ele>
      </trkpt>
      <trkpt lat="45.18262" lon="-72.6954467">
        <ele>143.48</ele>
      </trkpt>
      <trkpt lat="45.18322" lon="-72.69582">
        <ele>144.61</ele>
      </trkpt>
      <trkpt lat="45.18322" lon="-72.69582">
        <ele>144.6</ele>
      </trkpt>
      <trkpt lat="45.18365" lon="-72.69609">
        <ele>145.97</ele>
      </trkpt>
      <trkpt lat="45.18414" lon="-72.69636">
        <ele>149.4</ele>
      </trkpt>
      <trkpt lat="45.18463" lon="-72.69663">
        <ele>151.11</ele>
      </trkpt>
      <trkpt lat="45.18508" lon="-72.69686">
        <ele>150.42</ele>
      </trkpt>
      <trkpt lat="45.18551" lon="-72.69704">
        <ele>148.9</ele>
      </trkpt>
      <trkpt lat="45.18617" lon="-72.69736">
        <ele>146.97</ele>
      </trkpt>
      <trkpt lat="45.18687" lon="-72.69766">
        <ele>145.97</ele>
      </trkpt>
      <trkpt lat="45.1875667" lon="-72.69793">
        <ele>145.01</ele>
      </trkpt>
      <trkpt lat="45.1882633" lon="-72.6982">
        <ele>143.48</ele>
      </trkpt>
      <trkpt lat="45.18896" lon="-72.69847">
        <ele>142.95</ele>
      </trkpt>
      <trkpt lat="45.18924" lon="-72.6986">
        <ele>143.9</ele>
      </trkpt>
      <trkpt lat="45.1895" lon="-72.69879">
        <ele>144.24</ele>
      </trkpt>
      <trkpt lat="45.18976" lon="-72.69901">
        <ele>145.21</ele>
      </trkpt>
      <trkpt lat="45.19011" lon="-72.69943">
        <ele>145.99</ele>
      </trkpt>
      <trkpt lat="45.19046" lon="-72.69985">
        <ele>148.19</ele>
      </trkpt>
      <trkpt lat="45.19089" lon="-72.70044">
        <ele>149.37</ele>
      </trkpt>
      <trkpt lat="45.19114" lon="-72.70081">
        <ele>149.45</ele>
      </trkpt>
      <trkpt lat="45.19174" lon="-72.7016">
        <ele>150.63</ele>
      </trkpt>
      <trkpt lat="45.19206" lon="-72.70196">
        <ele>152.55</ele>
      </trkpt>
      <trkpt lat="45.19264" lon="-72.70251">
        <ele>152.71</ele>
      </trkpt>
      <trkpt lat="45.19294" lon="-72.70272">
        <ele>152.04</ele>
      </trkpt>
      <trkpt lat="45.193625" lon="-72.702995">
        <ele>152.33</ele>
      </trkpt>
      <trkpt lat="45.19431" lon="-72.70327">
        <ele>154.36</ele>
      </trkpt>
      <trkpt lat="45.1946" lon="-72.70345">
        <ele>155.18</ele>
      </trkpt>
      <trkpt lat="45.19511" lon="-72.70384">
        <ele>156.42</ele>
      </trkpt>
      <trkpt lat="45.19586" lon="-72.70435">
        <ele>157.17</ele>
      </trkpt>
      <trkpt lat="45.19636" lon="-72.70478">
        <ele>156.57</ele>
      </trkpt>
      <trkpt lat="45.19656" lon="-72.7051">
        <ele>156.52</ele>
      </trkpt>
      <trkpt lat="45.19683" lon="-72.70564">
        <ele>155.89</ele>
      </trkpt>
      <trkpt lat="45.1971" lon="-72.70618">
        <ele>152.83</ele>
      </trkpt>
      <trkpt lat="45.19741" lon="-72.70671">
        <ele>149.93</ele>
      </trkpt>
      <trkpt lat="45.19766" lon="-72.70706">
        <ele>147.3</ele>
      </trkpt>
      <trkpt lat="45.19766" lon="-72.70706">
        <ele>147.35</ele>
      </trkpt>
      <trkpt lat="45.19789" lon="-72.70737">
        <ele>144.24</ele>
      </trkpt>
      <trkpt lat="45.19836" lon="-72.70787">
        <ele>139.53</ele>
      </trkpt>
      <trkpt lat="45.19864" lon="-72.70832">
        <ele>137.41</ele>
      </trkpt>
      <trkpt lat="45.19879" lon="-72.70872">
        <ele>136.55</ele>
      </trkpt>
      <trkpt lat="45.19907" lon="-72.70971">
        <ele>134.16</ele>
      </trkpt>
      <trkpt lat="45.19933" lon="-72.71078">
        <ele>133.39</ele>
      </trkpt>
      <trkpt lat="45.1994" lon="-72.71141">
        <ele>133.58</ele>
      </trkpt>
      <trkpt lat="45.19941" lon="-72.71221">
        <ele>133.5</ele>
      </trkpt>
      <trkpt lat="45.19935" lon="-72.71293">
        <ele>133.5</ele>
      </trkpt>
      <trkpt lat="45.199125" lon="-72.714025">
        <ele>134.13</ele>
      </trkpt>
      <trkpt lat="45.1989" lon="-72.71512">
        <ele>135.42</ele>
      </trkpt>
      <trkpt lat="45.19871" lon="-72.71592">
        <ele>136.28</ele>
      </trkpt>
      <trkpt lat="45.19837" lon="-72.7168633">
        <ele>137.89</ele>
      </trkpt>
      <trkpt lat="45.19803" lon="-72.7178067">
        <ele>139.97</ele>
      </trkpt>
      <trkpt lat="45.19769" lon="-72.71875">
        <ele>141.24</ele>
      </trkpt>
      <trkpt lat="45.19748" lon="-72.71916">
        <ele>141.49</ele>
      </trkpt>
      <trkpt lat="45.19739" lon="-72.7193">
        <ele>141.61</ele>
      </trkpt>
      <trkpt lat="45.19707" lon="-72.71965">
        <ele>142.05</ele>
      </trkpt>
      <trkpt lat="45.196332" lon="-72.720256">
        <ele>144.27</ele>
      </trkpt>
      <trkpt lat="45.195594" lon="-72.720862">
        <ele>146.08</ele>
      </trkpt>
      <trkpt lat="45.194856" lon="-72.721468">
        <ele>147.77</ele>
      </trkpt>
      <trkpt lat="45.194118" lon="-72.722074">
        <ele>149.62</ele>
      </trkpt>
      <trkpt lat="45.19338" lon="-72.72268">
        <ele>149.64</ele>
      </trkpt>
      <trkpt lat="45.19277" lon="-72.72328">
        <ele>150.47</ele>
      </trkpt>
      <trkpt lat="45.19234" lon="-72.72364">
        <ele>153.68</ele>
      </trkpt>
      <trkpt lat="45.19176" lon="-72.72395">
        <ele>154.85</ele>
      </trkpt>
      <trkpt lat="45.19147" lon="-72.72417">
        <ele>153.91</ele>
      </trkpt>
      <trkpt lat="45.19095" lon="-72.72461">
        <ele>152.56</ele>
      </trkpt>
      <trkpt lat="45.19048" lon="-72.72503">
        <ele>152.65</ele>
      </trkpt>
      <trkpt lat="45.19048" lon="-72.72504">
        <ele>152.65</ele>
      </trkpt>
      <trkpt lat="45.18986" lon="-72.725635">
        <ele>152.81</ele>
      </trkpt>
      <trkpt lat="45.18924" lon="-72.72623">
        <ele>152.71</ele>
      </trkpt>
      <trkpt lat="45.18895" lon="-72.72654">
        <ele>152.72</ele>
      </trkpt>
      <trkpt lat="45.18837" lon="-72.72726">
        <ele>152.36</ele>
      </trkpt>
      <trkpt lat="45.18779" lon="-72.72811">
        <ele>151.51</ele>
      </trkpt>
      <trkpt lat="45.18721" lon="-72.72896">
        <ele>149.34</ele>
      </trkpt>
      <trkpt lat="45.18707" lon="-72.72924">
        <ele>149.32</ele>
      </trkpt>
      <trkpt lat="45.18663" lon="-72.73022">
        <ele>149.06</ele>
      </trkpt>
      <trkpt lat="45.18619" lon="-72.731265">
        <ele>149.88</ele>
      </trkpt>
      <trkpt lat="45.18575" lon="-72.73231">
        <ele>151.11</ele>
      </trkpt>
      <trkpt lat="45.18526" lon="-72.733275">
        <ele>148.81</ele>
      </trkpt>
      <trkpt lat="45.18477" lon="-72.73424">
        <ele>145.75</ele>
      </trkpt>
      <trkpt lat="45.1844233" lon="-72.7350467">
        <ele>140.71</ele>
      </trkpt>
      <trkpt lat="45.1840767" lon="-72.7358533">
        <ele>136.12</ele>
      </trkpt>
      <trkpt lat="45.18373" lon="-72.73666">
        <ele>132.62</ele>
      </trkpt>
      <trkpt lat="45.18344" lon="-72.73722">
        <ele>132.36</ele>
      </trkpt>
      <trkpt lat="45.18315" lon="-72.73778">
        <ele>134.22</ele>
      </trkpt>
      <trkpt lat="45.18303" lon="-72.738">
        <ele>135.45</ele>
      </trkpt>
      <trkpt lat="45.18267" lon="-72.73854">
        <ele>137.14</ele>
      </trkpt>
      <trkpt lat="45.18243" lon="-72.73881">
        <ele>137.77</ele>
      </trkpt>
      <trkpt lat="45.181925" lon="-72.739345">
        <ele>138.07</ele>
      </trkpt>
      <trkpt lat="45.18142" lon="-72.73988">
        <ele>137.64</ele>
      </trkpt>
      <trkpt lat="45.18118" lon="-72.74023">
        <ele>136.22</ele>
      </trkpt>
      <trkpt lat="45.18107" lon="-72.74042">
        <ele>135.48</ele>
      </trkpt>
      <trkpt lat="45.18094" lon="-72.74074">
        <ele>135.07</ele>
      </trkpt>
      <trkpt lat="45.1806" lon="-72.74141">
        <ele>136.04</ele>
      </trkpt>
      <trkpt lat="45.180245" lon="-72.74216">
        <ele>136.72</ele>
      </trkpt>
      <trkpt lat="45.17989" lon="-72.74291">
        <ele>139.28</ele>
      </trkpt>
      <trkpt lat="45.17989" lon="-72.74292">
        <ele>139.31</ele>
      </trkpt>
      <trkpt lat="45.179464" lon="-72.743818">
        <ele>144.89</ele>
      </trkpt>
      <trkpt lat="45.179038" lon="-72.744716">
        <ele>150.31</ele>
      </trkpt>
      <trkpt lat="45.178612" lon="-72.745614">
        <ele>149.24</ele>
      </trkpt>
      <trkpt lat="45.178186" lon="-72.746512">
        <ele>150.85</ele>
      </trkpt>
      <trkpt lat="45.17776" lon="-72.74741">
        <ele>154.62</ele>
      </trkpt>
      <trkpt lat="45.17728" lon="-72.74839">
        <ele>151.83</ele>
      </trkpt>
      <trkpt lat="45.17708" lon="-72.74871">
        <ele>150.07</ele>
      </trkpt>
      <trkpt lat="45.17657" lon="-72.7494533">
        <ele>145.71</ele>
      </trkpt>
      <trkpt lat="45.17606" lon="-72.7501967">
        <ele>142.61</ele>
      </trkpt>
      <trkpt lat="45.17555" lon="-72.75094">
        <ele>140.03</ele>
      </trkpt>
      <trkpt lat="45.17515" lon="-72.751435">
        <ele>139.31</ele>
      </trkpt>
      <trkpt lat="45.17475" lon="-72.75193">
        <ele>139.25</ele>
      </trkpt>
      <trkpt lat="45.17408" lon="-72.75243">
        <ele>140.33</ele>
      </trkpt>
      <trkpt lat="45.17353" lon="-72.75277">
        <ele>141.74</ele>
      </trkpt>
      <trkpt lat="45.1731" lon="-72.75304">
        <ele>142.6</ele>
      </trkpt>
      <trkpt lat="45.17267" lon="-72.75331">
        <ele>143.3</ele>
      </trkpt>
      <trkpt lat="45.17198" lon="-72.7538">
        <ele>146.11</ele>
      </trkpt>
      <trkpt lat="45.17136" lon="-72.75431">
        <ele>149.05</ele>
      </trkpt>
      <trkpt lat="45.17081" lon="-72.7548">
        <ele>151.19</ele>
      </trkpt>
      <trkpt lat="45.17041" lon="-72.755195">
        <ele>152.62</ele>
      </trkpt>
      <trkpt lat="45.17001" lon="-72.75559">
        <ele>153.41</ele>
      </trkpt>
      <trkpt lat="45.16949" lon="-72.75613">
        <ele>154.55</ele>
      </trkpt>
      <trkpt lat="45.16885" lon="-72.75689">
        <ele>154.76</ele>
      </trkpt>
      <trkpt lat="45.16836" lon="-72.75752">
        <ele>154.65</ele>
      </trkpt>
      <trkpt lat="45.1678933" lon="-72.7581533">
        <ele>154.64</ele>
      </trkpt>
      <trkpt lat="45.1674267" lon="-72.7587867">
        <ele>154.63</ele>
      </trkpt>
      <trkpt lat="45.16696" lon="-72.75942">
        <ele>154.58</ele>
      </trkpt>
      <trkpt lat="45.16696" lon="-72.75943">
        <ele>154.57</ele>
      </trkpt>
      <trkpt lat="45.1665167" lon="-72.7600267">
        <ele>154.58</ele>
      </trkpt>
      <trkpt lat="45.1660733" lon="-72.7606233">
        <ele>155.06</ele>
      </trkpt>
      <trkpt lat="45.16563" lon="-72.76122">
        <ele>156.06</ele>
      </trkpt>
      <trkpt lat="45.1654317" lon="-72.7601416">
        <ele>157.36</ele>
      </trkpt>
      <trkpt lat="45.1652334" lon="-72.7590633">
        <ele>159.61</ele>
      </trkpt>
      <trkpt lat="45.165035" lon="-72.757985">
        <ele>165.27</ele>
      </trkpt>
      <trkpt lat="45.1648367" lon="-72.7569066">
        <ele>167.59</ele>
      </trkpt>
      <trkpt lat="45.1646384" lon="-72.7558283">
        <ele>169.16</ele>
      </trkpt>
      <trkpt lat="45.16444" lon="-72.75475">
        <ele>171.85</ele>
      </trkpt>
      <trkpt lat="45.1642767" lon="-72.7539133">
        <ele>175.17</ele>
      </trkpt>
      <trkpt lat="45.1641133" lon="-72.7530767">
        <ele>180.32</ele>
      </trkpt>
      <trkpt lat="45.16395" lon="-72.75224">
        <ele>190.28</ele>
      </trkpt>
      <trkpt lat="45.16387" lon="-72.75189">
        <ele>192.32</ele>
      </trkpt>
      <trkpt lat="45.16377" lon="-72.75158">
        <ele>196.04</ele>
      </trkpt>
      <trkpt lat="45.16363" lon="-72.75129">
        <ele>199.3</ele>
      </trkpt>
      <trkpt lat="45.1633" lon="-72.75076">
        <ele>201.37</ele>
      </trkpt>
      <trkpt lat="45.16315" lon="-72.75063">
        <ele>202.1</ele>
      </trkpt>
      <trkpt lat="45.16301" lon="-72.75054">
        <ele>202.64</ele>
      </trkpt>
      <trkpt lat="45.16269" lon="-72.75046">
        <ele>202.94</ele>
      </trkpt>
      <trkpt lat="45.162065" lon="-72.750465">
        <ele>204.03</ele>
      </trkpt>
      <trkpt lat="45.16144" lon="-72.75047">
        <ele>205.53</ele>
      </trkpt>
      <trkpt lat="45.16121" lon="-72.75049">
        <ele>209.16</ele>
      </trkpt>
      <trkpt lat="45.1604" lon="-72.750445">
        <ele>212.38</ele>
      </trkpt>
      <trkpt lat="45.15959" lon="-72.7504">
        <ele>214.27</ele>
      </trkpt>
      <trkpt lat="45.1588" lon="-72.75049">
        <ele>216.76</ele>
      </trkpt>
      <trkpt lat="45.15843" lon="-72.75067">
        <ele>220.22</ele>
      </trkpt>
      <trkpt lat="45.1582" lon="-72.75086">
        <ele>223.81</ele>
      </trkpt>
      <trkpt lat="45.15819" lon="-72.75086">
        <ele>223.95</ele>
      </trkpt>
      <trkpt lat="45.15766" lon="-72.7513">
        <ele>229.88</ele>
      </trkpt>
      <trkpt lat="45.157125" lon="-72.75179">
        <ele>236.68</ele>
      </trkpt>
      <trkpt lat="45.15659" lon="-72.75228">
        <ele>238.92</ele>
      </trkpt>
      <trkpt lat="45.15596" lon="-72.75296">
        <ele>237.18</ele>
      </trkpt>
      <trkpt lat="45.155615" lon="-72.753405">
        <ele>236.59</ele>
      </trkpt>
      <trkpt lat="45.15527" lon="-72.75385">
        <ele>233.87</ele>
      </trkpt>
      <trkpt lat="45.15511" lon="-72.75398">
        <ele>233.87</ele>
      </trkpt>
      <trkpt lat="45.15491" lon="-72.75403">
        <ele>232.96</ele>
      </trkpt>
      <trkpt lat="45.15455" lon="-72.75407">
        <ele>229.36</ele>
      </trkpt>
      <trkpt lat="45.1536891" lon="-72.7541046">
        <ele>220.06</ele>
      </trkpt>
      <trkpt lat="45.1528282" lon="-72.7541391">
        <ele>213.64</ele>
      </trkpt>
      <trkpt lat="45.1519673" lon="-72.7541736">
        <ele>206.72</ele>
      </trkpt>
      <trkpt lat="45.1511064" lon="-72.7542082">
        <ele>196.65</ele>
      </trkpt>
      <trkpt lat="45.1502455" lon="-72.7542427">
        <ele>189.03</ele>
      </trkpt>
      <trkpt lat="45.1493845" lon="-72.7542773">
        <ele>183.36</ele>
      </trkpt>
      <trkpt lat="45.1485236" lon="-72.7543118">
        <ele>178.15</ele>
      </trkpt>
      <trkpt lat="45.1476627" lon="-72.7543464">
        <ele>175.03</ele>
      </trkpt>
      <trkpt lat="45.1468018" lon="-72.7543809">
        <ele>171.44</ele>
      </trkpt>
      <trkpt lat="45.1459409" lon="-72.7544155">
        <ele>168.95</ele>
      </trkpt>
      <trkpt lat="45.14508" lon="-72.75445">
        <ele>171.43</ele>
      </trkpt>
      <trkpt lat="45.14489" lon="-72.75446">
        <ele>172.72</ele>
      </trkpt>
      <trkpt lat="45.14466" lon="-72.75449">
        <ele>172.87</ele>
      </trkpt>
      <trkpt lat="45.14403" lon="-72.7547">
        <ele>172.69</ele>
      </trkpt>
      <trkpt lat="45.14384" lon="-72.75471">
        <ele>172.75</ele>
      </trkpt>
      <trkpt lat="45.14296" lon="-72.7547367">
        <ele>176.79</ele>
      </trkpt>
      <trkpt lat="45.14208" lon="-72.7547633">
        <ele>180.78</ele>
      </trkpt>
      <trkpt lat="45.1412" lon="-72.75479">
        <ele>182.82</ele>
      </trkpt>
      <trkpt lat="45.14092" lon="-72.75479">
        <ele>182.22</ele>
      </trkpt>
      <trkpt lat="45.14071" lon="-72.75475">
        <ele>181.83</ele>
      </trkpt>
      <trkpt lat="45.14048" lon="-72.75467">
        <ele>182.04</ele>
      </trkpt>
      <trkpt lat="45.14027" lon="-72.75457">
        <ele>182.46</ele>
      </trkpt>
      <trkpt lat="45.1397" lon="-72.75412">
        <ele>182.61</ele>
      </trkpt>
      <trkpt lat="45.139345" lon="-72.75486">
        <ele>179.28</ele>
      </trkpt>
      <trkpt lat="45.13899" lon="-72.7556">
        <ele>177.44</ele>
      </trkpt>
      <trkpt lat="45.138695" lon="-72.756335">
        <ele>178.07</ele>
      </trkpt>
      <trkpt lat="45.1384" lon="-72.75707">
        <ele>180.67</ele>
      </trkpt>
      <trkpt lat="45.13814" lon="-72.75763">
        <ele>183.46</ele>
      </trkpt>
      <trkpt lat="45.13788" lon="-72.75819">
        <ele>184.44</ele>
      </trkpt>
      <trkpt lat="45.13767" lon="-72.75859">
        <ele>185.74</ele>
      </trkpt>
      <trkpt lat="45.13747" lon="-72.75887">
        <ele>186.5</ele>
      </trkpt>
      <trkpt lat="45.13692" lon="-72.759515">
        <ele>189.96</ele>
      </trkpt>
      <trkpt lat="45.13637" lon="-72.76016">
        <ele>192.8</ele>
      </trkpt>
      <trkpt lat="45.13608" lon="-72.76061">
        <ele>193.75</ele>
      </trkpt>
      <trkpt lat="45.13592" lon="-72.76092">
        <ele>193.86</ele>
      </trkpt>
      <trkpt lat="45.13579" lon="-72.76119">
        <ele>193.81</ele>
      </trkpt>
      <trkpt lat="45.13575" lon="-72.7615">
        <ele>193.64</ele>
      </trkpt>
      <trkpt lat="45.13569" lon="-72.76226">
        <ele>195.03</ele>
      </trkpt>
      <trkpt lat="45.1356951" lon="-72.7635293">
        <ele>196.18</ele>
      </trkpt>
      <trkpt lat="45.1357002" lon="-72.7647986">
        <ele>194.08</ele>
      </trkpt>
      <trkpt lat="45.1357052" lon="-72.7660679">
        <ele>188.63</ele>
      </trkpt>
      <trkpt lat="45.1357103" lon="-72.7673371">
        <ele>183.96</ele>
      </trkpt>
      <trkpt lat="45.1357153" lon="-72.7686064">
        <ele>182.36</ele>
      </trkpt>
      <trkpt lat="45.1357203" lon="-72.7698757">
        <ele>180.74</ele>
      </trkpt>
      <trkpt lat="45.1357253" lon="-72.771145">
        <ele>175.37</ele>
      </trkpt>
      <trkpt lat="45.1357303" lon="-72.7724143">
        <ele>175.77</ele>
      </trkpt>
      <trkpt lat="45.1357353" lon="-72.7736836">
        <ele>180.77</ele>
      </trkpt>
      <trkpt lat="45.1357403" lon="-72.7749529">
        <ele>183.1</ele>
      </trkpt>
      <trkpt lat="45.1357452" lon="-72.7762221">
        <ele>186</ele>
      </trkpt>
      <trkpt lat="45.1357502" lon="-72.7774914">
        <ele>190.76</ele>
      </trkpt>
      <trkpt lat="45.1357551" lon="-72.7787607">
        <ele>195.83</ele>
      </trkpt>
      <trkpt lat="45.13576" lon="-72.78003">
        <ele>198.72</ele>
      </trkpt>
      <trkpt lat="45.13575" lon="-72.7808">
        <ele>196.08</ele>
      </trkpt>
      <trkpt lat="45.13574" lon="-72.78157">
        <ele>193.33</ele>
      </trkpt>
      <trkpt lat="45.135722" lon="-72.782724">
        <ele>190.43</ele>
      </trkpt>
      <trkpt lat="45.135704" lon="-72.783878">
        <ele>188.31</ele>
      </trkpt>
      <trkpt lat="45.135686" lon="-72.785032">
        <ele>185.06</ele>
      </trkpt>
      <trkpt lat="45.135668" lon="-72.786186">
        <ele>182.03</ele>
      </trkpt>
      <trkpt lat="45.13565" lon="-72.78734">
        <ele>179.28</ele>
      </trkpt>
      <trkpt lat="45.1356501" lon="-72.7885418">
        <ele>176.2</ele>
      </trkpt>
      <trkpt lat="45.1356501" lon="-72.7897436">
        <ele>174.13</ele>
      </trkpt>
      <trkpt lat="45.1356502" lon="-72.7909455">
        <ele>171.98</ele>
      </trkpt>
      <trkpt lat="45.1356502" lon="-72.7921473">
        <ele>166.89</ele>
      </trkpt>
      <trkpt lat="45.1356502" lon="-72.7933491">
        <ele>162.56</ele>
      </trkpt>
      <trkpt lat="45.1356502" lon="-72.7945509">
        <ele>161.4</ele>
      </trkpt>
      <trkpt lat="45.1356502" lon="-72.7957527">
        <ele>157.96</ele>
      </trkpt>
      <trkpt lat="45.1356502" lon="-72.7969545">
        <ele>153.69</ele>
      </trkpt>
      <trkpt lat="45.1356501" lon="-72.7981564">
        <ele>149.7</ele>
      </trkpt>
      <trkpt lat="45.1356501" lon="-72.7993582">
        <ele>145.63</ele>
      </trkpt>
      <trkpt lat="45.13565" lon="-72.80056">
        <ele>144.99</ele>
      </trkpt>
      <trkpt lat="45.13531" lon="-72.80057">
        <ele>145.72</ele>
      </trkpt>
      <trkpt lat="45.1353" lon="-72.80057">
        <ele>145.73</ele>
      </trkpt>
      <trkpt lat="45.134525" lon="-72.8005775">
        <ele>147.1</ele>
      </trkpt>
      <trkpt lat="45.13375" lon="-72.800585">
        <ele>149.52</ele>
      </trkpt>
      <trkpt lat="45.132975" lon="-72.8005925">
        <ele>152.22</ele>
      </trkpt>
      <trkpt lat="45.1322" lon="-72.8006">
        <ele>153.62</ele>
      </trkpt>
      <trkpt lat="45.1315533" lon="-72.8006333">
        <ele>154.76</ele>
      </trkpt>
      <trkpt lat="45.1309067" lon="-72.8006667">
        <ele>155.71</ele>
      </trkpt>
      <trkpt lat="45.13026" lon="-72.8007">
        <ele>156.54</ele>
      </trkpt>
      <trkpt lat="45.12938" lon="-72.80072">
        <ele>156.65</ele>
      </trkpt>
      <trkpt lat="45.12938" lon="-72.79961">
        <ele>158.93</ele>
      </trkpt>
      <trkpt lat="45.12938" lon="-72.7985">
        <ele>160.29</ele>
      </trkpt>
      <trkpt lat="45.1293917" lon="-72.797345">
        <ele>161.33</ele>
      </trkpt>
      <trkpt lat="45.1294034" lon="-72.79619">
        <ele>164.04</ele>
      </trkpt>
      <trkpt lat="45.1294151" lon="-72.795035">
        <ele>166.15</ele>
      </trkpt>
      <trkpt lat="45.1294267" lon="-72.79388">
        <ele>168.6</ele>
      </trkpt>
      <trkpt lat="45.1294384" lon="-72.792725">
        <ele>169.99</ele>
      </trkpt>
      <trkpt lat="45.12945" lon="-72.79157">
        <ele>171.32</ele>
      </trkpt>
      <trkpt lat="45.1294533" lon="-72.7906667">
        <ele>171.99</ele>
      </trkpt>
      <trkpt lat="45.1294567" lon="-72.7897633">
        <ele>173.31</ele>
      </trkpt>
      <trkpt lat="45.12946" lon="-72.78886">
        <ele>176.14</ele>
      </trkpt>
      <trkpt lat="45.12944" lon="-72.78779">
        <ele>182.27</ele>
      </trkpt>
      <trkpt lat="45.12928" lon="-72.78679">
        <ele>185.33</ele>
      </trkpt>
      <trkpt lat="45.1291067" lon="-72.78578">
        <ele>187.98</ele>
      </trkpt>
      <trkpt lat="45.1289333" lon="-72.78477">
        <ele>191.05</ele>
      </trkpt>
      <trkpt lat="45.12876" lon="-72.78376">
        <ele>192.94</ele>
      </trkpt>
      <trkpt lat="45.1287" lon="-72.78353">
        <ele>194.15</ele>
      </trkpt>
      <trkpt lat="45.12863" lon="-72.78335">
        <ele>194.15</ele>
      </trkpt>
      <trkpt lat="45.12848" lon="-72.78321">
        <ele>194.55</ele>
      </trkpt>
      <trkpt lat="45.12777" lon="-72.78261">
        <ele>195.07</ele>
      </trkpt>
      <trkpt lat="45.12706" lon="-72.78201">
        <ele>196.33</ele>
      </trkpt>
      <trkpt lat="45.126317" lon="-72.7813999">
        <ele>198.27</ele>
      </trkpt>
      <trkpt lat="45.125574" lon="-72.7807899">
        <ele>198.65</ele>
      </trkpt>
      <trkpt lat="45.124831" lon="-72.7801798">
        <ele>197.9</ele>
      </trkpt>
      <trkpt lat="45.124088" lon="-72.7795698">
        <ele>196.78</ele>
      </trkpt>
      <trkpt lat="45.123345" lon="-72.7789598">
        <ele>194.45</ele>
      </trkpt>
      <trkpt lat="45.122602" lon="-72.7783498">
        <ele>193.72</ele>
      </trkpt>
      <trkpt lat="45.121859" lon="-72.7777398">
        <ele>192.76</ele>
      </trkpt>
      <trkpt lat="45.121116" lon="-72.7771299">
        <ele>191.93</ele>
      </trkpt>
      <trkpt lat="45.120373" lon="-72.7765199">
        <ele>190.06</ele>
      </trkpt>
      <trkpt lat="45.11963" lon="-72.77591">
        <ele>187.95</ele>
      </trkpt>
      <trkpt lat="45.11961" lon="-72.77485">
        <ele>185.66</ele>
      </trkpt>
      <trkpt lat="45.1196043" lon="-72.7735871">
        <ele>183.09</ele>
      </trkpt>
      <trkpt lat="45.1195986" lon="-72.7723243">
        <ele>182.88</ele>
      </trkpt>
      <trkpt lat="45.1195929" lon="-72.7710614">
        <ele>181.93</ele>
      </trkpt>
      <trkpt lat="45.1195872" lon="-72.7697986">
        <ele>181.97</ele>
      </trkpt>
      <trkpt lat="45.1195815" lon="-72.7685357">
        <ele>184.02</ele>
      </trkpt>
      <trkpt lat="45.1195758" lon="-72.7672729">
        <ele>185.13</ele>
      </trkpt>
      <trkpt lat="45.11957" lon="-72.76601">
        <ele>186.69</ele>
      </trkpt>
      <trkpt lat="45.11957" lon="-72.76601">
        <ele>186.68</ele>
      </trkpt>
      <trkpt lat="45.11956" lon="-72.764945">
        <ele>190.78</ele>
      </trkpt>
      <trkpt lat="45.11955" lon="-72.76388">
        <ele>192.91</ele>
      </trkpt>
      <trkpt lat="45.1195175" lon="-72.7629175">
        <ele>193.72</ele>
      </trkpt>
      <trkpt lat="45.119485" lon="-72.761955">
        <ele>193.91</ele>
      </trkpt>
      <trkpt lat="45.1194525" lon="-72.7609925">
        <ele>194.39</ele>
      </trkpt>
      <trkpt lat="45.11942" lon="-72.76003">
        <ele>194.98</ele>
      </trkpt>
      <trkpt lat="45.11939" lon="-72.7587767">
        <ele>195.65</ele>
      </trkpt>
      <trkpt lat="45.11936" lon="-72.7575233">
        <ele>196.12</ele>
      </trkpt>
      <trkpt lat="45.11933" lon="-72.75627">
        <ele>197.53</ele>
      </trkpt>
      <trkpt lat="45.11929" lon="-72.75589">
        <ele>197.5</ele>
      </trkpt>
      <trkpt lat="45.11922" lon="-72.7556">
        <ele>197.5</ele>
      </trkpt>
      <trkpt lat="45.11908" lon="-72.75524">
        <ele>197.35</ele>
      </trkpt>
      <trkpt lat="45.11889" lon="-72.75488">
        <ele>197.11</ele>
      </trkpt>
      <trkpt lat="45.118475" lon="-72.75426">
        <ele>196.87</ele>
      </trkpt>
      <trkpt lat="45.11806" lon="-72.75364">
        <ele>196</ele>
      </trkpt>
      <trkpt lat="45.117715" lon="-72.75317">
        <ele>194.6</ele>
      </trkpt>
      <trkpt lat="45.11737" lon="-72.7527">
        <ele>194.48</ele>
      </trkpt>
      <trkpt lat="45.1168" lon="-72.75204">
        <ele>196.7</ele>
      </trkpt>
      <trkpt lat="45.11623" lon="-72.75138">
        <ele>197.42</ele>
      </trkpt>
      <trkpt lat="45.115552" lon="-72.750612">
        <ele>197.63</ele>
      </trkpt>
      <trkpt lat="45.114874" lon="-72.7498439">
        <ele>200.15</ele>
      </trkpt>
      <trkpt lat="45.114196" lon="-72.7490759">
        <ele>207.23</ele>
      </trkpt>
      <trkpt lat="45.113518" lon="-72.748308">
        <ele>213.53</ele>
      </trkpt>
      <trkpt lat="45.11284" lon="-72.74754">
        <ele>219.64</ele>
      </trkpt>
      <trkpt lat="45.11328" lon="-72.74688">
        <ele>221.93</ele>
      </trkpt>
      <trkpt lat="45.113788" lon="-72.74609">
        <ele>223.43</ele>
      </trkpt>
      <trkpt lat="45.114296" lon="-72.7453">
        <ele>223.91</ele>
      </trkpt>
      <trkpt lat="45.114804" lon="-72.74451">
        <ele>223.74</ele>
      </trkpt>
      <trkpt lat="45.115312" lon="-72.74372">
        <ele>223.43</ele>
      </trkpt>
      <trkpt lat="45.11582" lon="-72.74293">
        <ele>220.76</ele>
      </trkpt>
      <trkpt lat="45.116275" lon="-72.7422">
        <ele>218.29</ele>
      </trkpt>
      <trkpt lat="45.11673" lon="-72.74147">
        <ele>216.66</ele>
      </trkpt>
      <trkpt lat="45.117185" lon="-72.74074">
        <ele>216.71</ele>
      </trkpt>
      <trkpt lat="45.11764" lon="-72.74001">
        <ele>217.7</ele>
      </trkpt>
      <trkpt lat="45.1181933" lon="-72.7391534">
        <ele>219.34</ele>
      </trkpt>
      <trkpt lat="45.1187467" lon="-72.7382967">
        <ele>220.36</ele>
      </trkpt>
      <trkpt lat="45.1193" lon="-72.7374401">
        <ele>218.73</ele>
      </trkpt>
      <trkpt lat="45.1198534" lon="-72.7365834">
        <ele>217.33</ele>
      </trkpt>
      <trkpt lat="45.1204067" lon="-72.7357267">
        <ele>217.21</ele>
      </trkpt>
      <trkpt lat="45.12096" lon="-72.73487">
        <ele>216.93</ele>
      </trkpt>
      <trkpt lat="45.12096" lon="-72.73487">
        <ele>216.93</ele>
      </trkpt>
      <trkpt lat="45.1204075" lon="-72.735725">
        <ele>217.21</ele>
      </trkpt>
      <trkpt lat="45.119855" lon="-72.73658">
        <ele>217.33</ele>
      </trkpt>
      <trkpt lat="45.1193025" lon="-72.737435">
        <ele>218.73</ele>
      </trkpt>
      <trkpt lat="45.11875" lon="-72.73829">
        <ele>220.36</ele>
      </trkpt>
      <trkpt lat="45.1193443" lon="-72.7373729">
        <ele>218.73</ele>
      </trkpt>
      <trkpt lat="45.1199386" lon="-72.7364558">
        <ele>217.33</ele>
      </trkpt>
      <trkpt lat="45.1205329" lon="-72.7355387">
        <ele>217.21</ele>
      </trkpt>
      <trkpt lat="45.1211272" lon="-72.7346215">
        <ele>216.34</ele>
      </trkpt>
      <trkpt lat="45.1217215" lon="-72.7337044">
        <ele>215.8</ele>
      </trkpt>
      <trkpt lat="45.1223157" lon="-72.7327872">
        <ele>214.42</ele>
      </trkpt>
      <trkpt lat="45.12291" lon="-72.73187">
        <ele>213.6</ele>
      </trkpt>
      <trkpt lat="45.12346" lon="-72.73098">
        <ele>213.62</ele>
      </trkpt>
      <trkpt lat="45.124055" lon="-72.730125">
        <ele>213.93</ele>
      </trkpt>
      <trkpt lat="45.12465" lon="-72.72927">
        <ele>213.32</ele>
      </trkpt>
      <trkpt lat="45.12514" lon="-72.72864">
        <ele>215.42</ele>
      </trkpt>
      <trkpt lat="45.12563" lon="-72.72801">
        <ele>220.08</ele>
      </trkpt>
      <trkpt lat="45.12599" lon="-72.72762">
        <ele>223.59</ele>
      </trkpt>
      <trkpt lat="45.12655" lon="-72.727595">
        <ele>225.74</ele>
      </trkpt>
      <trkpt lat="45.12711" lon="-72.72757">
        <ele>228.3</ele>
      </trkpt>
      <trkpt lat="45.12798" lon="-72.7275138">
        <ele>230.81</ele>
      </trkpt>
      <trkpt lat="45.12885" lon="-72.7274575">
        <ele>232.32</ele>
      </trkpt>
      <trkpt lat="45.12972" lon="-72.7274013">
        <ele>232.57</ele>
      </trkpt>
      <trkpt lat="45.13059" lon="-72.727345">
        <ele>230.75</ele>
      </trkpt>
      <trkpt lat="45.13146" lon="-72.7272888">
        <ele>229.48</ele>
      </trkpt>
      <trkpt lat="45.13233" lon="-72.7272325">
        <ele>228.41</ele>
      </trkpt>
      <trkpt lat="45.1332" lon="-72.7271763">
        <ele>223.64</ele>
      </trkpt>
      <trkpt lat="45.13407" lon="-72.72712">
        <ele>218.31</ele>
      </trkpt>
      <trkpt lat="45.13492" lon="-72.7270763">
        <ele>210.65</ele>
      </trkpt>
      <trkpt lat="45.13577" lon="-72.7270325">
        <ele>208.77</ele>
      </trkpt>
      <trkpt lat="45.13662" lon="-72.7269888">
        <ele>207.24</ele>
      </trkpt>
      <trkpt lat="45.13747" lon="-72.726945">
        <ele>203.82</ele>
      </trkpt>
      <trkpt lat="45.13832" lon="-72.7269013">
        <ele>205.18</ele>
      </trkpt>
      <trkpt lat="45.13917" lon="-72.7268575">
        <ele>208.18</ele>
      </trkpt>
      <trkpt lat="45.14002" lon="-72.7268138">
        <ele>208.7</ele>
      </trkpt>
      <trkpt lat="45.14087" lon="-72.72677">
        <ele>213.9</ele>
      </trkpt>
      <trkpt lat="45.14175" lon="-72.726695">
        <ele>220.55</ele>
      </trkpt>
      <trkpt lat="45.14263" lon="-72.72662">
        <ele>224.34</ele>
      </trkpt>
      <trkpt lat="45.14279" lon="-72.72654">
        <ele>224.89</ele>
      </trkpt>
      <trkpt lat="45.14301" lon="-72.72636">
        <ele>225.83</ele>
      </trkpt>
      <trkpt lat="45.1435043" lon="-72.7254443">
        <ele>228.99</ele>
      </trkpt>
      <trkpt lat="45.1439986" lon="-72.7245287">
        <ele>232.89</ele>
      </trkpt>
      <trkpt lat="45.1444929" lon="-72.723613">
        <ele>234.28</ele>
      </trkpt>
      <trkpt lat="45.1449872" lon="-72.7226972">
        <ele>234.02</ele>
      </trkpt>
      <trkpt lat="45.1454815" lon="-72.7217815">
        <ele>232.77</ele>
      </trkpt>
      <trkpt lat="45.1459757" lon="-72.7208658">
        <ele>232.79</ele>
      </trkpt>
      <trkpt lat="45.14647" lon="-72.71995">
        <ele>232.53</ele>
      </trkpt>
      <trkpt lat="45.14697" lon="-72.71895">
        <ele>229.93</ele>
      </trkpt>
      <trkpt lat="45.14747" lon="-72.71795">
        <ele>227.11</ele>
      </trkpt>
      <trkpt lat="45.14758" lon="-72.71781">
        <ele>225.67</ele>
      </trkpt>
      <trkpt lat="45.1481767" lon="-72.7171367">
        <ele>222.37</ele>
      </trkpt>
      <trkpt lat="45.1487733" lon="-72.7164633">
        <ele>218.71</ele>
      </trkpt>
      <trkpt lat="45.14937" lon="-72.71579">
        <ele>214.36</ele>
      </trkpt>
      <trkpt lat="45.1498867" lon="-72.7152533">
        <ele>211.37</ele>
      </trkpt>
      <trkpt lat="45.1504033" lon="-72.7147167">
        <ele>209.96</ele>
      </trkpt>
      <trkpt lat="45.15092" lon="-72.71418">
        <ele>205.6</ele>
      </trkpt>
      <trkpt lat="45.15151" lon="-72.71354">
        <ele>202.4</ele>
      </trkpt>
      <trkpt lat="45.1521" lon="-72.7129">
        <ele>199.6</ele>
      </trkpt>
      <trkpt lat="45.15269" lon="-72.71226">
        <ele>196.12</ele>
      </trkpt>
      <trkpt lat="45.1531233" lon="-72.7116733">
        <ele>193.14</ele>
      </trkpt>
      <trkpt lat="45.1535567" lon="-72.7110867">
        <ele>190.36</ele>
      </trkpt>
      <trkpt lat="45.15399" lon="-72.7105">
        <ele>186.93</ele>
      </trkpt>
      <trkpt lat="45.15455" lon="-72.7097867">
        <ele>182.61</ele>
      </trkpt>
      <trkpt lat="45.15511" lon="-72.7090733">
        <ele>179.38</ele>
      </trkpt>
      <trkpt lat="45.15567" lon="-72.70836">
        <ele>178.77</ele>
      </trkpt>
      <trkpt lat="45.15602" lon="-72.70797">
        <ele>179.48</ele>
      </trkpt>
      <trkpt lat="45.15639" lon="-72.70769">
        <ele>181.98</ele>
      </trkpt>
      <trkpt lat="45.15663" lon="-72.70756">
        <ele>184.92</ele>
      </trkpt>
      <trkpt lat="45.15703" lon="-72.70739">
        <ele>188.17</ele>
      </trkpt>
      <trkpt lat="45.1577" lon="-72.70734">
        <ele>187.88</ele>
      </trkpt>
      <trkpt lat="45.15837" lon="-72.70729">
        <ele>188.47</ele>
      </trkpt>
      <trkpt lat="45.159045" lon="-72.707265">
        <ele>187.5</ele>
      </trkpt>
      <trkpt lat="45.15972" lon="-72.70724">
        <ele>185.61</ele>
      </trkpt>
      <trkpt lat="45.16003" lon="-72.7072">
        <ele>184.95</ele>
      </trkpt>
      <trkpt lat="45.16026" lon="-72.70716">
        <ele>184.95</ele>
      </trkpt>
      <trkpt lat="45.16051" lon="-72.70707">
        <ele>185.15</ele>
      </trkpt>
      <trkpt lat="45.16073" lon="-72.70689">
        <ele>185.96</ele>
      </trkpt>
      <trkpt lat="45.16111" lon="-72.70622">
        <ele>187.64</ele>
      </trkpt>
      <trkpt lat="45.161515" lon="-72.7052417">
        <ele>190.47</ele>
      </trkpt>
      <trkpt lat="45.16192" lon="-72.7042634">
        <ele>194.32</ele>
      </trkpt>
      <trkpt lat="45.162325" lon="-72.7032851">
        <ele>196.37</ele>
      </trkpt>
      <trkpt lat="45.16273" lon="-72.7023067">
        <ele>198.07</ele>
      </trkpt>
      <trkpt lat="45.163135" lon="-72.7013284">
        <ele>199.18</ele>
      </trkpt>
      <trkpt lat="45.16354" lon="-72.70035">
        <ele>198.34</ele>
      </trkpt>
      <trkpt lat="45.16355" lon="-72.70035">
        <ele>198.15</ele>
      </trkpt>
      <trkpt lat="45.16391" lon="-72.69949">
        <ele>197.32</ele>
      </trkpt>
      <trkpt lat="45.16409" lon="-72.6991">
        <ele>197.32</ele>
      </trkpt>
      <trkpt lat="45.16434" lon="-72.69883">
        <ele>197.19</ele>
      </trkpt>
      <trkpt lat="45.1645" lon="-72.69874">
        <ele>197.02</ele>
      </trkpt>
      <trkpt lat="45.16481" lon="-72.69865">
        <ele>196.88</ele>
      </trkpt>
      <trkpt lat="45.16526" lon="-72.698605">
        <ele>197.08</ele>
      </trkpt>
      <trkpt lat="45.16571" lon="-72.69856">
        <ele>196.77</ele>
      </trkpt>
      <trkpt lat="45.16626" lon="-72.69854">
        <ele>195.44</ele>
      </trkpt>
      <trkpt lat="45.16681" lon="-72.69852">
        <ele>192.8</ele>
      </trkpt>
      <trkpt lat="45.16728" lon="-72.698485">
        <ele>189.33</ele>
      </trkpt>
      <trkpt lat="45.16775" lon="-72.69845">
        <ele>186.28</ele>
      </trkpt>
      <trkpt lat="45.168205" lon="-72.698395">
        <ele>181.17</ele>
      </trkpt>
      <trkpt lat="45.16866" lon="-72.69834">
        <ele>176.44</ele>
      </trkpt>
      <trkpt lat="45.16945" lon="-72.69816">
        <ele>171.43</ele>
      </trkpt>
      <trkpt lat="45.16975" lon="-72.69807">
        <ele>169.72</ele>
      </trkpt>
      <trkpt lat="45.1703" lon="-72.69784">
        <ele>165.94</ele>
      </trkpt>
      <trkpt lat="45.17061" lon="-72.69766">
        <ele>164.3</ele>
      </trkpt>
      <trkpt lat="45.17117" lon="-72.69731">
        <ele>161.1</ele>
      </trkpt>
      <trkpt lat="45.1714" lon="-72.69712">
        <ele>160.33</ele>
      </trkpt>
      <trkpt lat="45.17194" lon="-72.69657">
        <ele>157.21</ele>
      </trkpt>
      <trkpt lat="45.17248" lon="-72.69602">
        <ele>155.84</ele>
      </trkpt>
      <trkpt lat="45.172985" lon="-72.695475">
        <ele>151.74</ele>
      </trkpt>
      <trkpt lat="45.17349" lon="-72.69493">
        <ele>149.56</ele>
      </trkpt>
      <trkpt lat="45.174105" lon="-72.694215">
        <ele>148.9</ele>
      </trkpt>
      <trkpt lat="45.17472" lon="-72.6935">
        <ele>148.35</ele>
      </trkpt>
      <trkpt lat="45.17515" lon="-72.69307">
        <ele>146.62</ele>
      </trkpt>
      <trkpt lat="45.175865" lon="-72.69241">
        <ele>142.75</ele>
      </trkpt>
      <trkpt lat="45.17658" lon="-72.69175">
        <ele>140.77</ele>
      </trkpt>
      <trkpt lat="45.17618" lon="-72.69117">
        <ele>142.61</ele>
      </trkpt>
      <trkpt lat="45.17573" lon="-72.69061">
        <ele>143.04</ele>
      </trkpt>
      <trkpt lat="45.17573" lon="-72.69061">
        <ele>143.04</ele>
      </trkpt>
      <trkpt lat="45.17531" lon="-72.69007">
        <ele>143.87</ele>
      </trkpt>
      <trkpt lat="45.17489" lon="-72.68953">
        <ele>143.69</ele>
      </trkpt>
      <trkpt lat="45.17484" lon="-72.68929">
        <ele>143.21</ele>
      </trkpt>
      <trkpt lat="45.17476" lon="-72.68819">
        <ele>141.92</ele>
      </trkpt>
      <trkpt lat="45.17468" lon="-72.68709">
        <ele>139.77</ele>
      </trkpt>
      <trkpt lat="45.174575" lon="-72.685975">
        <ele>138.39</ele>
      </trkpt>
      <trkpt lat="45.17447" lon="-72.68486">
        <ele>137.36</ele>
      </trkpt>
      <trkpt lat="45.17441" lon="-72.68378">
        <ele>136.85</ele>
      </trkpt>
      <trkpt lat="45.17435" lon="-72.6827">
        <ele>135.66</ele>
      </trkpt>
      <trkpt lat="45.17427" lon="-72.68197">
        <ele>134.34</ele>
      </trkpt>
      <trkpt lat="45.17419" lon="-72.68124">
        <ele>133.54</ele>
      </trkpt>
      <trkpt lat="45.17403" lon="-72.6802">
        <ele>133.39</ele>
      </trkpt>
      <trkpt lat="45.17394" lon="-72.67923">
        <ele>135.1</ele>
      </trkpt>
      <trkpt lat="45.17389" lon="-72.6781833">
        <ele>140.32</ele>
      </trkpt>
      <trkpt lat="45.17384" lon="-72.6771367">
        <ele>137.03</ele>
      </trkpt>
      <trkpt lat="45.17379" lon="-72.67609">
        <ele>134.76</ele>
      </trkpt>
      <trkpt lat="45.17371" lon="-72.67541">
        <ele>136.08</ele>
      </trkpt>
      <trkpt lat="45.1736417" lon="-72.6743517">
        <ele>138.72</ele>
      </trkpt>
      <trkpt lat="45.1735734" lon="-72.6732933">
        <ele>140.28</ele>
      </trkpt>
      <trkpt lat="45.173505" lon="-72.672235">
        <ele>140.48</ele>
      </trkpt>
      <trkpt lat="45.1734367" lon="-72.6711767">
        <ele>142.51</ele>
      </trkpt>
      <trkpt lat="45.1733684" lon="-72.6701183">
        <ele>146.23</ele>
      </trkpt>
      <trkpt lat="45.1733" lon="-72.66906">
        <ele>148.27</ele>
      </trkpt>
      <trkpt lat="45.17328" lon="-72.668075">
        <ele>148.6</ele>
      </trkpt>
      <trkpt lat="45.17326" lon="-72.66709">
        <ele>148.9</ele>
      </trkpt>
      <trkpt lat="45.17329" lon="-72.66683">
        <ele>148.21</ele>
      </trkpt>
      <trkpt lat="45.17335" lon="-72.66665">
        <ele>147.78</ele>
      </trkpt>
      <trkpt lat="45.17381" lon="-72.665885">
        <ele>143.45</ele>
      </trkpt>
      <trkpt lat="45.17427" lon="-72.66512">
        <ele>140.64</ele>
      </trkpt>
      <trkpt lat="45.17427" lon="-72.66513">
        <ele>140.65</ele>
      </trkpt>
      <trkpt lat="45.174715" lon="-72.664385">
        <ele>136.52</ele>
      </trkpt>
      <trkpt lat="45.17516" lon="-72.66364">
        <ele>129.68</ele>
      </trkpt>
      <trkpt lat="45.17571" lon="-72.66278">
        <ele>127.12</ele>
      </trkpt>
      <trkpt lat="45.17605" lon="-72.66212">
        <ele>127.99</ele>
      </trkpt>
      <trkpt lat="45.176665" lon="-72.66225">
        <ele>127.19</ele>
      </trkpt>
      <trkpt lat="45.17728" lon="-72.66238">
        <ele>127.54</ele>
      </trkpt>
      <trkpt lat="45.17728" lon="-72.66238">
        <ele>127.54</ele>
      </trkpt>
      <trkpt lat="45.17807" lon="-72.66252">
        <ele>127.58</ele>
      </trkpt>
      <trkpt lat="45.17849" lon="-72.66198">
        <ele>125.6</ele>
      </trkpt>
      <trkpt lat="45.17894" lon="-72.66132">
        <ele>127.24</ele>
      </trkpt>
      <trkpt lat="45.17905" lon="-72.66113">
        <ele>128.6</ele>
      </trkpt>
      <trkpt lat="45.17921" lon="-72.66055">
        <ele>132.21</ele>
      </trkpt>
      <trkpt lat="45.17927" lon="-72.65988">
        <ele>133.25</ele>
      </trkpt>
      <trkpt lat="45.1792675" lon="-72.6588175">
        <ele>133.63</ele>
      </trkpt>
      <trkpt lat="45.179265" lon="-72.657755">
        <ele>135.08</ele>
      </trkpt>
      <trkpt lat="45.1792625" lon="-72.6566925">
        <ele>138.29</ele>
      </trkpt>
      <trkpt lat="45.17926" lon="-72.65563">
        <ele>143.81</ele>
      </trkpt>
      <trkpt lat="45.17929" lon="-72.655">
        <ele>146.06</ele>
      </trkpt>
      <trkpt lat="45.17934" lon="-72.65464">
        <ele>146.28</ele>
      </trkpt>
      <trkpt lat="45.1796" lon="-72.65353">
        <ele>143.62</ele>
      </trkpt>
      <trkpt lat="45.17986" lon="-72.65242">
        <ele>142.07</ele>
      </trkpt>
      <trkpt lat="45.17986" lon="-72.65243">
        <ele>142.07</ele>
      </trkpt>
      <trkpt lat="45.18" lon="-72.65178">
        <ele>141.73</ele>
      </trkpt>
      <trkpt lat="45.180615" lon="-72.651755">
        <ele>138.98</ele>
      </trkpt>
      <trkpt lat="45.18123" lon="-72.65173">
        <ele>135.79</ele>
      </trkpt>
      <trkpt lat="45.181755" lon="-72.65169">
        <ele>137.5</ele>
      </trkpt>
      <trkpt lat="45.18228" lon="-72.65165">
        <ele>141.86</ele>
      </trkpt>
      <trkpt lat="45.182745" lon="-72.651645">
        <ele>146.22</ele>
      </trkpt>
      <trkpt lat="45.18321" lon="-72.65164">
        <ele>151.79</ele>
      </trkpt>
      <trkpt lat="45.1835" lon="-72.6516">
        <ele>154.64</ele>
      </trkpt>
      <trkpt lat="45.18387" lon="-72.65164">
        <ele>158.08</ele>
      </trkpt>
      <trkpt lat="45.18399" lon="-72.65168">
        <ele>158.8</ele>
      </trkpt>
      <trkpt lat="45.18406" lon="-72.65168">
        <ele>159.13</ele>
      </trkpt>
      <trkpt lat="45.1844" lon="-72.65178">
        <ele>160.71</ele>
      </trkpt>
      <trkpt lat="45.18463" lon="-72.65174">
        <ele>161.6</ele>
      </trkpt>
      <trkpt lat="45.18473" lon="-72.65169">
        <ele>161.6</ele>
      </trkpt>
      <trkpt lat="45.18505" lon="-72.6516">
        <ele>162.64</ele>
      </trkpt>
      <trkpt lat="45.18546" lon="-72.65155">
        <ele>164.93</ele>
      </trkpt>
      <trkpt lat="45.186315" lon="-72.651505">
        <ele>164.36</ele>
      </trkpt>
      <trkpt lat="45.18717" lon="-72.65146">
        <ele>157.54</ele>
      </trkpt>
      <trkpt lat="45.188025" lon="-72.651415">
        <ele>152.38</ele>
      </trkpt>
      <trkpt lat="45.18888" lon="-72.65137">
        <ele>152.08</ele>
      </trkpt>
      <trkpt lat="45.189735" lon="-72.6513183">
        <ele>153.08</ele>
      </trkpt>
      <trkpt lat="45.19059" lon="-72.6512667">
        <ele>155.16</ele>
      </trkpt>
      <trkpt lat="45.191445" lon="-72.651215">
        <ele>161.78</ele>
      </trkpt>
      <trkpt lat="45.1923" lon="-72.6511633">
        <ele>164.1</ele>
      </trkpt>
      <trkpt lat="45.193155" lon="-72.6511117">
        <ele>165.23</ele>
      </trkpt>
      <trkpt lat="45.19401" lon="-72.65106">
        <ele>166.52</ele>
      </trkpt>
      <trkpt lat="45.194814" lon="-72.65102">
        <ele>166.32</ele>
      </trkpt>
      <trkpt lat="45.195618" lon="-72.65098">
        <ele>168.45</ele>
      </trkpt>
      <trkpt lat="45.196422" lon="-72.65094">
        <ele>170.39</ele>
      </trkpt>
      <trkpt lat="45.197226" lon="-72.6509">
        <ele>171.7</ele>
      </trkpt>
      <trkpt lat="45.19803" lon="-72.65086">
        <ele>172.56</ele>
      </trkpt>
      <trkpt lat="45.19802" lon="-72.65086">
        <ele>172.55</ele>
      </trkpt>
      <trkpt lat="45.19859" lon="-72.65083">
        <ele>173.3</ele>
      </trkpt>
      <trkpt lat="45.19924" lon="-72.6507733">
        <ele>175.21</ele>
      </trkpt>
      <trkpt lat="45.19989" lon="-72.6507167">
        <ele>179.78</ele>
      </trkpt>
      <trkpt lat="45.20054" lon="-72.65066">
        <ele>182.81</ele>
      </trkpt>
      <trkpt lat="45.2013733" lon="-72.6506433">
        <ele>183.59</ele>
      </trkpt>
      <trkpt lat="45.2022067" lon="-72.6506267">
        <ele>185.35</ele>
      </trkpt>
      <trkpt lat="45.20304" lon="-72.65061">
        <ele>188.41</ele>
      </trkpt>
      <trkpt lat="45.203885" lon="-72.650555">
        <ele>186.45</ele>
      </trkpt>
      <trkpt lat="45.20473" lon="-72.6505">
        <ele>184.71</ele>
      </trkpt>
      <trkpt lat="45.205575" lon="-72.650445">
        <ele>183.27</ele>
      </trkpt>
      <trkpt lat="45.20642" lon="-72.65039">
        <ele>183.49</ele>
      </trkpt>
      <trkpt lat="45.20682" lon="-72.65042">
        <ele>184.41</ele>
      </trkpt>
      <trkpt lat="45.20743" lon="-72.650405">
        <ele>186.48</ele>
      </trkpt>
      <trkpt lat="45.20804" lon="-72.65039">
        <ele>189.3</ele>
      </trkpt>
      <trkpt lat="45.20826" lon="-72.65042">
        <ele>189.74</ele>
      </trkpt>
      <trkpt lat="45.20858" lon="-72.65039">
        <ele>189.97</ele>
      </trkpt>
      <trkpt lat="45.20873" lon="-72.65035">
        <ele>189.77</ele>
      </trkpt>
      <trkpt lat="45.20958" lon="-72.650255">
        <ele>186.83</ele>
      </trkpt>
      <trkpt lat="45.21043" lon="-72.65016">
        <ele>181.27</ele>
      </trkpt>
      <trkpt lat="45.21061" lon="-72.65011">
        <ele>180.88</ele>
      </trkpt>
      <trkpt lat="45.21068" lon="-72.65007">
        <ele>180.37</ele>
      </trkpt>
      <trkpt lat="45.21098" lon="-72.64981">
        <ele>179.3</ele>
      </trkpt>
      <trkpt lat="45.21116" lon="-72.64971">
        <ele>179.3</ele>
      </trkpt>
      <trkpt lat="45.211785" lon="-72.649345">
        <ele>177.39</ele>
      </trkpt>
      <trkpt lat="45.21241" lon="-72.64898">
        <ele>173.83</ele>
      </trkpt>
      <trkpt lat="45.213035" lon="-72.648615">
        <ele>168.01</ele>
      </trkpt>
      <trkpt lat="45.21366" lon="-72.64825">
        <ele>163.47</ele>
      </trkpt>
      <trkpt lat="45.21365" lon="-72.64825">
        <ele>163.49</ele>
      </trkpt>
      <trkpt lat="45.21422" lon="-72.64793">
        <ele>164.04</ele>
      </trkpt>
      <trkpt lat="45.2148733" lon="-72.6475433">
        <ele>168.9</ele>
      </trkpt>
      <trkpt lat="45.2155267" lon="-72.6471567">
        <ele>174.58</ele>
      </trkpt>
      <trkpt lat="45.21618" lon="-72.64677">
        <ele>181.2</ele>
      </trkpt>
      <trkpt lat="45.2168733" lon="-72.64638">
        <ele>185.8</ele>
      </trkpt>
      <trkpt lat="45.2175667" lon="-72.64599">
        <ele>187.93</ele>
      </trkpt>
      <trkpt lat="45.21826" lon="-72.6456">
        <ele>190.17</ele>
      </trkpt>
      <trkpt lat="45.21896" lon="-72.64524">
        <ele>191.99</ele>
      </trkpt>
      <trkpt lat="45.21966" lon="-72.64488">
        <ele>193.2</ele>
      </trkpt>
      <trkpt lat="45.22036" lon="-72.64452">
        <ele>197.72</ele>
      </trkpt>
      <trkpt lat="45.2210667" lon="-72.64417">
        <ele>202.28</ele>
      </trkpt>
      <trkpt lat="45.2217733" lon="-72.64382">
        <ele>209.79</ele>
      </trkpt>
      <trkpt lat="45.22248" lon="-72.64347">
        <ele>214.72</ele>
      </trkpt>
      <trkpt lat="45.22267" lon="-72.64242">
        <ele>213.5</ele>
      </trkpt>
      <trkpt lat="45.2228" lon="-72.6418">
        <ele>215.4</ele>
      </trkpt>
      <trkpt lat="45.22293" lon="-72.6413">
        <ele>218.87</ele>
      </trkpt>
      <trkpt lat="45.22315" lon="-72.64071">
        <ele>223.41</ele>
      </trkpt>
      <trkpt lat="45.22329" lon="-72.64041">
        <ele>224.14</ele>
      </trkpt>
      <trkpt lat="45.22386" lon="-72.63952">
        <ele>228.56</ele>
      </trkpt>
      <trkpt lat="45.22433" lon="-72.638885">
        <ele>227.19</ele>
      </trkpt>
      <trkpt lat="45.2248" lon="-72.63825">
        <ele>228.37</ele>
      </trkpt>
      <trkpt lat="45.22488" lon="-72.63812">
        <ele>228.31</ele>
      </trkpt>
      <trkpt lat="45.22497" lon="-72.63781">
        <ele>227.44</ele>
      </trkpt>
      <trkpt lat="45.22498" lon="-72.63771">
        <ele>227.44</ele>
      </trkpt>
      <trkpt lat="45.22498" lon="-72.63772">
        <ele>227.47</ele>
      </trkpt>
      <trkpt lat="45.22498" lon="-72.63699">
        <ele>226.01</ele>
      </trkpt>
      <trkpt lat="45.22495" lon="-72.636235">
        <ele>225.28</ele>
      </trkpt>
      <trkpt lat="45.22492" lon="-72.63548">
        <ele>225.05</ele>
      </trkpt>
      <trkpt lat="45.224855" lon="-72.63427">
        <ele>223.58</ele>
      </trkpt>
      <trkpt lat="45.22479" lon="-72.63306">
        <ele>222.68</ele>
      </trkpt>
      <trkpt lat="45.22477" lon="-72.632415">
        <ele>222.59</ele>
      </trkpt>
      <trkpt lat="45.22475" lon="-72.63177">
        <ele>221.35</ele>
      </trkpt>
      <trkpt lat="45.2247117" lon="-72.6306717">
        <ele>218.43</ele>
      </trkpt>
      <trkpt lat="45.2246734" lon="-72.6295733">
        <ele>219.2</ele>
      </trkpt>
      <trkpt lat="45.224635" lon="-72.628475">
        <ele>218.33</ele>
      </trkpt>
      <trkpt lat="45.2245967" lon="-72.6273767">
        <ele>217.43</ele>
      </trkpt>
      <trkpt lat="45.2245584" lon="-72.6262783">
        <ele>215.79</ele>
      </trkpt>
      <trkpt lat="45.22452" lon="-72.62518">
        <ele>214.17</ele>
      </trkpt>
      <trkpt lat="45.2244668" lon="-72.6239667">
        <ele>214.65</ele>
      </trkpt>
      <trkpt lat="45.2244135" lon="-72.6227533">
        <ele>215.43</ele>
      </trkpt>
      <trkpt lat="45.2243602" lon="-72.62154">
        <ele>217.03</ele>
      </trkpt>
      <trkpt lat="45.2243069" lon="-72.6203266">
        <ele>216.67</ele>
      </trkpt>
      <trkpt lat="45.2242537" lon="-72.6191133">
        <ele>214.58</ele>
      </trkpt>
      <trkpt lat="45.2242003" lon="-72.6178999">
        <ele>214.35</ele>
      </trkpt>
      <trkpt lat="45.224147" lon="-72.6166866">
        <ele>217.23</ele>
      </trkpt>
      <trkpt lat="45.2240937" lon="-72.6154733">
        <ele>216.01</ele>
      </trkpt>
      <trkpt lat="45.2240403" lon="-72.6142599">
        <ele>214.69</ele>
      </trkpt>
      <trkpt lat="45.223987" lon="-72.6130466">
        <ele>213.99</ele>
      </trkpt>
      <trkpt lat="45.2239336" lon="-72.6118333">
        <ele>210.69</ele>
      </trkpt>
      <trkpt lat="45.2238802" lon="-72.61062">
        <ele>209.33</ele>
      </trkpt>
      <trkpt lat="45.2238268" lon="-72.6094066">
        <ele>208.85</ele>
      </trkpt>
      <trkpt lat="45.2237734" lon="-72.6081933">
        <ele>210.53</ele>
      </trkpt>
      <trkpt lat="45.22372" lon="-72.60698">
        <ele>213.59</ele>
      </trkpt>
      <trkpt lat="45.223665" lon="-72.6058975">
        <ele>215.37</ele>
      </trkpt>
      <trkpt lat="45.22361" lon="-72.604815">
        <ele>212.29</ele>
      </trkpt>
      <trkpt lat="45.223555" lon="-72.6037325">
        <ele>210.46</ele>
      </trkpt>
      <trkpt lat="45.2235" lon="-72.60265">
        <ele>210.29</ele>
      </trkpt>
      <trkpt lat="45.2235" lon="-72.60265">
        <ele>210.28</ele>
      </trkpt>
      <trkpt lat="45.22344" lon="-72.6014767">
        <ele>212.37</ele>
      </trkpt>
      <trkpt lat="45.22338" lon="-72.6003033">
        <ele>217.64</ele>
      </trkpt>
      <trkpt lat="45.22332" lon="-72.59913">
        <ele>221.09</ele>
      </trkpt>
      <trkpt lat="45.2232801" lon="-72.5979255">
        <ele>221.32</ele>
      </trkpt>
      <trkpt lat="45.2232402" lon="-72.5967211">
        <ele>219.74</ele>
      </trkpt>
      <trkpt lat="45.2232003" lon="-72.5955166">
        <ele>218.13</ele>
      </trkpt>
      <trkpt lat="45.2231604" lon="-72.5943122">
        <ele>216.92</ele>
      </trkpt>
      <trkpt lat="45.2231204" lon="-72.5931077">
        <ele>213.29</ele>
      </trkpt>
      <trkpt lat="45.2230805" lon="-72.5919033">
        <ele>211.02</ele>
      </trkpt>
      <trkpt lat="45.2230405" lon="-72.5906988">
        <ele>208.35</ele>
      </trkpt>
      <trkpt lat="45.2230005" lon="-72.5894944">
        <ele>204.72</ele>
      </trkpt>
      <trkpt lat="45.2229605" lon="-72.5882899">
        <ele>201.29</ele>
      </trkpt>
      <trkpt lat="45.2229205" lon="-72.5870855">
        <ele>200.46</ele>
      </trkpt>
      <trkpt lat="45.2228805" lon="-72.585881">
        <ele>202.32</ele>
      </trkpt>
      <trkpt lat="45.2228405" lon="-72.5846766">
        <ele>205.05</ele>
      </trkpt>
      <trkpt lat="45.2228004" lon="-72.5834722">
        <ele>208.18</ele>
      </trkpt>
      <trkpt lat="45.2227604" lon="-72.5822677">
        <ele>214.39</ele>
      </trkpt>
      <trkpt lat="45.2227203" lon="-72.5810633">
        <ele>217.67</ele>
      </trkpt>
      <trkpt lat="45.2226802" lon="-72.5798589">
        <ele>221.93</ele>
      </trkpt>
      <trkpt lat="45.2226401" lon="-72.5786544">
        <ele>226.95</ele>
      </trkpt>
      <trkpt lat="45.2226" lon="-72.57745">
        <ele>232.76</ele>
      </trkpt>
      <trkpt lat="45.222595" lon="-72.57667">
        <ele>238.09</ele>
      </trkpt>
      <trkpt lat="45.22259" lon="-72.57589">
        <ele>244.91</ele>
      </trkpt>
      <trkpt lat="45.222605" lon="-72.5747313">
        <ele>252.94</ele>
      </trkpt>
      <trkpt lat="45.2226201" lon="-72.5735725">
        <ele>260.12</ele>
      </trkpt>
      <trkpt lat="45.2226351" lon="-72.5724138">
        <ele>267.88</ele>
      </trkpt>
      <trkpt lat="45.2226501" lon="-72.571255">
        <ele>274.4</ele>
      </trkpt>
      <trkpt lat="45.2226651" lon="-72.5700963">
        <ele>281.01</ele>
      </trkpt>
      <trkpt lat="45.2226801" lon="-72.5689375">
        <ele>284.02</ele>
      </trkpt>
      <trkpt lat="45.222695" lon="-72.5677788">
        <ele>286.93</ele>
      </trkpt>
      <trkpt lat="45.22271" lon="-72.56662">
        <ele>287.71</ele>
      </trkpt>
      <trkpt lat="45.2227317" lon="-72.5655083">
        <ele>281.85</ele>
      </trkpt>
      <trkpt lat="45.2227534" lon="-72.5643967">
        <ele>273.26</ele>
      </trkpt>
      <trkpt lat="45.222775" lon="-72.563285">
        <ele>267.25</ele>
      </trkpt>
      <trkpt lat="45.2227967" lon="-72.5621733">
        <ele>264.34</ele>
      </trkpt>
      <trkpt lat="45.2228184" lon="-72.5610617">
        <ele>259.91</ele>
      </trkpt>
      <trkpt lat="45.22284" lon="-72.55995">
        <ele>257.43</ele>
      </trkpt>
      <trkpt lat="45.22283" lon="-72.559055">
        <ele>259.48</ele>
      </trkpt>
      <trkpt lat="45.22282" lon="-72.55816">
        <ele>265.94</ele>
      </trkpt>
      <trkpt lat="45.22287" lon="-72.55762">
        <ele>268.37</ele>
      </trkpt>
      <trkpt lat="45.22288" lon="-72.55695">
        <ele>270.37</ele>
      </trkpt>
      <trkpt lat="45.222864" lon="-72.555912">
        <ele>272.58</ele>
      </trkpt>
      <trkpt lat="45.222848" lon="-72.554874">
        <ele>275.89</ele>
      </trkpt>
      <trkpt lat="45.222832" lon="-72.553836">
        <ele>277.22</ele>
      </trkpt>
      <trkpt lat="45.222816" lon="-72.552798">
        <ele>275.22</ele>
      </trkpt>
      <trkpt lat="45.2228" lon="-72.55176">
        <ele>273.48</ele>
      </trkpt>
      <trkpt lat="45.222755" lon="-72.551115">
        <ele>267.62</ele>
      </trkpt>
      <trkpt lat="45.22271" lon="-72.55047">
        <ele>262.61</ele>
      </trkpt>
      <trkpt lat="45.2226933" lon="-72.5493233">
        <ele>258.42</ele>
      </trkpt>
      <trkpt lat="45.2226767" lon="-72.5481767">
        <ele>254.97</ele>
      </trkpt>
      <trkpt lat="45.22266" lon="-72.54703">
        <ele>252.96</ele>
      </trkpt>
      <trkpt lat="45.22266" lon="-72.54703">
        <ele>252.96</ele>
      </trkpt>
      <trkpt lat="45.22263" lon="-72.54584">
        <ele>255.59</ele>
      </trkpt>
      <trkpt lat="45.2226" lon="-72.54465">
        <ele>254.36</ele>
      </trkpt>
      <trkpt lat="45.22258" lon="-72.54459">
        <ele>254.36</ele>
      </trkpt>
      <trkpt lat="45.22242" lon="-72.54426">
        <ele>252</ele>
      </trkpt>
      <trkpt lat="45.22198" lon="-72.54353">
        <ele>247.95</ele>
      </trkpt>
      <trkpt lat="45.22154" lon="-72.5428">
        <ele>244.55</ele>
      </trkpt>
      <trkpt lat="45.22139" lon="-72.5424">
        <ele>242.66</ele>
      </trkpt>
      <trkpt lat="45.22136" lon="-72.54209">
        <ele>239.75</ele>
      </trkpt>
      <trkpt lat="45.22141" lon="-72.54174">
        <ele>238.84</ele>
      </trkpt>
      <trkpt lat="45.22148" lon="-72.54159">
        <ele>236.96</ele>
      </trkpt>
      <trkpt lat="45.22159" lon="-72.54145">
        <ele>234.53</ele>
      </trkpt>
      <trkpt lat="45.22193" lon="-72.5411">
        <ele>231.94</ele>
      </trkpt>
      <trkpt lat="45.22203" lon="-72.54096">
        <ele>230.12</ele>
      </trkpt>
      <trkpt lat="45.22232" lon="-72.54042">
        <ele>225.89</ele>
      </trkpt>
      <trkpt lat="45.22248" lon="-72.54007">
        <ele>222.93</ele>
      </trkpt>
      <trkpt lat="45.22259" lon="-72.53977">
        <ele>220.24</ele>
      </trkpt>
      <trkpt lat="45.22263" lon="-72.53954">
        <ele>217.72</ele>
      </trkpt>
      <trkpt lat="45.22247" lon="-72.53882">
        <ele>213.27</ele>
      </trkpt>
      <trkpt lat="45.2224267" lon="-72.5378667">
        <ele>211.72</ele>
      </trkpt>
      <trkpt lat="45.2223833" lon="-72.5369133">
        <ele>205.86</ele>
      </trkpt>
      <trkpt lat="45.22234" lon="-72.53596">
        <ele>200.27</ele>
      </trkpt>
      <trkpt lat="45.222325" lon="-72.53497">
        <ele>199.84</ele>
      </trkpt>
      <trkpt lat="45.22231" lon="-72.53398">
        <ele>200.61</ele>
      </trkpt>
      <trkpt lat="45.22234" lon="-72.5331">
        <ele>202.12</ele>
      </trkpt>
    </trkseg>
  </trk>
</gpx>