<?xml version='1.0' encoding='utf-8'?>
<gpx xmlns="http://www.topografix.com/GPX/1/1" xmlns:xsi="http://www.w3.org/2001/XMLSchema-instance" version="1.1" creator="Gravelle Estrie" xsi:schemaLocation="http://www.topografix.com/GPX/1/1 http://www.topografix.com/GPX/1/1/gpx.xsd">
  <metadata>
    <name>Brown Eyed Girl</name>
  </metadata>
  <trk>
    <name>Brown Eyed Girl</name>
    <trkseg>
      <trkpt lat="45.22234" lon="-72.53299">
        <ele>202.1</ele>
      </trkpt>
      <trkpt lat="45.2223" lon="-72.53175">
        <ele>202.6</ele>
      </trkpt>
      <trkpt lat="45.221443" lon="-72.531806">
        <ele>202.7</ele>
      </trkpt>
      <trkpt lat="45.220586" lon="-72.531863">
        <ele>203.1</ele>
      </trkpt>
      <trkpt lat="45.21973" lon="-72.53192">
        <ele>203.3</ele>
      </trkpt>
      <trkpt lat="45.21952" lon="-72.53187">
        <ele>203.3</ele>
      </trkpt>
      <trkpt lat="45.21913" lon="-72.5317">
        <ele>203.1</ele>
      </trkpt>
      <trkpt lat="45.21901" lon="-72.53164">
        <ele>203.1</ele>
      </trkpt>
      <trkpt lat="45.21901" lon="-72.53163">
        <ele>203.1</ele>
      </trkpt>
      <trkpt lat="45.21819" lon="-72.531149">
        <ele>203.1</ele>
      </trkpt>
      <trkpt lat="45.21737" lon="-72.53067">
        <ele>202.3</ele>
      </trkpt>
      <trkpt lat="45.21725" lon="-72.53058">
        <ele>202.3</ele>
      </trkpt>
      <trkpt lat="45.21689" lon="-72.52997">
        <ele>203.2</ele>
      </trkpt>
      <trkpt lat="45.216286" lon="-72.53071">
        <ele>201</ele>
      </trkpt>
      <trkpt lat="45.215682" lon="-72.53145">
        <ele>201.5</ele>
      </trkpt>
      <trkpt lat="45.215078" lon="-72.53219">
        <ele>201.4</ele>
      </trkpt>
      <trkpt lat="45.214474" lon="-72.53293">
        <ele>202.3</ele>
      </trkpt>
      <trkpt lat="45.21387" lon="-72.53367">
        <ele>203.3</ele>
      </trkpt>
      <trkpt lat="45.21387" lon="-72.53368">
        <ele>203.4</ele>
      </trkpt>
      <trkpt lat="45.21357" lon="-72.53404">
        <ele>205</ele>
      </trkpt>
      <trkpt lat="45.21349" lon="-72.53408">
        <ele>205.3</ele>
      </trkpt>
      <trkpt lat="45.21345" lon="-72.53408">
        <ele>205.5</ele>
      </trkpt>
      <trkpt lat="45.21333" lon="-72.53403">
        <ele>205.7</ele>
      </trkpt>
      <trkpt lat="45.212645" lon="-72.533784">
        <ele>203.3</ele>
      </trkpt>
      <trkpt lat="45.21196" lon="-72.53354">
        <ele>205.5</ele>
      </trkpt>
      <trkpt lat="45.21187" lon="-72.53409">
        <ele>205.8</ele>
      </trkpt>
      <trkpt lat="45.21187" lon="-72.5341">
        <ele>205.8</ele>
      </trkpt>
      <trkpt lat="45.21171" lon="-72.535025">
        <ele>206.4</ele>
      </trkpt>
      <trkpt lat="45.21155" lon="-72.53595">
        <ele>207.4</ele>
      </trkpt>
      <trkpt lat="45.210834" lon="-72.535924">
        <ele>208.3</ele>
      </trkpt>
      <trkpt lat="45.21012" lon="-72.5359">
        <ele>212</ele>
      </trkpt>
      <trkpt lat="45.20946" lon="-72.535894">
        <ele>216.8</ele>
      </trkpt>
      <trkpt lat="45.2088" lon="-72.53589">
        <ele>216.9</ele>
      </trkpt>
      <trkpt lat="45.207996" lon="-72.535876">
        <ele>216.6</ele>
      </trkpt>
      <trkpt lat="45.207193" lon="-72.535863">
        <ele>216.7</ele>
      </trkpt>
      <trkpt lat="45.20639" lon="-72.53585">
        <ele>217.4</ele>
      </trkpt>
      <trkpt lat="45.205735" lon="-72.535829">
        <ele>221.1</ele>
      </trkpt>
      <trkpt lat="45.20508" lon="-72.53581">
        <ele>227.8</ele>
      </trkpt>
      <trkpt lat="45.204239" lon="-72.53584">
        <ele>240.3</ele>
      </trkpt>
      <trkpt lat="45.2034" lon="-72.53587">
        <ele>251.4</ele>
      </trkpt>
      <trkpt lat="45.20279" lon="-72.53577">
        <ele>260.2</ele>
      </trkpt>
      <trkpt lat="45.20271" lon="-72.53577">
        <ele>260.7</ele>
      </trkpt>
      <trkpt lat="45.20211" lon="-72.53592">
        <ele>264.2</ele>
      </trkpt>
      <trkpt lat="45.20183" lon="-72.53595">
        <ele>265.1</ele>
      </trkpt>
      <trkpt lat="45.20141" lon="-72.53582">
        <ele>265.9</ele>
      </trkpt>
      <trkpt lat="45.20109" lon="-72.53578">
        <ele>265.4</ele>
      </trkpt>
      <trkpt lat="45.200314" lon="-72.535774">
        <ele>255.4</ele>
      </trkpt>
      <trkpt lat="45.19954" lon="-72.53577">
        <ele>249.4</ele>
      </trkpt>
      <trkpt lat="45.1992" lon="-72.53582">
        <ele>249.5</ele>
      </trkpt>
      <trkpt lat="45.19902" lon="-72.53581">
        <ele>250.1</ele>
      </trkpt>
      <trkpt lat="45.19888" lon="-72.53582">
        <ele>251.2</ele>
      </trkpt>
      <trkpt lat="45.1987" lon="-72.53586">
        <ele>252.5</ele>
      </trkpt>
      <trkpt lat="45.19846" lon="-72.53601">
        <ele>256</ele>
      </trkpt>
      <trkpt lat="45.19834" lon="-72.53618">
        <ele>257.6</ele>
      </trkpt>
      <trkpt lat="45.198" lon="-72.53676">
        <ele>260.1</ele>
      </trkpt>
      <trkpt lat="45.19782" lon="-72.53695">
        <ele>260.5</ele>
      </trkpt>
      <trkpt lat="45.19762" lon="-72.53708">
        <ele>261.4</ele>
      </trkpt>
      <trkpt lat="45.19743" lon="-72.53712">
        <ele>262.4</ele>
      </trkpt>
      <trkpt lat="45.19711" lon="-72.53712">
        <ele>265.5</ele>
      </trkpt>
      <trkpt lat="45.19682" lon="-72.53698">
        <ele>267.6</ele>
      </trkpt>
      <trkpt lat="45.19661" lon="-72.53684">
        <ele>272.2</ele>
      </trkpt>
      <trkpt lat="45.19613" lon="-72.53636">
        <ele>277.5</ele>
      </trkpt>
      <trkpt lat="45.19586" lon="-72.53613">
        <ele>282.1</ele>
      </trkpt>
      <trkpt lat="45.19574" lon="-72.53612">
        <ele>283.5</ele>
      </trkpt>
      <trkpt lat="45.19523" lon="-72.53611">
        <ele>287.2</ele>
      </trkpt>
      <trkpt lat="45.19473" lon="-72.536099">
        <ele>289.6</ele>
      </trkpt>
      <trkpt lat="45.19423" lon="-72.53609">
        <ele>290.3</ele>
      </trkpt>
      <trkpt lat="45.19374" lon="-72.53606">
        <ele>291.9</ele>
      </trkpt>
      <trkpt lat="45.19325" lon="-72.53703">
        <ele>289.4</ele>
      </trkpt>
      <trkpt lat="45.192685" lon="-72.53783">
        <ele>289.2</ele>
      </trkpt>
      <trkpt lat="45.19212" lon="-72.53863">
        <ele>287.8</ele>
      </trkpt>
      <trkpt lat="45.191576" lon="-72.539543">
        <ele>283.4</ele>
      </trkpt>
      <trkpt lat="45.191033" lon="-72.540456">
        <ele>279.1</ele>
      </trkpt>
      <trkpt lat="45.19049" lon="-72.54137">
        <ele>274.2</ele>
      </trkpt>
      <trkpt lat="45.19038" lon="-72.54173">
        <ele>273.3</ele>
      </trkpt>
      <trkpt lat="45.190215" lon="-72.542645">
        <ele>265.3</ele>
      </trkpt>
      <trkpt lat="45.19005" lon="-72.54356">
        <ele>260.3</ele>
      </trkpt>
      <trkpt lat="45.18986" lon="-72.54423">
        <ele>257</ele>
      </trkpt>
      <trkpt lat="45.1896" lon="-72.544835">
        <ele>255.4</ele>
      </trkpt>
      <trkpt lat="45.18934" lon="-72.54544">
        <ele>252.2</ele>
      </trkpt>
      <trkpt lat="45.18933" lon="-72.54544">
        <ele>252.1</ele>
      </trkpt>
      <trkpt lat="45.18921" lon="-72.54575">
        <ele>250.6</ele>
      </trkpt>
      <trkpt lat="45.18876" lon="-72.546506">
        <ele>243</ele>
      </trkpt>
      <trkpt lat="45.18831" lon="-72.547263">
        <ele>233.6</ele>
      </trkpt>
      <trkpt lat="45.18786" lon="-72.54802">
        <ele>230.5</ele>
      </trkpt>
      <trkpt lat="45.18786" lon="-72.549043">
        <ele>230.4</ele>
      </trkpt>
      <trkpt lat="45.18786" lon="-72.550066">
        <ele>229.8</ele>
      </trkpt>
      <trkpt lat="45.18786" lon="-72.55109">
        <ele>227.6</ele>
      </trkpt>
      <trkpt lat="45.18784" lon="-72.55234">
        <ele>226.5</ele>
      </trkpt>
      <trkpt lat="45.187773" lon="-72.553373">
        <ele>226.4</ele>
      </trkpt>
      <trkpt lat="45.187706" lon="-72.554406">
        <ele>221.3</ele>
      </trkpt>
      <trkpt lat="45.18764" lon="-72.55544">
        <ele>217.6</ele>
      </trkpt>
      <trkpt lat="45.18758" lon="-72.5561">
        <ele>215.9</ele>
      </trkpt>
      <trkpt lat="45.18756" lon="-72.55655">
        <ele>215.2</ele>
      </trkpt>
      <trkpt lat="45.18757" lon="-72.55718">
        <ele>213</ele>
      </trkpt>
      <trkpt lat="45.18759" lon="-72.55749">
        <ele>211.8</ele>
      </trkpt>
      <trkpt lat="45.18773" lon="-72.5582">
        <ele>210.3</ele>
      </trkpt>
      <trkpt lat="45.18783" lon="-72.55852">
        <ele>209.9</ele>
      </trkpt>
      <trkpt lat="45.188146" lon="-72.559473">
        <ele>209.4</ele>
      </trkpt>
      <trkpt lat="45.188463" lon="-72.560426">
        <ele>209</ele>
      </trkpt>
      <trkpt lat="45.18878" lon="-72.56138">
        <ele>209</ele>
      </trkpt>
      <trkpt lat="45.189217" lon="-72.562352">
        <ele>207.8</ele>
      </trkpt>
      <trkpt lat="45.189655" lon="-72.563324">
        <ele>207.1</ele>
      </trkpt>
      <trkpt lat="45.190092" lon="-72.564297">
        <ele>206.3</ele>
      </trkpt>
      <trkpt lat="45.19053" lon="-72.56527">
        <ele>205.9</ele>
      </trkpt>
      <trkpt lat="45.190936" lon="-72.566196">
        <ele>205.1</ele>
      </trkpt>
      <trkpt lat="45.191343" lon="-72.567123">
        <ele>204.5</ele>
      </trkpt>
      <trkpt lat="45.19175" lon="-72.56805">
        <ele>205.4</ele>
      </trkpt>
      <trkpt lat="45.19199" lon="-72.5685">
        <ele>204.8</ele>
      </trkpt>
      <trkpt lat="45.19234" lon="-72.56902">
        <ele>204.5</ele>
      </trkpt>
      <trkpt lat="45.19261" lon="-72.56935">
        <ele>204.7</ele>
      </trkpt>
      <trkpt lat="45.19302" lon="-72.56979">
        <ele>206.3</ele>
      </trkpt>
      <trkpt lat="45.19317" lon="-72.56998">
        <ele>208.1</ele>
      </trkpt>
      <trkpt lat="45.19366" lon="-72.57078">
        <ele>208</ele>
      </trkpt>
      <trkpt lat="45.19379" lon="-72.57101">
        <ele>207.8</ele>
      </trkpt>
      <trkpt lat="45.19412" lon="-72.57173">
        <ele>206.2</ele>
      </trkpt>
      <trkpt lat="45.19405" lon="-72.57181">
        <ele>206.1</ele>
      </trkpt>
      <trkpt lat="45.19399" lon="-72.57234">
        <ele>205.9</ele>
      </trkpt>
      <trkpt lat="45.19396" lon="-72.5724">
        <ele>206</ele>
      </trkpt>
      <trkpt lat="45.19392" lon="-72.57244">
        <ele>206</ele>
      </trkpt>
      <trkpt lat="45.194" lon="-72.5727">
        <ele>205.9</ele>
      </trkpt>
      <trkpt lat="45.19402" lon="-72.57289">
        <ele>206</ele>
      </trkpt>
      <trkpt lat="45.19402" lon="-72.57364">
        <ele>209.3</ele>
      </trkpt>
      <trkpt lat="45.19399" lon="-72.57388">
        <ele>210.8</ele>
      </trkpt>
      <trkpt lat="45.19381" lon="-72.57437">
        <ele>212.7</ele>
      </trkpt>
      <trkpt lat="45.19348" lon="-72.57503">
        <ele>212.7</ele>
      </trkpt>
      <trkpt lat="45.19326" lon="-72.5754">
        <ele>211.9</ele>
      </trkpt>
      <trkpt lat="45.19268" lon="-72.576216">
        <ele>211.3</ele>
      </trkpt>
      <trkpt lat="45.1921" lon="-72.577033">
        <ele>212.7</ele>
      </trkpt>
      <trkpt lat="45.19152" lon="-72.57785">
        <ele>215.3</ele>
      </trkpt>
      <trkpt lat="45.191" lon="-72.578613">
        <ele>216.2</ele>
      </trkpt>
      <trkpt lat="45.19048" lon="-72.579376">
        <ele>218.3</ele>
      </trkpt>
      <trkpt lat="45.18996" lon="-72.58014">
        <ele>224.5</ele>
      </trkpt>
      <trkpt lat="45.18968" lon="-72.58046">
        <ele>226.7</ele>
      </trkpt>
      <trkpt lat="45.1892" lon="-72.58095">
        <ele>229.9</ele>
      </trkpt>
      <trkpt lat="45.1892" lon="-72.58096">
        <ele>229.9</ele>
      </trkpt>
      <trkpt lat="45.18859" lon="-72.581576">
        <ele>233.8</ele>
      </trkpt>
      <trkpt lat="45.18798" lon="-72.582193">
        <ele>237.1</ele>
      </trkpt>
      <trkpt lat="45.18737" lon="-72.58281">
        <ele>238.8</ele>
      </trkpt>
      <trkpt lat="45.18676" lon="-72.583426">
        <ele>238.4</ele>
      </trkpt>
      <trkpt lat="45.18615" lon="-72.584043">
        <ele>238.8</ele>
      </trkpt>
      <trkpt lat="45.18554" lon="-72.58466">
        <ele>240.2</ele>
      </trkpt>
      <trkpt lat="45.18491" lon="-72.58524">
        <ele>241.5</ele>
      </trkpt>
      <trkpt lat="45.18448" lon="-72.5856">
        <ele>240</ele>
      </trkpt>
      <trkpt lat="45.18405" lon="-72.58596">
        <ele>238.5</ele>
      </trkpt>
      <trkpt lat="45.183645" lon="-72.586255">
        <ele>237.5</ele>
      </trkpt>
      <trkpt lat="45.18324" lon="-72.58655">
        <ele>237.6</ele>
      </trkpt>
      <trkpt lat="45.182575" lon="-72.58697">
        <ele>238.1</ele>
      </trkpt>
      <trkpt lat="45.18191" lon="-72.58739">
        <ele>236.4</ele>
      </trkpt>
      <trkpt lat="45.18131" lon="-72.58789">
        <ele>234.7</ele>
      </trkpt>
      <trkpt lat="45.18116" lon="-72.58803">
        <ele>233.6</ele>
      </trkpt>
      <trkpt lat="45.180695" lon="-72.58865">
        <ele>229.2</ele>
      </trkpt>
      <trkpt lat="45.18023" lon="-72.58927">
        <ele>226.1</ele>
      </trkpt>
      <trkpt lat="45.17997" lon="-72.58968">
        <ele>225.6</ele>
      </trkpt>
      <trkpt lat="45.17975" lon="-72.59017">
        <ele>224.1</ele>
      </trkpt>
      <trkpt lat="45.179495" lon="-72.590835">
        <ele>222.8</ele>
      </trkpt>
      <trkpt lat="45.17924" lon="-72.5915">
        <ele>220.7</ele>
      </trkpt>
      <trkpt lat="45.17893" lon="-72.59218">
        <ele>218.3</ele>
      </trkpt>
      <trkpt lat="45.17882" lon="-72.59253">
        <ele>215.9</ele>
      </trkpt>
      <trkpt lat="45.17881" lon="-72.59253">
        <ele>215.8</ele>
      </trkpt>
      <trkpt lat="45.17857" lon="-72.59331">
        <ele>212.3</ele>
      </trkpt>
      <trkpt lat="45.17845" lon="-72.59375">
        <ele>208.5</ele>
      </trkpt>
      <trkpt lat="45.17837" lon="-72.59447">
        <ele>205.2</ele>
      </trkpt>
      <trkpt lat="45.17837" lon="-72.59492">
        <ele>204.3</ele>
      </trkpt>
      <trkpt lat="45.1784" lon="-72.59541">
        <ele>203.5</ele>
      </trkpt>
      <trkpt lat="45.17846" lon="-72.59576">
        <ele>202.6</ele>
      </trkpt>
      <trkpt lat="45.17867" lon="-72.596594">
        <ele>200.7</ele>
      </trkpt>
      <trkpt lat="45.17888" lon="-72.59743">
        <ele>197.6</ele>
      </trkpt>
      <trkpt lat="45.17895" lon="-72.598">
        <ele>196.2</ele>
      </trkpt>
      <trkpt lat="45.17895" lon="-72.59832">
        <ele>194.7</ele>
      </trkpt>
      <trkpt lat="45.17885" lon="-72.59908">
        <ele>191.5</ele>
      </trkpt>
      <trkpt lat="45.1789" lon="-72.59952">
        <ele>191.7</ele>
      </trkpt>
      <trkpt lat="45.17892" lon="-72.59962">
        <ele>191.7</ele>
      </trkpt>
      <trkpt lat="45.17908" lon="-72.59999">
        <ele>191.8</ele>
      </trkpt>
      <trkpt lat="45.17924" lon="-72.60047">
        <ele>192</ele>
      </trkpt>
      <trkpt lat="45.1794" lon="-72.60115">
        <ele>192.7</ele>
      </trkpt>
      <trkpt lat="45.17953" lon="-72.60145">
        <ele>193</ele>
      </trkpt>
      <trkpt lat="45.17981" lon="-72.60194">
        <ele>195.3</ele>
      </trkpt>
      <trkpt lat="45.17991" lon="-72.60217">
        <ele>195.9</ele>
      </trkpt>
      <trkpt lat="45.18014" lon="-72.60285">
        <ele>197.5</ele>
      </trkpt>
      <trkpt lat="45.180445" lon="-72.603499">
        <ele>198</ele>
      </trkpt>
      <trkpt lat="45.18075" lon="-72.60415">
        <ele>198.5</ele>
      </trkpt>
      <trkpt lat="45.18121" lon="-72.60499">
        <ele>198</ele>
      </trkpt>
      <trkpt lat="45.18133" lon="-72.60526">
        <ele>197.8</ele>
      </trkpt>
      <trkpt lat="45.18141" lon="-72.60557">
        <ele>197.3</ele>
      </trkpt>
      <trkpt lat="45.18151" lon="-72.60606">
        <ele>194.9</ele>
      </trkpt>
      <trkpt lat="45.181665" lon="-72.607179">
        <ele>193.8</ele>
      </trkpt>
      <trkpt lat="45.18182" lon="-72.6083">
        <ele>195.4</ele>
      </trkpt>
      <trkpt lat="45.18186" lon="-72.60874">
        <ele>195.5</ele>
      </trkpt>
      <trkpt lat="45.181895" lon="-72.609479">
        <ele>195</ele>
      </trkpt>
      <trkpt lat="45.18193" lon="-72.61022">
        <ele>192.3</ele>
      </trkpt>
      <trkpt lat="45.181975" lon="-72.610914">
        <ele>187.9</ele>
      </trkpt>
      <trkpt lat="45.18202" lon="-72.61161">
        <ele>181.1</ele>
      </trkpt>
      <trkpt lat="45.18212" lon="-72.61255">
        <ele>172.8</ele>
      </trkpt>
      <trkpt lat="45.182352" lon="-72.613559">
        <ele>166.9</ele>
      </trkpt>
      <trkpt lat="45.182585" lon="-72.614569">
        <ele>165.1</ele>
      </trkpt>
      <trkpt lat="45.182817" lon="-72.615579">
        <ele>160.1</ele>
      </trkpt>
      <trkpt lat="45.18305" lon="-72.61659">
        <ele>156.1</ele>
      </trkpt>
      <trkpt lat="45.183336" lon="-72.617786">
        <ele>158.5</ele>
      </trkpt>
      <trkpt lat="45.183623" lon="-72.618983">
        <ele>159.5</ele>
      </trkpt>
      <trkpt lat="45.18391" lon="-72.62018">
        <ele>162</ele>
      </trkpt>
      <trkpt lat="45.183443" lon="-72.620746">
        <ele>162.2</ele>
      </trkpt>
      <trkpt lat="45.182976" lon="-72.621313">
        <ele>159.8</ele>
      </trkpt>
      <trkpt lat="45.18251" lon="-72.62188">
        <ele>154.8</ele>
      </trkpt>
      <trkpt lat="45.1825" lon="-72.62188">
        <ele>154.7</ele>
      </trkpt>
      <trkpt lat="45.18212" lon="-72.622365">
        <ele>151.7</ele>
      </trkpt>
      <trkpt lat="45.18174" lon="-72.62285">
        <ele>148.4</ele>
      </trkpt>
      <trkpt lat="45.18158" lon="-72.62317">
        <ele>147.5</ele>
      </trkpt>
      <trkpt lat="45.18128" lon="-72.624065">
        <ele>146.5</ele>
      </trkpt>
      <trkpt lat="45.18098" lon="-72.62496">
        <ele>150.5</ele>
      </trkpt>
      <trkpt lat="45.18076" lon="-72.62553">
        <ele>151.9</ele>
      </trkpt>
      <trkpt lat="45.18071" lon="-72.62576">
        <ele>151.7</ele>
      </trkpt>
      <trkpt lat="45.18058" lon="-72.626626">
        <ele>147.3</ele>
      </trkpt>
      <trkpt lat="45.18045" lon="-72.627493">
        <ele>138.9</ele>
      </trkpt>
      <trkpt lat="45.18032" lon="-72.62836">
        <ele>140.1</ele>
      </trkpt>
      <trkpt lat="45.1803" lon="-72.62872">
        <ele>141.2</ele>
      </trkpt>
      <trkpt lat="45.18031" lon="-72.62908">
        <ele>144.8</ele>
      </trkpt>
      <trkpt lat="45.18034" lon="-72.62931">
        <ele>145.4</ele>
      </trkpt>
      <trkpt lat="45.18039" lon="-72.62952">
        <ele>145.9</ele>
      </trkpt>
      <trkpt lat="45.18046" lon="-72.6297">
        <ele>147.2</ele>
      </trkpt>
      <trkpt lat="45.18073" lon="-72.63002">
        <ele>148.6</ele>
      </trkpt>
      <trkpt lat="45.1813" lon="-72.6305">
        <ele>149</ele>
      </trkpt>
      <trkpt lat="45.18146" lon="-72.63065">
        <ele>149</ele>
      </trkpt>
      <trkpt lat="45.18159" lon="-72.63082">
        <ele>148.9</ele>
      </trkpt>
      <trkpt lat="45.18187" lon="-72.63135">
        <ele>149.3</ele>
      </trkpt>
      <trkpt lat="45.18201" lon="-72.63167">
        <ele>150.1</ele>
      </trkpt>
      <trkpt lat="45.18219" lon="-72.6323">
        <ele>150.3</ele>
      </trkpt>
      <trkpt lat="45.18226" lon="-72.63292">
        <ele>146.7</ele>
      </trkpt>
      <trkpt lat="45.18226" lon="-72.63324">
        <ele>142.8</ele>
      </trkpt>
      <trkpt lat="45.18222" lon="-72.63378">
        <ele>139.8</ele>
      </trkpt>
      <trkpt lat="45.18223" lon="-72.63462">
        <ele>137.4</ele>
      </trkpt>
      <trkpt lat="45.182273" lon="-72.635813">
        <ele>136.6</ele>
      </trkpt>
      <trkpt lat="45.182316" lon="-72.637006">
        <ele>135.5</ele>
      </trkpt>
      <trkpt lat="45.18236" lon="-72.6382">
        <ele>132.4</ele>
      </trkpt>
      <trkpt lat="45.182418" lon="-72.639371">
        <ele>132.1</ele>
      </trkpt>
      <trkpt lat="45.182476" lon="-72.640543">
        <ele>128.1</ele>
      </trkpt>
      <trkpt lat="45.182535" lon="-72.641714">
        <ele>126.5</ele>
      </trkpt>
      <trkpt lat="45.182593" lon="-72.642886">
        <ele>126.3</ele>
      </trkpt>
      <trkpt lat="45.182651" lon="-72.644058">
        <ele>127</ele>
      </trkpt>
      <trkpt lat="45.18271" lon="-72.64523">
        <ele>129.2</ele>
      </trkpt>
      <trkpt lat="45.18271" lon="-72.64581">
        <ele>131.9</ele>
      </trkpt>
      <trkpt lat="45.18269" lon="-72.64595">
        <ele>131.9</ele>
      </trkpt>
      <trkpt lat="45.18259" lon="-72.64628">
        <ele>132.8</ele>
      </trkpt>
      <trkpt lat="45.18239" lon="-72.64664">
        <ele>132.4</ele>
      </trkpt>
      <trkpt lat="45.18195" lon="-72.64739">
        <ele>131.1</ele>
      </trkpt>
      <trkpt lat="45.181635" lon="-72.647865">
        <ele>131.3</ele>
      </trkpt>
      <trkpt lat="45.18132" lon="-72.64834">
        <ele>132.9</ele>
      </trkpt>
      <trkpt lat="45.18095" lon="-72.64885">
        <ele>135.6</ele>
      </trkpt>
      <trkpt lat="45.18058" lon="-72.64936">
        <ele>137</ele>
      </trkpt>
      <trkpt lat="45.18051" lon="-72.64954">
        <ele>137</ele>
      </trkpt>
      <trkpt lat="45.18045" lon="-72.64976">
        <ele>138.8</ele>
      </trkpt>
      <trkpt lat="45.18025" lon="-72.65066">
        <ele>140.4</ele>
      </trkpt>
      <trkpt lat="45.18005" lon="-72.65156">
        <ele>141.5</ele>
      </trkpt>
      <trkpt lat="45.17985" lon="-72.65246">
        <ele>142</ele>
      </trkpt>
      <trkpt lat="45.17985" lon="-72.65247">
        <ele>142</ele>
      </trkpt>
      <trkpt lat="45.179595" lon="-72.653555">
        <ele>143.9</ele>
      </trkpt>
      <trkpt lat="45.17934" lon="-72.65464">
        <ele>146.2</ele>
      </trkpt>
      <trkpt lat="45.17929" lon="-72.655">
        <ele>146</ele>
      </trkpt>
      <trkpt lat="45.17926" lon="-72.65563">
        <ele>143.8</ele>
      </trkpt>
      <trkpt lat="45.179262" lon="-72.656692">
        <ele>138.2</ele>
      </trkpt>
      <trkpt lat="45.179265" lon="-72.657754">
        <ele>135</ele>
      </trkpt>
      <trkpt lat="45.179267" lon="-72.658817">
        <ele>133.6</ele>
      </trkpt>
      <trkpt lat="45.17927" lon="-72.65988">
        <ele>133.2</ele>
      </trkpt>
      <trkpt lat="45.17921" lon="-72.66055">
        <ele>132.2</ele>
      </trkpt>
      <trkpt lat="45.17905" lon="-72.66113">
        <ele>128.6</ele>
      </trkpt>
      <trkpt lat="45.17894" lon="-72.66132">
        <ele>127.2</ele>
      </trkpt>
      <trkpt lat="45.17849" lon="-72.66198">
        <ele>125.6</ele>
      </trkpt>
      <trkpt lat="45.17807" lon="-72.66252">
        <ele>127.5</ele>
      </trkpt>
      <trkpt lat="45.17762" lon="-72.662439">
        <ele>127.5</ele>
      </trkpt>
      <trkpt lat="45.17717" lon="-72.66236">
        <ele>127.5</ele>
      </trkpt>
      <trkpt lat="45.17661" lon="-72.662239">
        <ele>127.1</ele>
      </trkpt>
      <trkpt lat="45.17605" lon="-72.66212">
        <ele>127.9</ele>
      </trkpt>
      <trkpt lat="45.17571" lon="-72.66278">
        <ele>127.1</ele>
      </trkpt>
      <trkpt lat="45.17516" lon="-72.66364">
        <ele>130.3</ele>
      </trkpt>
      <trkpt lat="45.174615" lon="-72.664545">
        <ele>137.6</ele>
      </trkpt>
      <trkpt lat="45.17407" lon="-72.66545">
        <ele>142.1</ele>
      </trkpt>
      <trkpt lat="45.17407" lon="-72.66546">
        <ele>142.1</ele>
      </trkpt>
      <trkpt lat="45.17371" lon="-72.666055">
        <ele>145.6</ele>
      </trkpt>
      <trkpt lat="45.17335" lon="-72.66665">
        <ele>147.7</ele>
      </trkpt>
      <trkpt lat="45.17329" lon="-72.66683">
        <ele>148.5</ele>
      </trkpt>
      <trkpt lat="45.17326" lon="-72.66709">
        <ele>148.9</ele>
      </trkpt>
      <trkpt lat="45.17328" lon="-72.668074">
        <ele>148.7</ele>
      </trkpt>
      <trkpt lat="45.1733" lon="-72.66906">
        <ele>148.2</ele>
      </trkpt>
      <trkpt lat="45.173368" lon="-72.670118">
        <ele>145.8</ele>
      </trkpt>
      <trkpt lat="45.173436" lon="-72.671176">
        <ele>142.5</ele>
      </trkpt>
      <trkpt lat="45.173505" lon="-72.672234">
        <ele>140.4</ele>
      </trkpt>
      <trkpt lat="45.173573" lon="-72.673293">
        <ele>140.2</ele>
      </trkpt>
      <trkpt lat="45.173641" lon="-72.674351">
        <ele>138.7</ele>
      </trkpt>
      <trkpt lat="45.17371" lon="-72.67541">
        <ele>136</ele>
      </trkpt>
      <trkpt lat="45.17379" lon="-72.67609">
        <ele>134.7</ele>
      </trkpt>
      <trkpt lat="45.17384" lon="-72.677136">
        <ele>139</ele>
      </trkpt>
      <trkpt lat="45.17389" lon="-72.678183">
        <ele>140.3</ele>
      </trkpt>
      <trkpt lat="45.17394" lon="-72.67923">
        <ele>134.8</ele>
      </trkpt>
      <trkpt lat="45.17403" lon="-72.6802">
        <ele>133.3</ele>
      </trkpt>
      <trkpt lat="45.17419" lon="-72.68124">
        <ele>133.5</ele>
      </trkpt>
      <trkpt lat="45.17427" lon="-72.681969">
        <ele>134.3</ele>
      </trkpt>
      <trkpt lat="45.17435" lon="-72.6827">
        <ele>135.6</ele>
      </trkpt>
      <trkpt lat="45.17441" lon="-72.683779">
        <ele>136.8</ele>
      </trkpt>
      <trkpt lat="45.17447" lon="-72.68486">
        <ele>137.3</ele>
      </trkpt>
      <trkpt lat="45.174565" lon="-72.685899">
        <ele>138.3</ele>
      </trkpt>
      <trkpt lat="45.17466" lon="-72.68694">
        <ele>139.6</ele>
      </trkpt>
      <trkpt lat="45.17475" lon="-72.688114">
        <ele>141.9</ele>
      </trkpt>
      <trkpt lat="45.17484" lon="-72.68929">
        <ele>143.3</ele>
      </trkpt>
      <trkpt lat="45.17489" lon="-72.68953">
        <ele>143.6</ele>
      </trkpt>
      <trkpt lat="45.175535" lon="-72.690349">
        <ele>143.2</ele>
      </trkpt>
      <trkpt lat="45.17618" lon="-72.69117">
        <ele>142.6</ele>
      </trkpt>
      <trkpt lat="45.17658" lon="-72.69175">
        <ele>140.7</ele>
      </trkpt>
      <trkpt lat="45.1769" lon="-72.69211">
        <ele>135.1</ele>
      </trkpt>
      <trkpt lat="45.17707" lon="-72.69229">
        <ele>133.6</ele>
      </trkpt>
      <trkpt lat="45.1774" lon="-72.69252">
        <ele>130.2</ele>
      </trkpt>
      <trkpt lat="45.178" lon="-72.692773">
        <ele>129.1</ele>
      </trkpt>
      <trkpt lat="45.1786" lon="-72.693026">
        <ele>130</ele>
      </trkpt>
      <trkpt lat="45.1792" lon="-72.69328">
        <ele>132.5</ele>
      </trkpt>
      <trkpt lat="45.17947" lon="-72.69342">
        <ele>136</ele>
      </trkpt>
      <trkpt lat="45.180075" lon="-72.693839">
        <ele>140.5</ele>
      </trkpt>
      <trkpt lat="45.18068" lon="-72.69426">
        <ele>142.1</ele>
      </trkpt>
      <trkpt lat="45.18142" lon="-72.6947">
        <ele>143</ele>
      </trkpt>
      <trkpt lat="45.18202" lon="-72.695073">
        <ele>143.2</ele>
      </trkpt>
      <trkpt lat="45.18262" lon="-72.695446">
        <ele>143.4</ele>
      </trkpt>
      <trkpt lat="45.18322" lon="-72.69582">
        <ele>144.6</ele>
      </trkpt>
      <trkpt lat="45.18365" lon="-72.69609">
        <ele>145.9</ele>
      </trkpt>
      <trkpt lat="45.18414" lon="-72.696359">
        <ele>149.4</ele>
      </trkpt>
      <trkpt lat="45.18463" lon="-72.69663">
        <ele>151.1</ele>
      </trkpt>
      <trkpt lat="45.18508" lon="-72.69686">
        <ele>150.4</ele>
      </trkpt>
      <trkpt lat="45.18551" lon="-72.69704">
        <ele>148.9</ele>
      </trkpt>
      <trkpt lat="45.18617" lon="-72.69736">
        <ele>146.9</ele>
      </trkpt>
      <trkpt lat="45.18687" lon="-72.69766">
        <ele>145.9</ele>
      </trkpt>
      <trkpt lat="45.187566" lon="-72.697929">
        <ele>145</ele>
      </trkpt>
      <trkpt lat="45.188263" lon="-72.698199">
        <ele>143.4</ele>
      </trkpt>
      <trkpt lat="45.18896" lon="-72.69847">
        <ele>142.9</ele>
      </trkpt>
      <trkpt lat="45.18924" lon="-72.6986">
        <ele>143.9</ele>
      </trkpt>
      <trkpt lat="45.1895" lon="-72.69879">
        <ele>144.2</ele>
      </trkpt>
      <trkpt lat="45.18976" lon="-72.69901">
        <ele>145.2</ele>
      </trkpt>
      <trkpt lat="45.19011" lon="-72.699429">
        <ele>145.9</ele>
      </trkpt>
      <trkpt lat="45.19046" lon="-72.69985">
        <ele>148.1</ele>
      </trkpt>
      <trkpt lat="45.19089" lon="-72.70044">
        <ele>149.3</ele>
      </trkpt>
      <trkpt lat="45.19114" lon="-72.70081">
        <ele>149.4</ele>
      </trkpt>
      <trkpt lat="45.19174" lon="-72.7016">
        <ele>150.6</ele>
      </trkpt>
      <trkpt lat="45.19206" lon="-72.70196">
        <ele>152.5</ele>
      </trkpt>
      <trkpt lat="45.19264" lon="-72.70251">
        <ele>152.7</ele>
      </trkpt>
      <trkpt lat="45.19294" lon="-72.70272">
        <ele>152</ele>
      </trkpt>
      <trkpt lat="45.193625" lon="-72.702994">
        <ele>152.3</ele>
      </trkpt>
      <trkpt lat="45.19431" lon="-72.70327">
        <ele>154.3</ele>
      </trkpt>
      <trkpt lat="45.1946" lon="-72.70345">
        <ele>155.1</ele>
      </trkpt>
      <trkpt lat="45.19511" lon="-72.70384">
        <ele>156.4</ele>
      </trkpt>
      <trkpt lat="45.19586" lon="-72.70435">
        <ele>157.1</ele>
      </trkpt>
      <trkpt lat="45.19636" lon="-72.70478">
        <ele>156.5</ele>
      </trkpt>
      <trkpt lat="45.19656" lon="-72.7051">
        <ele>156.5</ele>
      </trkpt>
      <trkpt lat="45.19683" lon="-72.705639">
        <ele>155.8</ele>
      </trkpt>
      <trkpt lat="45.1971" lon="-72.70618">
        <ele>152.8</ele>
      </trkpt>
      <trkpt lat="45.19741" lon="-72.70671">
        <ele>149.9</ele>
      </trkpt>
      <trkpt lat="45.19766" lon="-72.70706">
        <ele>147.3</ele>
      </trkpt>
      <trkpt lat="45.19789" lon="-72.70737">
        <ele>144.2</ele>
      </trkpt>
      <trkpt lat="45.19836" lon="-72.70787">
        <ele>139.5</ele>
      </trkpt>
      <trkpt lat="45.19864" lon="-72.70832">
        <ele>137.4</ele>
      </trkpt>
      <trkpt lat="45.19879" lon="-72.70872">
        <ele>136.5</ele>
      </trkpt>
      <trkpt lat="45.19907" lon="-72.70971">
        <ele>134.1</ele>
      </trkpt>
      <trkpt lat="45.19933" lon="-72.71078">
        <ele>133.3</ele>
      </trkpt>
      <trkpt lat="45.1994" lon="-72.71141">
        <ele>133.5</ele>
      </trkpt>
      <trkpt lat="45.19941" lon="-72.71221">
        <ele>133.5</ele>
      </trkpt>
      <trkpt lat="45.19935" lon="-72.71293">
        <ele>133.5</ele>
      </trkpt>
      <trkpt lat="45.199125" lon="-72.714025">
        <ele>134.1</ele>
      </trkpt>
      <trkpt lat="45.1989" lon="-72.71512">
        <ele>135.4</ele>
      </trkpt>
      <trkpt lat="45.19871" lon="-72.71592">
        <ele>136.2</ele>
      </trkpt>
      <trkpt lat="45.19837" lon="-72.716863">
        <ele>137.8</ele>
      </trkpt>
      <trkpt lat="45.19803" lon="-72.717806">
        <ele>139.9</ele>
      </trkpt>
      <trkpt lat="45.19769" lon="-72.71875">
        <ele>141.2</ele>
      </trkpt>
      <trkpt lat="45.19748" lon="-72.71916">
        <ele>141.4</ele>
      </trkpt>
      <trkpt lat="45.19739" lon="-72.7193">
        <ele>141.6</ele>
      </trkpt>
      <trkpt lat="45.19707" lon="-72.71965">
        <ele>142</ele>
      </trkpt>
      <trkpt lat="45.196332" lon="-72.720256">
        <ele>144.2</ele>
      </trkpt>
      <trkpt lat="45.195594" lon="-72.720862">
        <ele>146</ele>
      </trkpt>
      <trkpt lat="45.194856" lon="-72.721468">
        <ele>147.7</ele>
      </trkpt>
      <trkpt lat="45.194118" lon="-72.722074">
        <ele>149.6</ele>
      </trkpt>
      <trkpt lat="45.19338" lon="-72.72268">
        <ele>149.6</ele>
      </trkpt>
      <trkpt lat="45.19277" lon="-72.72328">
        <ele>150.4</ele>
      </trkpt>
      <trkpt lat="45.19234" lon="-72.72364">
        <ele>153.6</ele>
      </trkpt>
      <trkpt lat="45.19176" lon="-72.72395">
        <ele>154.8</ele>
      </trkpt>
      <trkpt lat="45.19147" lon="-72.72417">
        <ele>153.9</ele>
      </trkpt>
      <trkpt lat="45.19095" lon="-72.72461">
        <ele>152.5</ele>
      </trkpt>
      <trkpt lat="45.19048" lon="-72.72503">
        <ele>152.6</ele>
      </trkpt>
      <trkpt lat="45.19048" lon="-72.72504">
        <ele>152.6</ele>
      </trkpt>
      <trkpt lat="45.18986" lon="-72.725635">
        <ele>152.8</ele>
      </trkpt>
      <trkpt lat="45.18924" lon="-72.72623">
        <ele>152.7</ele>
      </trkpt>
      <trkpt lat="45.18895" lon="-72.72654">
        <ele>152.7</ele>
      </trkpt>
      <trkpt lat="45.18837" lon="-72.72726">
        <ele>152.3</ele>
      </trkpt>
      <trkpt lat="45.18779" lon="-72.72811">
        <ele>151.5</ele>
      </trkpt>
      <trkpt lat="45.18721" lon="-72.72896">
        <ele>149.3</ele>
      </trkpt>
      <trkpt lat="45.18707" lon="-72.72924">
        <ele>149.3</ele>
      </trkpt>
      <trkpt lat="45.18663" lon="-72.73022">
        <ele>149</ele>
      </trkpt>
      <trkpt lat="45.18619" lon="-72.731265">
        <ele>149.8</ele>
      </trkpt>
      <trkpt lat="45.18575" lon="-72.73231">
        <ele>151.1</ele>
      </trkpt>
      <trkpt lat="45.18526" lon="-72.733275">
        <ele>148.8</ele>
      </trkpt>
      <trkpt lat="45.18477" lon="-72.73424">
        <ele>145.7</ele>
      </trkpt>
      <trkpt lat="45.184423" lon="-72.735046">
        <ele>140.7</ele>
      </trkpt>
      <trkpt lat="45.184076" lon="-72.735853">
        <ele>136.1</ele>
      </trkpt>
      <trkpt lat="45.18373" lon="-72.73666">
        <ele>132.6</ele>
      </trkpt>
      <trkpt lat="45.18344" lon="-72.73722">
        <ele>132.3</ele>
      </trkpt>
      <trkpt lat="45.18315" lon="-72.73778">
        <ele>134.2</ele>
      </trkpt>
      <trkpt lat="45.18303" lon="-72.738">
        <ele>135.4</ele>
      </trkpt>
      <trkpt lat="45.18267" lon="-72.73854">
        <ele>137.1</ele>
      </trkpt>
      <trkpt lat="45.18243" lon="-72.73881">
        <ele>137.7</ele>
      </trkpt>
      <trkpt lat="45.181925" lon="-72.739345">
        <ele>138</ele>
      </trkpt>
      <trkpt lat="45.18142" lon="-72.73988">
        <ele>137.6</ele>
      </trkpt>
      <trkpt lat="45.18118" lon="-72.74023">
        <ele>136.2</ele>
      </trkpt>
      <trkpt lat="45.18107" lon="-72.74042">
        <ele>135.4</ele>
      </trkpt>
      <trkpt lat="45.18094" lon="-72.74074">
        <ele>135</ele>
      </trkpt>
      <trkpt lat="45.1806" lon="-72.74141">
        <ele>136</ele>
      </trkpt>
      <trkpt lat="45.180245" lon="-72.74216">
        <ele>136.7</ele>
      </trkpt>
      <trkpt lat="45.17989" lon="-72.74291">
        <ele>139.2</ele>
      </trkpt>
      <trkpt lat="45.17989" lon="-72.74292">
        <ele>139.3</ele>
      </trkpt>
      <trkpt lat="45.179464" lon="-72.743818">
        <ele>144.8</ele>
      </trkpt>
      <trkpt lat="45.179038" lon="-72.744716">
        <ele>150.3</ele>
      </trkpt>
      <trkpt lat="45.178612" lon="-72.745614">
        <ele>149.2</ele>
      </trkpt>
      <trkpt lat="45.178186" lon="-72.746512">
        <ele>150.8</ele>
      </trkpt>
      <trkpt lat="45.17776" lon="-72.74741">
        <ele>154.6</ele>
      </trkpt>
      <trkpt lat="45.17728" lon="-72.74839">
        <ele>151.8</ele>
      </trkpt>
      <trkpt lat="45.17708" lon="-72.74871">
        <ele>150</ele>
      </trkpt>
      <trkpt lat="45.17657" lon="-72.749453">
        <ele>145.7</ele>
      </trkpt>
      <trkpt lat="45.17606" lon="-72.750196">
        <ele>142.6</ele>
      </trkpt>
      <trkpt lat="45.17555" lon="-72.75094">
        <ele>140</ele>
      </trkpt>
      <trkpt lat="45.17515" lon="-72.751435">
        <ele>139.3</ele>
      </trkpt>
      <trkpt lat="45.17475" lon="-72.75193">
        <ele>139.2</ele>
      </trkpt>
      <trkpt lat="45.17408" lon="-72.75243">
        <ele>140.3</ele>
      </trkpt>
      <trkpt lat="45.17353" lon="-72.75277">
        <ele>141.7</ele>
      </trkpt>
      <trkpt lat="45.1731" lon="-72.75304">
        <ele>142.6</ele>
      </trkpt>
      <trkpt lat="45.17267" lon="-72.75331">
        <ele>143.3</ele>
      </trkpt>
      <trkpt lat="45.17198" lon="-72.7538">
        <ele>146.1</ele>
      </trkpt>
      <trkpt lat="45.17136" lon="-72.75431">
        <ele>149</ele>
      </trkpt>
      <trkpt lat="45.17081" lon="-72.7548">
        <ele>151.1</ele>
      </trkpt>
      <trkpt lat="45.17041" lon="-72.755195">
        <ele>152.6</ele>
      </trkpt>
      <trkpt lat="45.17001" lon="-72.75559">
        <ele>153.4</ele>
      </trkpt>
      <trkpt lat="45.16949" lon="-72.75613">
        <ele>154.5</ele>
      </trkpt>
      <trkpt lat="45.16885" lon="-72.75689">
        <ele>154.7</ele>
      </trkpt>
      <trkpt lat="45.16836" lon="-72.75752">
        <ele>154.6</ele>
      </trkpt>
      <trkpt lat="45.167893" lon="-72.758153">
        <ele>154.6</ele>
      </trkpt>
      <trkpt lat="45.167426" lon="-72.758786">
        <ele>154.6</ele>
      </trkpt>
      <trkpt lat="45.16696" lon="-72.75942">
        <ele>154.5</ele>
      </trkpt>
      <trkpt lat="45.16696" lon="-72.75943">
        <ele>154.5</ele>
      </trkpt>
      <trkpt lat="45.166516" lon="-72.760026">
        <ele>154.5</ele>
      </trkpt>
      <trkpt lat="45.166073" lon="-72.760623">
        <ele>155</ele>
      </trkpt>
      <trkpt lat="45.16563" lon="-72.76122">
        <ele>156</ele>
      </trkpt>
      <trkpt lat="45.165431" lon="-72.760141">
        <ele>157.3</ele>
      </trkpt>
      <trkpt lat="45.165233" lon="-72.759063">
        <ele>159.6</ele>
      </trkpt>
      <trkpt lat="45.165035" lon="-72.757984">
        <ele>165.2</ele>
      </trkpt>
      <trkpt lat="45.164836" lon="-72.756906">
        <ele>167.5</ele>
      </trkpt>
      <trkpt lat="45.164638" lon="-72.755828">
        <ele>169.1</ele>
      </trkpt>
      <trkpt lat="45.16444" lon="-72.75475">
        <ele>171.8</ele>
      </trkpt>
      <trkpt lat="45.164276" lon="-72.753913">
        <ele>175.1</ele>
      </trkpt>
      <trkpt lat="45.164113" lon="-72.753076">
        <ele>180.3</ele>
      </trkpt>
      <trkpt lat="45.16395" lon="-72.75224">
        <ele>190.2</ele>
      </trkpt>
      <trkpt lat="45.16387" lon="-72.75189">
        <ele>192.3</ele>
      </trkpt>
      <trkpt lat="45.16377" lon="-72.75158">
        <ele>196</ele>
      </trkpt>
      <trkpt lat="45.16363" lon="-72.75129">
        <ele>199.3</ele>
      </trkpt>
      <trkpt lat="45.1633" lon="-72.75076">
        <ele>201.3</ele>
      </trkpt>
      <trkpt lat="45.16315" lon="-72.75063">
        <ele>202.1</ele>
      </trkpt>
      <trkpt lat="45.16301" lon="-72.75054">
        <ele>202.6</ele>
      </trkpt>
      <trkpt lat="45.16269" lon="-72.75046">
        <ele>202.9</ele>
      </trkpt>
      <trkpt lat="45.162065" lon="-72.750465">
        <ele>204</ele>
      </trkpt>
      <trkpt lat="45.16144" lon="-72.75047">
        <ele>205.5</ele>
      </trkpt>
      <trkpt lat="45.16121" lon="-72.75049">
        <ele>209.1</ele>
      </trkpt>
      <trkpt lat="45.160399" lon="-72.750444">
        <ele>212.3</ele>
      </trkpt>
      <trkpt lat="45.15959" lon="-72.7504">
        <ele>214.2</ele>
      </trkpt>
      <trkpt lat="45.1588" lon="-72.75049">
        <ele>216.7</ele>
      </trkpt>
      <trkpt lat="45.15843" lon="-72.75067">
        <ele>220.2</ele>
      </trkpt>
      <trkpt lat="45.1582" lon="-72.75086">
        <ele>223.8</ele>
      </trkpt>
      <trkpt lat="45.15819" lon="-72.75086">
        <ele>223.9</ele>
      </trkpt>
      <trkpt lat="45.15766" lon="-72.7513">
        <ele>229.8</ele>
      </trkpt>
      <trkpt lat="45.157125" lon="-72.75179">
        <ele>236.6</ele>
      </trkpt>
      <trkpt lat="45.15659" lon="-72.75228">
        <ele>238.9</ele>
      </trkpt>
      <trkpt lat="45.15596" lon="-72.75296">
        <ele>237.1</ele>
      </trkpt>
      <trkpt lat="45.155615" lon="-72.753405">
        <ele>236.5</ele>
      </trkpt>
      <trkpt lat="45.15527" lon="-72.75385">
        <ele>233.8</ele>
      </trkpt>
      <trkpt lat="45.15511" lon="-72.75398">
        <ele>233.8</ele>
      </trkpt>
      <trkpt lat="45.15491" lon="-72.75403">
        <ele>232.9</ele>
      </trkpt>
      <trkpt lat="45.15455" lon="-72.75407">
        <ele>229.3</ele>
      </trkpt>
      <trkpt lat="45.153689" lon="-72.754104">
        <ele>220</ele>
      </trkpt>
      <trkpt lat="45.152828" lon="-72.754139">
        <ele>213.6</ele>
      </trkpt>
      <trkpt lat="45.151967" lon="-72.754173">
        <ele>206.7</ele>
      </trkpt>
      <trkpt lat="45.151106" lon="-72.754208">
        <ele>196.6</ele>
      </trkpt>
      <trkpt lat="45.150245" lon="-72.754242">
        <ele>189</ele>
      </trkpt>
      <trkpt lat="45.149384" lon="-72.754277">
        <ele>183.3</ele>
      </trkpt>
      <trkpt lat="45.148523" lon="-72.754311">
        <ele>178.1</ele>
      </trkpt>
      <trkpt lat="45.147662" lon="-72.754346">
        <ele>175</ele>
      </trkpt>
      <trkpt lat="45.146801" lon="-72.75438">
        <ele>171.4</ele>
      </trkpt>
      <trkpt lat="45.14594" lon="-72.754415">
        <ele>168.9</ele>
      </trkpt>
      <trkpt lat="45.14508" lon="-72.75445">
        <ele>171.4</ele>
      </trkpt>
      <trkpt lat="45.14507" lon="-72.75445">
        <ele>171.4</ele>
      </trkpt>
      <trkpt lat="45.1449" lon="-72.75446">
        <ele>172.4</ele>
      </trkpt>
      <trkpt lat="45.14466" lon="-72.75449">
        <ele>172.8</ele>
      </trkpt>
      <trkpt lat="45.14403" lon="-72.7547">
        <ele>172.8</ele>
      </trkpt>
      <trkpt lat="45.14384" lon="-72.75471">
        <ele>172.9</ele>
      </trkpt>
      <trkpt lat="45.14296" lon="-72.754736">
        <ele>175.1</ele>
      </trkpt>
      <trkpt lat="45.14208" lon="-72.754763">
        <ele>180.5</ele>
      </trkpt>
      <trkpt lat="45.1412" lon="-72.75479">
        <ele>182.7</ele>
      </trkpt>
      <trkpt lat="45.14092" lon="-72.75479">
        <ele>182</ele>
      </trkpt>
      <trkpt lat="45.14071" lon="-72.75475">
        <ele>181.9</ele>
      </trkpt>
      <trkpt lat="45.14048" lon="-72.75467">
        <ele>181.8</ele>
      </trkpt>
      <trkpt lat="45.14027" lon="-72.75457">
        <ele>181.9</ele>
      </trkpt>
      <trkpt lat="45.1397" lon="-72.75412">
        <ele>182.2</ele>
      </trkpt>
      <trkpt lat="45.14" lon="-72.753555">
        <ele>185.3</ele>
      </trkpt>
      <trkpt lat="45.1403" lon="-72.75299">
        <ele>189.9</ele>
      </trkpt>
      <trkpt lat="45.14051" lon="-72.7527">
        <ele>191.9</ele>
      </trkpt>
      <trkpt lat="45.141095" lon="-72.75211">
        <ele>193.5</ele>
      </trkpt>
      <trkpt lat="45.14168" lon="-72.75152">
        <ele>194.6</ele>
      </trkpt>
      <trkpt lat="45.14213" lon="-72.751005">
        <ele>195</ele>
      </trkpt>
      <trkpt lat="45.14258" lon="-72.75049">
        <ele>195.1</ele>
      </trkpt>
      <trkpt lat="45.14289" lon="-72.75009">
        <ele>194.2</ele>
      </trkpt>
      <trkpt lat="45.14341" lon="-72.7492">
        <ele>194.2</ele>
      </trkpt>
      <trkpt lat="45.14371" lon="-72.74866">
        <ele>196</ele>
      </trkpt>
      <trkpt lat="45.14401" lon="-72.74812">
        <ele>197.7</ele>
      </trkpt>
      <trkpt lat="45.14452" lon="-72.747115">
        <ele>199</ele>
      </trkpt>
      <trkpt lat="45.14503" lon="-72.74611">
        <ele>196.9</ele>
      </trkpt>
      <trkpt lat="45.14551" lon="-72.74504">
        <ele>195.7</ele>
      </trkpt>
      <trkpt lat="45.145876" lon="-72.744096">
        <ele>193.6</ele>
      </trkpt>
      <trkpt lat="45.146243" lon="-72.743153">
        <ele>194.8</ele>
      </trkpt>
      <trkpt lat="45.14661" lon="-72.74221">
        <ele>196.7</ele>
      </trkpt>
      <trkpt lat="45.146976" lon="-72.741266">
        <ele>201.4</ele>
      </trkpt>
      <trkpt lat="45.147343" lon="-72.740323">
        <ele>202.8</ele>
      </trkpt>
      <trkpt lat="45.14771" lon="-72.73938">
        <ele>202.6</ele>
      </trkpt>
      <trkpt lat="45.14786" lon="-72.7388">
        <ele>203.3</ele>
      </trkpt>
      <trkpt lat="45.14792" lon="-72.73815">
        <ele>205.1</ele>
      </trkpt>
      <trkpt lat="45.147967" lon="-72.737152">
        <ele>207.9</ele>
      </trkpt>
      <trkpt lat="45.148015" lon="-72.736155">
        <ele>209.3</ele>
      </trkpt>
      <trkpt lat="45.148062" lon="-72.735157">
        <ele>210.8</ele>
      </trkpt>
      <trkpt lat="45.14811" lon="-72.73416">
        <ele>212.8</ele>
      </trkpt>
      <trkpt lat="45.148155" lon="-72.73303">
        <ele>214.5</ele>
      </trkpt>
      <trkpt lat="45.1482" lon="-72.7319">
        <ele>215.7</ele>
      </trkpt>
      <trkpt lat="45.148242" lon="-72.73084">
        <ele>218</ele>
      </trkpt>
      <trkpt lat="45.148285" lon="-72.72978">
        <ele>221.5</ele>
      </trkpt>
      <trkpt lat="45.148327" lon="-72.72872">
        <ele>223.6</ele>
      </trkpt>
      <trkpt lat="45.14837" lon="-72.72766">
        <ele>225.4</ele>
      </trkpt>
      <trkpt lat="45.14836" lon="-72.72713">
        <ele>227.6</ele>
      </trkpt>
      <trkpt lat="45.14828" lon="-72.72631">
        <ele>231.3</ele>
      </trkpt>
      <trkpt lat="45.14819" lon="-72.72561">
        <ele>234.1</ele>
      </trkpt>
      <trkpt lat="45.148087" lon="-72.724515">
        <ele>233.7</ele>
      </trkpt>
      <trkpt lat="45.147984" lon="-72.723421">
        <ele>230</ele>
      </trkpt>
      <trkpt lat="45.147881" lon="-72.722327">
        <ele>226.2</ele>
      </trkpt>
      <trkpt lat="45.147778" lon="-72.721232">
        <ele>225</ele>
      </trkpt>
      <trkpt lat="45.147675" lon="-72.720138">
        <ele>224.4</ele>
      </trkpt>
      <trkpt lat="45.147572" lon="-72.719044">
        <ele>225.5</ele>
      </trkpt>
      <trkpt lat="45.14747" lon="-72.71795">
        <ele>227.9</ele>
      </trkpt>
      <trkpt lat="45.14758" lon="-72.71781">
        <ele>227.1</ele>
      </trkpt>
      <trkpt lat="45.148223" lon="-72.717083">
        <ele>221.8</ele>
      </trkpt>
      <trkpt lat="45.148866" lon="-72.716356">
        <ele>218.1</ele>
      </trkpt>
      <trkpt lat="45.14951" lon="-72.71563">
        <ele>213.8</ele>
      </trkpt>
      <trkpt lat="45.14951" lon="-72.71564">
        <ele>213.9</ele>
      </trkpt>
      <trkpt lat="45.150215" lon="-72.71491">
        <ele>208.4</ele>
      </trkpt>
      <trkpt lat="45.15092" lon="-72.71418">
        <ele>205.7</ele>
      </trkpt>
      <trkpt lat="45.15151" lon="-72.71354">
        <ele>201.9</ele>
      </trkpt>
      <trkpt lat="45.1521" lon="-72.7129">
        <ele>199.4</ele>
      </trkpt>
      <trkpt lat="45.15269" lon="-72.71226">
        <ele>195.4</ele>
      </trkpt>
      <trkpt lat="45.153123" lon="-72.711673">
        <ele>192.3</ele>
      </trkpt>
      <trkpt lat="45.153556" lon="-72.711086">
        <ele>190.1</ele>
      </trkpt>
      <trkpt lat="45.15399" lon="-72.7105">
        <ele>187.7</ele>
      </trkpt>
      <trkpt lat="45.15455" lon="-72.709786">
        <ele>182.7</ele>
      </trkpt>
      <trkpt lat="45.15511" lon="-72.709073">
        <ele>180.3</ele>
      </trkpt>
      <trkpt lat="45.15567" lon="-72.70836">
        <ele>178.9</ele>
      </trkpt>
      <trkpt lat="45.15602" lon="-72.70797">
        <ele>179.4</ele>
      </trkpt>
      <trkpt lat="45.15639" lon="-72.70769">
        <ele>181.3</ele>
      </trkpt>
      <trkpt lat="45.15663" lon="-72.70756">
        <ele>184</ele>
      </trkpt>
      <trkpt lat="45.15703" lon="-72.70739">
        <ele>187.5</ele>
      </trkpt>
      <trkpt lat="45.157699" lon="-72.70734">
        <ele>188.1</ele>
      </trkpt>
      <trkpt lat="45.15837" lon="-72.70729">
        <ele>188.7</ele>
      </trkpt>
      <trkpt lat="45.159044" lon="-72.707265">
        <ele>188</ele>
      </trkpt>
      <trkpt lat="45.15972" lon="-72.70724">
        <ele>186.7</ele>
      </trkpt>
      <trkpt lat="45.16003" lon="-72.7072">
        <ele>185.5</ele>
      </trkpt>
      <trkpt lat="45.16026" lon="-72.70716">
        <ele>185.3</ele>
      </trkpt>
      <trkpt lat="45.16051" lon="-72.70707">
        <ele>185.6</ele>
      </trkpt>
      <trkpt lat="45.16073" lon="-72.70689">
        <ele>185.9</ele>
      </trkpt>
      <trkpt lat="45.16111" lon="-72.70622">
        <ele>187.5</ele>
      </trkpt>
      <trkpt lat="45.161516" lon="-72.70524">
        <ele>190.3</ele>
      </trkpt>
      <trkpt lat="45.161923" lon="-72.70426">
        <ele>194</ele>
      </trkpt>
      <trkpt lat="45.16233" lon="-72.70328">
        <ele>196.2</ele>
      </trkpt>
      <trkpt lat="45.162736" lon="-72.7023">
        <ele>197.7</ele>
      </trkpt>
      <trkpt lat="45.163143" lon="-72.70132">
        <ele>198.8</ele>
      </trkpt>
      <trkpt lat="45.16355" lon="-72.70034">
        <ele>198.1</ele>
      </trkpt>
      <trkpt lat="45.16355" lon="-72.70035">
        <ele>198.1</ele>
      </trkpt>
      <trkpt lat="45.16391" lon="-72.69949">
        <ele>197.3</ele>
      </trkpt>
      <trkpt lat="45.16409" lon="-72.6991">
        <ele>197.3</ele>
      </trkpt>
      <trkpt lat="45.16434" lon="-72.69883">
        <ele>197.1</ele>
      </trkpt>
      <trkpt lat="45.1645" lon="-72.69874">
        <ele>197</ele>
      </trkpt>
      <trkpt lat="45.16481" lon="-72.69865">
        <ele>196.8</ele>
      </trkpt>
      <trkpt lat="45.16526" lon="-72.698605">
        <ele>197</ele>
      </trkpt>
      <trkpt lat="45.16571" lon="-72.69856">
        <ele>196.7</ele>
      </trkpt>
      <trkpt lat="45.16626" lon="-72.69854">
        <ele>195.4</ele>
      </trkpt>
      <trkpt lat="45.16681" lon="-72.69852">
        <ele>192.8</ele>
      </trkpt>
      <trkpt lat="45.167279" lon="-72.698485">
        <ele>189.3</ele>
      </trkpt>
      <trkpt lat="45.16775" lon="-72.69845">
        <ele>186.2</ele>
      </trkpt>
      <trkpt lat="45.168205" lon="-72.698395">
        <ele>181.1</ele>
      </trkpt>
      <trkpt lat="45.16866" lon="-72.69834">
        <ele>176.4</ele>
      </trkpt>
      <trkpt lat="45.16945" lon="-72.69816">
        <ele>171.4</ele>
      </trkpt>
      <trkpt lat="45.16975" lon="-72.69807">
        <ele>169.7</ele>
      </trkpt>
      <trkpt lat="45.1703" lon="-72.69784">
        <ele>165.9</ele>
      </trkpt>
      <trkpt lat="45.17061" lon="-72.69766">
        <ele>164.3</ele>
      </trkpt>
      <trkpt lat="45.17117" lon="-72.69731">
        <ele>161.1</ele>
      </trkpt>
      <trkpt lat="45.1714" lon="-72.69712">
        <ele>160.3</ele>
      </trkpt>
      <trkpt lat="45.17194" lon="-72.69657">
        <ele>157.2</ele>
      </trkpt>
      <trkpt lat="45.17248" lon="-72.69602">
        <ele>155.8</ele>
      </trkpt>
      <trkpt lat="45.172985" lon="-72.695475">
        <ele>151.7</ele>
      </trkpt>
      <trkpt lat="45.17349" lon="-72.69493">
        <ele>149.5</ele>
      </trkpt>
      <trkpt lat="45.174105" lon="-72.694215">
        <ele>148.9</ele>
      </trkpt>
      <trkpt lat="45.17472" lon="-72.6935">
        <ele>148.3</ele>
      </trkpt>
      <trkpt lat="45.17515" lon="-72.69307">
        <ele>146.6</ele>
      </trkpt>
      <trkpt lat="45.175865" lon="-72.69241">
        <ele>142.7</ele>
      </trkpt>
      <trkpt lat="45.17658" lon="-72.69175">
        <ele>140.7</ele>
      </trkpt>
      <trkpt lat="45.17618" lon="-72.69117">
        <ele>142.6</ele>
      </trkpt>
      <trkpt lat="45.17573" lon="-72.69061">
        <ele>143</ele>
      </trkpt>
      <trkpt lat="45.17531" lon="-72.690069">
        <ele>143.8</ele>
      </trkpt>
      <trkpt lat="45.17489" lon="-72.68953">
        <ele>143.6</ele>
      </trkpt>
      <trkpt lat="45.17484" lon="-72.68929">
        <ele>143.2</ele>
      </trkpt>
      <trkpt lat="45.17476" lon="-72.688189">
        <ele>141.9</ele>
      </trkpt>
      <trkpt lat="45.17468" lon="-72.68709">
        <ele>139.7</ele>
      </trkpt>
      <trkpt lat="45.174575" lon="-72.685974">
        <ele>138.3</ele>
      </trkpt>
      <trkpt lat="45.17447" lon="-72.68486">
        <ele>137.3</ele>
      </trkpt>
      <trkpt lat="45.17441" lon="-72.683779">
        <ele>136.8</ele>
      </trkpt>
      <trkpt lat="45.17435" lon="-72.6827">
        <ele>135.6</ele>
      </trkpt>
      <trkpt lat="45.17427" lon="-72.681969">
        <ele>134.3</ele>
      </trkpt>
      <trkpt lat="45.17419" lon="-72.68124">
        <ele>133.5</ele>
      </trkpt>
      <trkpt lat="45.17403" lon="-72.6802">
        <ele>133.3</ele>
      </trkpt>
      <trkpt lat="45.17394" lon="-72.67923">
        <ele>135.1</ele>
      </trkpt>
      <trkpt lat="45.17389" lon="-72.678183">
        <ele>140.3</ele>
      </trkpt>
      <trkpt lat="45.17384" lon="-72.677136">
        <ele>137</ele>
      </trkpt>
      <trkpt lat="45.17379" lon="-72.67609">
        <ele>134.7</ele>
      </trkpt>
      <trkpt lat="45.17371" lon="-72.67541">
        <ele>136</ele>
      </trkpt>
      <trkpt lat="45.173641" lon="-72.674351">
        <ele>138.7</ele>
      </trkpt>
      <trkpt lat="45.173573" lon="-72.673293">
        <ele>140.2</ele>
      </trkpt>
      <trkpt lat="45.173505" lon="-72.672234">
        <ele>140.4</ele>
      </trkpt>
      <trkpt lat="45.173436" lon="-72.671176">
        <ele>142.5</ele>
      </trkpt>
      <trkpt lat="45.173368" lon="-72.670118">
        <ele>146.2</ele>
      </trkpt>
      <trkpt lat="45.1733" lon="-72.66906">
        <ele>148.2</ele>
      </trkpt>
      <trkpt lat="45.17328" lon="-72.668074">
        <ele>148.6</ele>
      </trkpt>
      <trkpt lat="45.17326" lon="-72.66709">
        <ele>148.9</ele>
      </trkpt>
      <trkpt lat="45.17329" lon="-72.66683">
        <ele>148.2</ele>
      </trkpt>
      <trkpt lat="45.17335" lon="-72.66665">
        <ele>147.7</ele>
      </trkpt>
      <trkpt lat="45.17381" lon="-72.665885">
        <ele>143.4</ele>
      </trkpt>
      <trkpt lat="45.17427" lon="-72.66512">
        <ele>140.6</ele>
      </trkpt>
      <trkpt lat="45.17427" lon="-72.66513">
        <ele>140.6</ele>
      </trkpt>
      <trkpt lat="45.174715" lon="-72.664385">
        <ele>136.5</ele>
      </trkpt>
      <trkpt lat="45.17516" lon="-72.66364">
        <ele>129.6</ele>
      </trkpt>
      <trkpt lat="45.17571" lon="-72.66278">
        <ele>127.1</ele>
      </trkpt>
      <trkpt lat="45.17605" lon="-72.66212">
        <ele>127.9</ele>
      </trkpt>
      <trkpt lat="45.176665" lon="-72.662249">
        <ele>127.1</ele>
      </trkpt>
      <trkpt lat="45.17728" lon="-72.66238">
        <ele>127.5</ele>
      </trkpt>
      <trkpt lat="45.17807" lon="-72.66252">
        <ele>127.5</ele>
      </trkpt>
      <trkpt lat="45.17849" lon="-72.66198">
        <ele>125.6</ele>
      </trkpt>
      <trkpt lat="45.17894" lon="-72.66132">
        <ele>127.2</ele>
      </trkpt>
      <trkpt lat="45.17905" lon="-72.66113">
        <ele>128.6</ele>
      </trkpt>
      <trkpt lat="45.17921" lon="-72.66055">
        <ele>132.2</ele>
      </trkpt>
      <trkpt lat="45.17927" lon="-72.65988">
        <ele>133.2</ele>
      </trkpt>
      <trkpt lat="45.179267" lon="-72.658817">
        <ele>133.6</ele>
      </trkpt>
      <trkpt lat="45.179265" lon="-72.657754">
        <ele>135</ele>
      </trkpt>
      <trkpt lat="45.179262" lon="-72.656692">
        <ele>138.2</ele>
      </trkpt>
      <trkpt lat="45.17926" lon="-72.65563">
        <ele>143.8</ele>
      </trkpt>
      <trkpt lat="45.17929" lon="-72.655">
        <ele>146</ele>
      </trkpt>
      <trkpt lat="45.17934" lon="-72.65464">
        <ele>146.2</ele>
      </trkpt>
      <trkpt lat="45.1796" lon="-72.65353">
        <ele>143.6</ele>
      </trkpt>
      <trkpt lat="45.17986" lon="-72.65242">
        <ele>142</ele>
      </trkpt>
      <trkpt lat="45.17986" lon="-72.65243">
        <ele>142</ele>
      </trkpt>
      <trkpt lat="45.18" lon="-72.65178">
        <ele>141.7</ele>
      </trkpt>
      <trkpt lat="45.180615" lon="-72.651755">
        <ele>138.9</ele>
      </trkpt>
      <trkpt lat="45.18123" lon="-72.65173">
        <ele>135.7</ele>
      </trkpt>
      <trkpt lat="45.181755" lon="-72.65169">
        <ele>137.5</ele>
      </trkpt>
      <trkpt lat="45.18228" lon="-72.65165">
        <ele>141.8</ele>
      </trkpt>
      <trkpt lat="45.182744" lon="-72.651645">
        <ele>146.2</ele>
      </trkpt>
      <trkpt lat="45.18321" lon="-72.65164">
        <ele>151.7</ele>
      </trkpt>
      <trkpt lat="45.1835" lon="-72.6516">
        <ele>154.6</ele>
      </trkpt>
      <trkpt lat="45.18387" lon="-72.65164">
        <ele>158</ele>
      </trkpt>
      <trkpt lat="45.18399" lon="-72.65168">
        <ele>158.8</ele>
      </trkpt>
      <trkpt lat="45.18406" lon="-72.65168">
        <ele>159.1</ele>
      </trkpt>
      <trkpt lat="45.1844" lon="-72.65178">
        <ele>160.7</ele>
      </trkpt>
      <trkpt lat="45.18463" lon="-72.65174">
        <ele>161.6</ele>
      </trkpt>
      <trkpt lat="45.18473" lon="-72.65169">
        <ele>161.6</ele>
      </trkpt>
      <trkpt lat="45.18505" lon="-72.6516">
        <ele>162.6</ele>
      </trkpt>
      <trkpt lat="45.18546" lon="-72.65155">
        <ele>164.9</ele>
      </trkpt>
      <trkpt lat="45.186315" lon="-72.651505">
        <ele>164.3</ele>
      </trkpt>
      <trkpt lat="45.18717" lon="-72.65146">
        <ele>157.5</ele>
      </trkpt>
      <trkpt lat="45.188025" lon="-72.651415">
        <ele>152.3</ele>
      </trkpt>
      <trkpt lat="45.18888" lon="-72.65137">
        <ele>152</ele>
      </trkpt>
      <trkpt lat="45.189735" lon="-72.651318">
        <ele>153</ele>
      </trkpt>
      <trkpt lat="45.19059" lon="-72.651266">
        <ele>155.1</ele>
      </trkpt>
      <trkpt lat="45.191445" lon="-72.651215">
        <ele>161.7</ele>
      </trkpt>
      <trkpt lat="45.1923" lon="-72.651163">
        <ele>164.1</ele>
      </trkpt>
      <trkpt lat="45.193155" lon="-72.651111">
        <ele>165.2</ele>
      </trkpt>
      <trkpt lat="45.19401" lon="-72.65106">
        <ele>166.5</ele>
      </trkpt>
      <trkpt lat="45.194814" lon="-72.65102">
        <ele>166.3</ele>
      </trkpt>
      <trkpt lat="45.195618" lon="-72.65098">
        <ele>168.4</ele>
      </trkpt>
      <trkpt lat="45.196421" lon="-72.65094">
        <ele>170.3</ele>
      </trkpt>
      <trkpt lat="45.197225" lon="-72.6509">
        <ele>171.7</ele>
      </trkpt>
      <trkpt lat="45.19803" lon="-72.65086">
        <ele>172.5</ele>
      </trkpt>
      <trkpt lat="45.19802" lon="-72.65086">
        <ele>172.5</ele>
      </trkpt>
      <trkpt lat="45.19859" lon="-72.65083">
        <ele>173.3</ele>
      </trkpt>
      <trkpt lat="45.19924" lon="-72.650773">
        <ele>175.2</ele>
      </trkpt>
      <trkpt lat="45.19989" lon="-72.650716">
        <ele>179.7</ele>
      </trkpt>
      <trkpt lat="45.20054" lon="-72.65066">
        <ele>182.8</ele>
      </trkpt>
      <trkpt lat="45.201373" lon="-72.650643">
        <ele>183.5</ele>
      </trkpt>
      <trkpt lat="45.202206" lon="-72.650626">
        <ele>185.3</ele>
      </trkpt>
      <trkpt lat="45.20304" lon="-72.65061">
        <ele>188.4</ele>
      </trkpt>
      <trkpt lat="45.203885" lon="-72.650555">
        <ele>186.4</ele>
      </trkpt>
      <trkpt lat="45.20473" lon="-72.6505">
        <ele>184.7</ele>
      </trkpt>
      <trkpt lat="45.205574" lon="-72.650445">
        <ele>183.2</ele>
      </trkpt>
      <trkpt lat="45.20642" lon="-72.65039">
        <ele>183.4</ele>
      </trkpt>
      <trkpt lat="45.20682" lon="-72.65042">
        <ele>184.4</ele>
      </trkpt>
      <trkpt lat="45.20743" lon="-72.650405">
        <ele>186.4</ele>
      </trkpt>
      <trkpt lat="45.20804" lon="-72.65039">
        <ele>189.3</ele>
      </trkpt>
      <trkpt lat="45.20826" lon="-72.65042">
        <ele>189.7</ele>
      </trkpt>
      <trkpt lat="45.20858" lon="-72.65039">
        <ele>189.9</ele>
      </trkpt>
      <trkpt lat="45.20873" lon="-72.65035">
        <ele>189.7</ele>
      </trkpt>
      <trkpt lat="45.20958" lon="-72.650255">
        <ele>186.8</ele>
      </trkpt>
      <trkpt lat="45.21043" lon="-72.65016">
        <ele>181.2</ele>
      </trkpt>
      <trkpt lat="45.21061" lon="-72.65011">
        <ele>180.8</ele>
      </trkpt>
      <trkpt lat="45.21068" lon="-72.65007">
        <ele>180.3</ele>
      </trkpt>
      <trkpt lat="45.21098" lon="-72.64981">
        <ele>179.3</ele>
      </trkpt>
      <trkpt lat="45.21116" lon="-72.64971">
        <ele>179.3</ele>
      </trkpt>
      <trkpt lat="45.211785" lon="-72.649345">
        <ele>177.3</ele>
      </trkpt>
      <trkpt lat="45.21241" lon="-72.64898">
        <ele>173.8</ele>
      </trkpt>
      <trkpt lat="45.213035" lon="-72.648615">
        <ele>168</ele>
      </trkpt>
      <trkpt lat="45.21366" lon="-72.64825">
        <ele>163.4</ele>
      </trkpt>
      <trkpt lat="45.21365" lon="-72.64825">
        <ele>163.4</ele>
      </trkpt>
      <trkpt lat="45.21422" lon="-72.64793">
        <ele>164</ele>
      </trkpt>
      <trkpt lat="45.214873" lon="-72.647543">
        <ele>168.9</ele>
      </trkpt>
      <trkpt lat="45.215526" lon="-72.647156">
        <ele>174.5</ele>
      </trkpt>
      <trkpt lat="45.21618" lon="-72.64677">
        <ele>181.2</ele>
      </trkpt>
      <trkpt lat="45.216873" lon="-72.64638">
        <ele>185.8</ele>
      </trkpt>
      <trkpt lat="45.217566" lon="-72.64599">
        <ele>187.9</ele>
      </trkpt>
      <trkpt lat="45.21826" lon="-72.6456">
        <ele>190.1</ele>
      </trkpt>
      <trkpt lat="45.21896" lon="-72.64524">
        <ele>191.9</ele>
      </trkpt>
      <trkpt lat="45.21966" lon="-72.64488">
        <ele>193.2</ele>
      </trkpt>
      <trkpt lat="45.22036" lon="-72.64452">
        <ele>197.7</ele>
      </trkpt>
      <trkpt lat="45.221066" lon="-72.64417">
        <ele>202.2</ele>
      </trkpt>
      <trkpt lat="45.221773" lon="-72.64382">
        <ele>209.7</ele>
      </trkpt>
      <trkpt lat="45.22248" lon="-72.64347">
        <ele>214.7</ele>
      </trkpt>
      <trkpt lat="45.22267" lon="-72.64242">
        <ele>213.5</ele>
      </trkpt>
      <trkpt lat="45.2228" lon="-72.6418">
        <ele>215.4</ele>
      </trkpt>
      <trkpt lat="45.22293" lon="-72.6413">
        <ele>218.8</ele>
      </trkpt>
      <trkpt lat="45.22315" lon="-72.64071">
        <ele>223.4</ele>
      </trkpt>
      <trkpt lat="45.22329" lon="-72.64041">
        <ele>224.1</ele>
      </trkpt>
      <trkpt lat="45.22386" lon="-72.63952">
        <ele>228.5</ele>
      </trkpt>
      <trkpt lat="45.22433" lon="-72.638885">
        <ele>227.1</ele>
      </trkpt>
      <trkpt lat="45.2248" lon="-72.63825">
        <ele>228.3</ele>
      </trkpt>
      <trkpt lat="45.22488" lon="-72.63812">
        <ele>228.3</ele>
      </trkpt>
      <trkpt lat="45.22497" lon="-72.63781">
        <ele>227.4</ele>
      </trkpt>
      <trkpt lat="45.22498" lon="-72.63771">
        <ele>227.4</ele>
      </trkpt>
      <trkpt lat="45.22498" lon="-72.63772">
        <ele>227.4</ele>
      </trkpt>
      <trkpt lat="45.22498" lon="-72.63699">
        <ele>226</ele>
      </trkpt>
      <trkpt lat="45.22495" lon="-72.636234">
        <ele>225.2</ele>
      </trkpt>
      <trkpt lat="45.22492" lon="-72.63548">
        <ele>225</ele>
      </trkpt>
      <trkpt lat="45.224855" lon="-72.634269">
        <ele>223.5</ele>
      </trkpt>
      <trkpt lat="45.22479" lon="-72.63306">
        <ele>222.6</ele>
      </trkpt>
      <trkpt lat="45.22477" lon="-72.632415">
        <ele>222.5</ele>
      </trkpt>
      <trkpt lat="45.22475" lon="-72.63177">
        <ele>221.3</ele>
      </trkpt>
      <trkpt lat="45.224711" lon="-72.630671">
        <ele>218.4</ele>
      </trkpt>
      <trkpt lat="45.224673" lon="-72.629573">
        <ele>219.2</ele>
      </trkpt>
      <trkpt lat="45.224635" lon="-72.628474">
        <ele>218.3</ele>
      </trkpt>
      <trkpt lat="45.224596" lon="-72.627376">
        <ele>217.4</ele>
      </trkpt>
      <trkpt lat="45.224558" lon="-72.626278">
        <ele>215.7</ele>
      </trkpt>
      <trkpt lat="45.22452" lon="-72.62518">
        <ele>214.1</ele>
      </trkpt>
      <trkpt lat="45.224466" lon="-72.623966">
        <ele>214.6</ele>
      </trkpt>
      <trkpt lat="45.224413" lon="-72.622753">
        <ele>215.4</ele>
      </trkpt>
      <trkpt lat="45.22436" lon="-72.621539">
        <ele>217</ele>
      </trkpt>
      <trkpt lat="45.224306" lon="-72.620326">
        <ele>216.6</ele>
      </trkpt>
      <trkpt lat="45.224253" lon="-72.619113">
        <ele>214.5</ele>
      </trkpt>
      <trkpt lat="45.2242" lon="-72.617899">
        <ele>214.3</ele>
      </trkpt>
      <trkpt lat="45.224147" lon="-72.616686">
        <ele>217.2</ele>
      </trkpt>
      <trkpt lat="45.224093" lon="-72.615473">
        <ele>216</ele>
      </trkpt>
      <trkpt lat="45.22404" lon="-72.614259">
        <ele>214.6</ele>
      </trkpt>
      <trkpt lat="45.223986" lon="-72.613046">
        <ele>213.9</ele>
      </trkpt>
      <trkpt lat="45.223933" lon="-72.611833">
        <ele>210.6</ele>
      </trkpt>
      <trkpt lat="45.22388" lon="-72.610619">
        <ele>209.3</ele>
      </trkpt>
      <trkpt lat="45.223826" lon="-72.609406">
        <ele>208.8</ele>
      </trkpt>
      <trkpt lat="45.223773" lon="-72.608193">
        <ele>210.5</ele>
      </trkpt>
      <trkpt lat="45.22372" lon="-72.60698">
        <ele>213.5</ele>
      </trkpt>
      <trkpt lat="45.223665" lon="-72.605897">
        <ele>215.3</ele>
      </trkpt>
      <trkpt lat="45.22361" lon="-72.604814">
        <ele>212.2</ele>
      </trkpt>
      <trkpt lat="45.223555" lon="-72.603732">
        <ele>210.4</ele>
      </trkpt>
      <trkpt lat="45.2235" lon="-72.60265">
        <ele>210.2</ele>
      </trkpt>
      <trkpt lat="45.22344" lon="-72.601476">
        <ele>212.3</ele>
      </trkpt>
      <trkpt lat="45.22338" lon="-72.600303">
        <ele>217.6</ele>
      </trkpt>
      <trkpt lat="45.22332" lon="-72.59913">
        <ele>221</ele>
      </trkpt>
      <trkpt lat="45.22328" lon="-72.597925">
        <ele>221.3</ele>
      </trkpt>
      <trkpt lat="45.22324" lon="-72.596721">
        <ele>219.7</ele>
      </trkpt>
      <trkpt lat="45.2232" lon="-72.595516">
        <ele>218.1</ele>
      </trkpt>
      <trkpt lat="45.22316" lon="-72.594312">
        <ele>216.9</ele>
      </trkpt>
      <trkpt lat="45.22312" lon="-72.593107">
        <ele>213.2</ele>
      </trkpt>
      <trkpt lat="45.22308" lon="-72.591903">
        <ele>211</ele>
      </trkpt>
      <trkpt lat="45.22304" lon="-72.590698">
        <ele>208.3</ele>
      </trkpt>
      <trkpt lat="45.223" lon="-72.589494">
        <ele>204.7</ele>
      </trkpt>
      <trkpt lat="45.22296" lon="-72.588289">
        <ele>201.2</ele>
      </trkpt>
      <trkpt lat="45.22292" lon="-72.587085">
        <ele>200.4</ele>
      </trkpt>
      <trkpt lat="45.22288" lon="-72.585881">
        <ele>202.3</ele>
      </trkpt>
      <trkpt lat="45.22284" lon="-72.584676">
        <ele>205</ele>
      </trkpt>
      <trkpt lat="45.2228" lon="-72.583472">
        <ele>208.1</ele>
      </trkpt>
      <trkpt lat="45.22276" lon="-72.582267">
        <ele>214.3</ele>
      </trkpt>
      <trkpt lat="45.22272" lon="-72.581063">
        <ele>217.6</ele>
      </trkpt>
      <trkpt lat="45.22268" lon="-72.579858">
        <ele>221.9</ele>
      </trkpt>
      <trkpt lat="45.22264" lon="-72.578654">
        <ele>226.9</ele>
      </trkpt>
      <trkpt lat="45.2226" lon="-72.57745">
        <ele>232.7</ele>
      </trkpt>
      <trkpt lat="45.222595" lon="-72.576669">
        <ele>238</ele>
      </trkpt>
      <trkpt lat="45.22259" lon="-72.57589">
        <ele>244.9</ele>
      </trkpt>
      <trkpt lat="45.222605" lon="-72.574731">
        <ele>252.9</ele>
      </trkpt>
      <trkpt lat="45.22262" lon="-72.573572">
        <ele>260.1</ele>
      </trkpt>
      <trkpt lat="45.222635" lon="-72.572413">
        <ele>267.8</ele>
      </trkpt>
      <trkpt lat="45.22265" lon="-72.571255">
        <ele>274.4</ele>
      </trkpt>
      <trkpt lat="45.222665" lon="-72.570096">
        <ele>281</ele>
      </trkpt>
      <trkpt lat="45.22268" lon="-72.568937">
        <ele>284</ele>
      </trkpt>
      <trkpt lat="45.222695" lon="-72.567778">
        <ele>286.9</ele>
      </trkpt>
      <trkpt lat="45.22271" lon="-72.56662">
        <ele>287.7</ele>
      </trkpt>
      <trkpt lat="45.222731" lon="-72.565508">
        <ele>281.8</ele>
      </trkpt>
      <trkpt lat="45.222753" lon="-72.564396">
        <ele>273.2</ele>
      </trkpt>
      <trkpt lat="45.222775" lon="-72.563285">
        <ele>267.2</ele>
      </trkpt>
      <trkpt lat="45.222796" lon="-72.562173">
        <ele>264.3</ele>
      </trkpt>
      <trkpt lat="45.222818" lon="-72.561061">
        <ele>259.9</ele>
      </trkpt>
      <trkpt lat="45.22284" lon="-72.55995">
        <ele>257.4</ele>
      </trkpt>
      <trkpt lat="45.22283" lon="-72.559055">
        <ele>259.4</ele>
      </trkpt>
      <trkpt lat="45.22282" lon="-72.55816">
        <ele>265.9</ele>
      </trkpt>
      <trkpt lat="45.22287" lon="-72.55762">
        <ele>268.3</ele>
      </trkpt>
      <trkpt lat="45.22288" lon="-72.55695">
        <ele>270.3</ele>
      </trkpt>
      <trkpt lat="45.222864" lon="-72.555911">
        <ele>272.5</ele>
      </trkpt>
      <trkpt lat="45.222848" lon="-72.554873">
        <ele>275.8</ele>
      </trkpt>
      <trkpt lat="45.222832" lon="-72.553835">
        <ele>277.2</ele>
      </trkpt>
      <trkpt lat="45.222816" lon="-72.552797">
        <ele>275.2</ele>
      </trkpt>
      <trkpt lat="45.2228" lon="-72.55176">
        <ele>273.4</ele>
      </trkpt>
      <trkpt lat="45.222755" lon="-72.551114">
        <ele>267.6</ele>
      </trkpt>
      <trkpt lat="45.22271" lon="-72.55047">
        <ele>262.6</ele>
      </trkpt>
      <trkpt lat="45.222693" lon="-72.549323">
        <ele>258.4</ele>
      </trkpt>
      <trkpt lat="45.222676" lon="-72.548176">
        <ele>254.9</ele>
      </trkpt>
      <trkpt lat="45.22266" lon="-72.54703">
        <ele>252.9</ele>
      </trkpt>
      <trkpt lat="45.22263" lon="-72.545839">
        <ele>255.5</ele>
      </trkpt>
      <trkpt lat="45.2226" lon="-72.54465">
        <ele>254.3</ele>
      </trkpt>
      <trkpt lat="45.22258" lon="-72.54459">
        <ele>254.3</ele>
      </trkpt>
      <trkpt lat="45.22242" lon="-72.54426">
        <ele>252</ele>
      </trkpt>
      <trkpt lat="45.22198" lon="-72.543529">
        <ele>247.9</ele>
      </trkpt>
      <trkpt lat="45.22154" lon="-72.5428">
        <ele>244.5</ele>
      </trkpt>
      <trkpt lat="45.22139" lon="-72.5424">
        <ele>242.6</ele>
      </trkpt>
      <trkpt lat="45.22136" lon="-72.54209">
        <ele>239.7</ele>
      </trkpt>
      <trkpt lat="45.22141" lon="-72.54174">
        <ele>238.8</ele>
      </trkpt>
      <trkpt lat="45.22148" lon="-72.54159">
        <ele>236.9</ele>
      </trkpt>
      <trkpt lat="45.22159" lon="-72.54145">
        <ele>234.5</ele>
      </trkpt>
      <trkpt lat="45.22193" lon="-72.5411">
        <ele>231.9</ele>
      </trkpt>
      <trkpt lat="45.22203" lon="-72.54096">
        <ele>230.1</ele>
      </trkpt>
      <trkpt lat="45.22232" lon="-72.54042">
        <ele>225.8</ele>
      </trkpt>
      <trkpt lat="45.22248" lon="-72.54007">
        <ele>222.9</ele>
      </trkpt>
      <trkpt lat="45.22259" lon="-72.53977">
        <ele>220.2</ele>
      </trkpt>
      <trkpt lat="45.22263" lon="-72.53954">
        <ele>217.7</ele>
      </trkpt>
      <trkpt lat="45.22247" lon="-72.53882">
        <ele>213.2</ele>
      </trkpt>
      <trkpt lat="45.222426" lon="-72.537866">
        <ele>211.7</ele>
      </trkpt>
      <trkpt lat="45.222383" lon="-72.536913">
        <ele>205.8</ele>
      </trkpt>
      <trkpt lat="45.22234" lon="-72.53596">
        <ele>200.2</ele>
      </trkpt>
      <trkpt lat="45.222325" lon="-72.534969">
        <ele>199.8</ele>
      </trkpt>
      <trkpt lat="45.22231" lon="-72.53398">
        <ele>200.6</ele>
      </trkpt>
      <trkpt lat="45.22234" lon="-72.5331">
        <ele>202.1</ele>
      </trkpt>
    </trkseg>
  </trk>
</gpx>