<?xml version='1.0' encoding='utf-8'?>
<gpx xmlns="http://www.topografix.com/GPX/1/1" xmlns:xsi="http://www.w3.org/2001/XMLSchema-instance" version="1.1" creator="Gravelle Estrie" xsi:schemaLocation="http://www.topografix.com/GPX/1/1 http://www.topografix.com/GPX/1/1/gpx.xsd">
  <metadata>
    <name>circuit #3     70km/1100MD+</name>
  </metadata>
  <trk>
    <name>circuit #3     70km/1100MD+</name>
    <trkseg>
      <trkpt lat="45.27052" lon="-72.67136">
        <ele>136.6</ele>
      </trkpt>
      <trkpt lat="45.270985" lon="-72.671819">
        <ele>136.9</ele>
      </trkpt>
      <trkpt lat="45.27145" lon="-72.67228">
        <ele>137.7</ele>
      </trkpt>
      <trkpt lat="45.27176" lon="-72.67264">
        <ele>138.9</ele>
      </trkpt>
      <trkpt lat="45.27226" lon="-72.67336">
        <ele>142.5</ele>
      </trkpt>
      <trkpt lat="45.27244" lon="-72.67384">
        <ele>143.9</ele>
      </trkpt>
      <trkpt lat="45.2718" lon="-72.67407">
        <ele>142.7</ele>
      </trkpt>
      <trkpt lat="45.27116" lon="-72.6743">
        <ele>142.4</ele>
      </trkpt>
      <trkpt lat="45.27064" lon="-72.67442">
        <ele>144</ele>
      </trkpt>
      <trkpt lat="45.27063" lon="-72.67442">
        <ele>144</ele>
      </trkpt>
      <trkpt lat="45.27" lon="-72.67456">
        <ele>145.7</ele>
      </trkpt>
      <trkpt lat="45.26921" lon="-72.67492">
        <ele>146.6</ele>
      </trkpt>
      <trkpt lat="45.26865" lon="-72.67523">
        <ele>145.8</ele>
      </trkpt>
      <trkpt lat="45.26797" lon="-72.67578">
        <ele>138.5</ele>
      </trkpt>
      <trkpt lat="45.26768" lon="-72.67617">
        <ele>136.6</ele>
      </trkpt>
      <trkpt lat="45.26723" lon="-72.67658">
        <ele>135.9</ele>
      </trkpt>
      <trkpt lat="45.26646" lon="-72.67702">
        <ele>136.5</ele>
      </trkpt>
      <trkpt lat="45.2662" lon="-72.67725">
        <ele>137.3</ele>
      </trkpt>
      <trkpt lat="45.26587" lon="-72.6777">
        <ele>137.7</ele>
      </trkpt>
      <trkpt lat="45.2656" lon="-72.67819">
        <ele>138.5</ele>
      </trkpt>
      <trkpt lat="45.26516" lon="-72.67917">
        <ele>137.1</ele>
      </trkpt>
      <trkpt lat="45.26498" lon="-72.679955">
        <ele>137.4</ele>
      </trkpt>
      <trkpt lat="45.2648" lon="-72.68074">
        <ele>136.2</ele>
      </trkpt>
      <trkpt lat="45.26461" lon="-72.681365">
        <ele>135.8</ele>
      </trkpt>
      <trkpt lat="45.26442" lon="-72.68199">
        <ele>136.3</ele>
      </trkpt>
      <trkpt lat="45.26432" lon="-72.68271">
        <ele>137.8</ele>
      </trkpt>
      <trkpt lat="45.26428" lon="-72.68337">
        <ele>137.8</ele>
      </trkpt>
      <trkpt lat="45.26424" lon="-72.68403">
        <ele>136.6</ele>
      </trkpt>
      <trkpt lat="45.264205" lon="-72.684725">
        <ele>137.2</ele>
      </trkpt>
      <trkpt lat="45.26417" lon="-72.68542">
        <ele>138.4</ele>
      </trkpt>
      <trkpt lat="45.26413" lon="-72.68602">
        <ele>139.1</ele>
      </trkpt>
      <trkpt lat="45.26405" lon="-72.68679">
        <ele>138.8</ele>
      </trkpt>
      <trkpt lat="45.26393" lon="-72.68751">
        <ele>137.6</ele>
      </trkpt>
      <trkpt lat="45.26393" lon="-72.68752">
        <ele>137.6</ele>
      </trkpt>
      <trkpt lat="45.26374" lon="-72.68858">
        <ele>134.7</ele>
      </trkpt>
      <trkpt lat="45.26349" lon="-72.6895">
        <ele>135.4</ele>
      </trkpt>
      <trkpt lat="45.26331" lon="-72.690115">
        <ele>133.5</ele>
      </trkpt>
      <trkpt lat="45.26313" lon="-72.69073">
        <ele>132.6</ele>
      </trkpt>
      <trkpt lat="45.26298" lon="-72.69117">
        <ele>131.6</ele>
      </trkpt>
      <trkpt lat="45.26277" lon="-72.69162">
        <ele>130.3</ele>
      </trkpt>
      <trkpt lat="45.26255" lon="-72.69195">
        <ele>128.9</ele>
      </trkpt>
      <trkpt lat="45.26261" lon="-72.69211">
        <ele>129.4</ele>
      </trkpt>
      <trkpt lat="45.2626" lon="-72.69226">
        <ele>130.3</ele>
      </trkpt>
      <trkpt lat="45.26226" lon="-72.69328">
        <ele>130.6</ele>
      </trkpt>
      <trkpt lat="45.2621" lon="-72.69403">
        <ele>130.7</ele>
      </trkpt>
      <trkpt lat="45.26207" lon="-72.69448">
        <ele>131.1</ele>
      </trkpt>
      <trkpt lat="45.26194" lon="-72.69511">
        <ele>130.1</ele>
      </trkpt>
      <trkpt lat="45.26178" lon="-72.6957">
        <ele>128.9</ele>
      </trkpt>
      <trkpt lat="45.26178" lon="-72.69571">
        <ele>128.8</ele>
      </trkpt>
      <trkpt lat="45.26165" lon="-72.6962">
        <ele>126.6</ele>
      </trkpt>
      <trkpt lat="45.26151" lon="-72.69699">
        <ele>123</ele>
      </trkpt>
      <trkpt lat="45.26144" lon="-72.69718">
        <ele>121.2</ele>
      </trkpt>
      <trkpt lat="45.26127" lon="-72.697985">
        <ele>118.8</ele>
      </trkpt>
      <trkpt lat="45.2611" lon="-72.69879">
        <ele>117.5</ele>
      </trkpt>
      <trkpt lat="45.26091" lon="-72.69991">
        <ele>115.7</ele>
      </trkpt>
      <trkpt lat="45.26094" lon="-72.70031">
        <ele>115.9</ele>
      </trkpt>
      <trkpt lat="45.26123" lon="-72.70143">
        <ele>122.8</ele>
      </trkpt>
      <trkpt lat="45.261405" lon="-72.702209">
        <ele>126.3</ele>
      </trkpt>
      <trkpt lat="45.26158" lon="-72.70299">
        <ele>126.5</ele>
      </trkpt>
      <trkpt lat="45.26163" lon="-72.70316">
        <ele>126.8</ele>
      </trkpt>
      <trkpt lat="45.26194" lon="-72.70365">
        <ele>128.8</ele>
      </trkpt>
      <trkpt lat="45.262365" lon="-72.704039">
        <ele>134.7</ele>
      </trkpt>
      <trkpt lat="45.26279" lon="-72.70443">
        <ele>137.4</ele>
      </trkpt>
      <trkpt lat="45.2635" lon="-72.70483">
        <ele>142.3</ele>
      </trkpt>
      <trkpt lat="45.26397" lon="-72.70536">
        <ele>143.2</ele>
      </trkpt>
      <trkpt lat="45.26423" lon="-72.70568">
        <ele>143.3</ele>
      </trkpt>
      <trkpt lat="45.26451" lon="-72.70654">
        <ele>142.1</ele>
      </trkpt>
      <trkpt lat="45.26466" lon="-72.707389">
        <ele>140</ele>
      </trkpt>
      <trkpt lat="45.26481" lon="-72.70824">
        <ele>138.3</ele>
      </trkpt>
      <trkpt lat="45.26482" lon="-72.708929">
        <ele>133.1</ele>
      </trkpt>
      <trkpt lat="45.26483" lon="-72.70962">
        <ele>124.3</ele>
      </trkpt>
      <trkpt lat="45.26491" lon="-72.71015">
        <ele>119.7</ele>
      </trkpt>
      <trkpt lat="45.26518" lon="-72.71096">
        <ele>114</ele>
      </trkpt>
      <trkpt lat="45.26537" lon="-72.71199">
        <ele>114.7</ele>
      </trkpt>
      <trkpt lat="45.26548" lon="-72.713194">
        <ele>119.1</ele>
      </trkpt>
      <trkpt lat="45.26559" lon="-72.7144">
        <ele>123.9</ele>
      </trkpt>
      <trkpt lat="45.264949" lon="-72.714379">
        <ele>119.6</ele>
      </trkpt>
      <trkpt lat="45.26431" lon="-72.71436">
        <ele>115.2</ele>
      </trkpt>
      <trkpt lat="45.26359" lon="-72.71424">
        <ele>111.9</ele>
      </trkpt>
      <trkpt lat="45.262875" lon="-72.714144">
        <ele>108.6</ele>
      </trkpt>
      <trkpt lat="45.26216" lon="-72.71405">
        <ele>107.6</ele>
      </trkpt>
      <trkpt lat="45.26152" lon="-72.71396">
        <ele>108.3</ele>
      </trkpt>
      <trkpt lat="45.260965" lon="-72.71396">
        <ele>108.5</ele>
      </trkpt>
      <trkpt lat="45.26041" lon="-72.71396">
        <ele>108.3</ele>
      </trkpt>
      <trkpt lat="45.259805" lon="-72.71405">
        <ele>106.7</ele>
      </trkpt>
      <trkpt lat="45.2592" lon="-72.71414">
        <ele>102.9</ele>
      </trkpt>
      <trkpt lat="45.258386" lon="-72.714333">
        <ele>101.4</ele>
      </trkpt>
      <trkpt lat="45.257573" lon="-72.714526">
        <ele>101.1</ele>
      </trkpt>
      <trkpt lat="45.25676" lon="-72.71472">
        <ele>101.9</ele>
      </trkpt>
      <trkpt lat="45.25596" lon="-72.71476">
        <ele>105.4</ele>
      </trkpt>
      <trkpt lat="45.25534" lon="-72.71472">
        <ele>107.5</ele>
      </trkpt>
      <trkpt lat="45.25469" lon="-72.71457">
        <ele>110.8</ele>
      </trkpt>
      <trkpt lat="45.254575" lon="-72.715235">
        <ele>110.2</ele>
      </trkpt>
      <trkpt lat="45.25446" lon="-72.7159">
        <ele>108.5</ele>
      </trkpt>
      <trkpt lat="45.25442" lon="-72.71652">
        <ele>104.3</ele>
      </trkpt>
      <trkpt lat="45.25441" lon="-72.71749">
        <ele>102.8</ele>
      </trkpt>
      <trkpt lat="45.254461" lon="-72.718586">
        <ele>103.6</ele>
      </trkpt>
      <trkpt lat="45.254513" lon="-72.719683">
        <ele>106.6</ele>
      </trkpt>
      <trkpt lat="45.254565" lon="-72.720779">
        <ele>109.7</ele>
      </trkpt>
      <trkpt lat="45.254616" lon="-72.721876">
        <ele>112.6</ele>
      </trkpt>
      <trkpt lat="45.254668" lon="-72.722973">
        <ele>113.7</ele>
      </trkpt>
      <trkpt lat="45.25472" lon="-72.72407">
        <ele>112.8</ele>
      </trkpt>
      <trkpt lat="45.254764" lon="-72.725203">
        <ele>111.7</ele>
      </trkpt>
      <trkpt lat="45.254808" lon="-72.726337">
        <ele>110.4</ele>
      </trkpt>
      <trkpt lat="45.254852" lon="-72.727471">
        <ele>110.8</ele>
      </trkpt>
      <trkpt lat="45.254896" lon="-72.728605">
        <ele>111.1</ele>
      </trkpt>
      <trkpt lat="45.25494" lon="-72.72974">
        <ele>114.3</ele>
      </trkpt>
      <trkpt lat="45.25495" lon="-72.73065">
        <ele>116.9</ele>
      </trkpt>
      <trkpt lat="45.255" lon="-72.73173">
        <ele>121.3</ele>
      </trkpt>
      <trkpt lat="45.25505" lon="-72.73272">
        <ele>126.2</ele>
      </trkpt>
      <trkpt lat="45.25514" lon="-72.73339">
        <ele>127.4</ele>
      </trkpt>
      <trkpt lat="45.2553" lon="-72.73388">
        <ele>127.1</ele>
      </trkpt>
      <trkpt lat="45.25548" lon="-72.73433">
        <ele>126.6</ele>
      </trkpt>
      <trkpt lat="45.25578" lon="-72.73541">
        <ele>124.9</ele>
      </trkpt>
      <trkpt lat="45.25596" lon="-72.7359">
        <ele>124</ele>
      </trkpt>
      <trkpt lat="45.256276" lon="-72.736629">
        <ele>119.5</ele>
      </trkpt>
      <trkpt lat="45.256593" lon="-72.737359">
        <ele>116.9</ele>
      </trkpt>
      <trkpt lat="45.25691" lon="-72.73809">
        <ele>115.1</ele>
      </trkpt>
      <trkpt lat="45.25719" lon="-72.738674">
        <ele>113.3</ele>
      </trkpt>
      <trkpt lat="45.25747" lon="-72.73926">
        <ele>111.8</ele>
      </trkpt>
      <trkpt lat="45.25772" lon="-72.73967">
        <ele>110.6</ele>
      </trkpt>
      <trkpt lat="45.25816" lon="-72.740354">
        <ele>107.3</ele>
      </trkpt>
      <trkpt lat="45.2586" lon="-72.74104">
        <ele>103.9</ele>
      </trkpt>
      <trkpt lat="45.259138" lon="-72.741831">
        <ele>100.8</ele>
      </trkpt>
      <trkpt lat="45.259676" lon="-72.742623">
        <ele>100.1</ele>
      </trkpt>
      <trkpt lat="45.260214" lon="-72.743415">
        <ele>99.8</ele>
      </trkpt>
      <trkpt lat="45.260752" lon="-72.744207">
        <ele>99.8</ele>
      </trkpt>
      <trkpt lat="45.26129" lon="-72.745">
        <ele>99.7</ele>
      </trkpt>
      <trkpt lat="45.26163" lon="-72.74543">
        <ele>99.9</ele>
      </trkpt>
      <trkpt lat="45.262" lon="-72.74583">
        <ele>100.8</ele>
      </trkpt>
      <trkpt lat="45.262535" lon="-72.746349">
        <ele>101.1</ele>
      </trkpt>
      <trkpt lat="45.26307" lon="-72.74687">
        <ele>102</ele>
      </trkpt>
      <trkpt lat="45.26372" lon="-72.747539">
        <ele>102.8</ele>
      </trkpt>
      <trkpt lat="45.26437" lon="-72.74821">
        <ele>103.6</ele>
      </trkpt>
      <trkpt lat="45.264866" lon="-72.748736">
        <ele>103</ele>
      </trkpt>
      <trkpt lat="45.265363" lon="-72.749263">
        <ele>101.6</ele>
      </trkpt>
      <trkpt lat="45.26586" lon="-72.74979">
        <ele>101.2</ele>
      </trkpt>
      <trkpt lat="45.26613" lon="-72.75">
        <ele>101.2</ele>
      </trkpt>
      <trkpt lat="45.26636" lon="-72.75011">
        <ele>101.3</ele>
      </trkpt>
      <trkpt lat="45.267023" lon="-72.750323">
        <ele>102</ele>
      </trkpt>
      <trkpt lat="45.267686" lon="-72.750536">
        <ele>102.5</ele>
      </trkpt>
      <trkpt lat="45.26835" lon="-72.75075">
        <ele>102.6</ele>
      </trkpt>
      <trkpt lat="45.26897" lon="-72.750963">
        <ele>101.7</ele>
      </trkpt>
      <trkpt lat="45.26959" lon="-72.751176">
        <ele>101.5</ele>
      </trkpt>
      <trkpt lat="45.27021" lon="-72.75139">
        <ele>101.2</ele>
      </trkpt>
      <trkpt lat="45.270237" lon="-72.752529">
        <ele>101.6</ele>
      </trkpt>
      <trkpt lat="45.270265" lon="-72.753669">
        <ele>102.6</ele>
      </trkpt>
      <trkpt lat="45.270292" lon="-72.754809">
        <ele>103.2</ele>
      </trkpt>
      <trkpt lat="45.27032" lon="-72.75595">
        <ele>104.3</ele>
      </trkpt>
      <trkpt lat="45.270333" lon="-72.757083">
        <ele>103.4</ele>
      </trkpt>
      <trkpt lat="45.270347" lon="-72.758217">
        <ele>102.5</ele>
      </trkpt>
      <trkpt lat="45.270361" lon="-72.759351">
        <ele>101.8</ele>
      </trkpt>
      <trkpt lat="45.270375" lon="-72.760484">
        <ele>102</ele>
      </trkpt>
      <trkpt lat="45.270388" lon="-72.761618">
        <ele>103</ele>
      </trkpt>
      <trkpt lat="45.270402" lon="-72.762752">
        <ele>103.7</ele>
      </trkpt>
      <trkpt lat="45.270416" lon="-72.763886">
        <ele>104.1</ele>
      </trkpt>
      <trkpt lat="45.27043" lon="-72.76502">
        <ele>105.9</ele>
      </trkpt>
      <trkpt lat="45.269563" lon="-72.765036">
        <ele>105.2</ele>
      </trkpt>
      <trkpt lat="45.268696" lon="-72.765053">
        <ele>105.8</ele>
      </trkpt>
      <trkpt lat="45.26783" lon="-72.76507">
        <ele>106.8</ele>
      </trkpt>
      <trkpt lat="45.26727" lon="-72.76509">
        <ele>105.8</ele>
      </trkpt>
      <trkpt lat="45.26726" lon="-72.76509">
        <ele>105.8</ele>
      </trkpt>
      <trkpt lat="45.266466" lon="-72.765123">
        <ele>105.9</ele>
      </trkpt>
      <trkpt lat="45.265673" lon="-72.765156">
        <ele>106.5</ele>
      </trkpt>
      <trkpt lat="45.26488" lon="-72.76519">
        <ele>106.9</ele>
      </trkpt>
      <trkpt lat="45.264086" lon="-72.765223">
        <ele>107.6</ele>
      </trkpt>
      <trkpt lat="45.263293" lon="-72.765256">
        <ele>107.9</ele>
      </trkpt>
      <trkpt lat="45.2625" lon="-72.76529">
        <ele>110.2</ele>
      </trkpt>
      <trkpt lat="45.26224" lon="-72.76531">
        <ele>110.6</ele>
      </trkpt>
      <trkpt lat="45.26188" lon="-72.76536">
        <ele>113.2</ele>
      </trkpt>
      <trkpt lat="45.261263" lon="-72.765373">
        <ele>115.9</ele>
      </trkpt>
      <trkpt lat="45.260646" lon="-72.765386">
        <ele>118</ele>
      </trkpt>
      <trkpt lat="45.26003" lon="-72.7654">
        <ele>118.3</ele>
      </trkpt>
      <trkpt lat="45.25925" lon="-72.76543">
        <ele>118.7</ele>
      </trkpt>
      <trkpt lat="45.25847" lon="-72.76546">
        <ele>118.9</ele>
      </trkpt>
      <trkpt lat="45.25769" lon="-72.76549">
        <ele>118.7</ele>
      </trkpt>
      <trkpt lat="45.25691" lon="-72.76552">
        <ele>118.9</ele>
      </trkpt>
      <trkpt lat="45.25613" lon="-72.76555">
        <ele>118.6</ele>
      </trkpt>
      <trkpt lat="45.25535" lon="-72.76558">
        <ele>123.1</ele>
      </trkpt>
      <trkpt lat="45.254546" lon="-72.765601">
        <ele>125.1</ele>
      </trkpt>
      <trkpt lat="45.253743" lon="-72.765623">
        <ele>126.1</ele>
      </trkpt>
      <trkpt lat="45.25294" lon="-72.765645">
        <ele>128.1</ele>
      </trkpt>
      <trkpt lat="45.252136" lon="-72.765666">
        <ele>128.7</ele>
      </trkpt>
      <trkpt lat="45.251333" lon="-72.765688">
        <ele>128.8</ele>
      </trkpt>
      <trkpt lat="45.25053" lon="-72.76571">
        <ele>128.4</ele>
      </trkpt>
      <trkpt lat="45.24983" lon="-72.76574">
        <ele>128.7</ele>
      </trkpt>
      <trkpt lat="45.24913" lon="-72.76577">
        <ele>129.9</ele>
      </trkpt>
      <trkpt lat="45.24843" lon="-72.7658">
        <ele>130.3</ele>
      </trkpt>
      <trkpt lat="45.24766" lon="-72.76581">
        <ele>132.8</ele>
      </trkpt>
      <trkpt lat="45.246834" lon="-72.765848">
        <ele>133.3</ele>
      </trkpt>
      <trkpt lat="45.246008" lon="-72.765886">
        <ele>133</ele>
      </trkpt>
      <trkpt lat="45.245182" lon="-72.765924">
        <ele>131.7</ele>
      </trkpt>
      <trkpt lat="45.244356" lon="-72.765962">
        <ele>131.3</ele>
      </trkpt>
      <trkpt lat="45.24353" lon="-72.766">
        <ele>130.9</ele>
      </trkpt>
      <trkpt lat="45.24352" lon="-72.766">
        <ele>130.9</ele>
      </trkpt>
      <trkpt lat="45.24326" lon="-72.76602">
        <ele>130.9</ele>
      </trkpt>
      <trkpt lat="45.24299" lon="-72.76599">
        <ele>130.8</ele>
      </trkpt>
      <trkpt lat="45.242369" lon="-72.766006">
        <ele>130.4</ele>
      </trkpt>
      <trkpt lat="45.241749" lon="-72.766023">
        <ele>130.1</ele>
      </trkpt>
      <trkpt lat="45.24113" lon="-72.76604">
        <ele>129.6</ele>
      </trkpt>
      <trkpt lat="45.241118" lon="-72.764913">
        <ele>128.8</ele>
      </trkpt>
      <trkpt lat="45.241106" lon="-72.763786">
        <ele>129.8</ele>
      </trkpt>
      <trkpt lat="45.241095" lon="-72.762659">
        <ele>129</ele>
      </trkpt>
      <trkpt lat="45.241083" lon="-72.761533">
        <ele>126.4</ele>
      </trkpt>
      <trkpt lat="45.241071" lon="-72.760406">
        <ele>123.6</ele>
      </trkpt>
      <trkpt lat="45.24106" lon="-72.75928">
        <ele>121.2</ele>
      </trkpt>
      <trkpt lat="45.241044" lon="-72.758175">
        <ele>120.3</ele>
      </trkpt>
      <trkpt lat="45.241028" lon="-72.757071">
        <ele>119.7</ele>
      </trkpt>
      <trkpt lat="45.241012" lon="-72.755967">
        <ele>124.3</ele>
      </trkpt>
      <trkpt lat="45.240996" lon="-72.754863">
        <ele>124.6</ele>
      </trkpt>
      <trkpt lat="45.24098" lon="-72.75376">
        <ele>123</ele>
      </trkpt>
      <trkpt lat="45.24096" lon="-72.7534">
        <ele>123.9</ele>
      </trkpt>
      <trkpt lat="45.24086" lon="-72.75249">
        <ele>125.8</ele>
      </trkpt>
      <trkpt lat="45.2408" lon="-72.7517">
        <ele>126.6</ele>
      </trkpt>
      <trkpt lat="45.24079" lon="-72.75116">
        <ele>125.9</ele>
      </trkpt>
      <trkpt lat="45.24092" lon="-72.75041">
        <ele>125.4</ele>
      </trkpt>
      <trkpt lat="45.241135" lon="-72.749535">
        <ele>125.1</ele>
      </trkpt>
      <trkpt lat="45.24135" lon="-72.74866">
        <ele>124</ele>
      </trkpt>
      <trkpt lat="45.241658" lon="-72.747488">
        <ele>122.8</ele>
      </trkpt>
      <trkpt lat="45.241966" lon="-72.746316">
        <ele>121.9</ele>
      </trkpt>
      <trkpt lat="45.242274" lon="-72.745144">
        <ele>118.1</ele>
      </trkpt>
      <trkpt lat="45.242582" lon="-72.743972">
        <ele>114.6</ele>
      </trkpt>
      <trkpt lat="45.24289" lon="-72.7428">
        <ele>110.1</ele>
      </trkpt>
      <trkpt lat="45.24289" lon="-72.74281">
        <ele>110.1</ele>
      </trkpt>
      <trkpt lat="45.243085" lon="-72.74208">
        <ele>109.6</ele>
      </trkpt>
      <trkpt lat="45.24328" lon="-72.74135">
        <ele>110.6</ele>
      </trkpt>
      <trkpt lat="45.24335" lon="-72.74082">
        <ele>111.3</ele>
      </trkpt>
      <trkpt lat="45.24336" lon="-72.74061">
        <ele>111.3</ele>
      </trkpt>
      <trkpt lat="45.243305" lon="-72.739674">
        <ele>112.4</ele>
      </trkpt>
      <trkpt lat="45.24325" lon="-72.73874">
        <ele>112.6</ele>
      </trkpt>
      <trkpt lat="45.243157" lon="-72.737512">
        <ele>107.2</ele>
      </trkpt>
      <trkpt lat="45.243065" lon="-72.736284">
        <ele>103.7</ele>
      </trkpt>
      <trkpt lat="45.242972" lon="-72.735057">
        <ele>103</ele>
      </trkpt>
      <trkpt lat="45.24288" lon="-72.73383">
        <ele>103</ele>
      </trkpt>
      <trkpt lat="45.2428" lon="-72.73326">
        <ele>102.4</ele>
      </trkpt>
      <trkpt lat="45.24273" lon="-72.73298">
        <ele>102</ele>
      </trkpt>
      <trkpt lat="45.24263" lon="-72.73272">
        <ele>101.7</ele>
      </trkpt>
      <trkpt lat="45.24237" lon="-72.73232">
        <ele>101.5</ele>
      </trkpt>
      <trkpt lat="45.241773" lon="-72.731503">
        <ele>101.8</ele>
      </trkpt>
      <trkpt lat="45.241176" lon="-72.730686">
        <ele>101.9</ele>
      </trkpt>
      <trkpt lat="45.24058" lon="-72.72987">
        <ele>102.6</ele>
      </trkpt>
      <trkpt lat="45.240135" lon="-72.729254">
        <ele>104.6</ele>
      </trkpt>
      <trkpt lat="45.23969" lon="-72.72864">
        <ele>108.9</ele>
      </trkpt>
      <trkpt lat="45.239066" lon="-72.727806">
        <ele>116.4</ele>
      </trkpt>
      <trkpt lat="45.238443" lon="-72.726973">
        <ele>118.2</ele>
      </trkpt>
      <trkpt lat="45.23782" lon="-72.72614">
        <ele>116.5</ele>
      </trkpt>
      <trkpt lat="45.23729" lon="-72.725444">
        <ele>119.3</ele>
      </trkpt>
      <trkpt lat="45.23676" lon="-72.724749">
        <ele>123.3</ele>
      </trkpt>
      <trkpt lat="45.23623" lon="-72.724054">
        <ele>125</ele>
      </trkpt>
      <trkpt lat="45.2357" lon="-72.72336">
        <ele>126</ele>
      </trkpt>
      <trkpt lat="45.23552" lon="-72.72309">
        <ele>126.3</ele>
      </trkpt>
      <trkpt lat="45.23543" lon="-72.72283">
        <ele>127.2</ele>
      </trkpt>
      <trkpt lat="45.23538" lon="-72.72261">
        <ele>128.1</ele>
      </trkpt>
      <trkpt lat="45.23527" lon="-72.72136">
        <ele>130.7</ele>
      </trkpt>
      <trkpt lat="45.23521" lon="-72.72082">
        <ele>131.3</ele>
      </trkpt>
      <trkpt lat="45.23518" lon="-72.72071">
        <ele>131.3</ele>
      </trkpt>
      <trkpt lat="45.23481" lon="-72.720024">
        <ele>132.3</ele>
      </trkpt>
      <trkpt lat="45.23444" lon="-72.71934">
        <ele>133.6</ele>
      </trkpt>
      <trkpt lat="45.23422" lon="-72.71901">
        <ele>133</ele>
      </trkpt>
      <trkpt lat="45.23403" lon="-72.71884">
        <ele>131.6</ele>
      </trkpt>
      <trkpt lat="45.23346" lon="-72.718406">
        <ele>129.9</ele>
      </trkpt>
      <trkpt lat="45.23289" lon="-72.717973">
        <ele>128.2</ele>
      </trkpt>
      <trkpt lat="45.23232" lon="-72.71754">
        <ele>126</ele>
      </trkpt>
      <trkpt lat="45.23217" lon="-72.7174">
        <ele>125.6</ele>
      </trkpt>
      <trkpt lat="45.23205" lon="-72.71722">
        <ele>125.3</ele>
      </trkpt>
      <trkpt lat="45.23167" lon="-72.71624">
        <ele>123.5</ele>
      </trkpt>
      <trkpt lat="45.23122" lon="-72.71526">
        <ele>120.9</ele>
      </trkpt>
      <trkpt lat="45.2311" lon="-72.7149">
        <ele>119.3</ele>
      </trkpt>
      <trkpt lat="45.23103" lon="-72.71459">
        <ele>118.6</ele>
      </trkpt>
      <trkpt lat="45.23098" lon="-72.71432">
        <ele>118</ele>
      </trkpt>
      <trkpt lat="45.230925" lon="-72.713224">
        <ele>120.4</ele>
      </trkpt>
      <trkpt lat="45.23087" lon="-72.71213">
        <ele>125.6</ele>
      </trkpt>
      <trkpt lat="45.23081" lon="-72.71133">
        <ele>127.3</ele>
      </trkpt>
      <trkpt lat="45.23069" lon="-72.71042">
        <ele>127.7</ele>
      </trkpt>
      <trkpt lat="45.23052" lon="-72.709594">
        <ele>127.2</ele>
      </trkpt>
      <trkpt lat="45.23035" lon="-72.70877">
        <ele>127.4</ele>
      </trkpt>
      <trkpt lat="45.23002" lon="-72.70787">
        <ele>129.1</ele>
      </trkpt>
      <trkpt lat="45.22971" lon="-72.707209">
        <ele>129.4</ele>
      </trkpt>
      <trkpt lat="45.2294" lon="-72.70655">
        <ele>127.5</ele>
      </trkpt>
      <trkpt lat="45.22925" lon="-72.70622">
        <ele>126.5</ele>
      </trkpt>
      <trkpt lat="45.22905" lon="-72.70587">
        <ele>125.4</ele>
      </trkpt>
      <trkpt lat="45.22896" lon="-72.70562">
        <ele>125.1</ele>
      </trkpt>
      <trkpt lat="45.22891" lon="-72.704713">
        <ele>126.2</ele>
      </trkpt>
      <trkpt lat="45.22886" lon="-72.703806">
        <ele>129.5</ele>
      </trkpt>
      <trkpt lat="45.22881" lon="-72.7029">
        <ele>135.3</ele>
      </trkpt>
      <trkpt lat="45.22874" lon="-72.70263">
        <ele>136.5</ele>
      </trkpt>
      <trkpt lat="45.22856" lon="-72.70232">
        <ele>136.4</ele>
      </trkpt>
      <trkpt lat="45.22849" lon="-72.70218">
        <ele>135.3</ele>
      </trkpt>
      <trkpt lat="45.2284" lon="-72.70175">
        <ele>132.7</ele>
      </trkpt>
      <trkpt lat="45.22831" lon="-72.70081">
        <ele>129.4</ele>
      </trkpt>
      <trkpt lat="45.228255" lon="-72.700039">
        <ele>127.9</ele>
      </trkpt>
      <trkpt lat="45.2282" lon="-72.69927">
        <ele>125.4</ele>
      </trkpt>
      <trkpt lat="45.22815" lon="-72.698064">
        <ele>124.4</ele>
      </trkpt>
      <trkpt lat="45.2281" lon="-72.69686">
        <ele>123.5</ele>
      </trkpt>
      <trkpt lat="45.228023" lon="-72.695906">
        <ele>124.2</ele>
      </trkpt>
      <trkpt lat="45.227946" lon="-72.694953">
        <ele>125.1</ele>
      </trkpt>
      <trkpt lat="45.22787" lon="-72.694">
        <ele>126.3</ele>
      </trkpt>
      <trkpt lat="45.2278" lon="-72.692919">
        <ele>123.8</ele>
      </trkpt>
      <trkpt lat="45.22773" lon="-72.69184">
        <ele>119</ele>
      </trkpt>
      <trkpt lat="45.22769" lon="-72.69162">
        <ele>114.3</ele>
      </trkpt>
      <trkpt lat="45.22738" lon="-72.69055">
        <ele>110.4</ele>
      </trkpt>
      <trkpt lat="45.22719" lon="-72.689613">
        <ele>113.9</ele>
      </trkpt>
      <trkpt lat="45.227" lon="-72.688676">
        <ele>116</ele>
      </trkpt>
      <trkpt lat="45.22681" lon="-72.68774">
        <ele>117.5</ele>
      </trkpt>
      <trkpt lat="45.22739" lon="-72.68705">
        <ele>120.6</ele>
      </trkpt>
      <trkpt lat="45.22777" lon="-72.68651">
        <ele>121.2</ele>
      </trkpt>
      <trkpt lat="45.22797" lon="-72.68615">
        <ele>122.6</ele>
      </trkpt>
      <trkpt lat="45.22814" lon="-72.68589">
        <ele>123.2</ele>
      </trkpt>
      <trkpt lat="45.22835" lon="-72.68562">
        <ele>122.8</ele>
      </trkpt>
      <trkpt lat="45.22842" lon="-72.68554">
        <ele>122.8</ele>
      </trkpt>
      <trkpt lat="45.22853" lon="-72.68549">
        <ele>122.7</ele>
      </trkpt>
      <trkpt lat="45.22874" lon="-72.68535">
        <ele>123</ele>
      </trkpt>
      <trkpt lat="45.22909" lon="-72.68521">
        <ele>124.3</ele>
      </trkpt>
      <trkpt lat="45.22938" lon="-72.68495">
        <ele>123.4</ele>
      </trkpt>
      <trkpt lat="45.22969" lon="-72.68454">
        <ele>121.4</ele>
      </trkpt>
      <trkpt lat="45.22998" lon="-72.68406">
        <ele>120.2</ele>
      </trkpt>
      <trkpt lat="45.23034" lon="-72.68343">
        <ele>119.4</ele>
      </trkpt>
      <trkpt lat="45.23044" lon="-72.68329">
        <ele>119.5</ele>
      </trkpt>
      <trkpt lat="45.23064" lon="-72.68289">
        <ele>119.8</ele>
      </trkpt>
      <trkpt lat="45.23069" lon="-72.68275">
        <ele>119.7</ele>
      </trkpt>
      <trkpt lat="45.23075" lon="-72.68239">
        <ele>119.3</ele>
      </trkpt>
      <trkpt lat="45.23097" lon="-72.68141">
        <ele>118.9</ele>
      </trkpt>
      <trkpt lat="45.231253" lon="-72.680483">
        <ele>119.4</ele>
      </trkpt>
      <trkpt lat="45.231536" lon="-72.679556">
        <ele>118.5</ele>
      </trkpt>
      <trkpt lat="45.23182" lon="-72.67863">
        <ele>118.3</ele>
      </trkpt>
      <trkpt lat="45.23213" lon="-72.67775">
        <ele>118.7</ele>
      </trkpt>
      <trkpt lat="45.23237" lon="-72.67698">
        <ele>122.9</ele>
      </trkpt>
      <trkpt lat="45.23241" lon="-72.67658">
        <ele>126.5</ele>
      </trkpt>
      <trkpt lat="45.232575" lon="-72.67566">
        <ele>132.1</ele>
      </trkpt>
      <trkpt lat="45.23274" lon="-72.67474">
        <ele>140.2</ele>
      </trkpt>
      <trkpt lat="45.23287" lon="-72.67416">
        <ele>142.5</ele>
      </trkpt>
      <trkpt lat="45.233" lon="-72.67368">
        <ele>144.2</ele>
      </trkpt>
      <trkpt lat="45.23327" lon="-72.67304">
        <ele>144</ele>
      </trkpt>
      <trkpt lat="45.233545" lon="-72.672505">
        <ele>142.2</ele>
      </trkpt>
      <trkpt lat="45.23382" lon="-72.67197">
        <ele>138.5</ele>
      </trkpt>
      <trkpt lat="45.23409" lon="-72.67125">
        <ele>137.4</ele>
      </trkpt>
      <trkpt lat="45.23415" lon="-72.67103">
        <ele>137.7</ele>
      </trkpt>
      <trkpt lat="45.23428" lon="-72.67035">
        <ele>139.5</ele>
      </trkpt>
      <trkpt lat="45.23442" lon="-72.66927">
        <ele>146.1</ele>
      </trkpt>
      <trkpt lat="45.23445" lon="-72.668475">
        <ele>149.9</ele>
      </trkpt>
      <trkpt lat="45.23448" lon="-72.66768">
        <ele>156.6</ele>
      </trkpt>
      <trkpt lat="45.234555" lon="-72.666805">
        <ele>162.9</ele>
      </trkpt>
      <trkpt lat="45.23463" lon="-72.66593">
        <ele>170.4</ele>
      </trkpt>
      <trkpt lat="45.23467" lon="-72.66566">
        <ele>172.2</ele>
      </trkpt>
      <trkpt lat="45.23487" lon="-72.66493">
        <ele>175.2</ele>
      </trkpt>
      <trkpt lat="45.23495" lon="-72.66445">
        <ele>178.4</ele>
      </trkpt>
      <trkpt lat="45.23507" lon="-72.66396">
        <ele>182</ele>
      </trkpt>
      <trkpt lat="45.23526" lon="-72.66347">
        <ele>181.8</ele>
      </trkpt>
      <trkpt lat="45.235715" lon="-72.66253">
        <ele>182.4</ele>
      </trkpt>
      <trkpt lat="45.23617" lon="-72.66159">
        <ele>184.5</ele>
      </trkpt>
      <trkpt lat="45.23656" lon="-72.66086">
        <ele>188.2</ele>
      </trkpt>
      <trkpt lat="45.236925" lon="-72.6601">
        <ele>190</ele>
      </trkpt>
      <trkpt lat="45.23729" lon="-72.65934">
        <ele>187.3</ele>
      </trkpt>
      <trkpt lat="45.237695" lon="-72.658395">
        <ele>185.9</ele>
      </trkpt>
      <trkpt lat="45.2381" lon="-72.65745">
        <ele>184.4</ele>
      </trkpt>
      <trkpt lat="45.23855" lon="-72.65653">
        <ele>184.6</ele>
      </trkpt>
      <trkpt lat="45.23898" lon="-72.655565">
        <ele>187.8</ele>
      </trkpt>
      <trkpt lat="45.23941" lon="-72.6546">
        <ele>191.7</ele>
      </trkpt>
      <trkpt lat="45.23973" lon="-72.6537">
        <ele>194.6</ele>
      </trkpt>
      <trkpt lat="45.23998" lon="-72.65312">
        <ele>194.6</ele>
      </trkpt>
      <trkpt lat="45.24012" lon="-72.65285">
        <ele>194.7</ele>
      </trkpt>
      <trkpt lat="45.24047" lon="-72.65232">
        <ele>195.8</ele>
      </trkpt>
      <trkpt lat="45.2409" lon="-72.65177">
        <ele>196.5</ele>
      </trkpt>
      <trkpt lat="45.24123" lon="-72.65111">
        <ele>193.6</ele>
      </trkpt>
      <trkpt lat="45.24167" lon="-72.65039">
        <ele>195.6</ele>
      </trkpt>
      <trkpt lat="45.24201" lon="-72.6495">
        <ele>199.1</ele>
      </trkpt>
      <trkpt lat="45.24233" lon="-72.64833">
        <ele>203.4</ele>
      </trkpt>
      <trkpt lat="45.24264" lon="-72.6473">
        <ele>206.7</ele>
      </trkpt>
      <trkpt lat="45.2429" lon="-72.64636">
        <ele>210</ele>
      </trkpt>
      <trkpt lat="45.24305" lon="-72.64571">
        <ele>212.1</ele>
      </trkpt>
      <trkpt lat="45.24306" lon="-72.6456">
        <ele>212.1</ele>
      </trkpt>
      <trkpt lat="45.24327" lon="-72.6447">
        <ele>216.8</ele>
      </trkpt>
      <trkpt lat="45.24358" lon="-72.64363">
        <ele>219.6</ele>
      </trkpt>
      <trkpt lat="45.24374" lon="-72.64274">
        <ele>221.5</ele>
      </trkpt>
      <trkpt lat="45.24396" lon="-72.641905">
        <ele>223.8</ele>
      </trkpt>
      <trkpt lat="45.24418" lon="-72.64107">
        <ele>226.7</ele>
      </trkpt>
      <trkpt lat="45.24445" lon="-72.64026">
        <ele>228.3</ele>
      </trkpt>
      <trkpt lat="45.24459" lon="-72.63995">
        <ele>228.5</ele>
      </trkpt>
      <trkpt lat="45.24499" lon="-72.63932">
        <ele>228.4</ele>
      </trkpt>
      <trkpt lat="45.24545" lon="-72.638535">
        <ele>230.1</ele>
      </trkpt>
      <trkpt lat="45.24591" lon="-72.63775">
        <ele>231.7</ele>
      </trkpt>
      <trkpt lat="45.24604" lon="-72.63741">
        <ele>232.1</ele>
      </trkpt>
      <trkpt lat="45.24624" lon="-72.63643">
        <ele>234.5</ele>
      </trkpt>
      <trkpt lat="45.24645" lon="-72.6358">
        <ele>234.1</ele>
      </trkpt>
      <trkpt lat="45.246615" lon="-72.63515">
        <ele>233.3</ele>
      </trkpt>
      <trkpt lat="45.24678" lon="-72.6345">
        <ele>234.2</ele>
      </trkpt>
      <trkpt lat="45.24694" lon="-72.63361">
        <ele>237.2</ele>
      </trkpt>
      <trkpt lat="45.24717" lon="-72.63274">
        <ele>236.6</ele>
      </trkpt>
      <trkpt lat="45.24747" lon="-72.63195">
        <ele>235.9</ele>
      </trkpt>
      <trkpt lat="45.24754" lon="-72.6317">
        <ele>235.5</ele>
      </trkpt>
      <trkpt lat="45.24754" lon="-72.63171">
        <ele>235.5</ele>
      </trkpt>
      <trkpt lat="45.24776" lon="-72.63051">
        <ele>231.9</ele>
      </trkpt>
      <trkpt lat="45.24787" lon="-72.62944">
        <ele>230.1</ele>
      </trkpt>
      <trkpt lat="45.24791" lon="-72.62872">
        <ele>227.4</ele>
      </trkpt>
      <trkpt lat="45.24795" lon="-72.628">
        <ele>224.9</ele>
      </trkpt>
      <trkpt lat="45.24758" lon="-72.62801">
        <ele>227.2</ele>
      </trkpt>
      <trkpt lat="45.24734" lon="-72.628">
        <ele>228.8</ele>
      </trkpt>
      <trkpt lat="45.24714" lon="-72.62792">
        <ele>231.5</ele>
      </trkpt>
      <trkpt lat="45.24669" lon="-72.62768">
        <ele>233.7</ele>
      </trkpt>
      <trkpt lat="45.24641" lon="-72.62743">
        <ele>234</ele>
      </trkpt>
      <trkpt lat="45.24588" lon="-72.62679">
        <ele>231.3</ele>
      </trkpt>
      <trkpt lat="45.24537" lon="-72.62608">
        <ele>230.8</ele>
      </trkpt>
      <trkpt lat="45.244866" lon="-72.625436">
        <ele>233.7</ele>
      </trkpt>
      <trkpt lat="45.244363" lon="-72.624793">
        <ele>238.1</ele>
      </trkpt>
      <trkpt lat="45.24386" lon="-72.62415">
        <ele>243.2</ele>
      </trkpt>
      <trkpt lat="45.24375" lon="-72.62397">
        <ele>243.9</ele>
      </trkpt>
      <trkpt lat="45.24357" lon="-72.623344">
        <ele>245.8</ele>
      </trkpt>
      <trkpt lat="45.24339" lon="-72.62272">
        <ele>248</ele>
      </trkpt>
      <trkpt lat="45.2431" lon="-72.62214">
        <ele>249</ele>
      </trkpt>
      <trkpt lat="45.24285" lon="-72.62183">
        <ele>249.2</ele>
      </trkpt>
      <trkpt lat="45.24208" lon="-72.62151">
        <ele>250.5</ele>
      </trkpt>
      <trkpt lat="45.24137" lon="-72.62129">
        <ele>253.5</ele>
      </trkpt>
      <trkpt lat="45.2407" lon="-72.62115">
        <ele>254.4</ele>
      </trkpt>
      <trkpt lat="45.24003" lon="-72.62111">
        <ele>256.5</ele>
      </trkpt>
      <trkpt lat="45.23926" lon="-72.62117">
        <ele>260.3</ele>
      </trkpt>
      <trkpt lat="45.23851" lon="-72.62128">
        <ele>263.5</ele>
      </trkpt>
      <trkpt lat="45.237815" lon="-72.621335">
        <ele>261.7</ele>
      </trkpt>
      <trkpt lat="45.23712" lon="-72.62139">
        <ele>260.7</ele>
      </trkpt>
      <trkpt lat="45.236425" lon="-72.621445">
        <ele>257.1</ele>
      </trkpt>
      <trkpt lat="45.23573" lon="-72.6215">
        <ele>251.8</ele>
      </trkpt>
      <trkpt lat="45.235086" lon="-72.621533">
        <ele>248.8</ele>
      </trkpt>
      <trkpt lat="45.234443" lon="-72.621566">
        <ele>246</ele>
      </trkpt>
      <trkpt lat="45.2338" lon="-72.6216">
        <ele>245.2</ele>
      </trkpt>
      <trkpt lat="45.233133" lon="-72.6216">
        <ele>243.5</ele>
      </trkpt>
      <trkpt lat="45.232466" lon="-72.6216">
        <ele>243.2</ele>
      </trkpt>
      <trkpt lat="45.2318" lon="-72.6216">
        <ele>242.5</ele>
      </trkpt>
      <trkpt lat="45.231065" lon="-72.62164">
        <ele>237.4</ele>
      </trkpt>
      <trkpt lat="45.23033" lon="-72.62168">
        <ele>234.5</ele>
      </trkpt>
      <trkpt lat="45.22964" lon="-72.62169">
        <ele>234.1</ele>
      </trkpt>
      <trkpt lat="45.228748" lon="-72.6217">
        <ele>233.4</ele>
      </trkpt>
      <trkpt lat="45.227857" lon="-72.62171">
        <ele>231.7</ele>
      </trkpt>
      <trkpt lat="45.226966" lon="-72.62172">
        <ele>226.2</ele>
      </trkpt>
      <trkpt lat="45.226075" lon="-72.62173">
        <ele>222.8</ele>
      </trkpt>
      <trkpt lat="45.225184" lon="-72.62174">
        <ele>218.6</ele>
      </trkpt>
      <trkpt lat="45.224293" lon="-72.62175">
        <ele>216.8</ele>
      </trkpt>
      <trkpt lat="45.223402" lon="-72.62176">
        <ele>215.2</ele>
      </trkpt>
      <trkpt lat="45.222511" lon="-72.62177">
        <ele>214.3</ele>
      </trkpt>
      <trkpt lat="45.22162" lon="-72.62178">
        <ele>213</ele>
      </trkpt>
      <trkpt lat="45.220729" lon="-72.62179">
        <ele>211.6</ele>
      </trkpt>
      <trkpt lat="45.219838" lon="-72.6218">
        <ele>209.8</ele>
      </trkpt>
      <trkpt lat="45.218947" lon="-72.62181">
        <ele>208.3</ele>
      </trkpt>
      <trkpt lat="45.218056" lon="-72.62182">
        <ele>206.1</ele>
      </trkpt>
      <trkpt lat="45.217165" lon="-72.62183">
        <ele>204.1</ele>
      </trkpt>
      <trkpt lat="45.216274" lon="-72.62184">
        <ele>203</ele>
      </trkpt>
      <trkpt lat="45.215383" lon="-72.62185">
        <ele>201.5</ele>
      </trkpt>
      <trkpt lat="45.214492" lon="-72.62186">
        <ele>200.4</ele>
      </trkpt>
      <trkpt lat="45.213601" lon="-72.62187">
        <ele>199.9</ele>
      </trkpt>
      <trkpt lat="45.21271" lon="-72.62188">
        <ele>200.6</ele>
      </trkpt>
      <trkpt lat="45.21203" lon="-72.62191">
        <ele>202.5</ele>
      </trkpt>
      <trkpt lat="45.21173" lon="-72.62188">
        <ele>203.9</ele>
      </trkpt>
      <trkpt lat="45.21118" lon="-72.62178">
        <ele>206.3</ele>
      </trkpt>
      <trkpt lat="45.2107" lon="-72.62165">
        <ele>209.6</ele>
      </trkpt>
      <trkpt lat="45.210265" lon="-72.621479">
        <ele>211.1</ele>
      </trkpt>
      <trkpt lat="45.20983" lon="-72.62131">
        <ele>211.6</ele>
      </trkpt>
      <trkpt lat="45.20949" lon="-72.62114">
        <ele>211.4</ele>
      </trkpt>
      <trkpt lat="45.20889" lon="-72.620739">
        <ele>210.2</ele>
      </trkpt>
      <trkpt lat="45.20829" lon="-72.620339">
        <ele>206.8</ele>
      </trkpt>
      <trkpt lat="45.20769" lon="-72.61994">
        <ele>205.1</ele>
      </trkpt>
      <trkpt lat="45.207965" lon="-72.61878">
        <ele>203.2</ele>
      </trkpt>
      <trkpt lat="45.20824" lon="-72.61762">
        <ele>201.7</ele>
      </trkpt>
      <trkpt lat="45.208425" lon="-72.61663">
        <ele>199.9</ele>
      </trkpt>
      <trkpt lat="45.20861" lon="-72.61564">
        <ele>198.1</ele>
      </trkpt>
      <trkpt lat="45.20869" lon="-72.61466">
        <ele>196.9</ele>
      </trkpt>
      <trkpt lat="45.208703" lon="-72.613793">
        <ele>195.5</ele>
      </trkpt>
      <trkpt lat="45.208716" lon="-72.612926">
        <ele>194.4</ele>
      </trkpt>
      <trkpt lat="45.20873" lon="-72.61206">
        <ele>194</ele>
      </trkpt>
      <trkpt lat="45.20877" lon="-72.61133">
        <ele>193.8</ele>
      </trkpt>
      <trkpt lat="45.20862" lon="-72.61139">
        <ele>192.5</ele>
      </trkpt>
      <trkpt lat="45.20849" lon="-72.61148">
        <ele>191.8</ele>
      </trkpt>
      <trkpt lat="45.20838" lon="-72.61158">
        <ele>191.4</ele>
      </trkpt>
      <trkpt lat="45.20826" lon="-72.61175">
        <ele>191.1</ele>
      </trkpt>
      <trkpt lat="45.20808" lon="-72.61206">
        <ele>190.1</ele>
      </trkpt>
      <trkpt lat="45.2079" lon="-72.61283">
        <ele>189.6</ele>
      </trkpt>
      <trkpt lat="45.20781" lon="-72.61306">
        <ele>189.8</ele>
      </trkpt>
      <trkpt lat="45.20761" lon="-72.61346">
        <ele>190.4</ele>
      </trkpt>
      <trkpt lat="45.20747" lon="-72.61364">
        <ele>190.5</ele>
      </trkpt>
      <trkpt lat="45.20732" lon="-72.61381">
        <ele>190.5</ele>
      </trkpt>
      <trkpt lat="45.20677" lon="-72.614273">
        <ele>192.1</ele>
      </trkpt>
      <trkpt lat="45.20622" lon="-72.614736">
        <ele>193.7</ele>
      </trkpt>
      <trkpt lat="45.20567" lon="-72.6152">
        <ele>194.7</ele>
      </trkpt>
      <trkpt lat="45.205205" lon="-72.61562">
        <ele>196.1</ele>
      </trkpt>
      <trkpt lat="45.20474" lon="-72.61604">
        <ele>198.8</ele>
      </trkpt>
      <trkpt lat="45.204215" lon="-72.616475">
        <ele>199.9</ele>
      </trkpt>
      <trkpt lat="45.20369" lon="-72.61691">
        <ele>201.9</ele>
      </trkpt>
      <trkpt lat="45.203076" lon="-72.6174">
        <ele>203</ele>
      </trkpt>
      <trkpt lat="45.202463" lon="-72.61789">
        <ele>205.8</ele>
      </trkpt>
      <trkpt lat="45.20185" lon="-72.61838">
        <ele>208.3</ele>
      </trkpt>
      <trkpt lat="45.20116" lon="-72.61879">
        <ele>210</ele>
      </trkpt>
      <trkpt lat="45.20078" lon="-72.61897">
        <ele>210.7</ele>
      </trkpt>
      <trkpt lat="45.200235" lon="-72.619275">
        <ele>210.8</ele>
      </trkpt>
      <trkpt lat="45.19969" lon="-72.61958">
        <ele>210</ele>
      </trkpt>
      <trkpt lat="45.199215" lon="-72.6199">
        <ele>206.6</ele>
      </trkpt>
      <trkpt lat="45.19874" lon="-72.62022">
        <ele>201</ele>
      </trkpt>
      <trkpt lat="45.19833" lon="-72.62061">
        <ele>197.1</ele>
      </trkpt>
      <trkpt lat="45.19791" lon="-72.62107">
        <ele>195.1</ele>
      </trkpt>
      <trkpt lat="45.19759" lon="-72.62154">
        <ele>194.3</ele>
      </trkpt>
      <trkpt lat="45.19757" lon="-72.62156">
        <ele>194.2</ele>
      </trkpt>
      <trkpt lat="45.19716" lon="-72.62218">
        <ele>193.3</ele>
      </trkpt>
      <trkpt lat="45.19675" lon="-72.6228">
        <ele>193.5</ele>
      </trkpt>
      <trkpt lat="45.196215" lon="-72.623565">
        <ele>194.4</ele>
      </trkpt>
      <trkpt lat="45.19568" lon="-72.62433">
        <ele>194.9</ele>
      </trkpt>
      <trkpt lat="45.19513" lon="-72.62496">
        <ele>193.4</ele>
      </trkpt>
      <trkpt lat="45.194775" lon="-72.625405">
        <ele>191.7</ele>
      </trkpt>
      <trkpt lat="45.19442" lon="-72.62585">
        <ele>190.5</ele>
      </trkpt>
      <trkpt lat="45.194" lon="-72.626345">
        <ele>188.9</ele>
      </trkpt>
      <trkpt lat="45.19358" lon="-72.62684">
        <ele>190</ele>
      </trkpt>
      <trkpt lat="45.19346" lon="-72.62702">
        <ele>191.2</ele>
      </trkpt>
      <trkpt lat="45.19337" lon="-72.62716">
        <ele>191.6</ele>
      </trkpt>
      <trkpt lat="45.19313" lon="-72.62771">
        <ele>191.1</ele>
      </trkpt>
      <trkpt lat="45.19289" lon="-72.62826">
        <ele>189.9</ele>
      </trkpt>
      <trkpt lat="45.192665" lon="-72.628845">
        <ele>188.7</ele>
      </trkpt>
      <trkpt lat="45.19244" lon="-72.62943">
        <ele>187.4</ele>
      </trkpt>
      <trkpt lat="45.19232" lon="-72.62987">
        <ele>187.2</ele>
      </trkpt>
      <trkpt lat="45.19217" lon="-72.63021">
        <ele>187.1</ele>
      </trkpt>
      <trkpt lat="45.19216" lon="-72.63021">
        <ele>187.1</ele>
      </trkpt>
      <trkpt lat="45.191865" lon="-72.63085">
        <ele>187.1</ele>
      </trkpt>
      <trkpt lat="45.19157" lon="-72.63149">
        <ele>188.2</ele>
      </trkpt>
      <trkpt lat="45.1911" lon="-72.63239">
        <ele>189.1</ele>
      </trkpt>
      <trkpt lat="45.19082" lon="-72.63284">
        <ele>188.6</ele>
      </trkpt>
      <trkpt lat="45.19058" lon="-72.63305">
        <ele>189.2</ele>
      </trkpt>
      <trkpt lat="45.19035" lon="-72.63252">
        <ele>192.1</ele>
      </trkpt>
      <trkpt lat="45.19011" lon="-72.63181">
        <ele>197.5</ele>
      </trkpt>
      <trkpt lat="45.1899" lon="-72.631">
        <ele>194.4</ele>
      </trkpt>
      <trkpt lat="45.18982" lon="-72.63083">
        <ele>189.9</ele>
      </trkpt>
      <trkpt lat="45.18953" lon="-72.63055">
        <ele>186.3</ele>
      </trkpt>
      <trkpt lat="45.18911" lon="-72.63019">
        <ele>185.9</ele>
      </trkpt>
      <trkpt lat="45.188645" lon="-72.629854">
        <ele>188.6</ele>
      </trkpt>
      <trkpt lat="45.18818" lon="-72.62952">
        <ele>186.8</ele>
      </trkpt>
      <trkpt lat="45.18807" lon="-72.62938">
        <ele>186.2</ele>
      </trkpt>
      <trkpt lat="45.18794" lon="-72.62916">
        <ele>185.7</ele>
      </trkpt>
      <trkpt lat="45.187476" lon="-72.628233">
        <ele>185.8</ele>
      </trkpt>
      <trkpt lat="45.187013" lon="-72.627306">
        <ele>186</ele>
      </trkpt>
      <trkpt lat="45.18655" lon="-72.62638">
        <ele>185.6</ele>
      </trkpt>
      <trkpt lat="45.18613" lon="-72.625606">
        <ele>185.2</ele>
      </trkpt>
      <trkpt lat="45.18571" lon="-72.624833">
        <ele>181.9</ele>
      </trkpt>
      <trkpt lat="45.18529" lon="-72.62406">
        <ele>177.3</ele>
      </trkpt>
      <trkpt lat="45.18477" lon="-72.62325">
        <ele>171</ele>
      </trkpt>
      <trkpt lat="45.18463" lon="-72.62299">
        <ele>169.5</ele>
      </trkpt>
      <trkpt lat="45.18453" lon="-72.62273">
        <ele>169</ele>
      </trkpt>
      <trkpt lat="45.18437" lon="-72.62207">
        <ele>167.7</ele>
      </trkpt>
      <trkpt lat="45.18414" lon="-72.621124">
        <ele>165.7</ele>
      </trkpt>
      <trkpt lat="45.18391" lon="-72.62018">
        <ele>162.1</ele>
      </trkpt>
      <trkpt lat="45.18339" lon="-72.620813">
        <ele>162.7</ele>
      </trkpt>
      <trkpt lat="45.18287" lon="-72.621446">
        <ele>158.6</ele>
      </trkpt>
      <trkpt lat="45.18235" lon="-72.62208">
        <ele>153.7</ele>
      </trkpt>
      <trkpt lat="45.18174" lon="-72.62285">
        <ele>149.1</ele>
      </trkpt>
      <trkpt lat="45.18158" lon="-72.62317">
        <ele>148.2</ele>
      </trkpt>
      <trkpt lat="45.18151" lon="-72.62336">
        <ele>147.4</ele>
      </trkpt>
      <trkpt lat="45.18138" lon="-72.62379">
        <ele>146.5</ele>
      </trkpt>
      <trkpt lat="45.18118" lon="-72.624375">
        <ele>147.4</ele>
      </trkpt>
      <trkpt lat="45.18098" lon="-72.62496">
        <ele>150.9</ele>
      </trkpt>
      <trkpt lat="45.18076" lon="-72.62553">
        <ele>152.7</ele>
      </trkpt>
      <trkpt lat="45.18071" lon="-72.62576">
        <ele>152.5</ele>
      </trkpt>
      <trkpt lat="45.18059" lon="-72.62655">
        <ele>148.8</ele>
      </trkpt>
      <trkpt lat="45.18059" lon="-72.62656">
        <ele>148.7</ele>
      </trkpt>
      <trkpt lat="45.180455" lon="-72.62746">
        <ele>139</ele>
      </trkpt>
      <trkpt lat="45.18032" lon="-72.62836">
        <ele>139.7</ele>
      </trkpt>
      <trkpt lat="45.1803" lon="-72.62872">
        <ele>141.9</ele>
      </trkpt>
      <trkpt lat="45.18031" lon="-72.62908">
        <ele>144.7</ele>
      </trkpt>
      <trkpt lat="45.18034" lon="-72.62931">
        <ele>145.9</ele>
      </trkpt>
      <trkpt lat="45.18039" lon="-72.62952">
        <ele>147.1</ele>
      </trkpt>
      <trkpt lat="45.18046" lon="-72.6297">
        <ele>147.9</ele>
      </trkpt>
      <trkpt lat="45.18073" lon="-72.63002">
        <ele>149.4</ele>
      </trkpt>
      <trkpt lat="45.1813" lon="-72.6305">
        <ele>150</ele>
      </trkpt>
      <trkpt lat="45.18146" lon="-72.63065">
        <ele>150</ele>
      </trkpt>
      <trkpt lat="45.18159" lon="-72.63082">
        <ele>149.7</ele>
      </trkpt>
      <trkpt lat="45.18171" lon="-72.63104">
        <ele>149.5</ele>
      </trkpt>
      <trkpt lat="45.18187" lon="-72.63135">
        <ele>150</ele>
      </trkpt>
      <trkpt lat="45.18201" lon="-72.63167">
        <ele>151.1</ele>
      </trkpt>
      <trkpt lat="45.18212" lon="-72.63203">
        <ele>151.6</ele>
      </trkpt>
      <trkpt lat="45.18219" lon="-72.6323">
        <ele>151.3</ele>
      </trkpt>
      <trkpt lat="45.18226" lon="-72.63292">
        <ele>147.4</ele>
      </trkpt>
      <trkpt lat="45.18226" lon="-72.63324">
        <ele>143.3</ele>
      </trkpt>
      <trkpt lat="45.18222" lon="-72.63378">
        <ele>140.1</ele>
      </trkpt>
      <trkpt lat="45.18223" lon="-72.63462">
        <ele>137.6</ele>
      </trkpt>
      <trkpt lat="45.182266" lon="-72.635606">
        <ele>137.2</ele>
      </trkpt>
      <trkpt lat="45.182303" lon="-72.636593">
        <ele>135.4</ele>
      </trkpt>
      <trkpt lat="45.18234" lon="-72.63758">
        <ele>135.4</ele>
      </trkpt>
      <trkpt lat="45.182392" lon="-72.638672">
        <ele>131.6</ele>
      </trkpt>
      <trkpt lat="45.182445" lon="-72.639765">
        <ele>131.2</ele>
      </trkpt>
      <trkpt lat="45.182498" lon="-72.640858">
        <ele>127.9</ele>
      </trkpt>
      <trkpt lat="45.182551" lon="-72.641951">
        <ele>126.6</ele>
      </trkpt>
      <trkpt lat="45.182604" lon="-72.643044">
        <ele>126.3</ele>
      </trkpt>
      <trkpt lat="45.182657" lon="-72.644137">
        <ele>127.1</ele>
      </trkpt>
      <trkpt lat="45.18271" lon="-72.64523">
        <ele>129.4</ele>
      </trkpt>
      <trkpt lat="45.18271" lon="-72.64581">
        <ele>131.6</ele>
      </trkpt>
      <trkpt lat="45.18269" lon="-72.64595">
        <ele>132.2</ele>
      </trkpt>
      <trkpt lat="45.18259" lon="-72.64628">
        <ele>133.1</ele>
      </trkpt>
      <trkpt lat="45.18239" lon="-72.64664">
        <ele>132.8</ele>
      </trkpt>
      <trkpt lat="45.18195" lon="-72.64739">
        <ele>131.2</ele>
      </trkpt>
      <trkpt lat="45.181635" lon="-72.647865">
        <ele>131.5</ele>
      </trkpt>
      <trkpt lat="45.18132" lon="-72.64834">
        <ele>132.8</ele>
      </trkpt>
      <trkpt lat="45.18095" lon="-72.64885">
        <ele>135.8</ele>
      </trkpt>
      <trkpt lat="45.18058" lon="-72.64936">
        <ele>137.5</ele>
      </trkpt>
      <trkpt lat="45.18051" lon="-72.64954">
        <ele>137.5</ele>
      </trkpt>
      <trkpt lat="45.18045" lon="-72.64976">
        <ele>138.7</ele>
      </trkpt>
      <trkpt lat="45.180225" lon="-72.65077">
        <ele>140.7</ele>
      </trkpt>
      <trkpt lat="45.18" lon="-72.65178">
        <ele>141.9</ele>
      </trkpt>
      <trkpt lat="45.17978" lon="-72.652733">
        <ele>142.5</ele>
      </trkpt>
      <trkpt lat="45.17956" lon="-72.653686">
        <ele>144.6</ele>
      </trkpt>
      <trkpt lat="45.17934" lon="-72.65464">
        <ele>146.9</ele>
      </trkpt>
      <trkpt lat="45.17929" lon="-72.655">
        <ele>146.6</ele>
      </trkpt>
      <trkpt lat="45.17926" lon="-72.65563">
        <ele>143.9</ele>
      </trkpt>
      <trkpt lat="45.179262" lon="-72.656692">
        <ele>138.3</ele>
      </trkpt>
      <trkpt lat="45.179265" lon="-72.657754">
        <ele>135</ele>
      </trkpt>
      <trkpt lat="45.179267" lon="-72.658817">
        <ele>133.6</ele>
      </trkpt>
      <trkpt lat="45.17927" lon="-72.65988">
        <ele>133.4</ele>
      </trkpt>
      <trkpt lat="45.17921" lon="-72.66055">
        <ele>132.8</ele>
      </trkpt>
      <trkpt lat="45.17905" lon="-72.66113">
        <ele>128.5</ele>
      </trkpt>
      <trkpt lat="45.17894" lon="-72.66132">
        <ele>127.7</ele>
      </trkpt>
      <trkpt lat="45.17849" lon="-72.66198">
        <ele>125.1</ele>
      </trkpt>
      <trkpt lat="45.17807" lon="-72.66252">
        <ele>127.3</ele>
      </trkpt>
      <trkpt lat="45.17762" lon="-72.662439">
        <ele>127.3</ele>
      </trkpt>
      <trkpt lat="45.17717" lon="-72.66236">
        <ele>127.3</ele>
      </trkpt>
      <trkpt lat="45.17661" lon="-72.662239">
        <ele>126.8</ele>
      </trkpt>
      <trkpt lat="45.17605" lon="-72.66212">
        <ele>127.9</ele>
      </trkpt>
      <trkpt lat="45.17607" lon="-72.66136">
        <ele>129.3</ele>
      </trkpt>
      <trkpt lat="45.17601" lon="-72.6601">
        <ele>129.5</ele>
      </trkpt>
      <trkpt lat="45.17591" lon="-72.65947">
        <ele>130</ele>
      </trkpt>
      <trkpt lat="45.17572" lon="-72.65904">
        <ele>131.2</ele>
      </trkpt>
      <trkpt lat="45.17535" lon="-72.65845">
        <ele>132</ele>
      </trkpt>
      <trkpt lat="45.17519" lon="-72.65814">
        <ele>132.4</ele>
      </trkpt>
      <trkpt lat="45.17507" lon="-72.65768">
        <ele>131.2</ele>
      </trkpt>
      <trkpt lat="45.17486" lon="-72.65726">
        <ele>130.4</ele>
      </trkpt>
      <trkpt lat="45.17478" lon="-72.65715">
        <ele>130.3</ele>
      </trkpt>
      <trkpt lat="45.17486" lon="-72.65726">
        <ele>130.4</ele>
      </trkpt>
      <trkpt lat="45.17457" lon="-72.65687">
        <ele>131.2</ele>
      </trkpt>
      <trkpt lat="45.17399" lon="-72.6562">
        <ele>139.1</ele>
      </trkpt>
      <trkpt lat="45.17345" lon="-72.65567">
        <ele>142.1</ele>
      </trkpt>
      <trkpt lat="45.17303" lon="-72.65523">
        <ele>143.7</ele>
      </trkpt>
      <trkpt lat="45.17258" lon="-72.65468">
        <ele>146.2</ele>
      </trkpt>
      <trkpt lat="45.17246" lon="-72.65451">
        <ele>146.9</ele>
      </trkpt>
      <trkpt lat="45.17231" lon="-72.65424">
        <ele>148.1</ele>
      </trkpt>
      <trkpt lat="45.17216" lon="-72.65392">
        <ele>148.7</ele>
      </trkpt>
      <trkpt lat="45.17181" lon="-72.65303">
        <ele>153.3</ele>
      </trkpt>
      <trkpt lat="45.17154" lon="-72.65223">
        <ele>157.6</ele>
      </trkpt>
      <trkpt lat="45.17144" lon="-72.65201">
        <ele>158.7</ele>
      </trkpt>
      <trkpt lat="45.1713" lon="-72.65175">
        <ele>159.6</ele>
      </trkpt>
      <trkpt lat="45.17105" lon="-72.65142">
        <ele>160.9</ele>
      </trkpt>
      <trkpt lat="45.17068" lon="-72.65101">
        <ele>161.6</ele>
      </trkpt>
      <trkpt lat="45.17014" lon="-72.65057">
        <ele>163.1</ele>
      </trkpt>
      <trkpt lat="45.16954" lon="-72.64999">
        <ele>168.7</ele>
      </trkpt>
      <trkpt lat="45.1692" lon="-72.64963">
        <ele>171.7</ele>
      </trkpt>
      <trkpt lat="45.16883" lon="-72.64917">
        <ele>173</ele>
      </trkpt>
      <trkpt lat="45.168385" lon="-72.648699">
        <ele>171.5</ele>
      </trkpt>
      <trkpt lat="45.16794" lon="-72.64823">
        <ele>171.9</ele>
      </trkpt>
      <trkpt lat="45.16764" lon="-72.64793">
        <ele>172.7</ele>
      </trkpt>
      <trkpt lat="45.166966" lon="-72.647376">
        <ele>175.7</ele>
      </trkpt>
      <trkpt lat="45.166293" lon="-72.646823">
        <ele>181.9</ele>
      </trkpt>
      <trkpt lat="45.16562" lon="-72.64627">
        <ele>188.5</ele>
      </trkpt>
      <trkpt lat="45.164855" lon="-72.645669">
        <ele>189.9</ele>
      </trkpt>
      <trkpt lat="45.16409" lon="-72.64507">
        <ele>192.1</ele>
      </trkpt>
      <trkpt lat="45.16332" lon="-72.64456">
        <ele>196.5</ele>
      </trkpt>
      <trkpt lat="45.16305" lon="-72.64448">
        <ele>196</ele>
      </trkpt>
      <trkpt lat="45.16283" lon="-72.64452">
        <ele>194.7</ele>
      </trkpt>
      <trkpt lat="45.16221" lon="-72.64466">
        <ele>190.7</ele>
      </trkpt>
      <trkpt lat="45.16136" lon="-72.64489">
        <ele>186.8</ele>
      </trkpt>
      <trkpt lat="45.16074" lon="-72.64513">
        <ele>182.5</ele>
      </trkpt>
      <trkpt lat="45.16012" lon="-72.64537">
        <ele>180</ele>
      </trkpt>
      <trkpt lat="45.15967" lon="-72.64551">
        <ele>178.4</ele>
      </trkpt>
      <trkpt lat="45.15942" lon="-72.64555">
        <ele>177.8</ele>
      </trkpt>
      <trkpt lat="45.15882" lon="-72.6456">
        <ele>176.9</ele>
      </trkpt>
      <trkpt lat="45.15822" lon="-72.64565">
        <ele>177.2</ele>
      </trkpt>
      <trkpt lat="45.15821" lon="-72.64565">
        <ele>177.2</ele>
      </trkpt>
      <trkpt lat="45.157403" lon="-72.645716">
        <ele>176.1</ele>
      </trkpt>
      <trkpt lat="45.156596" lon="-72.645783">
        <ele>175.8</ele>
      </trkpt>
      <trkpt lat="45.15579" lon="-72.64585">
        <ele>174.4</ele>
      </trkpt>
      <trkpt lat="45.155079" lon="-72.64588">
        <ele>177.9</ele>
      </trkpt>
      <trkpt lat="45.15437" lon="-72.64591">
        <ele>181.3</ele>
      </trkpt>
      <trkpt lat="45.153655" lon="-72.645965">
        <ele>185</ele>
      </trkpt>
      <trkpt lat="45.15294" lon="-72.64602">
        <ele>189.3</ele>
      </trkpt>
      <trkpt lat="45.152225" lon="-72.646075">
        <ele>193.5</ele>
      </trkpt>
      <trkpt lat="45.15151" lon="-72.64613">
        <ele>199</ele>
      </trkpt>
      <trkpt lat="45.150653" lon="-72.646176">
        <ele>203.9</ele>
      </trkpt>
      <trkpt lat="45.149796" lon="-72.646223">
        <ele>208.1</ele>
      </trkpt>
      <trkpt lat="45.14894" lon="-72.64627">
        <ele>213.8</ele>
      </trkpt>
      <trkpt lat="45.1481" lon="-72.646275">
        <ele>221.6</ele>
      </trkpt>
      <trkpt lat="45.14726" lon="-72.64628">
        <ele>231.6</ele>
      </trkpt>
      <trkpt lat="45.14688" lon="-72.64624">
        <ele>235.5</ele>
      </trkpt>
      <trkpt lat="45.14694" lon="-72.64551">
        <ele>238.4</ele>
      </trkpt>
      <trkpt lat="45.147" lon="-72.64478">
        <ele>239.4</ele>
      </trkpt>
      <trkpt lat="45.147" lon="-72.64447">
        <ele>241</ele>
      </trkpt>
      <trkpt lat="45.1471" lon="-72.64429">
        <ele>240.9</ele>
      </trkpt>
      <trkpt lat="45.14713" lon="-72.64412">
        <ele>240.7</ele>
      </trkpt>
      <trkpt lat="45.14724" lon="-72.643045">
        <ele>243.4</ele>
      </trkpt>
      <trkpt lat="45.14735" lon="-72.64197">
        <ele>248.1</ele>
      </trkpt>
      <trkpt lat="45.14748" lon="-72.6413">
        <ele>249.4</ele>
      </trkpt>
      <trkpt lat="45.14763" lon="-72.64036">
        <ele>250.9</ele>
      </trkpt>
      <trkpt lat="45.14778" lon="-72.63942">
        <ele>251.4</ele>
      </trkpt>
      <trkpt lat="45.14793" lon="-72.63848">
        <ele>251.7</ele>
      </trkpt>
      <trkpt lat="45.14808" lon="-72.63754">
        <ele>252.8</ele>
      </trkpt>
      <trkpt lat="45.14815" lon="-72.637">
        <ele>253.7</ele>
      </trkpt>
      <trkpt lat="45.14818" lon="-72.63616">
        <ele>249.9</ele>
      </trkpt>
      <trkpt lat="45.14819" lon="-72.63529">
        <ele>247.2</ele>
      </trkpt>
      <trkpt lat="45.1482" lon="-72.63442">
        <ele>245.3</ele>
      </trkpt>
      <trkpt lat="45.14821" lon="-72.63355">
        <ele>244.4</ele>
      </trkpt>
      <trkpt lat="45.14824" lon="-72.6329">
        <ele>243.5</ele>
      </trkpt>
      <trkpt lat="45.14827" lon="-72.63225">
        <ele>241</ele>
      </trkpt>
      <trkpt lat="45.14827" lon="-72.63226">
        <ele>241</ele>
      </trkpt>
      <trkpt lat="45.14833" lon="-72.63131">
        <ele>237.6</ele>
      </trkpt>
      <trkpt lat="45.14833" lon="-72.63055">
        <ele>233.6</ele>
      </trkpt>
      <trkpt lat="45.148286" lon="-72.629539">
        <ele>228.4</ele>
      </trkpt>
      <trkpt lat="45.148243" lon="-72.628529">
        <ele>227.4</ele>
      </trkpt>
      <trkpt lat="45.1482" lon="-72.62752">
        <ele>226.6</ele>
      </trkpt>
      <trkpt lat="45.14814" lon="-72.626666">
        <ele>226.3</ele>
      </trkpt>
      <trkpt lat="45.14808" lon="-72.625813">
        <ele>225.9</ele>
      </trkpt>
      <trkpt lat="45.14802" lon="-72.62496">
        <ele>226.6</ele>
      </trkpt>
      <trkpt lat="45.14801" lon="-72.624036">
        <ele>226.1</ele>
      </trkpt>
      <trkpt lat="45.148" lon="-72.623113">
        <ele>226.9</ele>
      </trkpt>
      <trkpt lat="45.14799" lon="-72.62219">
        <ele>227.8</ele>
      </trkpt>
      <trkpt lat="45.14801" lon="-72.62169">
        <ele>228.7</ele>
      </trkpt>
      <trkpt lat="45.14805" lon="-72.62142">
        <ele>228.9</ele>
      </trkpt>
      <trkpt lat="45.14827" lon="-72.62059">
        <ele>226.9</ele>
      </trkpt>
      <trkpt lat="45.14849" lon="-72.61976">
        <ele>223.1</ele>
      </trkpt>
      <trkpt lat="45.14853" lon="-72.61923">
        <ele>221.2</ele>
      </trkpt>
      <trkpt lat="45.14846" lon="-72.61861">
        <ele>219</ele>
      </trkpt>
      <trkpt lat="45.148223" lon="-72.617456">
        <ele>216.2</ele>
      </trkpt>
      <trkpt lat="45.147986" lon="-72.616303">
        <ele>213.3</ele>
      </trkpt>
      <trkpt lat="45.14775" lon="-72.61515">
        <ele>204.8</ele>
      </trkpt>
      <trkpt lat="45.14766" lon="-72.614474">
        <ele>202.4</ele>
      </trkpt>
      <trkpt lat="45.14757" lon="-72.6138">
        <ele>202.7</ele>
      </trkpt>
      <trkpt lat="45.147535" lon="-72.612859">
        <ele>202</ele>
      </trkpt>
      <trkpt lat="45.1475" lon="-72.61192">
        <ele>196.6</ele>
      </trkpt>
      <trkpt lat="45.1474" lon="-72.61085">
        <ele>188.2</ele>
      </trkpt>
      <trkpt lat="45.147366" lon="-72.609749">
        <ele>175.3</ele>
      </trkpt>
      <trkpt lat="45.147332" lon="-72.608649">
        <ele>166.9</ele>
      </trkpt>
      <trkpt lat="45.147298" lon="-72.607549">
        <ele>165.9</ele>
      </trkpt>
      <trkpt lat="45.147264" lon="-72.606449">
        <ele>170</ele>
      </trkpt>
      <trkpt lat="45.14723" lon="-72.60535">
        <ele>172.9</ele>
      </trkpt>
      <trkpt lat="45.14716" lon="-72.60503">
        <ele>174.1</ele>
      </trkpt>
      <trkpt lat="45.14712" lon="-72.60489">
        <ele>174.3</ele>
      </trkpt>
      <trkpt lat="45.14726" lon="-72.60463">
        <ele>174.2</ele>
      </trkpt>
      <trkpt lat="45.14736" lon="-72.60455">
        <ele>174.1</ele>
      </trkpt>
      <trkpt lat="45.14742" lon="-72.60453">
        <ele>174.1</ele>
      </trkpt>
      <trkpt lat="45.148245" lon="-72.604559">
        <ele>167.9</ele>
      </trkpt>
      <trkpt lat="45.14907" lon="-72.60459">
        <ele>163.9</ele>
      </trkpt>
      <trkpt lat="45.14975" lon="-72.60454">
        <ele>163.4</ele>
      </trkpt>
      <trkpt lat="45.14974" lon="-72.60454">
        <ele>163.4</ele>
      </trkpt>
      <trkpt lat="45.15039" lon="-72.6045">
        <ele>161.7</ele>
      </trkpt>
      <trkpt lat="45.15066" lon="-72.60454">
        <ele>161.4</ele>
      </trkpt>
      <trkpt lat="45.151503" lon="-72.604523">
        <ele>161</ele>
      </trkpt>
      <trkpt lat="45.152346" lon="-72.604506">
        <ele>160.7</ele>
      </trkpt>
      <trkpt lat="45.15319" lon="-72.60449">
        <ele>160.1</ele>
      </trkpt>
      <trkpt lat="45.15331" lon="-72.6045">
        <ele>160</ele>
      </trkpt>
      <trkpt lat="45.15344" lon="-72.60454">
        <ele>160</ele>
      </trkpt>
      <trkpt lat="45.15367" lon="-72.60471">
        <ele>159.7</ele>
      </trkpt>
      <trkpt lat="45.15414" lon="-72.60514">
        <ele>159.6</ele>
      </trkpt>
      <trkpt lat="45.15456" lon="-72.60557">
        <ele>159.4</ele>
      </trkpt>
      <trkpt lat="45.155255" lon="-72.606239">
        <ele>159.3</ele>
      </trkpt>
      <trkpt lat="45.15595" lon="-72.60691">
        <ele>159.4</ele>
      </trkpt>
      <trkpt lat="45.15642" lon="-72.60745">
        <ele>159.2</ele>
      </trkpt>
      <trkpt lat="45.15686" lon="-72.608">
        <ele>159</ele>
      </trkpt>
      <trkpt lat="45.1573" lon="-72.60862">
        <ele>157.7</ele>
      </trkpt>
      <trkpt lat="45.15777" lon="-72.609194">
        <ele>156.7</ele>
      </trkpt>
      <trkpt lat="45.15824" lon="-72.60977">
        <ele>156.3</ele>
      </trkpt>
      <trkpt lat="45.15863" lon="-72.61014">
        <ele>156.3</ele>
      </trkpt>
      <trkpt lat="45.15902" lon="-72.6105">
        <ele>156.7</ele>
      </trkpt>
      <trkpt lat="45.15948" lon="-72.61081">
        <ele>157.8</ele>
      </trkpt>
      <trkpt lat="45.159975" lon="-72.611034">
        <ele>157.2</ele>
      </trkpt>
      <trkpt lat="45.16047" lon="-72.61126">
        <ele>157.2</ele>
      </trkpt>
      <trkpt lat="45.1607" lon="-72.61135">
        <ele>157.1</ele>
      </trkpt>
      <trkpt lat="45.16086" lon="-72.61138">
        <ele>157.1</ele>
      </trkpt>
      <trkpt lat="45.16099" lon="-72.61131">
        <ele>157.1</ele>
      </trkpt>
      <trkpt lat="45.16108" lon="-72.61124">
        <ele>157</ele>
      </trkpt>
      <trkpt lat="45.161746" lon="-72.610606">
        <ele>155.8</ele>
      </trkpt>
      <trkpt lat="45.162413" lon="-72.609973">
        <ele>156.8</ele>
      </trkpt>
      <trkpt lat="45.16308" lon="-72.60934">
        <ele>156.9</ele>
      </trkpt>
      <trkpt lat="45.163295" lon="-72.609939">
        <ele>154.8</ele>
      </trkpt>
      <trkpt lat="45.16351" lon="-72.61054">
        <ele>153.7</ele>
      </trkpt>
      <trkpt lat="45.1637" lon="-72.61094">
        <ele>152.3</ele>
      </trkpt>
      <trkpt lat="45.16392" lon="-72.61117">
        <ele>152.5</ele>
      </trkpt>
      <trkpt lat="45.16413" lon="-72.61117">
        <ele>152.8</ele>
      </trkpt>
      <trkpt lat="45.16471" lon="-72.611055">
        <ele>153.9</ele>
      </trkpt>
      <trkpt lat="45.16529" lon="-72.61094">
        <ele>155.5</ele>
      </trkpt>
      <trkpt lat="45.16614" lon="-72.61103">
        <ele>153.7</ele>
      </trkpt>
      <trkpt lat="45.16633" lon="-72.61112">
        <ele>154.5</ele>
      </trkpt>
      <trkpt lat="45.16653" lon="-72.61139">
        <ele>153.5</ele>
      </trkpt>
      <trkpt lat="45.1666" lon="-72.61145">
        <ele>153.5</ele>
      </trkpt>
      <trkpt lat="45.16671" lon="-72.61153">
        <ele>153</ele>
      </trkpt>
      <trkpt lat="45.16721" lon="-72.61175">
        <ele>152</ele>
      </trkpt>
      <trkpt lat="45.16765" lon="-72.61202">
        <ele>153</ele>
      </trkpt>
      <trkpt lat="45.16814" lon="-72.61228">
        <ele>157.1</ele>
      </trkpt>
      <trkpt lat="45.168615" lon="-72.612569">
        <ele>159.8</ele>
      </trkpt>
      <trkpt lat="45.16909" lon="-72.61286">
        <ele>160.9</ele>
      </trkpt>
      <trkpt lat="45.1693" lon="-72.61288">
        <ele>158.5</ele>
      </trkpt>
      <trkpt lat="45.1694" lon="-72.61287">
        <ele>158.1</ele>
      </trkpt>
      <trkpt lat="45.16974" lon="-72.61273">
        <ele>156.3</ele>
      </trkpt>
      <trkpt lat="45.17014" lon="-72.61243">
        <ele>158.3</ele>
      </trkpt>
      <trkpt lat="45.17024" lon="-72.61238">
        <ele>159.4</ele>
      </trkpt>
      <trkpt lat="45.17056" lon="-72.61233">
        <ele>160.7</ele>
      </trkpt>
      <trkpt lat="45.17066" lon="-72.61237">
        <ele>160.7</ele>
      </trkpt>
      <trkpt lat="45.17126" lon="-72.612799">
        <ele>157.5</ele>
      </trkpt>
      <trkpt lat="45.17186" lon="-72.61323">
        <ele>155.5</ele>
      </trkpt>
      <trkpt lat="45.1723" lon="-72.613519">
        <ele>151.6</ele>
      </trkpt>
      <trkpt lat="45.17274" lon="-72.61381">
        <ele>146.1</ele>
      </trkpt>
      <trkpt lat="45.17319" lon="-72.61404">
        <ele>142.9</ele>
      </trkpt>
      <trkpt lat="45.17328" lon="-72.61413">
        <ele>142.7</ele>
      </trkpt>
      <trkpt lat="45.17346" lon="-72.61426">
        <ele>142.9</ele>
      </trkpt>
      <trkpt lat="45.17354" lon="-72.6143">
        <ele>143</ele>
      </trkpt>
      <trkpt lat="45.17421" lon="-72.614286">
        <ele>147.3</ele>
      </trkpt>
      <trkpt lat="45.17488" lon="-72.614273">
        <ele>155.5</ele>
      </trkpt>
      <trkpt lat="45.17555" lon="-72.61426">
        <ele>160.6</ele>
      </trkpt>
      <trkpt lat="45.17581" lon="-72.61435">
        <ele>162.4</ele>
      </trkpt>
      <trkpt lat="45.17642" lon="-72.61477">
        <ele>165.5</ele>
      </trkpt>
      <trkpt lat="45.176966" lon="-72.615149">
        <ele>168.4</ele>
      </trkpt>
      <trkpt lat="45.177513" lon="-72.615529">
        <ele>172.8</ele>
      </trkpt>
      <trkpt lat="45.17806" lon="-72.61591">
        <ele>175.4</ele>
      </trkpt>
      <trkpt lat="45.17831" lon="-72.61605">
        <ele>176.3</ele>
      </trkpt>
      <trkpt lat="45.17877" lon="-72.61623">
        <ele>179.8</ele>
      </trkpt>
      <trkpt lat="45.179295" lon="-72.616359">
        <ele>181.3</ele>
      </trkpt>
      <trkpt lat="45.17982" lon="-72.61649">
        <ele>181.3</ele>
      </trkpt>
      <trkpt lat="45.18061" lon="-72.61676">
        <ele>177.1</ele>
      </trkpt>
      <trkpt lat="45.18084" lon="-72.61676">
        <ele>175.9</ele>
      </trkpt>
      <trkpt lat="45.181345" lon="-72.616695">
        <ele>170</ele>
      </trkpt>
      <trkpt lat="45.18185" lon="-72.61663">
        <ele>162</ele>
      </trkpt>
      <trkpt lat="45.18216" lon="-72.61663">
        <ele>158.7</ele>
      </trkpt>
      <trkpt lat="45.18268" lon="-72.61667">
        <ele>156.9</ele>
      </trkpt>
      <trkpt lat="45.18305" lon="-72.61659">
        <ele>156.3</ele>
      </trkpt>
      <trkpt lat="45.183336" lon="-72.617786">
        <ele>157.6</ele>
      </trkpt>
      <trkpt lat="45.183623" lon="-72.618983">
        <ele>159.8</ele>
      </trkpt>
      <trkpt lat="45.18391" lon="-72.62018">
        <ele>162.1</ele>
      </trkpt>
      <trkpt lat="45.18407" lon="-72.620799">
        <ele>163.6</ele>
      </trkpt>
      <trkpt lat="45.18423" lon="-72.62142">
        <ele>166.7</ele>
      </trkpt>
      <trkpt lat="45.18438" lon="-72.622074">
        <ele>167.9</ele>
      </trkpt>
      <trkpt lat="45.18453" lon="-72.62273">
        <ele>169.2</ele>
      </trkpt>
      <trkpt lat="45.18463" lon="-72.62299">
        <ele>170.1</ele>
      </trkpt>
      <trkpt lat="45.18477" lon="-72.62325">
        <ele>171</ele>
      </trkpt>
      <trkpt lat="45.18529" lon="-72.62406">
        <ele>177.3</ele>
      </trkpt>
      <trkpt lat="45.18571" lon="-72.624833">
        <ele>181.9</ele>
      </trkpt>
      <trkpt lat="45.18613" lon="-72.625606">
        <ele>185.2</ele>
      </trkpt>
      <trkpt lat="45.18655" lon="-72.62638">
        <ele>185.6</ele>
      </trkpt>
      <trkpt lat="45.187013" lon="-72.627306">
        <ele>186</ele>
      </trkpt>
      <trkpt lat="45.187476" lon="-72.628233">
        <ele>185.8</ele>
      </trkpt>
      <trkpt lat="45.18794" lon="-72.62916">
        <ele>185.7</ele>
      </trkpt>
      <trkpt lat="45.18807" lon="-72.62938">
        <ele>186.2</ele>
      </trkpt>
      <trkpt lat="45.18818" lon="-72.62952">
        <ele>186.8</ele>
      </trkpt>
      <trkpt lat="45.188645" lon="-72.629854">
        <ele>188.6</ele>
      </trkpt>
      <trkpt lat="45.18911" lon="-72.63019">
        <ele>185.7</ele>
      </trkpt>
      <trkpt lat="45.18953" lon="-72.63055">
        <ele>186.6</ele>
      </trkpt>
      <trkpt lat="45.18982" lon="-72.63083">
        <ele>191.3</ele>
      </trkpt>
      <trkpt lat="45.1899" lon="-72.631">
        <ele>194.4</ele>
      </trkpt>
      <trkpt lat="45.19011" lon="-72.63181">
        <ele>197.5</ele>
      </trkpt>
      <trkpt lat="45.19035" lon="-72.63252">
        <ele>192.1</ele>
      </trkpt>
      <trkpt lat="45.19075" lon="-72.63346">
        <ele>186.3</ele>
      </trkpt>
      <trkpt lat="45.19084" lon="-72.63378">
        <ele>185.1</ele>
      </trkpt>
      <trkpt lat="45.19106" lon="-72.6349">
        <ele>184.8</ele>
      </trkpt>
      <trkpt lat="45.19122" lon="-72.63552">
        <ele>182.8</ele>
      </trkpt>
      <trkpt lat="45.19124" lon="-72.6357">
        <ele>180.8</ele>
      </trkpt>
      <trkpt lat="45.19126" lon="-72.636819">
        <ele>177.2</ele>
      </trkpt>
      <trkpt lat="45.19128" lon="-72.63794">
        <ele>174</ele>
      </trkpt>
      <trkpt lat="45.19131" lon="-72.63869">
        <ele>172.6</ele>
      </trkpt>
      <trkpt lat="45.19138" lon="-72.63957">
        <ele>171.2</ele>
      </trkpt>
      <trkpt lat="45.19153" lon="-72.64081">
        <ele>169.7</ele>
      </trkpt>
      <trkpt lat="45.191695" lon="-72.641704">
        <ele>168.1</ele>
      </trkpt>
      <trkpt lat="45.19186" lon="-72.6426">
        <ele>164.2</ele>
      </trkpt>
      <trkpt lat="45.19202" lon="-72.64363">
        <ele>165.3</ele>
      </trkpt>
      <trkpt lat="45.19225" lon="-72.64457">
        <ele>165.7</ele>
      </trkpt>
      <trkpt lat="45.192586" lon="-72.645733">
        <ele>164.4</ele>
      </trkpt>
      <trkpt lat="45.192923" lon="-72.646896">
        <ele>166</ele>
      </trkpt>
      <trkpt lat="45.19326" lon="-72.64806">
        <ele>163.1</ele>
      </trkpt>
      <trkpt lat="45.1934" lon="-72.648724">
        <ele>163.1</ele>
      </trkpt>
      <trkpt lat="45.19354" lon="-72.64939">
        <ele>163.2</ele>
      </trkpt>
      <trkpt lat="45.193775" lon="-72.650224">
        <ele>164.4</ele>
      </trkpt>
      <trkpt lat="45.19401" lon="-72.65106">
        <ele>166.8</ele>
      </trkpt>
      <trkpt lat="45.194773" lon="-72.651021">
        <ele>166.6</ele>
      </trkpt>
      <trkpt lat="45.195536" lon="-72.650983">
        <ele>167.9</ele>
      </trkpt>
      <trkpt lat="45.1963" lon="-72.650945">
        <ele>169.5</ele>
      </trkpt>
      <trkpt lat="45.197063" lon="-72.650906">
        <ele>171.9</ele>
      </trkpt>
      <trkpt lat="45.197826" lon="-72.650868">
        <ele>172.9</ele>
      </trkpt>
      <trkpt lat="45.19859" lon="-72.65083">
        <ele>173.4</ele>
      </trkpt>
      <trkpt lat="45.19924" lon="-72.650773">
        <ele>174.9</ele>
      </trkpt>
      <trkpt lat="45.19989" lon="-72.650716">
        <ele>179.1</ele>
      </trkpt>
      <trkpt lat="45.20054" lon="-72.65066">
        <ele>182.6</ele>
      </trkpt>
      <trkpt lat="45.201373" lon="-72.650643">
        <ele>183.7</ele>
      </trkpt>
      <trkpt lat="45.202206" lon="-72.650626">
        <ele>185</ele>
      </trkpt>
      <trkpt lat="45.20304" lon="-72.65061">
        <ele>188.4</ele>
      </trkpt>
      <trkpt lat="45.203773" lon="-72.650563">
        <ele>186.9</ele>
      </trkpt>
      <trkpt lat="45.204506" lon="-72.650516">
        <ele>184.8</ele>
      </trkpt>
      <trkpt lat="45.20524" lon="-72.65047">
        <ele>183.5</ele>
      </trkpt>
      <trkpt lat="45.20523" lon="-72.65047">
        <ele>183.5</ele>
      </trkpt>
      <trkpt lat="45.205824" lon="-72.65043">
        <ele>183.1</ele>
      </trkpt>
      <trkpt lat="45.20642" lon="-72.65039">
        <ele>183.8</ele>
      </trkpt>
      <trkpt lat="45.20682" lon="-72.65042">
        <ele>184.2</ele>
      </trkpt>
      <trkpt lat="45.20743" lon="-72.650405">
        <ele>186.3</ele>
      </trkpt>
      <trkpt lat="45.20804" lon="-72.65039">
        <ele>188.5</ele>
      </trkpt>
      <trkpt lat="45.20826" lon="-72.65042">
        <ele>189.3</ele>
      </trkpt>
      <trkpt lat="45.20858" lon="-72.65039">
        <ele>189.8</ele>
      </trkpt>
      <trkpt lat="45.20873" lon="-72.65035">
        <ele>189.7</ele>
      </trkpt>
      <trkpt lat="45.20958" lon="-72.650255">
        <ele>187</ele>
      </trkpt>
      <trkpt lat="45.21043" lon="-72.65016">
        <ele>181.4</ele>
      </trkpt>
      <trkpt lat="45.21061" lon="-72.65011">
        <ele>181.1</ele>
      </trkpt>
      <trkpt lat="45.21068" lon="-72.65007">
        <ele>180.4</ele>
      </trkpt>
      <trkpt lat="45.21098" lon="-72.64981">
        <ele>179.4</ele>
      </trkpt>
      <trkpt lat="45.21116" lon="-72.64971">
        <ele>178.8</ele>
      </trkpt>
      <trkpt lat="45.211925" lon="-72.649265">
        <ele>176.8</ele>
      </trkpt>
      <trkpt lat="45.21269" lon="-72.64882">
        <ele>172</ele>
      </trkpt>
      <trkpt lat="45.213455" lon="-72.648375">
        <ele>164.8</ele>
      </trkpt>
      <trkpt lat="45.21422" lon="-72.64793">
        <ele>165.1</ele>
      </trkpt>
      <trkpt lat="45.214873" lon="-72.647543">
        <ele>169.8</ele>
      </trkpt>
      <trkpt lat="45.215526" lon="-72.647156">
        <ele>175.5</ele>
      </trkpt>
      <trkpt lat="45.21618" lon="-72.64677">
        <ele>182.1</ele>
      </trkpt>
      <trkpt lat="45.216875" lon="-72.64638">
        <ele>185.7</ele>
      </trkpt>
      <trkpt lat="45.21757" lon="-72.64599">
        <ele>187.8</ele>
      </trkpt>
      <trkpt lat="45.21826" lon="-72.6456">
        <ele>190.7</ele>
      </trkpt>
      <trkpt lat="45.21896" lon="-72.64524">
        <ele>192.6</ele>
      </trkpt>
      <trkpt lat="45.21966" lon="-72.64488">
        <ele>194</ele>
      </trkpt>
      <trkpt lat="45.22036" lon="-72.64452">
        <ele>197.6</ele>
      </trkpt>
      <trkpt lat="45.221066" lon="-72.64417">
        <ele>204.3</ele>
      </trkpt>
      <trkpt lat="45.221773" lon="-72.64382">
        <ele>210</ele>
      </trkpt>
      <trkpt lat="45.22248" lon="-72.64347">
        <ele>214.9</ele>
      </trkpt>
      <trkpt lat="45.22267" lon="-72.64242">
        <ele>214</ele>
      </trkpt>
      <trkpt lat="45.2228" lon="-72.6418">
        <ele>217</ele>
      </trkpt>
      <trkpt lat="45.22293" lon="-72.6413">
        <ele>220.2</ele>
      </trkpt>
      <trkpt lat="45.22315" lon="-72.64071">
        <ele>224.5</ele>
      </trkpt>
      <trkpt lat="45.22329" lon="-72.64041">
        <ele>225.9</ele>
      </trkpt>
      <trkpt lat="45.2234" lon="-72.64023">
        <ele>227.2</ele>
      </trkpt>
      <trkpt lat="45.2234" lon="-72.64024">
        <ele>227.2</ele>
      </trkpt>
      <trkpt lat="45.22386" lon="-72.63952">
        <ele>229.2</ele>
      </trkpt>
      <trkpt lat="45.22433" lon="-72.638885">
        <ele>227.8</ele>
      </trkpt>
      <trkpt lat="45.2248" lon="-72.63825">
        <ele>228.8</ele>
      </trkpt>
      <trkpt lat="45.22488" lon="-72.63812">
        <ele>228.8</ele>
      </trkpt>
      <trkpt lat="45.22497" lon="-72.63781">
        <ele>228.1</ele>
      </trkpt>
      <trkpt lat="45.22499" lon="-72.63767">
        <ele>227.4</ele>
      </trkpt>
      <trkpt lat="45.22498" lon="-72.63699">
        <ele>226.3</ele>
      </trkpt>
      <trkpt lat="45.22495" lon="-72.636234">
        <ele>225.6</ele>
      </trkpt>
      <trkpt lat="45.22492" lon="-72.63548">
        <ele>225.3</ele>
      </trkpt>
      <trkpt lat="45.224855" lon="-72.634269">
        <ele>223.8</ele>
      </trkpt>
      <trkpt lat="45.22479" lon="-72.63306">
        <ele>223</ele>
      </trkpt>
      <trkpt lat="45.22477" lon="-72.632415">
        <ele>222.8</ele>
      </trkpt>
      <trkpt lat="45.22475" lon="-72.63177">
        <ele>221.5</ele>
      </trkpt>
      <trkpt lat="45.225619" lon="-72.63177">
        <ele>222.7</ele>
      </trkpt>
      <trkpt lat="45.22649" lon="-72.63177">
        <ele>224.9</ele>
      </trkpt>
      <trkpt lat="45.226955" lon="-72.631765">
        <ele>227.2</ele>
      </trkpt>
      <trkpt lat="45.22742" lon="-72.63176">
        <ele>230.3</ele>
      </trkpt>
      <trkpt lat="45.22771" lon="-72.63172">
        <ele>232.6</ele>
      </trkpt>
      <trkpt lat="45.228195" lon="-72.631715">
        <ele>234.9</ele>
      </trkpt>
      <trkpt lat="45.22868" lon="-72.63171">
        <ele>239.5</ele>
      </trkpt>
      <trkpt lat="45.22867" lon="-72.63171">
        <ele>239.4</ele>
      </trkpt>
      <trkpt lat="45.22941" lon="-72.63169">
        <ele>246.8</ele>
      </trkpt>
      <trkpt lat="45.23015" lon="-72.63167">
        <ele>253.7</ele>
      </trkpt>
      <trkpt lat="45.23027" lon="-72.63172">
        <ele>254.7</ele>
      </trkpt>
      <trkpt lat="45.23031" lon="-72.6318">
        <ele>255.1</ele>
      </trkpt>
      <trkpt lat="45.23036" lon="-72.63198">
        <ele>255.7</ele>
      </trkpt>
      <trkpt lat="45.23038" lon="-72.63258">
        <ele>256.5</ele>
      </trkpt>
      <trkpt lat="45.230375" lon="-72.633539">
        <ele>262.2</ele>
      </trkpt>
      <trkpt lat="45.23037" lon="-72.6345">
        <ele>271</ele>
      </trkpt>
      <trkpt lat="45.230395" lon="-72.635345">
        <ele>279.5</ele>
      </trkpt>
      <trkpt lat="45.23042" lon="-72.63619">
        <ele>284.1</ele>
      </trkpt>
      <trkpt lat="45.23043" lon="-72.63745">
        <ele>285.6</ele>
      </trkpt>
      <trkpt lat="45.23047" lon="-72.63812">
        <ele>292.1</ele>
      </trkpt>
      <trkpt lat="45.2305" lon="-72.638924">
        <ele>296.2</ele>
      </trkpt>
      <trkpt lat="45.23053" lon="-72.63973">
        <ele>298.7</ele>
      </trkpt>
      <trkpt lat="45.23052" lon="-72.64018">
        <ele>299.1</ele>
      </trkpt>
      <trkpt lat="45.23041" lon="-72.64054">
        <ele>298.5</ele>
      </trkpt>
      <trkpt lat="45.23032" lon="-72.64068">
        <ele>297.6</ele>
      </trkpt>
      <trkpt lat="45.23014" lon="-72.6412">
        <ele>294.7</ele>
      </trkpt>
      <trkpt lat="45.229915" lon="-72.64197">
        <ele>285.7</ele>
      </trkpt>
      <trkpt lat="45.22969" lon="-72.64274">
        <ele>277</ele>
      </trkpt>
      <trkpt lat="45.22954" lon="-72.643385">
        <ele>271.5</ele>
      </trkpt>
      <trkpt lat="45.22939" lon="-72.64403">
        <ele>265</ele>
      </trkpt>
      <trkpt lat="45.22906" lon="-72.64515">
        <ele>254.7</ele>
      </trkpt>
      <trkpt lat="45.22898" lon="-72.6455">
        <ele>251.9</ele>
      </trkpt>
      <trkpt lat="45.22882" lon="-72.646315">
        <ele>245.1</ele>
      </trkpt>
      <trkpt lat="45.22866" lon="-72.64713">
        <ele>240.8</ele>
      </trkpt>
      <trkpt lat="45.22863" lon="-72.64748">
        <ele>239</ele>
      </trkpt>
      <trkpt lat="45.228625" lon="-72.64815">
        <ele>232.2</ele>
      </trkpt>
      <trkpt lat="45.22862" lon="-72.64882">
        <ele>227.7</ele>
      </trkpt>
      <trkpt lat="45.22864" lon="-72.650026">
        <ele>223.7</ele>
      </trkpt>
      <trkpt lat="45.22866" lon="-72.651233">
        <ele>221.5</ele>
      </trkpt>
      <trkpt lat="45.22868" lon="-72.65244">
        <ele>219.4</ele>
      </trkpt>
      <trkpt lat="45.2287" lon="-72.65321">
        <ele>219</ele>
      </trkpt>
      <trkpt lat="45.22876" lon="-72.654259">
        <ele>217.7</ele>
      </trkpt>
      <trkpt lat="45.22882" lon="-72.65531">
        <ele>218.6</ele>
      </trkpt>
      <trkpt lat="45.22885" lon="-72.656004">
        <ele>220.9</ele>
      </trkpt>
      <trkpt lat="45.22888" lon="-72.6567">
        <ele>225.3</ele>
      </trkpt>
      <trkpt lat="45.22887" lon="-72.65733">
        <ele>230</ele>
      </trkpt>
      <trkpt lat="45.22897" lon="-72.658596">
        <ele>229.9</ele>
      </trkpt>
      <trkpt lat="45.22907" lon="-72.659863">
        <ele>229.9</ele>
      </trkpt>
      <trkpt lat="45.22917" lon="-72.66113">
        <ele>227.4</ele>
      </trkpt>
      <trkpt lat="45.2293" lon="-72.66226">
        <ele>228</ele>
      </trkpt>
      <trkpt lat="45.22936" lon="-72.66238">
        <ele>228.2</ele>
      </trkpt>
      <trkpt lat="45.22943" lon="-72.66247">
        <ele>228.2</ele>
      </trkpt>
      <trkpt lat="45.22986" lon="-72.66279">
        <ele>224.5</ele>
      </trkpt>
      <trkpt lat="45.23006" lon="-72.66288">
        <ele>221.4</ele>
      </trkpt>
      <trkpt lat="45.23013" lon="-72.66296">
        <ele>220.5</ele>
      </trkpt>
      <trkpt lat="45.23021" lon="-72.66318">
        <ele>218.8</ele>
      </trkpt>
      <trkpt lat="45.230315" lon="-72.663969">
        <ele>215.7</ele>
      </trkpt>
      <trkpt lat="45.23042" lon="-72.66476">
        <ele>211.5</ele>
      </trkpt>
      <trkpt lat="45.23053" lon="-72.66579">
        <ele>205.2</ele>
      </trkpt>
      <trkpt lat="45.23052" lon="-72.66641">
        <ele>204</ele>
      </trkpt>
      <trkpt lat="45.23058" lon="-72.6673">
        <ele>202.2</ele>
      </trkpt>
      <trkpt lat="45.23063" lon="-72.66759">
        <ele>200.8</ele>
      </trkpt>
      <trkpt lat="45.23087" lon="-72.66854">
        <ele>200.7</ele>
      </trkpt>
      <trkpt lat="45.23102" lon="-72.66852">
        <ele>202.6</ele>
      </trkpt>
      <trkpt lat="45.23156" lon="-72.6683">
        <ele>207.2</ele>
      </trkpt>
      <trkpt lat="45.23184" lon="-72.66826">
        <ele>211.4</ele>
      </trkpt>
      <trkpt lat="45.23226" lon="-72.66825">
        <ele>209.4</ele>
      </trkpt>
      <trkpt lat="45.23249" lon="-72.6682">
        <ele>206.6</ele>
      </trkpt>
      <trkpt lat="45.23269" lon="-72.66807">
        <ele>204</ele>
      </trkpt>
      <trkpt lat="45.23296" lon="-72.66776">
        <ele>198.2</ele>
      </trkpt>
      <trkpt lat="45.23307" lon="-72.66753">
        <ele>196.5</ele>
      </trkpt>
      <trkpt lat="45.23313" lon="-72.66727">
        <ele>194.9</ele>
      </trkpt>
      <trkpt lat="45.23318" lon="-72.66718">
        <ele>194.3</ele>
      </trkpt>
      <trkpt lat="45.2335" lon="-72.66686">
        <ele>192.6</ele>
      </trkpt>
      <trkpt lat="45.2339" lon="-72.66624">
        <ele>187.7</ele>
      </trkpt>
      <trkpt lat="45.23407" lon="-72.66571">
        <ele>185.5</ele>
      </trkpt>
      <trkpt lat="45.23426" lon="-72.66529">
        <ele>183.7</ele>
      </trkpt>
      <trkpt lat="45.23431" lon="-72.66511">
        <ele>182.8</ele>
      </trkpt>
      <trkpt lat="45.23472" lon="-72.66431">
        <ele>182.3</ele>
      </trkpt>
      <trkpt lat="45.23503" lon="-72.66383">
        <ele>182.9</ele>
      </trkpt>
      <trkpt lat="45.23513" lon="-72.66379">
        <ele>182.7</ele>
      </trkpt>
      <trkpt lat="45.23526" lon="-72.66347">
        <ele>181.8</ele>
      </trkpt>
      <trkpt lat="45.235715" lon="-72.66253">
        <ele>182.4</ele>
      </trkpt>
      <trkpt lat="45.23617" lon="-72.66159">
        <ele>184.5</ele>
      </trkpt>
      <trkpt lat="45.23656" lon="-72.66086">
        <ele>188.2</ele>
      </trkpt>
      <trkpt lat="45.236925" lon="-72.6601">
        <ele>190</ele>
      </trkpt>
      <trkpt lat="45.23729" lon="-72.65934">
        <ele>187.3</ele>
      </trkpt>
      <trkpt lat="45.237695" lon="-72.658395">
        <ele>185.9</ele>
      </trkpt>
      <trkpt lat="45.2381" lon="-72.65745">
        <ele>184.4</ele>
      </trkpt>
      <trkpt lat="45.23882" lon="-72.657415">
        <ele>182.2</ele>
      </trkpt>
      <trkpt lat="45.23954" lon="-72.65738">
        <ele>179</ele>
      </trkpt>
      <trkpt lat="45.24026" lon="-72.657345">
        <ele>176.8</ele>
      </trkpt>
      <trkpt lat="45.24098" lon="-72.65731">
        <ele>171.2</ele>
      </trkpt>
      <trkpt lat="45.24097" lon="-72.65731">
        <ele>171.2</ele>
      </trkpt>
      <trkpt lat="45.24184" lon="-72.65727">
        <ele>165.5</ele>
      </trkpt>
      <trkpt lat="45.242476" lon="-72.657213">
        <ele>163.6</ele>
      </trkpt>
      <trkpt lat="45.243113" lon="-72.657156">
        <ele>166.5</ele>
      </trkpt>
      <trkpt lat="45.24375" lon="-72.6571">
        <ele>173</ele>
      </trkpt>
      <trkpt lat="45.244229" lon="-72.65708">
        <ele>177.6</ele>
      </trkpt>
      <trkpt lat="45.24471" lon="-72.65706">
        <ele>180.8</ele>
      </trkpt>
      <trkpt lat="45.245386" lon="-72.65699">
        <ele>184.3</ele>
      </trkpt>
      <trkpt lat="45.246063" lon="-72.65692">
        <ele>185.2</ele>
      </trkpt>
      <trkpt lat="45.24674" lon="-72.65685">
        <ele>187.4</ele>
      </trkpt>
      <trkpt lat="45.24762" lon="-72.65672">
        <ele>191.9</ele>
      </trkpt>
      <trkpt lat="45.24801" lon="-72.6567">
        <ele>193.1</ele>
      </trkpt>
      <trkpt lat="45.248773" lon="-72.656716">
        <ele>191.4</ele>
      </trkpt>
      <trkpt lat="45.249536" lon="-72.656733">
        <ele>189.2</ele>
      </trkpt>
      <trkpt lat="45.2503" lon="-72.65675">
        <ele>188.4</ele>
      </trkpt>
      <trkpt lat="45.25116" lon="-72.65679">
        <ele>187.6</ele>
      </trkpt>
      <trkpt lat="45.25201" lon="-72.65679">
        <ele>186</ele>
      </trkpt>
      <trkpt lat="45.25277" lon="-72.656755">
        <ele>178.4</ele>
      </trkpt>
      <trkpt lat="45.25353" lon="-72.65672">
        <ele>173.8</ele>
      </trkpt>
      <trkpt lat="45.25429" lon="-72.656685">
        <ele>171.5</ele>
      </trkpt>
      <trkpt lat="45.25505" lon="-72.65665">
        <ele>162</ele>
      </trkpt>
      <trkpt lat="45.25591" lon="-72.656633">
        <ele>153.8</ele>
      </trkpt>
      <trkpt lat="45.25677" lon="-72.656616">
        <ele>152.8</ele>
      </trkpt>
      <trkpt lat="45.25763" lon="-72.6566">
        <ele>155.7</ele>
      </trkpt>
      <trkpt lat="45.25787" lon="-72.65662">
        <ele>155.5</ele>
      </trkpt>
      <trkpt lat="45.258639" lon="-72.656649">
        <ele>151.9</ele>
      </trkpt>
      <trkpt lat="45.25941" lon="-72.65668">
        <ele>149.8</ele>
      </trkpt>
      <trkpt lat="45.260095" lon="-72.656684">
        <ele>152.4</ele>
      </trkpt>
      <trkpt lat="45.26078" lon="-72.65669">
        <ele>155.1</ele>
      </trkpt>
      <trkpt lat="45.26124" lon="-72.65664">
        <ele>157</ele>
      </trkpt>
      <trkpt lat="45.26131" lon="-72.65581">
        <ele>158.4</ele>
      </trkpt>
      <trkpt lat="45.26128" lon="-72.65532">
        <ele>158.7</ele>
      </trkpt>
      <trkpt lat="45.26118" lon="-72.654464">
        <ele>159.6</ele>
      </trkpt>
      <trkpt lat="45.26108" lon="-72.65361">
        <ele>162.5</ele>
      </trkpt>
      <trkpt lat="45.26106" lon="-72.652639">
        <ele>163.1</ele>
      </trkpt>
      <trkpt lat="45.26104" lon="-72.651669">
        <ele>161.1</ele>
      </trkpt>
      <trkpt lat="45.26102" lon="-72.6507">
        <ele>156.9</ele>
      </trkpt>
      <trkpt lat="45.26101" lon="-72.65007">
        <ele>156.8</ele>
      </trkpt>
      <trkpt lat="45.26096" lon="-72.64943">
        <ele>158.4</ele>
      </trkpt>
      <trkpt lat="45.26087" lon="-72.64851">
        <ele>160.4</ele>
      </trkpt>
      <trkpt lat="45.26081" lon="-72.64819">
        <ele>161.2</ele>
      </trkpt>
      <trkpt lat="45.26078" lon="-72.64739">
        <ele>163.4</ele>
      </trkpt>
      <trkpt lat="45.26078" lon="-72.64661">
        <ele>168.1</ele>
      </trkpt>
      <trkpt lat="45.26078" lon="-72.64583">
        <ele>168.4</ele>
      </trkpt>
      <trkpt lat="45.2608" lon="-72.64508">
        <ele>166.5</ele>
      </trkpt>
      <trkpt lat="45.26127" lon="-72.64525">
        <ele>166.5</ele>
      </trkpt>
      <trkpt lat="45.26193" lon="-72.64546">
        <ele>169.2</ele>
      </trkpt>
      <trkpt lat="45.262395" lon="-72.645634">
        <ele>171.9</ele>
      </trkpt>
      <trkpt lat="45.26286" lon="-72.64581">
        <ele>174.3</ele>
      </trkpt>
      <trkpt lat="45.263389" lon="-72.645969">
        <ele>177.7</ele>
      </trkpt>
      <trkpt lat="45.26392" lon="-72.64613">
        <ele>179.5</ele>
      </trkpt>
      <trkpt lat="45.264585" lon="-72.646374">
        <ele>181</ele>
      </trkpt>
      <trkpt lat="45.26525" lon="-72.64662">
        <ele>180.2</ele>
      </trkpt>
      <trkpt lat="45.26572" lon="-72.64663">
        <ele>178</ele>
      </trkpt>
      <trkpt lat="45.26602" lon="-72.64658">
        <ele>177.1</ele>
      </trkpt>
      <trkpt lat="45.266635" lon="-72.64642">
        <ele>176.3</ele>
      </trkpt>
      <trkpt lat="45.26725" lon="-72.64626">
        <ele>174.6</ele>
      </trkpt>
      <trkpt lat="45.26761" lon="-72.64635">
        <ele>173.9</ele>
      </trkpt>
      <trkpt lat="45.26776" lon="-72.64644">
        <ele>173.8</ele>
      </trkpt>
      <trkpt lat="45.26795" lon="-72.64663">
        <ele>173.5</ele>
      </trkpt>
      <trkpt lat="45.26818" lon="-72.64725">
        <ele>171.1</ele>
      </trkpt>
      <trkpt lat="45.268465" lon="-72.648079">
        <ele>165.9</ele>
      </trkpt>
      <trkpt lat="45.26875" lon="-72.64891">
        <ele>163.1</ele>
      </trkpt>
      <trkpt lat="45.26902" lon="-72.649539">
        <ele>165.5</ele>
      </trkpt>
      <trkpt lat="45.26929" lon="-72.65017">
        <ele>170.1</ele>
      </trkpt>
      <trkpt lat="45.26953" lon="-72.65061">
        <ele>172</ele>
      </trkpt>
      <trkpt lat="45.27005" lon="-72.65114">
        <ele>177.6</ele>
      </trkpt>
      <trkpt lat="45.27072" lon="-72.651904">
        <ele>180.8</ele>
      </trkpt>
      <trkpt lat="45.27139" lon="-72.65267">
        <ele>181.3</ele>
      </trkpt>
      <trkpt lat="45.27142" lon="-72.65294">
        <ele>179.7</ele>
      </trkpt>
      <trkpt lat="45.27128" lon="-72.654195">
        <ele>173.2</ele>
      </trkpt>
      <trkpt lat="45.27114" lon="-72.65545">
        <ele>170</ele>
      </trkpt>
      <trkpt lat="45.27098" lon="-72.65652">
        <ele>167.3</ele>
      </trkpt>
      <trkpt lat="45.27082" lon="-72.65759">
        <ele>167</ele>
      </trkpt>
      <trkpt lat="45.270676" lon="-72.658786">
        <ele>164.4</ele>
      </trkpt>
      <trkpt lat="45.270533" lon="-72.659983">
        <ele>159.6</ele>
      </trkpt>
      <trkpt lat="45.27039" lon="-72.66118">
        <ele>156</ele>
      </trkpt>
      <trkpt lat="45.27039" lon="-72.66119">
        <ele>156</ele>
      </trkpt>
      <trkpt lat="45.27023" lon="-72.66243">
        <ele>155.2</ele>
      </trkpt>
      <trkpt lat="45.27021" lon="-72.66297">
        <ele>154.8</ele>
      </trkpt>
      <trkpt lat="45.27024" lon="-72.66422">
        <ele>151.8</ele>
      </trkpt>
      <trkpt lat="45.27017" lon="-72.66486">
        <ele>148.1</ele>
      </trkpt>
      <trkpt lat="45.26995" lon="-72.6659">
        <ele>145.8</ele>
      </trkpt>
      <trkpt lat="45.26973" lon="-72.66694">
        <ele>141.7</ele>
      </trkpt>
      <trkpt lat="45.26951" lon="-72.66798">
        <ele>138.9</ele>
      </trkpt>
      <trkpt lat="45.26942" lon="-72.66864">
        <ele>137.5</ele>
      </trkpt>
      <trkpt lat="45.26938" lon="-72.66937">
        <ele>136.6</ele>
      </trkpt>
      <trkpt lat="45.26937" lon="-72.66991">
        <ele>136</ele>
      </trkpt>
      <trkpt lat="45.26944" lon="-72.67018">
        <ele>136</ele>
      </trkpt>
      <trkpt lat="45.26961" lon="-72.67041">
        <ele>136.1</ele>
      </trkpt>
      <trkpt lat="45.270065" lon="-72.670884">
        <ele>136.5</ele>
      </trkpt>
      <trkpt lat="45.27052" lon="-72.67136">
        <ele>136.6</ele>
      </trkpt>
    </trkseg>
  </trk>
</gpx>