<?xml version='1.0' encoding='utf-8'?>
<gpx xmlns="http://www.topografix.com/GPX/1/1" xmlns:xsi="http://www.w3.org/2001/XMLSchema-instance" version="1.1" creator="Gravelle Estrie" xsi:schemaLocation="http://www.topografix.com/GPX/1/1 http://www.topografix.com/GPX/1/1/gpx.xsd">
  <metadata>
    <name>Drive All Night</name>
  </metadata>
  <trk>
    <name>Drive All Night</name>
    <trkseg>
      <trkpt lat="45.2702" lon="-72.67102">
        <ele>136.8</ele>
      </trkpt>
      <trkpt lat="45.26961" lon="-72.67041">
        <ele>136.1</ele>
      </trkpt>
      <trkpt lat="45.26944" lon="-72.67018">
        <ele>136</ele>
      </trkpt>
      <trkpt lat="45.26937" lon="-72.66991">
        <ele>136</ele>
      </trkpt>
      <trkpt lat="45.26938" lon="-72.66937">
        <ele>136.3</ele>
      </trkpt>
      <trkpt lat="45.26942" lon="-72.66864">
        <ele>137.4</ele>
      </trkpt>
      <trkpt lat="45.26951" lon="-72.66798">
        <ele>138.8</ele>
      </trkpt>
      <trkpt lat="45.26973" lon="-72.66694">
        <ele>141.3</ele>
      </trkpt>
      <trkpt lat="45.26995" lon="-72.6659">
        <ele>144.8</ele>
      </trkpt>
      <trkpt lat="45.27017" lon="-72.66486">
        <ele>149.1</ele>
      </trkpt>
      <trkpt lat="45.27024" lon="-72.66422">
        <ele>151.3</ele>
      </trkpt>
      <trkpt lat="45.27021" lon="-72.66297">
        <ele>154.5</ele>
      </trkpt>
      <trkpt lat="45.27023" lon="-72.66243">
        <ele>154.8</ele>
      </trkpt>
      <trkpt lat="45.27038" lon="-72.66131">
        <ele>155.3</ele>
      </trkpt>
      <trkpt lat="45.270526" lon="-72.66007">
        <ele>159.8</ele>
      </trkpt>
      <trkpt lat="45.270673" lon="-72.65883">
        <ele>164.2</ele>
      </trkpt>
      <trkpt lat="45.27082" lon="-72.65759">
        <ele>166.7</ele>
      </trkpt>
      <trkpt lat="45.27096" lon="-72.65662">
        <ele>167</ele>
      </trkpt>
      <trkpt lat="45.27096" lon="-72.65663">
        <ele>167</ele>
      </trkpt>
      <trkpt lat="45.27114" lon="-72.65545">
        <ele>169.8</ele>
      </trkpt>
      <trkpt lat="45.27128" lon="-72.654195">
        <ele>173.5</ele>
      </trkpt>
      <trkpt lat="45.27142" lon="-72.65294">
        <ele>179.6</ele>
      </trkpt>
      <trkpt lat="45.27139" lon="-72.65267">
        <ele>181.1</ele>
      </trkpt>
      <trkpt lat="45.27072" lon="-72.651904">
        <ele>180.7</ele>
      </trkpt>
      <trkpt lat="45.27005" lon="-72.65114">
        <ele>177.4</ele>
      </trkpt>
      <trkpt lat="45.26953" lon="-72.65061">
        <ele>173</ele>
      </trkpt>
      <trkpt lat="45.26929" lon="-72.65017">
        <ele>169.5</ele>
      </trkpt>
      <trkpt lat="45.26886" lon="-72.64918">
        <ele>163.4</ele>
      </trkpt>
      <trkpt lat="45.26867" lon="-72.64869">
        <ele>163.3</ele>
      </trkpt>
      <trkpt lat="45.268445" lon="-72.648039">
        <ele>166.3</ele>
      </trkpt>
      <trkpt lat="45.26822" lon="-72.64739">
        <ele>170.5</ele>
      </trkpt>
      <trkpt lat="45.26795" lon="-72.64663">
        <ele>173.4</ele>
      </trkpt>
      <trkpt lat="45.26776" lon="-72.64644">
        <ele>173.4</ele>
      </trkpt>
      <trkpt lat="45.26761" lon="-72.64635">
        <ele>173.5</ele>
      </trkpt>
      <trkpt lat="45.26725" lon="-72.64626">
        <ele>174</ele>
      </trkpt>
      <trkpt lat="45.266635" lon="-72.64642">
        <ele>175.7</ele>
      </trkpt>
      <trkpt lat="45.26602" lon="-72.64658">
        <ele>176.8</ele>
      </trkpt>
      <trkpt lat="45.26572" lon="-72.64663">
        <ele>177.7</ele>
      </trkpt>
      <trkpt lat="45.26525" lon="-72.64662">
        <ele>180.1</ele>
      </trkpt>
      <trkpt lat="45.264585" lon="-72.646374">
        <ele>180.5</ele>
      </trkpt>
      <trkpt lat="45.26392" lon="-72.64613">
        <ele>178.7</ele>
      </trkpt>
      <trkpt lat="45.26339" lon="-72.645969">
        <ele>176.8</ele>
      </trkpt>
      <trkpt lat="45.26286" lon="-72.64581">
        <ele>173.8</ele>
      </trkpt>
      <trkpt lat="45.262395" lon="-72.645634">
        <ele>171</ele>
      </trkpt>
      <trkpt lat="45.26193" lon="-72.64546">
        <ele>168.1</ele>
      </trkpt>
      <trkpt lat="45.26117" lon="-72.64522">
        <ele>166.1</ele>
      </trkpt>
      <trkpt lat="45.2608" lon="-72.64508">
        <ele>166.2</ele>
      </trkpt>
      <trkpt lat="45.260855" lon="-72.64433">
        <ele>163.1</ele>
      </trkpt>
      <trkpt lat="45.26091" lon="-72.64358">
        <ele>161</ele>
      </trkpt>
      <trkpt lat="45.26091" lon="-72.64327">
        <ele>159.6</ele>
      </trkpt>
      <trkpt lat="45.260786" lon="-72.642179">
        <ele>154.1</ele>
      </trkpt>
      <trkpt lat="45.260663" lon="-72.641089">
        <ele>154.6</ele>
      </trkpt>
      <trkpt lat="45.26054" lon="-72.64">
        <ele>155.3</ele>
      </trkpt>
      <trkpt lat="45.260417" lon="-72.639009">
        <ele>155.8</ele>
      </trkpt>
      <trkpt lat="45.260295" lon="-72.638019">
        <ele>156.5</ele>
      </trkpt>
      <trkpt lat="45.260172" lon="-72.637029">
        <ele>157.3</ele>
      </trkpt>
      <trkpt lat="45.26005" lon="-72.63604">
        <ele>157.9</ele>
      </trkpt>
      <trkpt lat="45.259975" lon="-72.635399">
        <ele>158.9</ele>
      </trkpt>
      <trkpt lat="45.2599" lon="-72.63476">
        <ele>161.9</ele>
      </trkpt>
      <trkpt lat="45.25995" lon="-72.63435">
        <ele>164.8</ele>
      </trkpt>
      <trkpt lat="45.26004" lon="-72.63396">
        <ele>165.9</ele>
      </trkpt>
      <trkpt lat="45.26006" lon="-72.6337">
        <ele>166.4</ele>
      </trkpt>
      <trkpt lat="45.25993" lon="-72.63257">
        <ele>169.2</ele>
      </trkpt>
      <trkpt lat="45.25983" lon="-72.63202">
        <ele>172</ele>
      </trkpt>
      <trkpt lat="45.25977" lon="-72.63183">
        <ele>173.1</ele>
      </trkpt>
      <trkpt lat="45.26027" lon="-72.63212">
        <ele>175.8</ele>
      </trkpt>
      <trkpt lat="45.26083" lon="-72.632499">
        <ele>181.3</ele>
      </trkpt>
      <trkpt lat="45.26139" lon="-72.63288">
        <ele>180.5</ele>
      </trkpt>
      <trkpt lat="45.26155" lon="-72.63297">
        <ele>180.2</ele>
      </trkpt>
      <trkpt lat="45.26183" lon="-72.63324">
        <ele>178</ele>
      </trkpt>
      <trkpt lat="45.26209" lon="-72.6336">
        <ele>174.6</ele>
      </trkpt>
      <trkpt lat="45.2623" lon="-72.63382">
        <ele>172.4</ele>
      </trkpt>
      <trkpt lat="45.26247" lon="-72.63395">
        <ele>171.7</ele>
      </trkpt>
      <trkpt lat="45.2629" lon="-72.63413">
        <ele>167</ele>
      </trkpt>
      <trkpt lat="45.26318" lon="-72.63417">
        <ele>165.9</ele>
      </trkpt>
      <trkpt lat="45.26362" lon="-72.6341">
        <ele>165.1</ele>
      </trkpt>
      <trkpt lat="45.26413" lon="-72.633965">
        <ele>170.1</ele>
      </trkpt>
      <trkpt lat="45.26464" lon="-72.63383">
        <ele>172.1</ele>
      </trkpt>
      <trkpt lat="45.26487" lon="-72.63373">
        <ele>171.5</ele>
      </trkpt>
      <trkpt lat="45.26543" lon="-72.63333">
        <ele>169.8</ele>
      </trkpt>
      <trkpt lat="45.26573" lon="-72.63315">
        <ele>172.5</ele>
      </trkpt>
      <trkpt lat="45.26624" lon="-72.63293">
        <ele>178.9</ele>
      </trkpt>
      <trkpt lat="45.266835" lon="-72.632725">
        <ele>184.9</ele>
      </trkpt>
      <trkpt lat="45.26743" lon="-72.63252">
        <ele>192.6</ele>
      </trkpt>
      <trkpt lat="45.2677" lon="-72.63235">
        <ele>195.5</ele>
      </trkpt>
      <trkpt lat="45.26788" lon="-72.6321">
        <ele>196.8</ele>
      </trkpt>
      <trkpt lat="45.26805" lon="-72.63163">
        <ele>198.2</ele>
      </trkpt>
      <trkpt lat="45.268353" lon="-72.630673">
        <ele>200.5</ele>
      </trkpt>
      <trkpt lat="45.268656" lon="-72.629716">
        <ele>204.3</ele>
      </trkpt>
      <trkpt lat="45.26896" lon="-72.62876">
        <ele>205.2</ele>
      </trkpt>
      <trkpt lat="45.269323" lon="-72.62803">
        <ele>206.4</ele>
      </trkpt>
      <trkpt lat="45.269686" lon="-72.6273">
        <ele>206.7</ele>
      </trkpt>
      <trkpt lat="45.27005" lon="-72.62657">
        <ele>207.6</ele>
      </trkpt>
      <trkpt lat="45.27005" lon="-72.62658">
        <ele>207.6</ele>
      </trkpt>
      <trkpt lat="45.270555" lon="-72.625615">
        <ele>208.1</ele>
      </trkpt>
      <trkpt lat="45.27106" lon="-72.62465">
        <ele>209</ele>
      </trkpt>
      <trkpt lat="45.27148" lon="-72.62379">
        <ele>208.7</ele>
      </trkpt>
      <trkpt lat="45.27192" lon="-72.62383">
        <ele>212.4</ele>
      </trkpt>
      <trkpt lat="45.272603" lon="-72.623726">
        <ele>219.6</ele>
      </trkpt>
      <trkpt lat="45.273286" lon="-72.623623">
        <ele>224.6</ele>
      </trkpt>
      <trkpt lat="45.27397" lon="-72.62352">
        <ele>230.3</ele>
      </trkpt>
      <trkpt lat="45.27484" lon="-72.623455">
        <ele>238.4</ele>
      </trkpt>
      <trkpt lat="45.27571" lon="-72.62339">
        <ele>244</ele>
      </trkpt>
      <trkpt lat="45.27631" lon="-72.62304">
        <ele>238.9</ele>
      </trkpt>
      <trkpt lat="45.27683" lon="-72.62278">
        <ele>234.6</ele>
      </trkpt>
      <trkpt lat="45.27735" lon="-72.62252">
        <ele>229.2</ele>
      </trkpt>
      <trkpt lat="45.27714" lon="-72.62147">
        <ele>227.5</ele>
      </trkpt>
      <trkpt lat="45.27707" lon="-72.62129">
        <ele>227</ele>
      </trkpt>
      <trkpt lat="45.27697" lon="-72.62115">
        <ele>226.4</ele>
      </trkpt>
      <trkpt lat="45.27685" lon="-72.62109">
        <ele>225.8</ele>
      </trkpt>
      <trkpt lat="45.2768" lon="-72.62106">
        <ele>225</ele>
      </trkpt>
      <trkpt lat="45.27667" lon="-72.62088">
        <ele>223.1</ele>
      </trkpt>
      <trkpt lat="45.27662" lon="-72.62065">
        <ele>219.9</ele>
      </trkpt>
      <trkpt lat="45.276565" lon="-72.619657">
        <ele>211.8</ele>
      </trkpt>
      <trkpt lat="45.27651" lon="-72.618664">
        <ele>208</ele>
      </trkpt>
      <trkpt lat="45.276455" lon="-72.617672">
        <ele>207</ele>
      </trkpt>
      <trkpt lat="45.2764" lon="-72.61668">
        <ele>206.3</ele>
      </trkpt>
      <trkpt lat="45.276346" lon="-72.615594">
        <ele>207.1</ele>
      </trkpt>
      <trkpt lat="45.276293" lon="-72.614509">
        <ele>211.7</ele>
      </trkpt>
      <trkpt lat="45.27624" lon="-72.613424">
        <ele>221.5</ele>
      </trkpt>
      <trkpt lat="45.276186" lon="-72.612339">
        <ele>226.4</ele>
      </trkpt>
      <trkpt lat="45.276133" lon="-72.611254">
        <ele>231.9</ele>
      </trkpt>
      <trkpt lat="45.27608" lon="-72.61017">
        <ele>236.7</ele>
      </trkpt>
      <trkpt lat="45.27605" lon="-72.60924">
        <ele>238.2</ele>
      </trkpt>
      <trkpt lat="45.276053" lon="-72.60815">
        <ele>234.3</ele>
      </trkpt>
      <trkpt lat="45.276056" lon="-72.60706">
        <ele>235</ele>
      </trkpt>
      <trkpt lat="45.27606" lon="-72.60597">
        <ele>237.4</ele>
      </trkpt>
      <trkpt lat="45.27602" lon="-72.604735">
        <ele>227.1</ele>
      </trkpt>
      <trkpt lat="45.27598" lon="-72.603501">
        <ele>217.2</ele>
      </trkpt>
      <trkpt lat="45.27594" lon="-72.602267">
        <ele>210.9</ele>
      </trkpt>
      <trkpt lat="45.2759" lon="-72.601033">
        <ele>208.1</ele>
      </trkpt>
      <trkpt lat="45.27586" lon="-72.5998">
        <ele>204.2</ele>
      </trkpt>
      <trkpt lat="45.27583" lon="-72.598769">
        <ele>200.7</ele>
      </trkpt>
      <trkpt lat="45.2758" lon="-72.59774">
        <ele>198.8</ele>
      </trkpt>
      <trkpt lat="45.27578" lon="-72.596549">
        <ele>195.9</ele>
      </trkpt>
      <trkpt lat="45.27576" lon="-72.59536">
        <ele>193.3</ele>
      </trkpt>
      <trkpt lat="45.276514" lon="-72.595295">
        <ele>189.8</ele>
      </trkpt>
      <trkpt lat="45.27727" lon="-72.59523">
        <ele>187.8</ele>
      </trkpt>
      <trkpt lat="45.278157" lon="-72.59518">
        <ele>187.3</ele>
      </trkpt>
      <trkpt lat="45.279045" lon="-72.59513">
        <ele>187.3</ele>
      </trkpt>
      <trkpt lat="45.279932" lon="-72.59508">
        <ele>186.8</ele>
      </trkpt>
      <trkpt lat="45.28082" lon="-72.59503">
        <ele>186.1</ele>
      </trkpt>
      <trkpt lat="45.28081" lon="-72.59503">
        <ele>186.1</ele>
      </trkpt>
      <trkpt lat="45.281586" lon="-72.59499">
        <ele>186</ele>
      </trkpt>
      <trkpt lat="45.282362" lon="-72.59495">
        <ele>186.3</ele>
      </trkpt>
      <trkpt lat="45.283138" lon="-72.59491">
        <ele>186.9</ele>
      </trkpt>
      <trkpt lat="45.283914" lon="-72.59487">
        <ele>187.4</ele>
      </trkpt>
      <trkpt lat="45.28469" lon="-72.59483">
        <ele>188.1</ele>
      </trkpt>
      <trkpt lat="45.285579" lon="-72.594787">
        <ele>187.9</ele>
      </trkpt>
      <trkpt lat="45.286468" lon="-72.594745">
        <ele>186</ele>
      </trkpt>
      <trkpt lat="45.287357" lon="-72.594703">
        <ele>183.2</ele>
      </trkpt>
      <trkpt lat="45.288247" lon="-72.594661">
        <ele>180.3</ele>
      </trkpt>
      <trkpt lat="45.289136" lon="-72.594619">
        <ele>177.6</ele>
      </trkpt>
      <trkpt lat="45.290025" lon="-72.594577">
        <ele>174.2</ele>
      </trkpt>
      <trkpt lat="45.290915" lon="-72.594535">
        <ele>172</ele>
      </trkpt>
      <trkpt lat="45.291804" lon="-72.594492">
        <ele>170.7</ele>
      </trkpt>
      <trkpt lat="45.292693" lon="-72.59445">
        <ele>169.8</ele>
      </trkpt>
      <trkpt lat="45.293582" lon="-72.594408">
        <ele>169.3</ele>
      </trkpt>
      <trkpt lat="45.294472" lon="-72.594366">
        <ele>169.4</ele>
      </trkpt>
      <trkpt lat="45.295361" lon="-72.594324">
        <ele>170.3</ele>
      </trkpt>
      <trkpt lat="45.29625" lon="-72.594282">
        <ele>171</ele>
      </trkpt>
      <trkpt lat="45.29714" lon="-72.59424">
        <ele>170.5</ele>
      </trkpt>
      <trkpt lat="45.29747" lon="-72.59415">
        <ele>170</ele>
      </trkpt>
      <trkpt lat="45.29825" lon="-72.59375">
        <ele>166.8</ele>
      </trkpt>
      <trkpt lat="45.29854" lon="-72.59362">
        <ele>164.3</ele>
      </trkpt>
      <trkpt lat="45.2988" lon="-72.59352">
        <ele>162.8</ele>
      </trkpt>
      <trkpt lat="45.29924" lon="-72.59343">
        <ele>159.4</ele>
      </trkpt>
      <trkpt lat="45.29972" lon="-72.59339">
        <ele>154.3</ele>
      </trkpt>
      <trkpt lat="45.30029" lon="-72.59348">
        <ele>149.7</ele>
      </trkpt>
      <trkpt lat="45.300815" lon="-72.593659">
        <ele>148.5</ele>
      </trkpt>
      <trkpt lat="45.30134" lon="-72.59384">
        <ele>145.5</ele>
      </trkpt>
      <trkpt lat="45.30156" lon="-72.5939">
        <ele>144.9</ele>
      </trkpt>
      <trkpt lat="45.30191" lon="-72.59394">
        <ele>143.9</ele>
      </trkpt>
      <trkpt lat="45.30241" lon="-72.59402">
        <ele>143</ele>
      </trkpt>
      <trkpt lat="45.30275" lon="-72.59402">
        <ele>143.4</ele>
      </trkpt>
      <trkpt lat="45.30345" lon="-72.59397">
        <ele>146.4</ele>
      </trkpt>
      <trkpt lat="45.30415" lon="-72.59392">
        <ele>148.9</ele>
      </trkpt>
      <trkpt lat="45.30414" lon="-72.59392">
        <ele>148.9</ele>
      </trkpt>
      <trkpt lat="45.304739" lon="-72.593863">
        <ele>151.9</ele>
      </trkpt>
      <trkpt lat="45.305339" lon="-72.593806">
        <ele>154.8</ele>
      </trkpt>
      <trkpt lat="45.30594" lon="-72.59375">
        <ele>156.7</ele>
      </trkpt>
      <trkpt lat="45.306609" lon="-72.593705">
        <ele>157.4</ele>
      </trkpt>
      <trkpt lat="45.30728" lon="-72.59366">
        <ele>158.8</ele>
      </trkpt>
      <trkpt lat="45.307282" lon="-72.592526">
        <ele>158.9</ele>
      </trkpt>
      <trkpt lat="45.307284" lon="-72.591392">
        <ele>160</ele>
      </trkpt>
      <trkpt lat="45.307286" lon="-72.590258">
        <ele>162.8</ele>
      </trkpt>
      <trkpt lat="45.307288" lon="-72.589124">
        <ele>166.9</ele>
      </trkpt>
      <trkpt lat="45.30729" lon="-72.58799">
        <ele>170.4</ele>
      </trkpt>
      <trkpt lat="45.307275" lon="-72.587179">
        <ele>172.4</ele>
      </trkpt>
      <trkpt lat="45.30726" lon="-72.58637">
        <ele>173.3</ele>
      </trkpt>
      <trkpt lat="45.307257" lon="-72.585238">
        <ele>172.4</ele>
      </trkpt>
      <trkpt lat="45.307255" lon="-72.584107">
        <ele>167.9</ele>
      </trkpt>
      <trkpt lat="45.307252" lon="-72.582976">
        <ele>164.4</ele>
      </trkpt>
      <trkpt lat="45.30725" lon="-72.581844">
        <ele>165.3</ele>
      </trkpt>
      <trkpt lat="45.307247" lon="-72.580713">
        <ele>168.1</ele>
      </trkpt>
      <trkpt lat="45.307245" lon="-72.579582">
        <ele>168.6</ele>
      </trkpt>
      <trkpt lat="45.307242" lon="-72.578451">
        <ele>168.2</ele>
      </trkpt>
      <trkpt lat="45.30724" lon="-72.57732">
        <ele>169.2</ele>
      </trkpt>
      <trkpt lat="45.307252" lon="-72.576076">
        <ele>171.3</ele>
      </trkpt>
      <trkpt lat="45.307264" lon="-72.574832">
        <ele>175.6</ele>
      </trkpt>
      <trkpt lat="45.307276" lon="-72.573588">
        <ele>183.6</ele>
      </trkpt>
      <trkpt lat="45.307288" lon="-72.572344">
        <ele>188.1</ele>
      </trkpt>
      <trkpt lat="45.3073" lon="-72.5711">
        <ele>193.3</ele>
      </trkpt>
      <trkpt lat="45.30731" lon="-72.5706">
        <ele>193.1</ele>
      </trkpt>
      <trkpt lat="45.30734" lon="-72.57015">
        <ele>193.4</ele>
      </trkpt>
      <trkpt lat="45.30742" lon="-72.56963">
        <ele>194.4</ele>
      </trkpt>
      <trkpt lat="45.30756" lon="-72.56896">
        <ele>197.9</ele>
      </trkpt>
      <trkpt lat="45.3076" lon="-72.56855">
        <ele>200.6</ele>
      </trkpt>
      <trkpt lat="45.30758" lon="-72.56814">
        <ele>205.4</ele>
      </trkpt>
      <trkpt lat="45.30744" lon="-72.566974">
        <ele>207.3</ele>
      </trkpt>
      <trkpt lat="45.3073" lon="-72.56581">
        <ele>207.7</ele>
      </trkpt>
      <trkpt lat="45.30727" lon="-72.56505">
        <ele>208.6</ele>
      </trkpt>
      <trkpt lat="45.307267" lon="-72.564089">
        <ele>210.2</ele>
      </trkpt>
      <trkpt lat="45.307265" lon="-72.563129">
        <ele>212.9</ele>
      </trkpt>
      <trkpt lat="45.307262" lon="-72.562169">
        <ele>216.5</ele>
      </trkpt>
      <trkpt lat="45.30726" lon="-72.56121">
        <ele>221.4</ele>
      </trkpt>
      <trkpt lat="45.307266" lon="-72.560136">
        <ele>223.9</ele>
      </trkpt>
      <trkpt lat="45.307273" lon="-72.559063">
        <ele>226.4</ele>
      </trkpt>
      <trkpt lat="45.30728" lon="-72.55799">
        <ele>226.6</ele>
      </trkpt>
      <trkpt lat="45.307286" lon="-72.556916">
        <ele>225.9</ele>
      </trkpt>
      <trkpt lat="45.307293" lon="-72.555843">
        <ele>225.6</ele>
      </trkpt>
      <trkpt lat="45.3073" lon="-72.55477">
        <ele>225.5</ele>
      </trkpt>
      <trkpt lat="45.307316" lon="-72.553546">
        <ele>225.5</ele>
      </trkpt>
      <trkpt lat="45.307333" lon="-72.552323">
        <ele>226.2</ele>
      </trkpt>
      <trkpt lat="45.30735" lon="-72.5511">
        <ele>227.1</ele>
      </trkpt>
      <trkpt lat="45.307355" lon="-72.549823">
        <ele>227.2</ele>
      </trkpt>
      <trkpt lat="45.30736" lon="-72.548546">
        <ele>228.3</ele>
      </trkpt>
      <trkpt lat="45.307365" lon="-72.54727">
        <ele>228.4</ele>
      </trkpt>
      <trkpt lat="45.30737" lon="-72.545993">
        <ele>228.7</ele>
      </trkpt>
      <trkpt lat="45.307375" lon="-72.544716">
        <ele>228.8</ele>
      </trkpt>
      <trkpt lat="45.30738" lon="-72.54344">
        <ele>230.2</ele>
      </trkpt>
      <trkpt lat="45.307388" lon="-72.542255">
        <ele>230.4</ele>
      </trkpt>
      <trkpt lat="45.307397" lon="-72.541071">
        <ele>231.2</ele>
      </trkpt>
      <trkpt lat="45.307405" lon="-72.539887">
        <ele>230.8</ele>
      </trkpt>
      <trkpt lat="45.307414" lon="-72.538702">
        <ele>228.2</ele>
      </trkpt>
      <trkpt lat="45.307422" lon="-72.537518">
        <ele>226.3</ele>
      </trkpt>
      <trkpt lat="45.307431" lon="-72.536334">
        <ele>227.6</ele>
      </trkpt>
      <trkpt lat="45.30744" lon="-72.53515">
        <ele>230.1</ele>
      </trkpt>
      <trkpt lat="45.307442" lon="-72.53405">
        <ele>227.9</ele>
      </trkpt>
      <trkpt lat="45.307445" lon="-72.53295">
        <ele>227</ele>
      </trkpt>
      <trkpt lat="45.307448" lon="-72.53185">
        <ele>227</ele>
      </trkpt>
      <trkpt lat="45.307451" lon="-72.53075">
        <ele>225.9</ele>
      </trkpt>
      <trkpt lat="45.307454" lon="-72.52965">
        <ele>224.3</ele>
      </trkpt>
      <trkpt lat="45.307457" lon="-72.52855">
        <ele>224.7</ele>
      </trkpt>
      <trkpt lat="45.30746" lon="-72.52745">
        <ele>222.5</ele>
      </trkpt>
      <trkpt lat="45.30749" lon="-72.527">
        <ele>220.1</ele>
      </trkpt>
      <trkpt lat="45.30758" lon="-72.52656">
        <ele>216.6</ele>
      </trkpt>
      <trkpt lat="45.307785" lon="-72.525755">
        <ele>209.2</ele>
      </trkpt>
      <trkpt lat="45.30799" lon="-72.52495">
        <ele>207.5</ele>
      </trkpt>
      <trkpt lat="45.308095" lon="-72.524165">
        <ele>209.5</ele>
      </trkpt>
      <trkpt lat="45.3082" lon="-72.52338">
        <ele>213.2</ele>
      </trkpt>
      <trkpt lat="45.3083" lon="-72.52284">
        <ele>214.4</ele>
      </trkpt>
      <trkpt lat="45.30853" lon="-72.521797">
        <ele>217.4</ele>
      </trkpt>
      <trkpt lat="45.30876" lon="-72.520755">
        <ele>220.9</ele>
      </trkpt>
      <trkpt lat="45.30899" lon="-72.519712">
        <ele>223.6</ele>
      </trkpt>
      <trkpt lat="45.30922" lon="-72.51867">
        <ele>225.7</ele>
      </trkpt>
      <trkpt lat="45.3094" lon="-72.51742">
        <ele>226.5</ele>
      </trkpt>
      <trkpt lat="45.309465" lon="-72.516715">
        <ele>227.7</ele>
      </trkpt>
      <trkpt lat="45.30953" lon="-72.51601">
        <ele>228.8</ele>
      </trkpt>
      <trkpt lat="45.30959" lon="-72.51501">
        <ele>229.8</ele>
      </trkpt>
      <trkpt lat="45.30965" lon="-72.51401">
        <ele>230.2</ele>
      </trkpt>
      <trkpt lat="45.30962" lon="-72.513164">
        <ele>227.5</ele>
      </trkpt>
      <trkpt lat="45.30959" lon="-72.51232">
        <ele>225.9</ele>
      </trkpt>
      <trkpt lat="45.30951" lon="-72.51172">
        <ele>227.1</ele>
      </trkpt>
      <trkpt lat="45.30924" lon="-72.51075">
        <ele>230.3</ele>
      </trkpt>
      <trkpt lat="45.30903" lon="-72.51025">
        <ele>227.6</ele>
      </trkpt>
      <trkpt lat="45.308725" lon="-72.509574">
        <ele>224.2</ele>
      </trkpt>
      <trkpt lat="45.30842" lon="-72.5089">
        <ele>222.8</ele>
      </trkpt>
      <trkpt lat="45.308125" lon="-72.508254">
        <ele>223.9</ele>
      </trkpt>
      <trkpt lat="45.30783" lon="-72.50761">
        <ele>226.5</ele>
      </trkpt>
      <trkpt lat="45.3077" lon="-72.50722">
        <ele>227.2</ele>
      </trkpt>
      <trkpt lat="45.30757" lon="-72.50663">
        <ele>226.5</ele>
      </trkpt>
      <trkpt lat="45.30752" lon="-72.50596">
        <ele>224.4</ele>
      </trkpt>
      <trkpt lat="45.307536" lon="-72.504996">
        <ele>223</ele>
      </trkpt>
      <trkpt lat="45.307553" lon="-72.504033">
        <ele>223</ele>
      </trkpt>
      <trkpt lat="45.30757" lon="-72.50307">
        <ele>223.9</ele>
      </trkpt>
      <trkpt lat="45.30757" lon="-72.502087">
        <ele>223.8</ele>
      </trkpt>
      <trkpt lat="45.30757" lon="-72.501105">
        <ele>222.9</ele>
      </trkpt>
      <trkpt lat="45.30757" lon="-72.500122">
        <ele>220.4</ele>
      </trkpt>
      <trkpt lat="45.30757" lon="-72.49914">
        <ele>220.6</ele>
      </trkpt>
      <trkpt lat="45.3082" lon="-72.49932">
        <ele>222.2</ele>
      </trkpt>
      <trkpt lat="45.30848" lon="-72.49933">
        <ele>222.9</ele>
      </trkpt>
      <trkpt lat="45.30883" lon="-72.4993">
        <ele>223.9</ele>
      </trkpt>
      <trkpt lat="45.30868" lon="-72.49864">
        <ele>224.7</ele>
      </trkpt>
      <trkpt lat="45.30841" lon="-72.497726">
        <ele>225.8</ele>
      </trkpt>
      <trkpt lat="45.30814" lon="-72.496813">
        <ele>228.1</ele>
      </trkpt>
      <trkpt lat="45.30787" lon="-72.4959">
        <ele>231.8</ele>
      </trkpt>
      <trkpt lat="45.30768" lon="-72.49525">
        <ele>235.5</ele>
      </trkpt>
      <trkpt lat="45.30758" lon="-72.49463">
        <ele>238.7</ele>
      </trkpt>
      <trkpt lat="45.30756" lon="-72.49392">
        <ele>243.8</ele>
      </trkpt>
      <trkpt lat="45.307553" lon="-72.492736">
        <ele>249.2</ele>
      </trkpt>
      <trkpt lat="45.307546" lon="-72.491553">
        <ele>252.9</ele>
      </trkpt>
      <trkpt lat="45.30754" lon="-72.49037">
        <ele>256.7</ele>
      </trkpt>
      <trkpt lat="45.30752" lon="-72.48957">
        <ele>260.8</ele>
      </trkpt>
      <trkpt lat="45.30745" lon="-72.48905">
        <ele>263.2</ele>
      </trkpt>
      <trkpt lat="45.30741" lon="-72.48882">
        <ele>263.6</ele>
      </trkpt>
      <trkpt lat="45.307195" lon="-72.487989">
        <ele>266.3</ele>
      </trkpt>
      <trkpt lat="45.30698" lon="-72.48716">
        <ele>267.4</ele>
      </trkpt>
      <trkpt lat="45.30689" lon="-72.48707">
        <ele>267.7</ele>
      </trkpt>
      <trkpt lat="45.30678" lon="-72.48706">
        <ele>267.8</ele>
      </trkpt>
      <trkpt lat="45.30646" lon="-72.48719">
        <ele>267.5</ele>
      </trkpt>
      <trkpt lat="45.305785" lon="-72.48748">
        <ele>265.9</ele>
      </trkpt>
      <trkpt lat="45.30511" lon="-72.48777">
        <ele>262.3</ele>
      </trkpt>
      <trkpt lat="45.30465" lon="-72.487935">
        <ele>261</ele>
      </trkpt>
      <trkpt lat="45.30419" lon="-72.4881">
        <ele>259.1</ele>
      </trkpt>
      <trkpt lat="45.30375" lon="-72.4883">
        <ele>256.8</ele>
      </trkpt>
      <trkpt lat="45.30321" lon="-72.4885">
        <ele>254.1</ele>
      </trkpt>
      <trkpt lat="45.30307" lon="-72.48858">
        <ele>252.6</ele>
      </trkpt>
      <trkpt lat="45.3028" lon="-72.4888">
        <ele>251.4</ele>
      </trkpt>
      <trkpt lat="45.30209" lon="-72.489506">
        <ele>248.6</ele>
      </trkpt>
      <trkpt lat="45.30138" lon="-72.490213">
        <ele>245.4</ele>
      </trkpt>
      <trkpt lat="45.30067" lon="-72.49092">
        <ele>242.6</ele>
      </trkpt>
      <trkpt lat="45.299975" lon="-72.491585">
        <ele>238.7</ele>
      </trkpt>
      <trkpt lat="45.29928" lon="-72.49225">
        <ele>234.9</ele>
      </trkpt>
      <trkpt lat="45.298915" lon="-72.492655">
        <ele>233</ele>
      </trkpt>
      <trkpt lat="45.29855" lon="-72.49306">
        <ele>230.5</ele>
      </trkpt>
      <trkpt lat="45.2981" lon="-72.49351">
        <ele>228.9</ele>
      </trkpt>
      <trkpt lat="45.297715" lon="-72.49393">
        <ele>227</ele>
      </trkpt>
      <trkpt lat="45.29733" lon="-72.49435">
        <ele>224.5</ele>
      </trkpt>
      <trkpt lat="45.29706" lon="-72.49455">
        <ele>224.1</ele>
      </trkpt>
      <trkpt lat="45.29703" lon="-72.49449">
        <ele>224.4</ele>
      </trkpt>
      <trkpt lat="45.29698" lon="-72.493799">
        <ele>226.4</ele>
      </trkpt>
      <trkpt lat="45.29693" lon="-72.49311">
        <ele>228.3</ele>
      </trkpt>
      <trkpt lat="45.29691" lon="-72.49262">
        <ele>231.3</ele>
      </trkpt>
      <trkpt lat="45.296913" lon="-72.491435">
        <ele>235</ele>
      </trkpt>
      <trkpt lat="45.296916" lon="-72.49025">
        <ele>239.2</ele>
      </trkpt>
      <trkpt lat="45.29692" lon="-72.489065">
        <ele>242.4</ele>
      </trkpt>
      <trkpt lat="45.296923" lon="-72.48788">
        <ele>242.5</ele>
      </trkpt>
      <trkpt lat="45.296926" lon="-72.486695">
        <ele>243.3</ele>
      </trkpt>
      <trkpt lat="45.29693" lon="-72.48551">
        <ele>243.8</ele>
      </trkpt>
      <trkpt lat="45.29693" lon="-72.48552">
        <ele>243.8</ele>
      </trkpt>
      <trkpt lat="45.296933" lon="-72.484373">
        <ele>243.9</ele>
      </trkpt>
      <trkpt lat="45.296936" lon="-72.483226">
        <ele>244.5</ele>
      </trkpt>
      <trkpt lat="45.29694" lon="-72.48208">
        <ele>246.1</ele>
      </trkpt>
      <trkpt lat="45.296943" lon="-72.480933">
        <ele>248.1</ele>
      </trkpt>
      <trkpt lat="45.296946" lon="-72.479786">
        <ele>248.5</ele>
      </trkpt>
      <trkpt lat="45.29695" lon="-72.47864">
        <ele>247.6</ele>
      </trkpt>
      <trkpt lat="45.29696" lon="-72.47835">
        <ele>247.7</ele>
      </trkpt>
      <trkpt lat="45.297223" lon="-72.477333">
        <ele>248.5</ele>
      </trkpt>
      <trkpt lat="45.297486" lon="-72.476316">
        <ele>248.8</ele>
      </trkpt>
      <trkpt lat="45.29775" lon="-72.4753">
        <ele>249</ele>
      </trkpt>
      <trkpt lat="45.298013" lon="-72.47435">
        <ele>252.5</ele>
      </trkpt>
      <trkpt lat="45.298276" lon="-72.4734">
        <ele>254.8</ele>
      </trkpt>
      <trkpt lat="45.29854" lon="-72.47245">
        <ele>256.2</ele>
      </trkpt>
      <trkpt lat="45.297955" lon="-72.471854">
        <ele>255.5</ele>
      </trkpt>
      <trkpt lat="45.29737" lon="-72.47126">
        <ele>255.2</ele>
      </trkpt>
      <trkpt lat="45.2968" lon="-72.470644">
        <ele>254.1</ele>
      </trkpt>
      <trkpt lat="45.29623" lon="-72.47003">
        <ele>252.9</ele>
      </trkpt>
      <trkpt lat="45.295525" lon="-72.469324">
        <ele>251.7</ele>
      </trkpt>
      <trkpt lat="45.294821" lon="-72.468618">
        <ele>250.4</ele>
      </trkpt>
      <trkpt lat="45.294117" lon="-72.467912">
        <ele>249.7</ele>
      </trkpt>
      <trkpt lat="45.293412" lon="-72.467207">
        <ele>247.3</ele>
      </trkpt>
      <trkpt lat="45.292708" lon="-72.466501">
        <ele>244</ele>
      </trkpt>
      <trkpt lat="45.292004" lon="-72.465795">
        <ele>239.7</ele>
      </trkpt>
      <trkpt lat="45.2913" lon="-72.46509">
        <ele>237.4</ele>
      </trkpt>
      <trkpt lat="45.29062" lon="-72.464479">
        <ele>235.3</ele>
      </trkpt>
      <trkpt lat="45.28994" lon="-72.46387">
        <ele>232.7</ele>
      </trkpt>
      <trkpt lat="45.28933" lon="-72.463349">
        <ele>228.8</ele>
      </trkpt>
      <trkpt lat="45.28872" lon="-72.462829">
        <ele>225.5</ele>
      </trkpt>
      <trkpt lat="45.28811" lon="-72.46231">
        <ele>223.3</ele>
      </trkpt>
      <trkpt lat="45.287485" lon="-72.461787">
        <ele>218.6</ele>
      </trkpt>
      <trkpt lat="45.28686" lon="-72.461264">
        <ele>217.9</ele>
      </trkpt>
      <trkpt lat="45.286235" lon="-72.460742">
        <ele>218.3</ele>
      </trkpt>
      <trkpt lat="45.28561" lon="-72.46022">
        <ele>216.4</ele>
      </trkpt>
      <trkpt lat="45.28487" lon="-72.45965">
        <ele>215.9</ele>
      </trkpt>
      <trkpt lat="45.284176" lon="-72.459146">
        <ele>215.6</ele>
      </trkpt>
      <trkpt lat="45.283483" lon="-72.458643">
        <ele>215.2</ele>
      </trkpt>
      <trkpt lat="45.28279" lon="-72.45814">
        <ele>216.4</ele>
      </trkpt>
      <trkpt lat="45.28221" lon="-72.45769">
        <ele>218.5</ele>
      </trkpt>
      <trkpt lat="45.28152" lon="-72.457039">
        <ele>222.4</ele>
      </trkpt>
      <trkpt lat="45.28083" lon="-72.45639">
        <ele>225.7</ele>
      </trkpt>
      <trkpt lat="45.280233" lon="-72.455866">
        <ele>234.3</ele>
      </trkpt>
      <trkpt lat="45.279636" lon="-72.455343">
        <ele>240.4</ele>
      </trkpt>
      <trkpt lat="45.27904" lon="-72.45482">
        <ele>246</ele>
      </trkpt>
      <trkpt lat="45.27879" lon="-72.45456">
        <ele>248.7</ele>
      </trkpt>
      <trkpt lat="45.27851" lon="-72.45422">
        <ele>250.9</ele>
      </trkpt>
      <trkpt lat="45.27816" lon="-72.45384">
        <ele>252.4</ele>
      </trkpt>
      <trkpt lat="45.27772" lon="-72.45325">
        <ele>255.5</ele>
      </trkpt>
      <trkpt lat="45.277275" lon="-72.452604">
        <ele>262.2</ele>
      </trkpt>
      <trkpt lat="45.27683" lon="-72.45196">
        <ele>265.6</ele>
      </trkpt>
      <trkpt lat="45.27648" lon="-72.45147">
        <ele>269.4</ele>
      </trkpt>
      <trkpt lat="45.27602" lon="-72.4509">
        <ele>273.3</ele>
      </trkpt>
      <trkpt lat="45.27588" lon="-72.45076">
        <ele>273.3</ele>
      </trkpt>
      <trkpt lat="45.27558" lon="-72.45053">
        <ele>275.9</ele>
      </trkpt>
      <trkpt lat="45.27485" lon="-72.45016">
        <ele>277.8</ele>
      </trkpt>
      <trkpt lat="45.27438" lon="-72.44994">
        <ele>278.3</ele>
      </trkpt>
      <trkpt lat="45.273625" lon="-72.449604">
        <ele>279.4</ele>
      </trkpt>
      <trkpt lat="45.27287" lon="-72.449269">
        <ele>280.8</ele>
      </trkpt>
      <trkpt lat="45.272115" lon="-72.448934">
        <ele>281.6</ele>
      </trkpt>
      <trkpt lat="45.27136" lon="-72.4486">
        <ele>283.3</ele>
      </trkpt>
      <trkpt lat="45.27099" lon="-72.44839">
        <ele>284.2</ele>
      </trkpt>
      <trkpt lat="45.27065" lon="-72.44813">
        <ele>284.9</ele>
      </trkpt>
      <trkpt lat="45.2703" lon="-72.44779">
        <ele>284.9</ele>
      </trkpt>
      <trkpt lat="45.26979" lon="-72.447179">
        <ele>283.3</ele>
      </trkpt>
      <trkpt lat="45.26928" lon="-72.446569">
        <ele>280</ele>
      </trkpt>
      <trkpt lat="45.26877" lon="-72.44596">
        <ele>278.3</ele>
      </trkpt>
      <trkpt lat="45.26816" lon="-72.44526">
        <ele>275.9</ele>
      </trkpt>
      <trkpt lat="45.26762" lon="-72.44475">
        <ele>276.6</ele>
      </trkpt>
      <trkpt lat="45.267006" lon="-72.444199">
        <ele>277.3</ele>
      </trkpt>
      <trkpt lat="45.266393" lon="-72.443649">
        <ele>278.1</ele>
      </trkpt>
      <trkpt lat="45.26578" lon="-72.4431">
        <ele>280.5</ele>
      </trkpt>
      <trkpt lat="45.26524" lon="-72.44255">
        <ele>282.7</ele>
      </trkpt>
      <trkpt lat="45.26489" lon="-72.44215">
        <ele>283.9</ele>
      </trkpt>
      <trkpt lat="45.26449" lon="-72.44158">
        <ele>286.2</ele>
      </trkpt>
      <trkpt lat="45.26427" lon="-72.44122">
        <ele>287.1</ele>
      </trkpt>
      <trkpt lat="45.26398" lon="-72.44057">
        <ele>289.8</ele>
      </trkpt>
      <trkpt lat="45.263745" lon="-72.439954">
        <ele>292.4</ele>
      </trkpt>
      <trkpt lat="45.26351" lon="-72.43934">
        <ele>295.5</ele>
      </trkpt>
      <trkpt lat="45.26343" lon="-72.43917">
        <ele>295.5</ele>
      </trkpt>
      <trkpt lat="45.26328" lon="-72.439">
        <ele>295.7</ele>
      </trkpt>
      <trkpt lat="45.26314" lon="-72.43893">
        <ele>295.8</ele>
      </trkpt>
      <trkpt lat="45.26255" lon="-72.43891">
        <ele>295</ele>
      </trkpt>
      <trkpt lat="45.26196" lon="-72.43894">
        <ele>292.6</ele>
      </trkpt>
      <trkpt lat="45.26195" lon="-72.43894">
        <ele>292.5</ele>
      </trkpt>
      <trkpt lat="45.26115" lon="-72.43899">
        <ele>289.2</ele>
      </trkpt>
      <trkpt lat="45.260595" lon="-72.439005">
        <ele>289.8</ele>
      </trkpt>
      <trkpt lat="45.26004" lon="-72.43902">
        <ele>292.6</ele>
      </trkpt>
      <trkpt lat="45.25977" lon="-72.43898">
        <ele>292.8</ele>
      </trkpt>
      <trkpt lat="45.25951" lon="-72.43886">
        <ele>293.1</ele>
      </trkpt>
      <trkpt lat="45.25874" lon="-72.43827">
        <ele>298.1</ele>
      </trkpt>
      <trkpt lat="45.25847" lon="-72.43804">
        <ele>301.3</ele>
      </trkpt>
      <trkpt lat="45.25805" lon="-72.43764">
        <ele>305.7</ele>
      </trkpt>
      <trkpt lat="45.25766" lon="-72.437229">
        <ele>308.7</ele>
      </trkpt>
      <trkpt lat="45.25727" lon="-72.43682">
        <ele>310.1</ele>
      </trkpt>
      <trkpt lat="45.256805" lon="-72.436529">
        <ele>309.4</ele>
      </trkpt>
      <trkpt lat="45.25634" lon="-72.43624">
        <ele>308.7</ele>
      </trkpt>
      <trkpt lat="45.255785" lon="-72.435864">
        <ele>308.8</ele>
      </trkpt>
      <trkpt lat="45.25523" lon="-72.43549">
        <ele>308.4</ele>
      </trkpt>
      <trkpt lat="45.254585" lon="-72.435224">
        <ele>314.4</ele>
      </trkpt>
      <trkpt lat="45.25394" lon="-72.43496">
        <ele>319.1</ele>
      </trkpt>
      <trkpt lat="45.25332" lon="-72.43486">
        <ele>323</ele>
      </trkpt>
      <trkpt lat="45.252799" lon="-72.43486">
        <ele>326.1</ele>
      </trkpt>
      <trkpt lat="45.25228" lon="-72.43486">
        <ele>328.2</ele>
      </trkpt>
      <trkpt lat="45.25152" lon="-72.43488">
        <ele>332.9</ele>
      </trkpt>
      <trkpt lat="45.25076" lon="-72.43492">
        <ele>338.3</ele>
      </trkpt>
      <trkpt lat="45.25" lon="-72.43496">
        <ele>345.6</ele>
      </trkpt>
      <trkpt lat="45.249395" lon="-72.435045">
        <ele>348.8</ele>
      </trkpt>
      <trkpt lat="45.24879" lon="-72.43513">
        <ele>349</ele>
      </trkpt>
      <trkpt lat="45.24845" lon="-72.43514">
        <ele>349.9</ele>
      </trkpt>
      <trkpt lat="45.24761" lon="-72.43513">
        <ele>352.4</ele>
      </trkpt>
      <trkpt lat="45.24707" lon="-72.43506">
        <ele>353.4</ele>
      </trkpt>
      <trkpt lat="45.24659" lon="-72.43504">
        <ele>354.6</ele>
      </trkpt>
      <trkpt lat="45.24624" lon="-72.43499">
        <ele>355.3</ele>
      </trkpt>
      <trkpt lat="45.24607" lon="-72.43497">
        <ele>355.6</ele>
      </trkpt>
      <trkpt lat="45.24582" lon="-72.43499">
        <ele>356.1</ele>
      </trkpt>
      <trkpt lat="45.245334" lon="-72.43508">
        <ele>357.6</ele>
      </trkpt>
      <trkpt lat="45.24485" lon="-72.43517">
        <ele>358.3</ele>
      </trkpt>
      <trkpt lat="45.24431" lon="-72.43529">
        <ele>359</ele>
      </trkpt>
      <trkpt lat="45.243555" lon="-72.435525">
        <ele>360.1</ele>
      </trkpt>
      <trkpt lat="45.2428" lon="-72.43576">
        <ele>360.4</ele>
      </trkpt>
      <trkpt lat="45.24211" lon="-72.43593">
        <ele>360.2</ele>
      </trkpt>
      <trkpt lat="45.24188" lon="-72.43602">
        <ele>360.1</ele>
      </trkpt>
      <trkpt lat="45.24123" lon="-72.43634">
        <ele>360.3</ele>
      </trkpt>
      <trkpt lat="45.24089" lon="-72.43655">
        <ele>358.7</ele>
      </trkpt>
      <trkpt lat="45.240375" lon="-72.43696">
        <ele>356.4</ele>
      </trkpt>
      <trkpt lat="45.23986" lon="-72.43737">
        <ele>355.5</ele>
      </trkpt>
      <trkpt lat="45.23921" lon="-72.437975">
        <ele>354.7</ele>
      </trkpt>
      <trkpt lat="45.23856" lon="-72.43858">
        <ele>351.1</ele>
      </trkpt>
      <trkpt lat="45.23822" lon="-72.43884">
        <ele>348.3</ele>
      </trkpt>
      <trkpt lat="45.23777" lon="-72.43925">
        <ele>346.8</ele>
      </trkpt>
      <trkpt lat="45.23749" lon="-72.43943">
        <ele>347.4</ele>
      </trkpt>
      <trkpt lat="45.23715" lon="-72.43955">
        <ele>348.8</ele>
      </trkpt>
      <trkpt lat="45.23689" lon="-72.43956">
        <ele>348.8</ele>
      </trkpt>
      <trkpt lat="45.236079" lon="-72.439595">
        <ele>350.9</ele>
      </trkpt>
      <trkpt lat="45.23527" lon="-72.43963">
        <ele>354.3</ele>
      </trkpt>
      <trkpt lat="45.23477" lon="-72.43966">
        <ele>355.3</ele>
      </trkpt>
      <trkpt lat="45.234185" lon="-72.43968">
        <ele>356.8</ele>
      </trkpt>
      <trkpt lat="45.2336" lon="-72.4397">
        <ele>359.8</ele>
      </trkpt>
      <trkpt lat="45.23336" lon="-72.43973">
        <ele>362.3</ele>
      </trkpt>
      <trkpt lat="45.2331" lon="-72.43973">
        <ele>363.5</ele>
      </trkpt>
      <trkpt lat="45.23309" lon="-72.43973">
        <ele>363.5</ele>
      </trkpt>
      <trkpt lat="45.23292" lon="-72.43973">
        <ele>364.5</ele>
      </trkpt>
      <trkpt lat="45.23292" lon="-72.440934">
        <ele>355.1</ele>
      </trkpt>
      <trkpt lat="45.23292" lon="-72.44214">
        <ele>346.2</ele>
      </trkpt>
      <trkpt lat="45.232906" lon="-72.44307">
        <ele>339.8</ele>
      </trkpt>
      <trkpt lat="45.232893" lon="-72.444">
        <ele>334</ele>
      </trkpt>
      <trkpt lat="45.23288" lon="-72.44493">
        <ele>330.4</ele>
      </trkpt>
      <trkpt lat="45.23286" lon="-72.44525">
        <ele>330</ele>
      </trkpt>
      <trkpt lat="45.2328" lon="-72.44574">
        <ele>328</ele>
      </trkpt>
      <trkpt lat="45.23268" lon="-72.44602">
        <ele>326.7</ele>
      </trkpt>
      <trkpt lat="45.23254" lon="-72.44628">
        <ele>326.3</ele>
      </trkpt>
      <trkpt lat="45.232175" lon="-72.44706">
        <ele>324</ele>
      </trkpt>
      <trkpt lat="45.23181" lon="-72.44784">
        <ele>324</ele>
      </trkpt>
      <trkpt lat="45.23158" lon="-72.448465">
        <ele>322</ele>
      </trkpt>
      <trkpt lat="45.23135" lon="-72.44909">
        <ele>319</ele>
      </trkpt>
      <trkpt lat="45.23116" lon="-72.44968">
        <ele>315.3</ele>
      </trkpt>
      <trkpt lat="45.23094" lon="-72.45013">
        <ele>310.8</ele>
      </trkpt>
      <trkpt lat="45.230695" lon="-72.450955">
        <ele>305.5</ele>
      </trkpt>
      <trkpt lat="45.23045" lon="-72.45178">
        <ele>301.8</ele>
      </trkpt>
      <trkpt lat="45.23018" lon="-72.4525">
        <ele>298.8</ele>
      </trkpt>
      <trkpt lat="45.23009" lon="-72.45295">
        <ele>295.7</ele>
      </trkpt>
      <trkpt lat="45.22991" lon="-72.45351">
        <ele>293.8</ele>
      </trkpt>
      <trkpt lat="45.22967" lon="-72.45424">
        <ele>297.2</ele>
      </trkpt>
      <trkpt lat="45.22965" lon="-72.45465">
        <ele>300</ele>
      </trkpt>
      <trkpt lat="45.2296" lon="-72.45487">
        <ele>300.4</ele>
      </trkpt>
      <trkpt lat="45.22933" lon="-72.45536">
        <ele>299.1</ele>
      </trkpt>
      <trkpt lat="45.22921" lon="-72.45564">
        <ele>298</ele>
      </trkpt>
      <trkpt lat="45.22908" lon="-72.45679">
        <ele>299.7</ele>
      </trkpt>
      <trkpt lat="45.2291" lon="-72.45743">
        <ele>299</ele>
      </trkpt>
      <trkpt lat="45.22908" lon="-72.45797">
        <ele>296.8</ele>
      </trkpt>
      <trkpt lat="45.229" lon="-72.45823">
        <ele>296.5</ele>
      </trkpt>
      <trkpt lat="45.22892" lon="-72.45836">
        <ele>296.5</ele>
      </trkpt>
      <trkpt lat="45.22871" lon="-72.45854">
        <ele>296.6</ele>
      </trkpt>
      <trkpt lat="45.22859" lon="-72.45859">
        <ele>296.9</ele>
      </trkpt>
      <trkpt lat="45.22841" lon="-72.45868">
        <ele>297.3</ele>
      </trkpt>
      <trkpt lat="45.22824" lon="-72.45881">
        <ele>298.3</ele>
      </trkpt>
      <trkpt lat="45.22803" lon="-72.459">
        <ele>298.7</ele>
      </trkpt>
      <trkpt lat="45.22785" lon="-72.45934">
        <ele>298.6</ele>
      </trkpt>
      <trkpt lat="45.22766" lon="-72.45989">
        <ele>297.6</ele>
      </trkpt>
      <trkpt lat="45.22761" lon="-72.4602">
        <ele>297.4</ele>
      </trkpt>
      <trkpt lat="45.22762" lon="-72.46051">
        <ele>297.1</ele>
      </trkpt>
      <trkpt lat="45.22768" lon="-72.46074">
        <ele>296.8</ele>
      </trkpt>
      <trkpt lat="45.22788" lon="-72.46105">
        <ele>296.1</ele>
      </trkpt>
      <trkpt lat="45.22806" lon="-72.46127">
        <ele>295.8</ele>
      </trkpt>
      <trkpt lat="45.22825" lon="-72.46158">
        <ele>295.2</ele>
      </trkpt>
      <trkpt lat="45.2283" lon="-72.46178">
        <ele>293.9</ele>
      </trkpt>
      <trkpt lat="45.22829" lon="-72.46204">
        <ele>293.1</ele>
      </trkpt>
      <trkpt lat="45.22815" lon="-72.46257">
        <ele>287.3</ele>
      </trkpt>
      <trkpt lat="45.22787" lon="-72.46342">
        <ele>277.6</ele>
      </trkpt>
      <trkpt lat="45.22774" lon="-72.46369">
        <ele>275.6</ele>
      </trkpt>
      <trkpt lat="45.22747" lon="-72.46417">
        <ele>272.8</ele>
      </trkpt>
      <trkpt lat="45.22748" lon="-72.465214">
        <ele>268.5</ele>
      </trkpt>
      <trkpt lat="45.22749" lon="-72.46626">
        <ele>264.4</ele>
      </trkpt>
      <trkpt lat="45.227528" lon="-72.467483">
        <ele>258</ele>
      </trkpt>
      <trkpt lat="45.227566" lon="-72.468707">
        <ele>255.8</ele>
      </trkpt>
      <trkpt lat="45.227604" lon="-72.469931">
        <ele>255.1</ele>
      </trkpt>
      <trkpt lat="45.227642" lon="-72.471155">
        <ele>253.2</ele>
      </trkpt>
      <trkpt lat="45.22768" lon="-72.47238">
        <ele>250.9</ele>
      </trkpt>
      <trkpt lat="45.22777" lon="-72.47351">
        <ele>252.8</ele>
      </trkpt>
      <trkpt lat="45.22785" lon="-72.47426">
        <ele>256.9</ele>
      </trkpt>
      <trkpt lat="45.22786" lon="-72.47506">
        <ele>259</ele>
      </trkpt>
      <trkpt lat="45.22781" lon="-72.476">
        <ele>260.6</ele>
      </trkpt>
      <trkpt lat="45.22776" lon="-72.4765">
        <ele>261.1</ele>
      </trkpt>
      <trkpt lat="45.22751" lon="-72.47735">
        <ele>260.1</ele>
      </trkpt>
      <trkpt lat="45.22743" lon="-72.47749">
        <ele>259.6</ele>
      </trkpt>
      <trkpt lat="45.22717" lon="-72.47788">
        <ele>257.7</ele>
      </trkpt>
      <trkpt lat="45.22674" lon="-72.47838">
        <ele>253.6</ele>
      </trkpt>
      <trkpt lat="45.22651" lon="-72.4787">
        <ele>250.6</ele>
      </trkpt>
      <trkpt lat="45.225934" lon="-72.479426">
        <ele>244.4</ele>
      </trkpt>
      <trkpt lat="45.225358" lon="-72.480152">
        <ele>241.1</ele>
      </trkpt>
      <trkpt lat="45.224782" lon="-72.480878">
        <ele>240.8</ele>
      </trkpt>
      <trkpt lat="45.224206" lon="-72.481604">
        <ele>241.5</ele>
      </trkpt>
      <trkpt lat="45.22363" lon="-72.48233">
        <ele>242.1</ele>
      </trkpt>
      <trkpt lat="45.22339" lon="-72.48271">
        <ele>239.4</ele>
      </trkpt>
      <trkpt lat="45.22321" lon="-72.48304">
        <ele>238.1</ele>
      </trkpt>
      <trkpt lat="45.22315" lon="-72.48321">
        <ele>237.8</ele>
      </trkpt>
      <trkpt lat="45.22304" lon="-72.48375">
        <ele>237</ele>
      </trkpt>
      <trkpt lat="45.22295" lon="-72.48464">
        <ele>237.3</ele>
      </trkpt>
      <trkpt lat="45.222936" lon="-72.48591">
        <ele>240.9</ele>
      </trkpt>
      <trkpt lat="45.222923" lon="-72.48718">
        <ele>243.6</ele>
      </trkpt>
      <trkpt lat="45.22291" lon="-72.48845">
        <ele>244.9</ele>
      </trkpt>
      <trkpt lat="45.22291" lon="-72.48873">
        <ele>244.5</ele>
      </trkpt>
      <trkpt lat="45.22282" lon="-72.4893">
        <ele>243.8</ele>
      </trkpt>
      <trkpt lat="45.2227" lon="-72.48961">
        <ele>242.8</ele>
      </trkpt>
      <trkpt lat="45.22254" lon="-72.48986">
        <ele>242.7</ele>
      </trkpt>
      <trkpt lat="45.22185" lon="-72.4906">
        <ele>244</ele>
      </trkpt>
      <trkpt lat="45.22164" lon="-72.49086">
        <ele>244.5</ele>
      </trkpt>
      <trkpt lat="45.22125" lon="-72.49176">
        <ele>245.4</ele>
      </trkpt>
      <trkpt lat="45.2211" lon="-72.49216">
        <ele>245</ele>
      </trkpt>
      <trkpt lat="45.2211" lon="-72.49217">
        <ele>245</ele>
      </trkpt>
      <trkpt lat="45.22071" lon="-72.49331">
        <ele>244.1</ele>
      </trkpt>
      <trkpt lat="45.22061" lon="-72.49383">
        <ele>242.1</ele>
      </trkpt>
      <trkpt lat="45.22059" lon="-72.49401">
        <ele>241.1</ele>
      </trkpt>
      <trkpt lat="45.22063" lon="-72.49445">
        <ele>237.5</ele>
      </trkpt>
      <trkpt lat="45.22072" lon="-72.49483">
        <ele>235.7</ele>
      </trkpt>
      <trkpt lat="45.22087" lon="-72.49526">
        <ele>233.2</ele>
      </trkpt>
      <trkpt lat="45.2213" lon="-72.49633">
        <ele>227.3</ele>
      </trkpt>
      <trkpt lat="45.22135" lon="-72.49651">
        <ele>226.1</ele>
      </trkpt>
      <trkpt lat="45.22137" lon="-72.49672">
        <ele>225.4</ele>
      </trkpt>
      <trkpt lat="45.22139" lon="-72.49733">
        <ele>224.1</ele>
      </trkpt>
      <trkpt lat="45.2214" lon="-72.49844">
        <ele>221.1</ele>
      </trkpt>
      <trkpt lat="45.22139" lon="-72.499225">
        <ele>218.8</ele>
      </trkpt>
      <trkpt lat="45.22138" lon="-72.50001">
        <ele>219.6</ele>
      </trkpt>
      <trkpt lat="45.221385" lon="-72.500705">
        <ele>223.1</ele>
      </trkpt>
      <trkpt lat="45.22139" lon="-72.5014">
        <ele>224</ele>
      </trkpt>
      <trkpt lat="45.22151" lon="-72.50211">
        <ele>221.7</ele>
      </trkpt>
      <trkpt lat="45.22153" lon="-72.5025">
        <ele>221.1</ele>
      </trkpt>
      <trkpt lat="45.22149" lon="-72.50269">
        <ele>221</ele>
      </trkpt>
      <trkpt lat="45.22117" lon="-72.50364">
        <ele>222.3</ele>
      </trkpt>
      <trkpt lat="45.2208" lon="-72.50464">
        <ele>223.4</ele>
      </trkpt>
      <trkpt lat="45.22043" lon="-72.50564">
        <ele>223.5</ele>
      </trkpt>
      <trkpt lat="45.22026" lon="-72.50596">
        <ele>223</ele>
      </trkpt>
      <trkpt lat="45.21984" lon="-72.506695">
        <ele>222.9</ele>
      </trkpt>
      <trkpt lat="45.21942" lon="-72.50743">
        <ele>221.2</ele>
      </trkpt>
      <trkpt lat="45.21888" lon="-72.50831">
        <ele>219.8</ele>
      </trkpt>
      <trkpt lat="45.21898" lon="-72.5091">
        <ele>217.3</ele>
      </trkpt>
      <trkpt lat="45.21913" lon="-72.50986">
        <ele>215.8</ele>
      </trkpt>
      <trkpt lat="45.21933" lon="-72.51052">
        <ele>214.6</ele>
      </trkpt>
      <trkpt lat="45.219625" lon="-72.511229">
        <ele>212.4</ele>
      </trkpt>
      <trkpt lat="45.21992" lon="-72.51194">
        <ele>212</ele>
      </trkpt>
      <trkpt lat="45.22016" lon="-72.51246">
        <ele>212.3</ele>
      </trkpt>
      <trkpt lat="45.22048" lon="-72.51314">
        <ele>212.1</ele>
      </trkpt>
      <trkpt lat="45.220856" lon="-72.513996">
        <ele>209.8</ele>
      </trkpt>
      <trkpt lat="45.221233" lon="-72.514853">
        <ele>210</ele>
      </trkpt>
      <trkpt lat="45.22161" lon="-72.51571">
        <ele>209.3</ele>
      </trkpt>
      <trkpt lat="45.2218" lon="-72.51627">
        <ele>209.1</ele>
      </trkpt>
      <trkpt lat="45.22188" lon="-72.51674">
        <ele>209</ele>
      </trkpt>
      <trkpt lat="45.2219" lon="-72.51696">
        <ele>209</ele>
      </trkpt>
      <trkpt lat="45.221915" lon="-72.517859">
        <ele>209.2</ele>
      </trkpt>
      <trkpt lat="45.22193" lon="-72.51876">
        <ele>209.7</ele>
      </trkpt>
      <trkpt lat="45.22196" lon="-72.51894">
        <ele>209.7</ele>
      </trkpt>
      <trkpt lat="45.22202" lon="-72.51912">
        <ele>209.5</ele>
      </trkpt>
      <trkpt lat="45.22241" lon="-72.5201">
        <ele>208.5</ele>
      </trkpt>
      <trkpt lat="45.22265" lon="-72.52095">
        <ele>208.1</ele>
      </trkpt>
      <trkpt lat="45.22274" lon="-72.5214">
        <ele>207.8</ele>
      </trkpt>
      <trkpt lat="45.22278" lon="-72.52248">
        <ele>206.7</ele>
      </trkpt>
      <trkpt lat="45.22276" lon="-72.52292">
        <ele>206</ele>
      </trkpt>
      <trkpt lat="45.22267" lon="-72.5232">
        <ele>205.4</ele>
      </trkpt>
      <trkpt lat="45.22245" lon="-72.52355">
        <ele>203.5</ele>
      </trkpt>
      <trkpt lat="45.22176" lon="-72.52429">
        <ele>202</ele>
      </trkpt>
      <trkpt lat="45.221345" lon="-72.524715">
        <ele>202</ele>
      </trkpt>
      <trkpt lat="45.22093" lon="-72.52514">
        <ele>202.7</ele>
      </trkpt>
      <trkpt lat="45.221246" lon="-72.526273">
        <ele>201.8</ele>
      </trkpt>
      <trkpt lat="45.221563" lon="-72.527406">
        <ele>201.9</ele>
      </trkpt>
      <trkpt lat="45.22188" lon="-72.52854">
        <ele>202.4</ele>
      </trkpt>
      <trkpt lat="45.22205" lon="-72.52914">
        <ele>202.8</ele>
      </trkpt>
      <trkpt lat="45.22218" lon="-72.52972">
        <ele>202.9</ele>
      </trkpt>
      <trkpt lat="45.22227" lon="-72.53042">
        <ele>202.9</ele>
      </trkpt>
      <trkpt lat="45.222296" lon="-72.531279">
        <ele>202.8</ele>
      </trkpt>
      <trkpt lat="45.222323" lon="-72.532139">
        <ele>202.3</ele>
      </trkpt>
      <trkpt lat="45.22235" lon="-72.533">
        <ele>202.2</ele>
      </trkpt>
      <trkpt lat="45.22231" lon="-72.53398">
        <ele>200.9</ele>
      </trkpt>
      <trkpt lat="45.22231" lon="-72.53422">
        <ele>200.5</ele>
      </trkpt>
      <trkpt lat="45.222325" lon="-72.535089">
        <ele>199.8</ele>
      </trkpt>
      <trkpt lat="45.22234" lon="-72.53596">
        <ele>200.1</ele>
      </trkpt>
      <trkpt lat="45.222383" lon="-72.536913">
        <ele>204.6</ele>
      </trkpt>
      <trkpt lat="45.222426" lon="-72.537866">
        <ele>211.7</ele>
      </trkpt>
      <trkpt lat="45.22247" lon="-72.53882">
        <ele>213.6</ele>
      </trkpt>
      <trkpt lat="45.22263" lon="-72.53954">
        <ele>219.5</ele>
      </trkpt>
      <trkpt lat="45.22259" lon="-72.53977">
        <ele>220.5</ele>
      </trkpt>
      <trkpt lat="45.22248" lon="-72.54007">
        <ele>223.5</ele>
      </trkpt>
      <trkpt lat="45.22232" lon="-72.54042">
        <ele>226.3</ele>
      </trkpt>
      <trkpt lat="45.22203" lon="-72.54096">
        <ele>230.1</ele>
      </trkpt>
      <trkpt lat="45.22193" lon="-72.5411">
        <ele>231.2</ele>
      </trkpt>
      <trkpt lat="45.22159" lon="-72.54145">
        <ele>235.5</ele>
      </trkpt>
      <trkpt lat="45.22148" lon="-72.54159">
        <ele>235.5</ele>
      </trkpt>
      <trkpt lat="45.22141" lon="-72.54174">
        <ele>238.4</ele>
      </trkpt>
      <trkpt lat="45.22136" lon="-72.54209">
        <ele>241.1</ele>
      </trkpt>
      <trkpt lat="45.22139" lon="-72.5424">
        <ele>242.6</ele>
      </trkpt>
      <trkpt lat="45.22154" lon="-72.5428">
        <ele>244.9</ele>
      </trkpt>
      <trkpt lat="45.22198" lon="-72.543529">
        <ele>248.1</ele>
      </trkpt>
      <trkpt lat="45.22242" lon="-72.54426">
        <ele>252.2</ele>
      </trkpt>
      <trkpt lat="45.22258" lon="-72.54459">
        <ele>254.8</ele>
      </trkpt>
      <trkpt lat="45.2226" lon="-72.54465">
        <ele>254.8</ele>
      </trkpt>
      <trkpt lat="45.222635" lon="-72.545909">
        <ele>255.4</ele>
      </trkpt>
      <trkpt lat="45.22267" lon="-72.54717">
        <ele>252.8</ele>
      </trkpt>
      <trkpt lat="45.22267" lon="-72.54718">
        <ele>252.8</ele>
      </trkpt>
      <trkpt lat="45.222683" lon="-72.548276">
        <ele>254.8</ele>
      </trkpt>
      <trkpt lat="45.222696" lon="-72.549373">
        <ele>257.9</ele>
      </trkpt>
      <trkpt lat="45.22271" lon="-72.55047">
        <ele>264</ele>
      </trkpt>
      <trkpt lat="45.222755" lon="-72.551114">
        <ele>267.1</ele>
      </trkpt>
      <trkpt lat="45.2228" lon="-72.55176">
        <ele>273.4</ele>
      </trkpt>
      <trkpt lat="45.222816" lon="-72.552797">
        <ele>275.2</ele>
      </trkpt>
      <trkpt lat="45.222832" lon="-72.553835">
        <ele>276.9</ele>
      </trkpt>
      <trkpt lat="45.222848" lon="-72.554873">
        <ele>275.6</ele>
      </trkpt>
      <trkpt lat="45.222864" lon="-72.555911">
        <ele>271.9</ele>
      </trkpt>
      <trkpt lat="45.22288" lon="-72.55695">
        <ele>269.7</ele>
      </trkpt>
      <trkpt lat="45.22287" lon="-72.55762">
        <ele>267.7</ele>
      </trkpt>
      <trkpt lat="45.22282" lon="-72.55816">
        <ele>264.4</ele>
      </trkpt>
      <trkpt lat="45.22283" lon="-72.559054">
        <ele>259.4</ele>
      </trkpt>
      <trkpt lat="45.22284" lon="-72.55995">
        <ele>257.5</ele>
      </trkpt>
      <trkpt lat="45.222818" lon="-72.561061">
        <ele>259.9</ele>
      </trkpt>
      <trkpt lat="45.222796" lon="-72.562173">
        <ele>264.2</ele>
      </trkpt>
      <trkpt lat="45.222775" lon="-72.563285">
        <ele>267.7</ele>
      </trkpt>
      <trkpt lat="45.222753" lon="-72.564396">
        <ele>273.8</ele>
      </trkpt>
      <trkpt lat="45.222731" lon="-72.565508">
        <ele>282.3</ele>
      </trkpt>
      <trkpt lat="45.22271" lon="-72.56662">
        <ele>287.5</ele>
      </trkpt>
      <trkpt lat="45.222692" lon="-72.567855">
        <ele>286.7</ele>
      </trkpt>
      <trkpt lat="45.222675" lon="-72.56909">
        <ele>283.2</ele>
      </trkpt>
      <trkpt lat="45.222657" lon="-72.570325">
        <ele>279.4</ele>
      </trkpt>
      <trkpt lat="45.22264" lon="-72.57156">
        <ele>272.3</ele>
      </trkpt>
      <trkpt lat="45.22264" lon="-72.57157">
        <ele>272.3</ele>
      </trkpt>
      <trkpt lat="45.222627" lon="-72.57265">
        <ele>266.1</ele>
      </trkpt>
      <trkpt lat="45.222615" lon="-72.57373">
        <ele>258.9</ele>
      </trkpt>
      <trkpt lat="45.222602" lon="-72.57481">
        <ele>252.7</ele>
      </trkpt>
      <trkpt lat="45.22259" lon="-72.57589">
        <ele>245</ele>
      </trkpt>
      <trkpt lat="45.222595" lon="-72.576669">
        <ele>237.8</ele>
      </trkpt>
      <trkpt lat="45.2226" lon="-72.57745">
        <ele>232.6</ele>
      </trkpt>
      <trkpt lat="45.22264" lon="-72.578675">
        <ele>226.9</ele>
      </trkpt>
      <trkpt lat="45.22268" lon="-72.579901">
        <ele>221.6</ele>
      </trkpt>
      <trkpt lat="45.22272" lon="-72.581127">
        <ele>218.3</ele>
      </trkpt>
      <trkpt lat="45.22276" lon="-72.582353">
        <ele>214.6</ele>
      </trkpt>
      <trkpt lat="45.2228" lon="-72.583579">
        <ele>208</ele>
      </trkpt>
      <trkpt lat="45.22284" lon="-72.584805">
        <ele>204.8</ele>
      </trkpt>
      <trkpt lat="45.22288" lon="-72.586031">
        <ele>202.1</ele>
      </trkpt>
      <trkpt lat="45.22292" lon="-72.587257">
        <ele>200.6</ele>
      </trkpt>
      <trkpt lat="45.22296" lon="-72.588483">
        <ele>201.7</ele>
      </trkpt>
      <trkpt lat="45.223" lon="-72.589709">
        <ele>205.2</ele>
      </trkpt>
      <trkpt lat="45.22304" lon="-72.590935">
        <ele>209.5</ele>
      </trkpt>
      <trkpt lat="45.22308" lon="-72.592161">
        <ele>212.1</ele>
      </trkpt>
      <trkpt lat="45.22312" lon="-72.593387">
        <ele>214.3</ele>
      </trkpt>
      <trkpt lat="45.22316" lon="-72.594613">
        <ele>217.4</ele>
      </trkpt>
      <trkpt lat="45.2232" lon="-72.59584">
        <ele>219.1</ele>
      </trkpt>
      <trkpt lat="45.22324" lon="-72.596936">
        <ele>220.1</ele>
      </trkpt>
      <trkpt lat="45.22328" lon="-72.598033">
        <ele>221.2</ele>
      </trkpt>
      <trkpt lat="45.22332" lon="-72.59913">
        <ele>221.1</ele>
      </trkpt>
      <trkpt lat="45.223377" lon="-72.600251">
        <ele>218.2</ele>
      </trkpt>
      <trkpt lat="45.223434" lon="-72.601372">
        <ele>212.9</ele>
      </trkpt>
      <trkpt lat="45.223491" lon="-72.602494">
        <ele>210.1</ele>
      </trkpt>
      <trkpt lat="45.223548" lon="-72.603615">
        <ele>210.3</ele>
      </trkpt>
      <trkpt lat="45.223605" lon="-72.604737">
        <ele>213</ele>
      </trkpt>
      <trkpt lat="45.223662" lon="-72.605858">
        <ele>215.5</ele>
      </trkpt>
      <trkpt lat="45.22372" lon="-72.60698">
        <ele>213.8</ele>
      </trkpt>
      <trkpt lat="45.223773" lon="-72.60821">
        <ele>210.7</ele>
      </trkpt>
      <trkpt lat="45.223826" lon="-72.609441">
        <ele>209.5</ele>
      </trkpt>
      <trkpt lat="45.22388" lon="-72.610672">
        <ele>210.1</ele>
      </trkpt>
      <trkpt lat="45.223933" lon="-72.611903">
        <ele>211.6</ele>
      </trkpt>
      <trkpt lat="45.223986" lon="-72.613134">
        <ele>214.6</ele>
      </trkpt>
      <trkpt lat="45.22404" lon="-72.614364">
        <ele>215.1</ele>
      </trkpt>
      <trkpt lat="45.224093" lon="-72.615595">
        <ele>216.7</ele>
      </trkpt>
      <trkpt lat="45.224146" lon="-72.616826">
        <ele>216.3</ele>
      </trkpt>
      <trkpt lat="45.2242" lon="-72.618057">
        <ele>214.1</ele>
      </trkpt>
      <trkpt lat="45.224253" lon="-72.619288">
        <ele>214.7</ele>
      </trkpt>
      <trkpt lat="45.224306" lon="-72.620519">
        <ele>217.2</ele>
      </trkpt>
      <trkpt lat="45.22436" lon="-72.62175">
        <ele>217.1</ele>
      </trkpt>
      <trkpt lat="45.225138" lon="-72.621742">
        <ele>218.7</ele>
      </trkpt>
      <trkpt lat="45.225916" lon="-72.621734">
        <ele>222.1</ele>
      </trkpt>
      <trkpt lat="45.226694" lon="-72.621726">
        <ele>225.6</ele>
      </trkpt>
      <trkpt lat="45.227472" lon="-72.621718">
        <ele>229.9</ele>
      </trkpt>
      <trkpt lat="45.22825" lon="-72.62171">
        <ele>232</ele>
      </trkpt>
      <trkpt lat="45.22824" lon="-72.62171">
        <ele>232</ele>
      </trkpt>
      <trkpt lat="45.228936" lon="-72.6217">
        <ele>233.1</ele>
      </trkpt>
      <trkpt lat="45.229633" lon="-72.62169">
        <ele>234</ele>
      </trkpt>
      <trkpt lat="45.23033" lon="-72.62168">
        <ele>234.6</ele>
      </trkpt>
      <trkpt lat="45.231064" lon="-72.62164">
        <ele>237.9</ele>
      </trkpt>
      <trkpt lat="45.2318" lon="-72.6216">
        <ele>242.6</ele>
      </trkpt>
      <trkpt lat="45.232466" lon="-72.6216">
        <ele>243.2</ele>
      </trkpt>
      <trkpt lat="45.233133" lon="-72.6216">
        <ele>243.5</ele>
      </trkpt>
      <trkpt lat="45.2338" lon="-72.6216">
        <ele>245.4</ele>
      </trkpt>
      <trkpt lat="45.234443" lon="-72.621566">
        <ele>247.1</ele>
      </trkpt>
      <trkpt lat="45.235086" lon="-72.621533">
        <ele>248.6</ele>
      </trkpt>
      <trkpt lat="45.23573" lon="-72.6215">
        <ele>252.4</ele>
      </trkpt>
      <trkpt lat="45.236425" lon="-72.621445">
        <ele>256.6</ele>
      </trkpt>
      <trkpt lat="45.23712" lon="-72.62139">
        <ele>260.7</ele>
      </trkpt>
      <trkpt lat="45.237814" lon="-72.621335">
        <ele>261.6</ele>
      </trkpt>
      <trkpt lat="45.23851" lon="-72.62128">
        <ele>263.1</ele>
      </trkpt>
      <trkpt lat="45.23926" lon="-72.62117">
        <ele>260.4</ele>
      </trkpt>
      <trkpt lat="45.24003" lon="-72.62111">
        <ele>256.2</ele>
      </trkpt>
      <trkpt lat="45.2407" lon="-72.62115">
        <ele>254.3</ele>
      </trkpt>
      <trkpt lat="45.24137" lon="-72.62129">
        <ele>253.4</ele>
      </trkpt>
      <trkpt lat="45.24208" lon="-72.62151">
        <ele>250.6</ele>
      </trkpt>
      <trkpt lat="45.24285" lon="-72.62183">
        <ele>249.1</ele>
      </trkpt>
      <trkpt lat="45.2431" lon="-72.62214">
        <ele>248.8</ele>
      </trkpt>
      <trkpt lat="45.24339" lon="-72.62272">
        <ele>247.7</ele>
      </trkpt>
      <trkpt lat="45.24356" lon="-72.62334">
        <ele>246.1</ele>
      </trkpt>
      <trkpt lat="45.24375" lon="-72.62397">
        <ele>243.8</ele>
      </trkpt>
      <trkpt lat="45.24386" lon="-72.62415">
        <ele>243.3</ele>
      </trkpt>
      <trkpt lat="45.244363" lon="-72.624793">
        <ele>237.8</ele>
      </trkpt>
      <trkpt lat="45.244866" lon="-72.625436">
        <ele>233.8</ele>
      </trkpt>
      <trkpt lat="45.24537" lon="-72.62608">
        <ele>230.5</ele>
      </trkpt>
      <trkpt lat="45.24588" lon="-72.62679">
        <ele>231.4</ele>
      </trkpt>
      <trkpt lat="45.24641" lon="-72.62743">
        <ele>233.6</ele>
      </trkpt>
      <trkpt lat="45.24669" lon="-72.62768">
        <ele>232.9</ele>
      </trkpt>
      <trkpt lat="45.24714" lon="-72.62792">
        <ele>230.1</ele>
      </trkpt>
      <trkpt lat="45.24734" lon="-72.628">
        <ele>228</ele>
      </trkpt>
      <trkpt lat="45.24758" lon="-72.62801">
        <ele>226.5</ele>
      </trkpt>
      <trkpt lat="45.24795" lon="-72.628">
        <ele>224.6</ele>
      </trkpt>
      <trkpt lat="45.24791" lon="-72.62872">
        <ele>226.9</ele>
      </trkpt>
      <trkpt lat="45.24787" lon="-72.62944">
        <ele>229.8</ele>
      </trkpt>
      <trkpt lat="45.24776" lon="-72.63051">
        <ele>231.8</ele>
      </trkpt>
      <trkpt lat="45.247645" lon="-72.631135">
        <ele>233</ele>
      </trkpt>
      <trkpt lat="45.24753" lon="-72.63176">
        <ele>235.2</ele>
      </trkpt>
      <trkpt lat="45.24717" lon="-72.63274">
        <ele>236.5</ele>
      </trkpt>
      <trkpt lat="45.24694" lon="-72.63361">
        <ele>236.8</ele>
      </trkpt>
      <trkpt lat="45.24678" lon="-72.6345">
        <ele>233.7</ele>
      </trkpt>
      <trkpt lat="45.246615" lon="-72.63515">
        <ele>233.1</ele>
      </trkpt>
      <trkpt lat="45.24645" lon="-72.6358">
        <ele>233.7</ele>
      </trkpt>
      <trkpt lat="45.24624" lon="-72.63643">
        <ele>234</ele>
      </trkpt>
      <trkpt lat="45.24604" lon="-72.63741">
        <ele>231.7</ele>
      </trkpt>
      <trkpt lat="45.24591" lon="-72.63775">
        <ele>231.5</ele>
      </trkpt>
      <trkpt lat="45.245515" lon="-72.638415">
        <ele>229.9</ele>
      </trkpt>
      <trkpt lat="45.24512" lon="-72.63908">
        <ele>228.5</ele>
      </trkpt>
      <trkpt lat="45.24512" lon="-72.63909">
        <ele>228.5</ele>
      </trkpt>
      <trkpt lat="45.24459" lon="-72.63995">
        <ele>228.4</ele>
      </trkpt>
      <trkpt lat="45.24445" lon="-72.64026">
        <ele>228.1</ele>
      </trkpt>
      <trkpt lat="45.24418" lon="-72.64107">
        <ele>226.1</ele>
      </trkpt>
      <trkpt lat="45.24396" lon="-72.641905">
        <ele>224.1</ele>
      </trkpt>
      <trkpt lat="45.24374" lon="-72.64274">
        <ele>220.8</ele>
      </trkpt>
      <trkpt lat="45.24358" lon="-72.64363">
        <ele>219.5</ele>
      </trkpt>
      <trkpt lat="45.24327" lon="-72.6447">
        <ele>216.3</ele>
      </trkpt>
      <trkpt lat="45.24306" lon="-72.6456">
        <ele>211.8</ele>
      </trkpt>
      <trkpt lat="45.24305" lon="-72.64571">
        <ele>211.8</ele>
      </trkpt>
      <trkpt lat="45.2429" lon="-72.64636">
        <ele>209.5</ele>
      </trkpt>
      <trkpt lat="45.24264" lon="-72.6473">
        <ele>205.8</ele>
      </trkpt>
      <trkpt lat="45.24233" lon="-72.64833">
        <ele>202.8</ele>
      </trkpt>
      <trkpt lat="45.24201" lon="-72.6495">
        <ele>198.7</ele>
      </trkpt>
      <trkpt lat="45.24167" lon="-72.65039">
        <ele>194.8</ele>
      </trkpt>
      <trkpt lat="45.24123" lon="-72.65111">
        <ele>193.5</ele>
      </trkpt>
      <trkpt lat="45.2409" lon="-72.65177">
        <ele>195.9</ele>
      </trkpt>
      <trkpt lat="45.24047" lon="-72.65232">
        <ele>195.4</ele>
      </trkpt>
      <trkpt lat="45.24012" lon="-72.65285">
        <ele>194.1</ele>
      </trkpt>
      <trkpt lat="45.23998" lon="-72.65312">
        <ele>194.2</ele>
      </trkpt>
      <trkpt lat="45.23973" lon="-72.6537">
        <ele>193.8</ele>
      </trkpt>
      <trkpt lat="45.23941" lon="-72.6546">
        <ele>190.8</ele>
      </trkpt>
      <trkpt lat="45.23898" lon="-72.655565">
        <ele>186.9</ele>
      </trkpt>
      <trkpt lat="45.23855" lon="-72.65653">
        <ele>184</ele>
      </trkpt>
      <trkpt lat="45.2381" lon="-72.65745">
        <ele>184</ele>
      </trkpt>
      <trkpt lat="45.238848" lon="-72.657414">
        <ele>182</ele>
      </trkpt>
      <trkpt lat="45.239596" lon="-72.657378">
        <ele>178.3</ele>
      </trkpt>
      <trkpt lat="45.240344" lon="-72.657342">
        <ele>175.6</ele>
      </trkpt>
      <trkpt lat="45.241092" lon="-72.657306">
        <ele>170</ele>
      </trkpt>
      <trkpt lat="45.24184" lon="-72.65727">
        <ele>164.6</ele>
      </trkpt>
      <trkpt lat="45.242476" lon="-72.657213">
        <ele>163.3</ele>
      </trkpt>
      <trkpt lat="45.243113" lon="-72.657156">
        <ele>165.9</ele>
      </trkpt>
      <trkpt lat="45.24375" lon="-72.6571">
        <ele>173.7</ele>
      </trkpt>
      <trkpt lat="45.244229" lon="-72.65708">
        <ele>177.3</ele>
      </trkpt>
      <trkpt lat="45.24471" lon="-72.65706">
        <ele>180.5</ele>
      </trkpt>
      <trkpt lat="45.2453" lon="-72.657">
        <ele>183.5</ele>
      </trkpt>
      <trkpt lat="45.24529" lon="-72.657">
        <ele>183.5</ele>
      </trkpt>
      <trkpt lat="45.246015" lon="-72.656925">
        <ele>184.7</ele>
      </trkpt>
      <trkpt lat="45.24674" lon="-72.65685">
        <ele>187.3</ele>
      </trkpt>
      <trkpt lat="45.24762" lon="-72.65672">
        <ele>191</ele>
      </trkpt>
      <trkpt lat="45.24801" lon="-72.6567">
        <ele>192.8</ele>
      </trkpt>
      <trkpt lat="45.248773" lon="-72.656716">
        <ele>191.5</ele>
      </trkpt>
      <trkpt lat="45.249536" lon="-72.656733">
        <ele>189.5</ele>
      </trkpt>
      <trkpt lat="45.2503" lon="-72.65675">
        <ele>188.2</ele>
      </trkpt>
      <trkpt lat="45.25116" lon="-72.65679">
        <ele>187.2</ele>
      </trkpt>
      <trkpt lat="45.25201" lon="-72.65679">
        <ele>185.8</ele>
      </trkpt>
      <trkpt lat="45.25277" lon="-72.656755">
        <ele>177.9</ele>
      </trkpt>
      <trkpt lat="45.25353" lon="-72.65672">
        <ele>173.6</ele>
      </trkpt>
      <trkpt lat="45.25429" lon="-72.656685">
        <ele>171.5</ele>
      </trkpt>
      <trkpt lat="45.25505" lon="-72.65665">
        <ele>162.4</ele>
      </trkpt>
      <trkpt lat="45.25591" lon="-72.656633">
        <ele>153.8</ele>
      </trkpt>
      <trkpt lat="45.25677" lon="-72.656616">
        <ele>152.6</ele>
      </trkpt>
      <trkpt lat="45.25763" lon="-72.6566">
        <ele>155.4</ele>
      </trkpt>
      <trkpt lat="45.25787" lon="-72.65662">
        <ele>155.3</ele>
      </trkpt>
      <trkpt lat="45.258639" lon="-72.656649">
        <ele>151.1</ele>
      </trkpt>
      <trkpt lat="45.25941" lon="-72.65668">
        <ele>149.6</ele>
      </trkpt>
      <trkpt lat="45.2598" lon="-72.65668">
        <ele>150.4</ele>
      </trkpt>
      <trkpt lat="45.260289" lon="-72.656684">
        <ele>152.4</ele>
      </trkpt>
      <trkpt lat="45.26078" lon="-72.65669">
        <ele>155.2</ele>
      </trkpt>
      <trkpt lat="45.26124" lon="-72.65664">
        <ele>156.8</ele>
      </trkpt>
      <trkpt lat="45.26119" lon="-72.657425">
        <ele>154.1</ele>
      </trkpt>
      <trkpt lat="45.26114" lon="-72.65821">
        <ele>152.2</ele>
      </trkpt>
      <trkpt lat="45.260944" lon="-72.659204">
        <ele>153.1</ele>
      </trkpt>
      <trkpt lat="45.260748" lon="-72.660198">
        <ele>152.7</ele>
      </trkpt>
      <trkpt lat="45.260552" lon="-72.661192">
        <ele>150.6</ele>
      </trkpt>
      <trkpt lat="45.260356" lon="-72.662186">
        <ele>149.9</ele>
      </trkpt>
      <trkpt lat="45.26016" lon="-72.66318">
        <ele>149.9</ele>
      </trkpt>
      <trkpt lat="45.2599" lon="-72.6644">
        <ele>152.3</ele>
      </trkpt>
      <trkpt lat="45.25966" lon="-72.665095">
        <ele>152.6</ele>
      </trkpt>
      <trkpt lat="45.25942" lon="-72.66579">
        <ele>144.6</ele>
      </trkpt>
      <trkpt lat="45.25902" lon="-72.66681">
        <ele>140.9</ele>
      </trkpt>
      <trkpt lat="45.25894" lon="-72.66708">
        <ele>140.8</ele>
      </trkpt>
      <trkpt lat="45.25889" lon="-72.66741">
        <ele>140.8</ele>
      </trkpt>
      <trkpt lat="45.25888" lon="-72.66789">
        <ele>141.1</ele>
      </trkpt>
      <trkpt lat="45.258912" lon="-72.669142">
        <ele>144.3</ele>
      </trkpt>
      <trkpt lat="45.258945" lon="-72.670394">
        <ele>144</ele>
      </trkpt>
      <trkpt lat="45.258977" lon="-72.671647">
        <ele>142.3</ele>
      </trkpt>
      <trkpt lat="45.25901" lon="-72.6729">
        <ele>145</ele>
      </trkpt>
      <trkpt lat="45.25909" lon="-72.67322">
        <ele>146.6</ele>
      </trkpt>
      <trkpt lat="45.25929" lon="-72.67355">
        <ele>147.8</ele>
      </trkpt>
      <trkpt lat="45.25984" lon="-72.6742">
        <ele>149.2</ele>
      </trkpt>
      <trkpt lat="45.2602" lon="-72.67479">
        <ele>151.6</ele>
      </trkpt>
      <trkpt lat="45.26065" lon="-72.67582">
        <ele>152.6</ele>
      </trkpt>
      <trkpt lat="45.26074" lon="-72.67622">
        <ele>153.8</ele>
      </trkpt>
      <trkpt lat="45.26075" lon="-72.6765">
        <ele>155.8</ele>
      </trkpt>
      <trkpt lat="45.26068" lon="-72.67689">
        <ele>159.8</ele>
      </trkpt>
      <trkpt lat="45.26051" lon="-72.6773">
        <ele>162.3</ele>
      </trkpt>
      <trkpt lat="45.26041" lon="-72.67762">
        <ele>161.9</ele>
      </trkpt>
      <trkpt lat="45.2604" lon="-72.67787">
        <ele>160</ele>
      </trkpt>
      <trkpt lat="45.26043" lon="-72.6781">
        <ele>158.7</ele>
      </trkpt>
      <trkpt lat="45.260786" lon="-72.678879">
        <ele>150.4</ele>
      </trkpt>
      <trkpt lat="45.261143" lon="-72.679659">
        <ele>150.9</ele>
      </trkpt>
      <trkpt lat="45.2615" lon="-72.68044">
        <ele>152.7</ele>
      </trkpt>
      <trkpt lat="45.26187" lon="-72.6811">
        <ele>149.5</ele>
      </trkpt>
      <trkpt lat="45.26231" lon="-72.68164">
        <ele>143.1</ele>
      </trkpt>
      <trkpt lat="45.26285" lon="-72.68218">
        <ele>139.7</ele>
      </trkpt>
      <trkpt lat="45.26285" lon="-72.68217">
        <ele>139.7</ele>
      </trkpt>
      <trkpt lat="45.26332" lon="-72.68262">
        <ele>139.1</ele>
      </trkpt>
      <trkpt lat="45.26358" lon="-72.68293">
        <ele>138.7</ele>
      </trkpt>
      <trkpt lat="45.26391" lon="-72.683479">
        <ele>136.9</ele>
      </trkpt>
      <trkpt lat="45.26424" lon="-72.68403">
        <ele>136.3</ele>
      </trkpt>
      <trkpt lat="45.26428" lon="-72.68337">
        <ele>137.5</ele>
      </trkpt>
      <trkpt lat="45.26432" lon="-72.68271">
        <ele>137.7</ele>
      </trkpt>
      <trkpt lat="45.26442" lon="-72.68199">
        <ele>136.1</ele>
      </trkpt>
      <trkpt lat="45.26461" lon="-72.681365">
        <ele>135.7</ele>
      </trkpt>
      <trkpt lat="45.2648" lon="-72.68074">
        <ele>136</ele>
      </trkpt>
      <trkpt lat="45.26498" lon="-72.679955">
        <ele>137.2</ele>
      </trkpt>
      <trkpt lat="45.26516" lon="-72.67917">
        <ele>136.8</ele>
      </trkpt>
      <trkpt lat="45.2656" lon="-72.67819">
        <ele>138.2</ele>
      </trkpt>
      <trkpt lat="45.26587" lon="-72.6777">
        <ele>137.4</ele>
      </trkpt>
      <trkpt lat="45.2662" lon="-72.67725">
        <ele>136.5</ele>
      </trkpt>
      <trkpt lat="45.26646" lon="-72.67702">
        <ele>136.5</ele>
      </trkpt>
      <trkpt lat="45.26723" lon="-72.67658">
        <ele>135.5</ele>
      </trkpt>
      <trkpt lat="45.26768" lon="-72.67617">
        <ele>135.9</ele>
      </trkpt>
      <trkpt lat="45.26797" lon="-72.67578">
        <ele>138.1</ele>
      </trkpt>
      <trkpt lat="45.26865" lon="-72.67523">
        <ele>145.1</ele>
      </trkpt>
      <trkpt lat="45.26921" lon="-72.67492">
        <ele>146.1</ele>
      </trkpt>
      <trkpt lat="45.27" lon="-72.67456">
        <ele>145.2</ele>
      </trkpt>
      <trkpt lat="45.27058" lon="-72.67443">
        <ele>143.3</ele>
      </trkpt>
      <trkpt lat="45.27116" lon="-72.6743">
        <ele>141.7</ele>
      </trkpt>
      <trkpt lat="45.27156" lon="-72.67416">
        <ele>141.9</ele>
      </trkpt>
      <trkpt lat="45.27155" lon="-72.67416">
        <ele>141.9</ele>
      </trkpt>
      <trkpt lat="45.27216" lon="-72.67395">
        <ele>143.3</ele>
      </trkpt>
      <trkpt lat="45.27219" lon="-72.67325">
        <ele>142.3</ele>
      </trkpt>
      <trkpt lat="45.27176" lon="-72.67264">
        <ele>138.7</ele>
      </trkpt>
      <trkpt lat="45.27145" lon="-72.67228">
        <ele>137.3</ele>
      </trkpt>
      <trkpt lat="45.27073" lon="-72.67157">
        <ele>136.8</ele>
      </trkpt>
      <trkpt lat="45.27024" lon="-72.67105">
        <ele>136.8</ele>
      </trkpt>
    </trkseg>
  </trk>
</gpx>