<?xml version='1.0' encoding='utf-8'?>
<gpx xmlns="http://www.topografix.com/GPX/1/1" xmlns:xsi="http://www.w3.org/2001/XMLSchema-instance" version="1.1" creator="Gravelle Estrie" xsi:schemaLocation="http://www.topografix.com/GPX/1/1 http://www.topografix.com/GPX/1/1/gpx.xsd">
  <metadata>
    <name>Free Bird 59KM / 562MD+</name>
  </metadata>
  <trk>
    <name>Free Bird 59KM / 562MD+</name>
    <trkseg>
      <trkpt lat="45.34315" lon="-72.64854">
        <ele>133.46</ele>
      </trkpt>
      <trkpt lat="45.342985" lon="-72.6474225">
        <ele>133.58</ele>
      </trkpt>
      <trkpt lat="45.34282" lon="-72.646305">
        <ele>133.46</ele>
      </trkpt>
      <trkpt lat="45.342655" lon="-72.6451875">
        <ele>133.61</ele>
      </trkpt>
      <trkpt lat="45.34249" lon="-72.64407">
        <ele>134.28</ele>
      </trkpt>
      <trkpt lat="45.34214" lon="-72.64295">
        <ele>134.85</ele>
      </trkpt>
      <trkpt lat="45.34169" lon="-72.64192">
        <ele>135.93</ele>
      </trkpt>
      <trkpt lat="45.341186" lon="-72.640956">
        <ele>136.98</ele>
      </trkpt>
      <trkpt lat="45.340682" lon="-72.6399919">
        <ele>138.04</ele>
      </trkpt>
      <trkpt lat="45.340178" lon="-72.6390279">
        <ele>138.85</ele>
      </trkpt>
      <trkpt lat="45.339674" lon="-72.638064">
        <ele>140.2</ele>
      </trkpt>
      <trkpt lat="45.33917" lon="-72.6371">
        <ele>141.2</ele>
      </trkpt>
      <trkpt lat="45.33878" lon="-72.63624">
        <ele>142.16</ele>
      </trkpt>
      <trkpt lat="45.33861" lon="-72.6357">
        <ele>142.72</ele>
      </trkpt>
      <trkpt lat="45.338455" lon="-72.634875">
        <ele>143.39</ele>
      </trkpt>
      <trkpt lat="45.3383" lon="-72.63405">
        <ele>143.32</ele>
      </trkpt>
      <trkpt lat="45.33816" lon="-72.63284">
        <ele>143.55</ele>
      </trkpt>
      <trkpt lat="45.33802" lon="-72.63163">
        <ele>143.58</ele>
      </trkpt>
      <trkpt lat="45.33784" lon="-72.63094">
        <ele>144.01</ele>
      </trkpt>
      <trkpt lat="45.33766" lon="-72.63025">
        <ele>144.35</ele>
      </trkpt>
      <trkpt lat="45.33742" lon="-72.62968">
        <ele>144.29</ele>
      </trkpt>
      <trkpt lat="45.33718" lon="-72.62911">
        <ele>144.86</ele>
      </trkpt>
      <trkpt lat="45.3367088" lon="-72.6281812">
        <ele>145.89</ele>
      </trkpt>
      <trkpt lat="45.3362375" lon="-72.6272524">
        <ele>147.11</ele>
      </trkpt>
      <trkpt lat="45.3357663" lon="-72.6263236">
        <ele>147.61</ele>
      </trkpt>
      <trkpt lat="45.3352951" lon="-72.6253949">
        <ele>148</ele>
      </trkpt>
      <trkpt lat="45.3348238" lon="-72.6244661">
        <ele>148.32</ele>
      </trkpt>
      <trkpt lat="45.3343525" lon="-72.6235374">
        <ele>148.43</ele>
      </trkpt>
      <trkpt lat="45.3338813" lon="-72.6226087">
        <ele>148.94</ele>
      </trkpt>
      <trkpt lat="45.33341" lon="-72.62168">
        <ele>150.84</ele>
      </trkpt>
      <trkpt lat="45.333105" lon="-72.62101">
        <ele>150.48</ele>
      </trkpt>
      <trkpt lat="45.3328" lon="-72.62034">
        <ele>150.62</ele>
      </trkpt>
      <trkpt lat="45.33246" lon="-72.61922">
        <ele>151.29</ele>
      </trkpt>
      <trkpt lat="45.33222" lon="-72.61806">
        <ele>151.3</ele>
      </trkpt>
      <trkpt lat="45.3320375" lon="-72.6168425">
        <ele>152.02</ele>
      </trkpt>
      <trkpt lat="45.331855" lon="-72.615625">
        <ele>152.75</ele>
      </trkpt>
      <trkpt lat="45.3316725" lon="-72.6144075">
        <ele>153.33</ele>
      </trkpt>
      <trkpt lat="45.33149" lon="-72.61319">
        <ele>153.68</ele>
      </trkpt>
      <trkpt lat="45.33128" lon="-72.61229">
        <ele>154.17</ele>
      </trkpt>
      <trkpt lat="45.33098" lon="-72.61143">
        <ele>155.22</ele>
      </trkpt>
      <trkpt lat="45.33063" lon="-72.61067">
        <ele>156.71</ele>
      </trkpt>
      <trkpt lat="45.3303" lon="-72.61009">
        <ele>158.02</ele>
      </trkpt>
      <trkpt lat="45.32995" lon="-72.60956">
        <ele>158.81</ele>
      </trkpt>
      <trkpt lat="45.3294467" lon="-72.6088433">
        <ele>158.95</ele>
      </trkpt>
      <trkpt lat="45.3289433" lon="-72.6081267">
        <ele>159.6</ele>
      </trkpt>
      <trkpt lat="45.32844" lon="-72.60741">
        <ele>161.01</ele>
      </trkpt>
      <trkpt lat="45.32801" lon="-72.6066">
        <ele>161.6</ele>
      </trkpt>
      <trkpt lat="45.32758" lon="-72.60548">
        <ele>162.79</ele>
      </trkpt>
      <trkpt lat="45.3272217" lon="-72.6044283">
        <ele>163.9</ele>
      </trkpt>
      <trkpt lat="45.3268634" lon="-72.6033766">
        <ele>165.28</ele>
      </trkpt>
      <trkpt lat="45.326505" lon="-72.6023249">
        <ele>166.93</ele>
      </trkpt>
      <trkpt lat="45.3261467" lon="-72.6012733">
        <ele>167.85</ele>
      </trkpt>
      <trkpt lat="45.3257884" lon="-72.6002216">
        <ele>168.59</ele>
      </trkpt>
      <trkpt lat="45.32543" lon="-72.59917">
        <ele>169.52</ele>
      </trkpt>
      <trkpt lat="45.32507" lon="-72.5981233">
        <ele>170.54</ele>
      </trkpt>
      <trkpt lat="45.32471" lon="-72.5970767">
        <ele>171.37</ele>
      </trkpt>
      <trkpt lat="45.32435" lon="-72.59603">
        <ele>172.31</ele>
      </trkpt>
      <trkpt lat="45.3241" lon="-72.59519">
        <ele>173.32</ele>
      </trkpt>
      <trkpt lat="45.32396" lon="-72.59456">
        <ele>174.24</ele>
      </trkpt>
      <trkpt lat="45.3238" lon="-72.59334">
        <ele>176.19</ele>
      </trkpt>
      <trkpt lat="45.32378" lon="-72.59259">
        <ele>175.36</ele>
      </trkpt>
      <trkpt lat="45.32379" lon="-72.59222">
        <ele>175.23</ele>
      </trkpt>
      <trkpt lat="45.32385" lon="-72.59147">
        <ele>175.31</ele>
      </trkpt>
      <trkpt lat="45.32396" lon="-72.59075">
        <ele>175.98</ele>
      </trkpt>
      <trkpt lat="45.32412" lon="-72.59004">
        <ele>176.57</ele>
      </trkpt>
      <trkpt lat="45.32432" lon="-72.58937">
        <ele>177.68</ele>
      </trkpt>
      <trkpt lat="45.32457" lon="-72.58874">
        <ele>178.31</ele>
      </trkpt>
      <trkpt lat="45.3250633" lon="-72.58774">
        <ele>179.54</ele>
      </trkpt>
      <trkpt lat="45.3255567" lon="-72.58674">
        <ele>181.07</ele>
      </trkpt>
      <trkpt lat="45.32605" lon="-72.58574">
        <ele>182.62</ele>
      </trkpt>
      <trkpt lat="45.32638" lon="-72.58501">
        <ele>183.33</ele>
      </trkpt>
      <trkpt lat="45.32671" lon="-72.58386">
        <ele>184.29</ele>
      </trkpt>
      <trkpt lat="45.32688" lon="-72.58287">
        <ele>185.56</ele>
      </trkpt>
      <trkpt lat="45.32692" lon="-72.58251">
        <ele>185.56</ele>
      </trkpt>
      <trkpt lat="45.32697" lon="-72.58165">
        <ele>186.22</ele>
      </trkpt>
      <trkpt lat="45.326928" lon="-72.580506">
        <ele>186.53</ele>
      </trkpt>
      <trkpt lat="45.326886" lon="-72.579362">
        <ele>187.78</ele>
      </trkpt>
      <trkpt lat="45.326844" lon="-72.578218">
        <ele>188.89</ele>
      </trkpt>
      <trkpt lat="45.326802" lon="-72.577074">
        <ele>189.62</ele>
      </trkpt>
      <trkpt lat="45.32676" lon="-72.57593">
        <ele>190.96</ele>
      </trkpt>
      <trkpt lat="45.32677" lon="-72.57486">
        <ele>192.35</ele>
      </trkpt>
      <trkpt lat="45.32682" lon="-72.57405">
        <ele>193.57</ele>
      </trkpt>
      <trkpt lat="45.32698" lon="-72.57281">
        <ele>195.05</ele>
      </trkpt>
      <trkpt lat="45.32714" lon="-72.57204">
        <ele>195.27</ele>
      </trkpt>
      <trkpt lat="45.32732" lon="-72.57132">
        <ele>195.57</ele>
      </trkpt>
      <trkpt lat="45.32756" lon="-72.57056">
        <ele>196.14</ele>
      </trkpt>
      <trkpt lat="45.32787" lon="-72.56972">
        <ele>197.3</ele>
      </trkpt>
      <trkpt lat="45.32836" lon="-72.56872">
        <ele>198.48</ele>
      </trkpt>
      <trkpt lat="45.3288817" lon="-72.5677351">
        <ele>199.22</ele>
      </trkpt>
      <trkpt lat="45.3294034" lon="-72.5667502">
        <ele>200.78</ele>
      </trkpt>
      <trkpt lat="45.3299251" lon="-72.5657652">
        <ele>202.35</ele>
      </trkpt>
      <trkpt lat="45.3304468" lon="-72.5647803">
        <ele>203.59</ele>
      </trkpt>
      <trkpt lat="45.3309685" lon="-72.5637953">
        <ele>205.44</ele>
      </trkpt>
      <trkpt lat="45.3314902" lon="-72.5628103">
        <ele>206.38</ele>
      </trkpt>
      <trkpt lat="45.3320118" lon="-72.5618253">
        <ele>207.88</ele>
      </trkpt>
      <trkpt lat="45.3325335" lon="-72.5608403">
        <ele>208.65</ele>
      </trkpt>
      <trkpt lat="45.3330551" lon="-72.5598552">
        <ele>210.09</ele>
      </trkpt>
      <trkpt lat="45.3335768" lon="-72.5588702">
        <ele>210.83</ele>
      </trkpt>
      <trkpt lat="45.3340984" lon="-72.5578851">
        <ele>211.71</ele>
      </trkpt>
      <trkpt lat="45.33462" lon="-72.5569">
        <ele>212.48</ele>
      </trkpt>
      <trkpt lat="45.33496" lon="-72.55619">
        <ele>212.66</ele>
      </trkpt>
      <trkpt lat="45.33534" lon="-72.55517">
        <ele>213.01</ele>
      </trkpt>
      <trkpt lat="45.3356" lon="-72.55431">
        <ele>213.34</ele>
      </trkpt>
      <trkpt lat="45.335735" lon="-72.55368">
        <ele>213.87</ele>
      </trkpt>
      <trkpt lat="45.33587" lon="-72.55305">
        <ele>213.99</ele>
      </trkpt>
      <trkpt lat="45.33601" lon="-72.55208">
        <ele>214.35</ele>
      </trkpt>
      <trkpt lat="45.3361143" lon="-72.5509843">
        <ele>214.37</ele>
      </trkpt>
      <trkpt lat="45.3362186" lon="-72.5498886">
        <ele>214.53</ele>
      </trkpt>
      <trkpt lat="45.3363229" lon="-72.5487929">
        <ele>214.69</ele>
      </trkpt>
      <trkpt lat="45.3364272" lon="-72.5476972">
        <ele>214.51</ele>
      </trkpt>
      <trkpt lat="45.3365315" lon="-72.5466014">
        <ele>214.4</ele>
      </trkpt>
      <trkpt lat="45.3366357" lon="-72.5455057">
        <ele>214.13</ele>
      </trkpt>
      <trkpt lat="45.33674" lon="-72.54441">
        <ele>214.03</ele>
      </trkpt>
      <trkpt lat="45.33674" lon="-72.54442">
        <ele>214.03</ele>
      </trkpt>
      <trkpt lat="45.3368625" lon="-72.5431625">
        <ele>213.63</ele>
      </trkpt>
      <trkpt lat="45.3369851" lon="-72.541905">
        <ele>212.84</ele>
      </trkpt>
      <trkpt lat="45.3371076" lon="-72.5406475">
        <ele>212.37</ele>
      </trkpt>
      <trkpt lat="45.3372301" lon="-72.53939">
        <ele>211.73</ele>
      </trkpt>
      <trkpt lat="45.3373526" lon="-72.5381325">
        <ele>211.25</ele>
      </trkpt>
      <trkpt lat="45.3374751" lon="-72.536875">
        <ele>211.06</ele>
      </trkpt>
      <trkpt lat="45.3375975" lon="-72.5356175">
        <ele>210.77</ele>
      </trkpt>
      <trkpt lat="45.33772" lon="-72.53436">
        <ele>211.3</ele>
      </trkpt>
      <trkpt lat="45.33775" lon="-72.53375">
        <ele>211.33</ele>
      </trkpt>
      <trkpt lat="45.3377833" lon="-72.53278">
        <ele>211.36</ele>
      </trkpt>
      <trkpt lat="45.3378167" lon="-72.53181">
        <ele>212.06</ele>
      </trkpt>
      <trkpt lat="45.33785" lon="-72.53084">
        <ele>212.37</ele>
      </trkpt>
      <trkpt lat="45.33791" lon="-72.52995">
        <ele>212.43</ele>
      </trkpt>
      <trkpt lat="45.33799" lon="-72.52924">
        <ele>211.98</ele>
      </trkpt>
      <trkpt lat="45.3381" lon="-72.52852">
        <ele>212.08</ele>
      </trkpt>
      <trkpt lat="45.3382" lon="-72.52802">
        <ele>212.01</ele>
      </trkpt>
      <trkpt lat="45.3384467" lon="-72.5270233">
        <ele>211.47</ele>
      </trkpt>
      <trkpt lat="45.3386933" lon="-72.5260267">
        <ele>211.31</ele>
      </trkpt>
      <trkpt lat="45.33894" lon="-72.52503">
        <ele>210.55</ele>
      </trkpt>
      <trkpt lat="45.339095" lon="-72.52423">
        <ele>210.5</ele>
      </trkpt>
      <trkpt lat="45.33925" lon="-72.52343">
        <ele>211.12</ele>
      </trkpt>
      <trkpt lat="45.33949" lon="-72.52342">
        <ele>210.45</ele>
      </trkpt>
      <trkpt lat="45.33975" lon="-72.52337">
        <ele>210.12</ele>
      </trkpt>
      <trkpt lat="45.340485" lon="-72.523165">
        <ele>210.2</ele>
      </trkpt>
      <trkpt lat="45.34122" lon="-72.52296">
        <ele>211.08</ele>
      </trkpt>
      <trkpt lat="45.34177" lon="-72.522815">
        <ele>211.46</ele>
      </trkpt>
      <trkpt lat="45.34232" lon="-72.52267">
        <ele>211.48</ele>
      </trkpt>
      <trkpt lat="45.34231" lon="-72.52267">
        <ele>211.48</ele>
      </trkpt>
      <trkpt lat="45.3427" lon="-72.52257">
        <ele>212.22</ele>
      </trkpt>
      <trkpt lat="45.34276" lon="-72.52252">
        <ele>212.22</ele>
      </trkpt>
      <trkpt lat="45.34285" lon="-72.52194">
        <ele>213.88</ele>
      </trkpt>
      <trkpt lat="45.3429" lon="-72.5218">
        <ele>213.9</ele>
      </trkpt>
      <trkpt lat="45.34295" lon="-72.52174">
        <ele>213.83</ele>
      </trkpt>
      <trkpt lat="45.34367" lon="-72.52158">
        <ele>212.42</ele>
      </trkpt>
      <trkpt lat="45.34382" lon="-72.52157">
        <ele>212.67</ele>
      </trkpt>
      <trkpt lat="45.34388" lon="-72.52158">
        <ele>212.67</ele>
      </trkpt>
      <trkpt lat="45.34392" lon="-72.52118">
        <ele>211.98</ele>
      </trkpt>
      <trkpt lat="45.34392" lon="-72.52073">
        <ele>212.09</ele>
      </trkpt>
      <trkpt lat="45.34397" lon="-72.52069">
        <ele>212.09</ele>
      </trkpt>
      <trkpt lat="45.34448" lon="-72.5209">
        <ele>212.1</ele>
      </trkpt>
      <trkpt lat="45.34461" lon="-72.52086">
        <ele>212.12</ele>
      </trkpt>
      <trkpt lat="45.34495" lon="-72.52099">
        <ele>212.47</ele>
      </trkpt>
      <trkpt lat="45.3455" lon="-72.52104">
        <ele>212</ele>
      </trkpt>
      <trkpt lat="45.34571" lon="-72.52113">
        <ele>211.74</ele>
      </trkpt>
      <trkpt lat="45.34601" lon="-72.52131">
        <ele>211.51</ele>
      </trkpt>
      <trkpt lat="45.34611" lon="-72.52135">
        <ele>211.33</ele>
      </trkpt>
      <trkpt lat="45.34625" lon="-72.52132">
        <ele>210.85</ele>
      </trkpt>
      <trkpt lat="45.34643" lon="-72.52124">
        <ele>210.65</ele>
      </trkpt>
      <trkpt lat="45.34695" lon="-72.52091">
        <ele>210.18</ele>
      </trkpt>
      <trkpt lat="45.34724" lon="-72.52069">
        <ele>210.04</ele>
      </trkpt>
      <trkpt lat="45.34723" lon="-72.52069">
        <ele>210.05</ele>
      </trkpt>
      <trkpt lat="45.34742" lon="-72.52055">
        <ele>210.12</ele>
      </trkpt>
      <trkpt lat="45.3479" lon="-72.52028">
        <ele>212.27</ele>
      </trkpt>
      <trkpt lat="45.34767" lon="-72.519055">
        <ele>212.02</ele>
      </trkpt>
      <trkpt lat="45.34744" lon="-72.51783">
        <ele>212.59</ele>
      </trkpt>
      <trkpt lat="45.34742" lon="-72.51774">
        <ele>212.74</ele>
      </trkpt>
      <trkpt lat="45.34737" lon="-72.51743">
        <ele>213.32</ele>
      </trkpt>
      <trkpt lat="45.34735" lon="-72.51742">
        <ele>213.32</ele>
      </trkpt>
      <trkpt lat="45.34733" lon="-72.51738">
        <ele>213.41</ele>
      </trkpt>
      <trkpt lat="45.34736" lon="-72.51735">
        <ele>213.41</ele>
      </trkpt>
      <trkpt lat="45.34733" lon="-72.51719">
        <ele>213.93</ele>
      </trkpt>
      <trkpt lat="45.34734" lon="-72.5171">
        <ele>213.93</ele>
      </trkpt>
      <trkpt lat="45.34725" lon="-72.51659">
        <ele>214.76</ele>
      </trkpt>
      <trkpt lat="45.34673" lon="-72.51678">
        <ele>213.97</ele>
      </trkpt>
      <trkpt lat="45.34621" lon="-72.51697">
        <ele>213.86</ele>
      </trkpt>
      <trkpt lat="45.346" lon="-72.51696">
        <ele>214.08</ele>
      </trkpt>
      <trkpt lat="45.34579" lon="-72.5169">
        <ele>214.08</ele>
      </trkpt>
      <trkpt lat="45.34524" lon="-72.51671">
        <ele>214.06</ele>
      </trkpt>
      <trkpt lat="45.34488" lon="-72.51659">
        <ele>214.42</ele>
      </trkpt>
      <trkpt lat="45.34453" lon="-72.51655">
        <ele>214.7</ele>
      </trkpt>
      <trkpt lat="45.34418" lon="-72.51643">
        <ele>215.89</ele>
      </trkpt>
      <trkpt lat="45.3441" lon="-72.51632">
        <ele>216.3</ele>
      </trkpt>
      <trkpt lat="45.3432567" lon="-72.51602">
        <ele>215.72</ele>
      </trkpt>
      <trkpt lat="45.3424133" lon="-72.51572">
        <ele>213.79</ele>
      </trkpt>
      <trkpt lat="45.34157" lon="-72.51542">
        <ele>213.71</ele>
      </trkpt>
      <trkpt lat="45.340745" lon="-72.515135">
        <ele>212.55</ele>
      </trkpt>
      <trkpt lat="45.33992" lon="-72.51485">
        <ele>212.16</ele>
      </trkpt>
      <trkpt lat="45.33992" lon="-72.51485">
        <ele>212.16</ele>
      </trkpt>
      <trkpt lat="45.33905" lon="-72.51455">
        <ele>216.15</ele>
      </trkpt>
      <trkpt lat="45.33891" lon="-72.51452">
        <ele>216.57</ele>
      </trkpt>
      <trkpt lat="45.33865" lon="-72.51451">
        <ele>216.96</ele>
      </trkpt>
      <trkpt lat="45.33853" lon="-72.51444">
        <ele>217.14</ele>
      </trkpt>
      <trkpt lat="45.33841" lon="-72.51428">
        <ele>217.47</ele>
      </trkpt>
      <trkpt lat="45.33836" lon="-72.51415">
        <ele>217.58</ele>
      </trkpt>
      <trkpt lat="45.33819" lon="-72.51338">
        <ele>217.73</ele>
      </trkpt>
      <trkpt lat="45.33802" lon="-72.51347">
        <ele>217.71</ele>
      </trkpt>
      <trkpt lat="45.33797" lon="-72.5134">
        <ele>217.33</ele>
      </trkpt>
      <trkpt lat="45.3377" lon="-72.512295">
        <ele>216.94</ele>
      </trkpt>
      <trkpt lat="45.33743" lon="-72.51119">
        <ele>217.5</ele>
      </trkpt>
      <trkpt lat="45.33663" lon="-72.51156">
        <ele>215.06</ele>
      </trkpt>
      <trkpt lat="45.3361325" lon="-72.51082">
        <ele>213.78</ele>
      </trkpt>
      <trkpt lat="45.335635" lon="-72.51008">
        <ele>213.73</ele>
      </trkpt>
      <trkpt lat="45.3351375" lon="-72.50934">
        <ele>213.17</ele>
      </trkpt>
      <trkpt lat="45.33464" lon="-72.5086">
        <ele>212.66</ele>
      </trkpt>
      <trkpt lat="45.3344" lon="-72.50828">
        <ele>212.34</ele>
      </trkpt>
      <trkpt lat="45.33411" lon="-72.50801">
        <ele>211.74</ele>
      </trkpt>
      <trkpt lat="45.33395" lon="-72.50788">
        <ele>211.74</ele>
      </trkpt>
      <trkpt lat="45.33363" lon="-72.50766">
        <ele>211.07</ele>
      </trkpt>
      <trkpt lat="45.33328" lon="-72.50752">
        <ele>210.86</ele>
      </trkpt>
      <trkpt lat="45.33277" lon="-72.50743">
        <ele>210.54</ele>
      </trkpt>
      <trkpt lat="45.3321167" lon="-72.5074167">
        <ele>210.59</ele>
      </trkpt>
      <trkpt lat="45.3314633" lon="-72.5074033">
        <ele>211.65</ele>
      </trkpt>
      <trkpt lat="45.33081" lon="-72.50739">
        <ele>211.9</ele>
      </trkpt>
      <trkpt lat="45.33081" lon="-72.50739">
        <ele>211.9</ele>
      </trkpt>
      <trkpt lat="45.33002" lon="-72.50738">
        <ele>214.02</ele>
      </trkpt>
      <trkpt lat="45.32915" lon="-72.50728">
        <ele>216.44</ele>
      </trkpt>
      <trkpt lat="45.32884" lon="-72.50721">
        <ele>216.77</ele>
      </trkpt>
      <trkpt lat="45.32863" lon="-72.50712">
        <ele>217.38</ele>
      </trkpt>
      <trkpt lat="45.32817" lon="-72.50685">
        <ele>217.98</ele>
      </trkpt>
      <trkpt lat="45.32793" lon="-72.50664">
        <ele>218.19</ele>
      </trkpt>
      <trkpt lat="45.3271967" lon="-72.5059033">
        <ele>218.23</ele>
      </trkpt>
      <trkpt lat="45.3264633" lon="-72.5051666">
        <ele>217.25</ele>
      </trkpt>
      <trkpt lat="45.32573" lon="-72.50443">
        <ele>218.72</ele>
      </trkpt>
      <trkpt lat="45.32556" lon="-72.50427">
        <ele>218.83</ele>
      </trkpt>
      <trkpt lat="45.32497" lon="-72.50377">
        <ele>220.76</ele>
      </trkpt>
      <trkpt lat="45.32472" lon="-72.50363">
        <ele>221.44</ele>
      </trkpt>
      <trkpt lat="45.32425" lon="-72.50341">
        <ele>222.44</ele>
      </trkpt>
      <trkpt lat="45.3238" lon="-72.50331">
        <ele>222.77</ele>
      </trkpt>
      <trkpt lat="45.32291" lon="-72.50318">
        <ele>223.93</ele>
      </trkpt>
      <trkpt lat="45.32202" lon="-72.50305">
        <ele>225.46</ele>
      </trkpt>
      <trkpt lat="45.32199" lon="-72.50206">
        <ele>226.43</ele>
      </trkpt>
      <trkpt lat="45.32203" lon="-72.50117">
        <ele>227.23</ele>
      </trkpt>
      <trkpt lat="45.32197" lon="-72.50067">
        <ele>228.13</ele>
      </trkpt>
      <trkpt lat="45.32194" lon="-72.50063">
        <ele>228.13</ele>
      </trkpt>
      <trkpt lat="45.32177" lon="-72.50053">
        <ele>228.8</ele>
      </trkpt>
      <trkpt lat="45.32173" lon="-72.50045">
        <ele>229.88</ele>
      </trkpt>
      <trkpt lat="45.32176" lon="-72.49964">
        <ele>231.52</ele>
      </trkpt>
      <trkpt lat="45.32182" lon="-72.49955">
        <ele>231.52</ele>
      </trkpt>
      <trkpt lat="45.32204" lon="-72.49957">
        <ele>232.06</ele>
      </trkpt>
      <trkpt lat="45.32207" lon="-72.49955">
        <ele>232.06</ele>
      </trkpt>
      <trkpt lat="45.32209" lon="-72.49925">
        <ele>232.25</ele>
      </trkpt>
      <trkpt lat="45.32212" lon="-72.49919">
        <ele>232.28</ele>
      </trkpt>
      <trkpt lat="45.32222" lon="-72.4991">
        <ele>232.19</ele>
      </trkpt>
      <trkpt lat="45.32224" lon="-72.49902">
        <ele>232.19</ele>
      </trkpt>
      <trkpt lat="45.322325" lon="-72.49817">
        <ele>233.63</ele>
      </trkpt>
      <trkpt lat="45.32241" lon="-72.49732">
        <ele>230.53</ele>
      </trkpt>
      <trkpt lat="45.32245" lon="-72.49718">
        <ele>230.26</ele>
      </trkpt>
      <trkpt lat="45.32275" lon="-72.4966">
        <ele>231.86</ele>
      </trkpt>
      <trkpt lat="45.32282" lon="-72.49633">
        <ele>232.33</ele>
      </trkpt>
      <trkpt lat="45.32291" lon="-72.49532">
        <ele>233.06</ele>
      </trkpt>
      <trkpt lat="45.323" lon="-72.49431">
        <ele>232.67</ele>
      </trkpt>
      <trkpt lat="45.32309" lon="-72.4933">
        <ele>232.07</ele>
      </trkpt>
      <trkpt lat="45.32318" lon="-72.49229">
        <ele>231.32</ele>
      </trkpt>
      <trkpt lat="45.32318" lon="-72.4923">
        <ele>231.32</ele>
      </trkpt>
      <trkpt lat="45.323274" lon="-72.49125">
        <ele>232.16</ele>
      </trkpt>
      <trkpt lat="45.323368" lon="-72.4902">
        <ele>235.86</ele>
      </trkpt>
      <trkpt lat="45.323462" lon="-72.48915">
        <ele>235.21</ele>
      </trkpt>
      <trkpt lat="45.323556" lon="-72.4881">
        <ele>234.27</ele>
      </trkpt>
      <trkpt lat="45.32365" lon="-72.48705">
        <ele>237.28</ele>
      </trkpt>
      <trkpt lat="45.32373" lon="-72.486095">
        <ele>244.57</ele>
      </trkpt>
      <trkpt lat="45.32381" lon="-72.48514">
        <ele>246.87</ele>
      </trkpt>
      <trkpt lat="45.32389" lon="-72.48442">
        <ele>245.54</ele>
      </trkpt>
      <trkpt lat="45.32397" lon="-72.4837">
        <ele>242.69</ele>
      </trkpt>
      <trkpt lat="45.32396" lon="-72.48353">
        <ele>242.45</ele>
      </trkpt>
      <trkpt lat="45.32392" lon="-72.48339">
        <ele>242.4</ele>
      </trkpt>
      <trkpt lat="45.3238" lon="-72.48307">
        <ele>241.47</ele>
      </trkpt>
      <trkpt lat="45.32379" lon="-72.48289">
        <ele>241.33</ele>
      </trkpt>
      <trkpt lat="45.32385" lon="-72.482065">
        <ele>241.05</ele>
      </trkpt>
      <trkpt lat="45.32391" lon="-72.48124">
        <ele>243.07</ele>
      </trkpt>
      <trkpt lat="45.323155" lon="-72.480885">
        <ele>246.65</ele>
      </trkpt>
      <trkpt lat="45.3224" lon="-72.48053">
        <ele>251.48</ele>
      </trkpt>
      <trkpt lat="45.3224" lon="-72.48053">
        <ele>251.48</ele>
      </trkpt>
      <trkpt lat="45.32252" lon="-72.48058">
        <ele>251.43</ele>
      </trkpt>
      <trkpt lat="45.32194" lon="-72.4802833">
        <ele>251.59</ele>
      </trkpt>
      <trkpt lat="45.32136" lon="-72.4799867">
        <ele>252.45</ele>
      </trkpt>
      <trkpt lat="45.32078" lon="-72.47969">
        <ele>257.81</ele>
      </trkpt>
      <trkpt lat="45.3206" lon="-72.47968">
        <ele>260.21</ele>
      </trkpt>
      <trkpt lat="45.31987" lon="-72.47972">
        <ele>268.57</ele>
      </trkpt>
      <trkpt lat="45.31969" lon="-72.4797">
        <ele>269.89</ele>
      </trkpt>
      <trkpt lat="45.31932" lon="-72.47945">
        <ele>273.15</ele>
      </trkpt>
      <trkpt lat="45.318645" lon="-72.478975">
        <ele>273.42</ele>
      </trkpt>
      <trkpt lat="45.31797" lon="-72.4785">
        <ele>275.07</ele>
      </trkpt>
      <trkpt lat="45.31739" lon="-72.47812">
        <ele>278.29</ele>
      </trkpt>
      <trkpt lat="45.31681" lon="-72.47774">
        <ele>278.12</ele>
      </trkpt>
      <trkpt lat="45.31648" lon="-72.47756">
        <ele>278.28</ele>
      </trkpt>
      <trkpt lat="45.31606" lon="-72.47736">
        <ele>277.39</ele>
      </trkpt>
      <trkpt lat="45.31562" lon="-72.477225">
        <ele>277.05</ele>
      </trkpt>
      <trkpt lat="45.31518" lon="-72.47709">
        <ele>278.58</ele>
      </trkpt>
      <trkpt lat="45.314382" lon="-72.476872">
        <ele>280</ele>
      </trkpt>
      <trkpt lat="45.313584" lon="-72.476654">
        <ele>279.74</ele>
      </trkpt>
      <trkpt lat="45.312786" lon="-72.476436">
        <ele>278.81</ele>
      </trkpt>
      <trkpt lat="45.311988" lon="-72.476218">
        <ele>277.49</ele>
      </trkpt>
      <trkpt lat="45.31119" lon="-72.476">
        <ele>273.13</ele>
      </trkpt>
      <trkpt lat="45.3105367" lon="-72.4757967">
        <ele>269.77</ele>
      </trkpt>
      <trkpt lat="45.3098833" lon="-72.4755933">
        <ele>265.33</ele>
      </trkpt>
      <trkpt lat="45.30923" lon="-72.47539">
        <ele>263.43</ele>
      </trkpt>
      <trkpt lat="45.30857" lon="-72.4752767">
        <ele>261.37</ele>
      </trkpt>
      <trkpt lat="45.30791" lon="-72.4751633">
        <ele>260.62</ele>
      </trkpt>
      <trkpt lat="45.30725" lon="-72.47505">
        <ele>262.33</ele>
      </trkpt>
      <trkpt lat="45.30651" lon="-72.47493">
        <ele>266.47</ele>
      </trkpt>
      <trkpt lat="45.30598" lon="-72.47489">
        <ele>269.34</ele>
      </trkpt>
      <trkpt lat="45.30585" lon="-72.47489">
        <ele>269.34</ele>
      </trkpt>
      <trkpt lat="45.30584" lon="-72.47489">
        <ele>269.39</ele>
      </trkpt>
      <trkpt lat="45.30563" lon="-72.47489">
        <ele>270.48</ele>
      </trkpt>
      <trkpt lat="45.30504" lon="-72.47496">
        <ele>273.06</ele>
      </trkpt>
      <trkpt lat="45.30426" lon="-72.4751">
        <ele>273.16</ele>
      </trkpt>
      <trkpt lat="45.3036567" lon="-72.47523">
        <ele>271.66</ele>
      </trkpt>
      <trkpt lat="45.3030533" lon="-72.47536">
        <ele>268.75</ele>
      </trkpt>
      <trkpt lat="45.30245" lon="-72.47549">
        <ele>266.82</ele>
      </trkpt>
      <trkpt lat="45.30218" lon="-72.47552">
        <ele>266.1</ele>
      </trkpt>
      <trkpt lat="45.30195" lon="-72.47551">
        <ele>264.69</ele>
      </trkpt>
      <trkpt lat="45.30172" lon="-72.47546">
        <ele>263.81</ele>
      </trkpt>
      <trkpt lat="45.30126" lon="-72.47516">
        <ele>262.42</ele>
      </trkpt>
      <trkpt lat="45.30057" lon="-72.47453">
        <ele>262.41</ele>
      </trkpt>
      <trkpt lat="45.30006" lon="-72.47397">
        <ele>261.2</ele>
      </trkpt>
      <trkpt lat="45.2993875" lon="-72.4732925">
        <ele>258.95</ele>
      </trkpt>
      <trkpt lat="45.298715" lon="-72.472615">
        <ele>255.53</ele>
      </trkpt>
      <trkpt lat="45.2980425" lon="-72.4719375">
        <ele>254.63</ele>
      </trkpt>
      <trkpt lat="45.29737" lon="-72.47126">
        <ele>254.38</ele>
      </trkpt>
      <trkpt lat="45.296785" lon="-72.47063">
        <ele>253.22</ele>
      </trkpt>
      <trkpt lat="45.2962" lon="-72.47">
        <ele>251.45</ele>
      </trkpt>
      <trkpt lat="45.2955467" lon="-72.469345">
        <ele>250.41</ele>
      </trkpt>
      <trkpt lat="45.2948933" lon="-72.4686899">
        <ele>249.41</ele>
      </trkpt>
      <trkpt lat="45.29424" lon="-72.4680349">
        <ele>248.49</ele>
      </trkpt>
      <trkpt lat="45.2935867" lon="-72.4673799">
        <ele>246.94</ele>
      </trkpt>
      <trkpt lat="45.2929333" lon="-72.466725">
        <ele>243.4</ele>
      </trkpt>
      <trkpt lat="45.29228" lon="-72.46607">
        <ele>239.39</ele>
      </trkpt>
      <trkpt lat="45.29179" lon="-72.46558">
        <ele>238.06</ele>
      </trkpt>
      <trkpt lat="45.2913" lon="-72.46509">
        <ele>236.44</ele>
      </trkpt>
      <trkpt lat="45.2908" lon="-72.46464">
        <ele>234.84</ele>
      </trkpt>
      <trkpt lat="45.2903" lon="-72.46419">
        <ele>232.95</ele>
      </trkpt>
      <trkpt lat="45.2903" lon="-72.46419">
        <ele>232.95</ele>
      </trkpt>
      <trkpt lat="45.28994" lon="-72.46387">
        <ele>231.38</ele>
      </trkpt>
      <trkpt lat="45.28933" lon="-72.46335">
        <ele>228.02</ele>
      </trkpt>
      <trkpt lat="45.28872" lon="-72.46283">
        <ele>225.02</ele>
      </trkpt>
      <trkpt lat="45.28811" lon="-72.46231">
        <ele>222.66</ele>
      </trkpt>
      <trkpt lat="45.28746" lon="-72.461765">
        <ele>217.56</ele>
      </trkpt>
      <trkpt lat="45.28681" lon="-72.46122">
        <ele>217.41</ele>
      </trkpt>
      <trkpt lat="45.28616" lon="-72.460675">
        <ele>217.57</ele>
      </trkpt>
      <trkpt lat="45.28551" lon="-72.46013">
        <ele>215.22</ele>
      </trkpt>
      <trkpt lat="45.28487" lon="-72.45965">
        <ele>215.15</ele>
      </trkpt>
      <trkpt lat="45.2840867" lon="-72.45908">
        <ele>214.86</ele>
      </trkpt>
      <trkpt lat="45.2833033" lon="-72.45851">
        <ele>214.77</ele>
      </trkpt>
      <trkpt lat="45.28252" lon="-72.45794">
        <ele>216.21</ele>
      </trkpt>
      <trkpt lat="45.28221" lon="-72.45769">
        <ele>217.46</ele>
      </trkpt>
      <trkpt lat="45.28152" lon="-72.45704">
        <ele>221.55</ele>
      </trkpt>
      <trkpt lat="45.28083" lon="-72.45639">
        <ele>224.44</ele>
      </trkpt>
      <trkpt lat="45.2802333" lon="-72.4558667">
        <ele>231.1</ele>
      </trkpt>
      <trkpt lat="45.2796367" lon="-72.4553433">
        <ele>239.63</ele>
      </trkpt>
      <trkpt lat="45.27904" lon="-72.45482">
        <ele>244.18</ele>
      </trkpt>
      <trkpt lat="45.27879" lon="-72.45456">
        <ele>247.45</ele>
      </trkpt>
      <trkpt lat="45.27851" lon="-72.45422">
        <ele>249.55</ele>
      </trkpt>
      <trkpt lat="45.27816" lon="-72.45384">
        <ele>250.96</ele>
      </trkpt>
      <trkpt lat="45.27782" lon="-72.45339">
        <ele>253.37</ele>
      </trkpt>
      <trkpt lat="45.277325" lon="-72.452675">
        <ele>258.84</ele>
      </trkpt>
      <trkpt lat="45.27683" lon="-72.45196">
        <ele>264.57</ele>
      </trkpt>
      <trkpt lat="45.27648" lon="-72.45147">
        <ele>269.55</ele>
      </trkpt>
      <trkpt lat="45.27602" lon="-72.4509">
        <ele>272.67</ele>
      </trkpt>
      <trkpt lat="45.27588" lon="-72.45076">
        <ele>273.69</ele>
      </trkpt>
      <trkpt lat="45.27558" lon="-72.45053">
        <ele>275.02</ele>
      </trkpt>
      <trkpt lat="45.27485" lon="-72.45016">
        <ele>276.91</ele>
      </trkpt>
      <trkpt lat="45.27411" lon="-72.4498275">
        <ele>277.43</ele>
      </trkpt>
      <trkpt lat="45.27337" lon="-72.449495">
        <ele>278.59</ele>
      </trkpt>
      <trkpt lat="45.27263" lon="-72.4491625">
        <ele>280.1</ele>
      </trkpt>
      <trkpt lat="45.27189" lon="-72.44883">
        <ele>280.74</ele>
      </trkpt>
      <trkpt lat="45.27189" lon="-72.44883">
        <ele>280.75</ele>
      </trkpt>
      <trkpt lat="45.27136" lon="-72.4486">
        <ele>282.32</ele>
      </trkpt>
      <trkpt lat="45.27099" lon="-72.44839">
        <ele>283.07</ele>
      </trkpt>
      <trkpt lat="45.27065" lon="-72.44813">
        <ele>283.62</ele>
      </trkpt>
      <trkpt lat="45.2703" lon="-72.44779">
        <ele>283.7</ele>
      </trkpt>
      <trkpt lat="45.26979" lon="-72.44718">
        <ele>281.84</ele>
      </trkpt>
      <trkpt lat="45.26928" lon="-72.44657">
        <ele>278.84</ele>
      </trkpt>
      <trkpt lat="45.26877" lon="-72.44596">
        <ele>276.13</ele>
      </trkpt>
      <trkpt lat="45.26816" lon="-72.44526">
        <ele>274.47</ele>
      </trkpt>
      <trkpt lat="45.26762" lon="-72.44475">
        <ele>275.06</ele>
      </trkpt>
      <trkpt lat="45.2670067" lon="-72.4442">
        <ele>276.35</ele>
      </trkpt>
      <trkpt lat="45.2663933" lon="-72.44365">
        <ele>277.59</ele>
      </trkpt>
      <trkpt lat="45.26578" lon="-72.4431">
        <ele>279.79</ele>
      </trkpt>
      <trkpt lat="45.26524" lon="-72.44255">
        <ele>282.17</ele>
      </trkpt>
      <trkpt lat="45.26489" lon="-72.44215">
        <ele>283.05</ele>
      </trkpt>
      <trkpt lat="45.26449" lon="-72.44158">
        <ele>285.53</ele>
      </trkpt>
      <trkpt lat="45.26427" lon="-72.44122">
        <ele>286.05</ele>
      </trkpt>
      <trkpt lat="45.26398" lon="-72.44057">
        <ele>289.77</ele>
      </trkpt>
      <trkpt lat="45.263745" lon="-72.439955">
        <ele>290.43</ele>
      </trkpt>
      <trkpt lat="45.26351" lon="-72.43934">
        <ele>294.72</ele>
      </trkpt>
      <trkpt lat="45.26343" lon="-72.43917">
        <ele>294.72</ele>
      </trkpt>
      <trkpt lat="45.26328" lon="-72.439">
        <ele>294.91</ele>
      </trkpt>
      <trkpt lat="45.26314" lon="-72.43893">
        <ele>294.96</ele>
      </trkpt>
      <trkpt lat="45.26255" lon="-72.43891">
        <ele>294.23</ele>
      </trkpt>
      <trkpt lat="45.26185" lon="-72.43895">
        <ele>291.96</ele>
      </trkpt>
      <trkpt lat="45.26115" lon="-72.43899">
        <ele>288.32</ele>
      </trkpt>
      <trkpt lat="45.260595" lon="-72.439005">
        <ele>289.47</ele>
      </trkpt>
      <trkpt lat="45.26004" lon="-72.43902">
        <ele>292.27</ele>
      </trkpt>
      <trkpt lat="45.25977" lon="-72.43898">
        <ele>292.51</ele>
      </trkpt>
      <trkpt lat="45.25951" lon="-72.43886">
        <ele>292.78</ele>
      </trkpt>
      <trkpt lat="45.25874" lon="-72.43827">
        <ele>298.06</ele>
      </trkpt>
      <trkpt lat="45.25805" lon="-72.43764">
        <ele>304.26</ele>
      </trkpt>
      <trkpt lat="45.25774" lon="-72.43732">
        <ele>307.47</ele>
      </trkpt>
      <trkpt lat="45.25774" lon="-72.43732">
        <ele>307.47</ele>
      </trkpt>
      <trkpt lat="45.25754" lon="-72.4371">
        <ele>309.35</ele>
      </trkpt>
      <trkpt lat="45.25718" lon="-72.43678">
        <ele>310.11</ele>
      </trkpt>
      <trkpt lat="45.25653" lon="-72.43635">
        <ele>309.29</ele>
      </trkpt>
      <trkpt lat="45.25588" lon="-72.43592">
        <ele>309.29</ele>
      </trkpt>
      <trkpt lat="45.25523" lon="-72.43549">
        <ele>308.78</ele>
      </trkpt>
      <trkpt lat="45.254585" lon="-72.435225">
        <ele>312.98</ele>
      </trkpt>
      <trkpt lat="45.25394" lon="-72.43496">
        <ele>318.27</ele>
      </trkpt>
      <trkpt lat="45.25332" lon="-72.43486">
        <ele>323.49</ele>
      </trkpt>
      <trkpt lat="45.2528" lon="-72.43486">
        <ele>325.51</ele>
      </trkpt>
      <trkpt lat="45.25228" lon="-72.43486">
        <ele>327.6</ele>
      </trkpt>
      <trkpt lat="45.25152" lon="-72.43488">
        <ele>332.42</ele>
      </trkpt>
      <trkpt lat="45.25076" lon="-72.43492">
        <ele>337.63</ele>
      </trkpt>
      <trkpt lat="45.25" lon="-72.43496">
        <ele>344.35</ele>
      </trkpt>
      <trkpt lat="45.249395" lon="-72.435045">
        <ele>347.56</ele>
      </trkpt>
      <trkpt lat="45.24879" lon="-72.43513">
        <ele>347.58</ele>
      </trkpt>
      <trkpt lat="45.24845" lon="-72.43514">
        <ele>348.37</ele>
      </trkpt>
      <trkpt lat="45.24761" lon="-72.43513">
        <ele>350.81</ele>
      </trkpt>
      <trkpt lat="45.24707" lon="-72.43506">
        <ele>351.87</ele>
      </trkpt>
      <trkpt lat="45.24659" lon="-72.43504">
        <ele>352.96</ele>
      </trkpt>
      <trkpt lat="45.24624" lon="-72.43499">
        <ele>353.72</ele>
      </trkpt>
      <trkpt lat="45.24607" lon="-72.43497">
        <ele>353.72</ele>
      </trkpt>
      <trkpt lat="45.24582" lon="-72.43499">
        <ele>354.83</ele>
      </trkpt>
      <trkpt lat="45.245335" lon="-72.43508">
        <ele>356.03</ele>
      </trkpt>
      <trkpt lat="45.24485" lon="-72.43517">
        <ele>356.93</ele>
      </trkpt>
      <trkpt lat="45.24431" lon="-72.43529">
        <ele>357.63</ele>
      </trkpt>
      <trkpt lat="45.243555" lon="-72.435525">
        <ele>358.79</ele>
      </trkpt>
      <trkpt lat="45.2428" lon="-72.43576">
        <ele>359.34</ele>
      </trkpt>
      <trkpt lat="45.24211" lon="-72.43593">
        <ele>359.05</ele>
      </trkpt>
      <trkpt lat="45.24188" lon="-72.43602">
        <ele>359.04</ele>
      </trkpt>
      <trkpt lat="45.24123" lon="-72.43634">
        <ele>359.29</ele>
      </trkpt>
      <trkpt lat="45.24089" lon="-72.43655">
        <ele>357.93</ele>
      </trkpt>
      <trkpt lat="45.240435" lon="-72.43691">
        <ele>355.26</ele>
      </trkpt>
      <trkpt lat="45.23998" lon="-72.43727">
        <ele>354.56</ele>
      </trkpt>
      <trkpt lat="45.23927" lon="-72.437925">
        <ele>353.19</ele>
      </trkpt>
      <trkpt lat="45.23856" lon="-72.43858">
        <ele>350.17</ele>
      </trkpt>
      <trkpt lat="45.23822" lon="-72.43884">
        <ele>347.58</ele>
      </trkpt>
      <trkpt lat="45.23777" lon="-72.43925">
        <ele>345.14</ele>
      </trkpt>
      <trkpt lat="45.23753" lon="-72.43942">
        <ele>345.71</ele>
      </trkpt>
      <trkpt lat="45.23731" lon="-72.43951">
        <ele>346.84</ele>
      </trkpt>
      <trkpt lat="45.23699" lon="-72.43956">
        <ele>347.55</ele>
      </trkpt>
      <trkpt lat="45.23613" lon="-72.439595">
        <ele>348.98</ele>
      </trkpt>
      <trkpt lat="45.23527" lon="-72.43963">
        <ele>353.42</ele>
      </trkpt>
      <trkpt lat="45.23494" lon="-72.43965">
        <ele>354.2</ele>
      </trkpt>
      <trkpt lat="45.23493" lon="-72.43965">
        <ele>354.22</ele>
      </trkpt>
      <trkpt lat="45.234265" lon="-72.439675">
        <ele>355.51</ele>
      </trkpt>
      <trkpt lat="45.2336" lon="-72.4397">
        <ele>358.94</ele>
      </trkpt>
      <trkpt lat="45.23336" lon="-72.43973">
        <ele>359.92</ele>
      </trkpt>
      <trkpt lat="45.23292" lon="-72.43973">
        <ele>363.85</ele>
      </trkpt>
      <trkpt lat="45.23292" lon="-72.440935">
        <ele>352.92</ele>
      </trkpt>
      <trkpt lat="45.23292" lon="-72.44214">
        <ele>344.3</ele>
      </trkpt>
      <trkpt lat="45.2329067" lon="-72.44307">
        <ele>338.04</ele>
      </trkpt>
      <trkpt lat="45.2328933" lon="-72.444">
        <ele>332.46</ele>
      </trkpt>
      <trkpt lat="45.23288" lon="-72.44493">
        <ele>328.98</ele>
      </trkpt>
      <trkpt lat="45.23286" lon="-72.44525">
        <ele>328.21</ele>
      </trkpt>
      <trkpt lat="45.2328" lon="-72.44574">
        <ele>326.75</ele>
      </trkpt>
      <trkpt lat="45.23268" lon="-72.44602">
        <ele>325.69</ele>
      </trkpt>
      <trkpt lat="45.23254" lon="-72.44628">
        <ele>324.55</ele>
      </trkpt>
      <trkpt lat="45.232175" lon="-72.44706">
        <ele>323.05</ele>
      </trkpt>
      <trkpt lat="45.23181" lon="-72.44784">
        <ele>323.67</ele>
      </trkpt>
      <trkpt lat="45.23158" lon="-72.448465">
        <ele>321.73</ele>
      </trkpt>
      <trkpt lat="45.23135" lon="-72.44909">
        <ele>318.4</ele>
      </trkpt>
      <trkpt lat="45.23116" lon="-72.44968">
        <ele>313.95</ele>
      </trkpt>
      <trkpt lat="45.23094" lon="-72.45013">
        <ele>308.89</ele>
      </trkpt>
      <trkpt lat="45.230695" lon="-72.450955">
        <ele>304.1</ele>
      </trkpt>
      <trkpt lat="45.23045" lon="-72.45178">
        <ele>300.1</ele>
      </trkpt>
      <trkpt lat="45.23036" lon="-72.452">
        <ele>299.61</ele>
      </trkpt>
      <trkpt lat="45.23036" lon="-72.45201">
        <ele>299.62</ele>
      </trkpt>
      <trkpt lat="45.23018" lon="-72.4525">
        <ele>297.67</ele>
      </trkpt>
      <trkpt lat="45.23009" lon="-72.45295">
        <ele>294.41</ele>
      </trkpt>
      <trkpt lat="45.22991" lon="-72.45351">
        <ele>292.5</ele>
      </trkpt>
      <trkpt lat="45.22967" lon="-72.45424">
        <ele>295.18</ele>
      </trkpt>
      <trkpt lat="45.22965" lon="-72.45465">
        <ele>298.67</ele>
      </trkpt>
      <trkpt lat="45.2296" lon="-72.45487">
        <ele>299</ele>
      </trkpt>
      <trkpt lat="45.22933" lon="-72.45536">
        <ele>298.08</ele>
      </trkpt>
      <trkpt lat="45.22921" lon="-72.45564">
        <ele>296.82</ele>
      </trkpt>
      <trkpt lat="45.22908" lon="-72.45679">
        <ele>298.65</ele>
      </trkpt>
      <trkpt lat="45.2291" lon="-72.45743">
        <ele>297.86</ele>
      </trkpt>
      <trkpt lat="45.22908" lon="-72.45797">
        <ele>295.88</ele>
      </trkpt>
      <trkpt lat="45.229" lon="-72.45823">
        <ele>295.52</ele>
      </trkpt>
      <trkpt lat="45.22892" lon="-72.45836">
        <ele>295.5</ele>
      </trkpt>
      <trkpt lat="45.22871" lon="-72.45854">
        <ele>295.53</ele>
      </trkpt>
      <trkpt lat="45.22841" lon="-72.45868">
        <ele>296.26</ele>
      </trkpt>
      <trkpt lat="45.22824" lon="-72.45881">
        <ele>296.93</ele>
      </trkpt>
      <trkpt lat="45.22803" lon="-72.459">
        <ele>297.55</ele>
      </trkpt>
      <trkpt lat="45.22785" lon="-72.45934">
        <ele>297.48</ele>
      </trkpt>
      <trkpt lat="45.22766" lon="-72.45989">
        <ele>296.55</ele>
      </trkpt>
      <trkpt lat="45.22761" lon="-72.4602">
        <ele>296.55</ele>
      </trkpt>
      <trkpt lat="45.22762" lon="-72.46051">
        <ele>295.66</ele>
      </trkpt>
      <trkpt lat="45.22768" lon="-72.46074">
        <ele>295.48</ele>
      </trkpt>
      <trkpt lat="45.22788" lon="-72.46105">
        <ele>294.97</ele>
      </trkpt>
      <trkpt lat="45.22806" lon="-72.46127">
        <ele>294.33</ele>
      </trkpt>
      <trkpt lat="45.22825" lon="-72.46158">
        <ele>293.63</ele>
      </trkpt>
      <trkpt lat="45.2283" lon="-72.46178">
        <ele>293.12</ele>
      </trkpt>
      <trkpt lat="45.22829" lon="-72.46204">
        <ele>292.26</ele>
      </trkpt>
      <trkpt lat="45.22815" lon="-72.46257">
        <ele>287.79</ele>
      </trkpt>
      <trkpt lat="45.22797" lon="-72.46312">
        <ele>281.66</ele>
      </trkpt>
      <trkpt lat="45.22774" lon="-72.46369">
        <ele>276.25</ele>
      </trkpt>
      <trkpt lat="45.2276" lon="-72.46392">
        <ele>274.34</ele>
      </trkpt>
      <trkpt lat="45.22752" lon="-72.46415">
        <ele>273.07</ele>
      </trkpt>
      <trkpt lat="45.22789" lon="-72.46382">
        <ele>274.54</ele>
      </trkpt>
      <trkpt lat="45.2285" lon="-72.463375">
        <ele>275.87</ele>
      </trkpt>
      <trkpt lat="45.22911" lon="-72.46293">
        <ele>277.91</ele>
      </trkpt>
      <trkpt lat="45.2299" lon="-72.46254">
        <ele>277.29</ele>
      </trkpt>
      <trkpt lat="45.23002" lon="-72.46245">
        <ele>277.25</ele>
      </trkpt>
      <trkpt lat="45.23077" lon="-72.46204">
        <ele>279.05</ele>
      </trkpt>
      <trkpt lat="45.23092" lon="-72.4619">
        <ele>278.23</ele>
      </trkpt>
      <trkpt lat="45.23128" lon="-72.4615">
        <ele>274.64</ele>
      </trkpt>
      <trkpt lat="45.23173" lon="-72.461075">
        <ele>271.16</ele>
      </trkpt>
      <trkpt lat="45.23218" lon="-72.46065">
        <ele>268.32</ele>
      </trkpt>
      <trkpt lat="45.232655" lon="-72.460155">
        <ele>265.87</ele>
      </trkpt>
      <trkpt lat="45.23313" lon="-72.45966">
        <ele>265.43</ele>
      </trkpt>
      <trkpt lat="45.23358" lon="-72.45922">
        <ele>266.58</ele>
      </trkpt>
      <trkpt lat="45.23377" lon="-72.45908">
        <ele>267.67</ele>
      </trkpt>
      <trkpt lat="45.23409" lon="-72.45895">
        <ele>269.63</ele>
      </trkpt>
      <trkpt lat="45.234655" lon="-72.458785">
        <ele>269.65</ele>
      </trkpt>
      <trkpt lat="45.23522" lon="-72.45862">
        <ele>267.11</ele>
      </trkpt>
      <trkpt lat="45.23593" lon="-72.45845">
        <ele>265.86</ele>
      </trkpt>
      <trkpt lat="45.23618" lon="-72.45841">
        <ele>265.88</ele>
      </trkpt>
      <trkpt lat="45.23681" lon="-72.45841">
        <ele>267.31</ele>
      </trkpt>
      <trkpt lat="45.23731" lon="-72.45846">
        <ele>270.32</ele>
      </trkpt>
      <trkpt lat="45.23781" lon="-72.45851">
        <ele>272.2</ele>
      </trkpt>
      <trkpt lat="45.23858" lon="-72.4585">
        <ele>272.65</ele>
      </trkpt>
      <trkpt lat="45.239" lon="-72.45845">
        <ele>271.2</ele>
      </trkpt>
      <trkpt lat="45.23956" lon="-72.458185">
        <ele>271.31</ele>
      </trkpt>
      <trkpt lat="45.24012" lon="-72.45792">
        <ele>268.77</ele>
      </trkpt>
      <trkpt lat="45.24038" lon="-72.4577">
        <ele>264.02</ele>
      </trkpt>
      <trkpt lat="45.24056" lon="-72.45749">
        <ele>263.69</ele>
      </trkpt>
      <trkpt lat="45.24055" lon="-72.45749">
        <ele>263.69</ele>
      </trkpt>
      <trkpt lat="45.24081" lon="-72.4572">
        <ele>262.08</ele>
      </trkpt>
      <trkpt lat="45.24099" lon="-72.45704">
        <ele>261.56</ele>
      </trkpt>
      <trkpt lat="45.2414" lon="-72.45662">
        <ele>261.94</ele>
      </trkpt>
      <trkpt lat="45.24163" lon="-72.45644">
        <ele>262.96</ele>
      </trkpt>
      <trkpt lat="45.24233" lon="-72.45599">
        <ele>262.23</ele>
      </trkpt>
      <trkpt lat="45.2427" lon="-72.45567">
        <ele>261.42</ele>
      </trkpt>
      <trkpt lat="45.2431" lon="-72.455195">
        <ele>260.43</ele>
      </trkpt>
      <trkpt lat="45.2435" lon="-72.45472">
        <ele>259.38</ele>
      </trkpt>
      <trkpt lat="45.2435034" lon="-72.4558333">
        <ele>256.84</ele>
      </trkpt>
      <trkpt lat="45.2435067" lon="-72.4569467">
        <ele>252.69</ele>
      </trkpt>
      <trkpt lat="45.24351" lon="-72.45806">
        <ele>249.88</ele>
      </trkpt>
      <trkpt lat="45.2435134" lon="-72.4591733">
        <ele>249.79</ele>
      </trkpt>
      <trkpt lat="45.2435167" lon="-72.4602867">
        <ele>247.57</ele>
      </trkpt>
      <trkpt lat="45.24352" lon="-72.4614">
        <ele>246.79</ele>
      </trkpt>
      <trkpt lat="45.24357" lon="-72.46154">
        <ele>246.65</ele>
      </trkpt>
      <trkpt lat="45.24368" lon="-72.46167">
        <ele>246.14</ele>
      </trkpt>
      <trkpt lat="45.24383" lon="-72.46172">
        <ele>245.95</ele>
      </trkpt>
      <trkpt lat="45.244505" lon="-72.462065">
        <ele>245.43</ele>
      </trkpt>
      <trkpt lat="45.24518" lon="-72.46241">
        <ele>242.58</ele>
      </trkpt>
      <trkpt lat="45.24518" lon="-72.46241">
        <ele>242.47</ele>
      </trkpt>
      <trkpt lat="45.2459" lon="-72.462774">
        <ele>236.38</ele>
      </trkpt>
      <trkpt lat="45.24662" lon="-72.463138">
        <ele>228.96</ele>
      </trkpt>
      <trkpt lat="45.24734" lon="-72.463502">
        <ele>220.74</ele>
      </trkpt>
      <trkpt lat="45.24806" lon="-72.463866">
        <ele>218.08</ele>
      </trkpt>
      <trkpt lat="45.24878" lon="-72.46423">
        <ele>216.74</ele>
      </trkpt>
      <trkpt lat="45.24939" lon="-72.46452">
        <ele>217.43</ele>
      </trkpt>
      <trkpt lat="45.25" lon="-72.46481">
        <ele>218.79</ele>
      </trkpt>
      <trkpt lat="45.2507325" lon="-72.4651775">
        <ele>220.01</ele>
      </trkpt>
      <trkpt lat="45.251465" lon="-72.465545">
        <ele>225.87</ele>
      </trkpt>
      <trkpt lat="45.2521975" lon="-72.4659125">
        <ele>233.11</ele>
      </trkpt>
      <trkpt lat="45.25293" lon="-72.46628">
        <ele>235.27</ele>
      </trkpt>
      <trkpt lat="45.25368" lon="-72.466445">
        <ele>234.24</ele>
      </trkpt>
      <trkpt lat="45.25443" lon="-72.46661">
        <ele>227.12</ele>
      </trkpt>
      <trkpt lat="45.2546" lon="-72.46669">
        <ele>226.06</ele>
      </trkpt>
      <trkpt lat="45.25476" lon="-72.46682">
        <ele>226.06</ele>
      </trkpt>
      <trkpt lat="45.255255" lon="-72.467265">
        <ele>221.18</ele>
      </trkpt>
      <trkpt lat="45.25575" lon="-72.46771">
        <ele>220.13</ele>
      </trkpt>
      <trkpt lat="45.25553" lon="-72.46825">
        <ele>218.82</ele>
      </trkpt>
      <trkpt lat="45.255145" lon="-72.469115">
        <ele>217.81</ele>
      </trkpt>
      <trkpt lat="45.25476" lon="-72.46998">
        <ele>217.22</ele>
      </trkpt>
      <trkpt lat="45.254375" lon="-72.470845">
        <ele>216.29</ele>
      </trkpt>
      <trkpt lat="45.25399" lon="-72.47171">
        <ele>215.16</ele>
      </trkpt>
      <trkpt lat="45.25356" lon="-72.4726">
        <ele>213.1</ele>
      </trkpt>
      <trkpt lat="45.25339" lon="-72.47314">
        <ele>211.87</ele>
      </trkpt>
      <trkpt lat="45.25326" lon="-72.47372">
        <ele>210.85</ele>
      </trkpt>
      <trkpt lat="45.25319" lon="-72.47412">
        <ele>210.69</ele>
      </trkpt>
      <trkpt lat="45.253145" lon="-72.47477">
        <ele>210.53</ele>
      </trkpt>
      <trkpt lat="45.2531" lon="-72.47542">
        <ele>210.15</ele>
      </trkpt>
      <trkpt lat="45.25311" lon="-72.47659">
        <ele>209.3</ele>
      </trkpt>
      <trkpt lat="45.25308" lon="-72.47724">
        <ele>208.04</ele>
      </trkpt>
      <trkpt lat="45.25305" lon="-72.47789">
        <ele>207.59</ele>
      </trkpt>
      <trkpt lat="45.25292" lon="-72.47869">
        <ele>206.93</ele>
      </trkpt>
      <trkpt lat="45.25271" lon="-72.479515">
        <ele>206.38</ele>
      </trkpt>
      <trkpt lat="45.2525" lon="-72.48034">
        <ele>204.77</ele>
      </trkpt>
      <trkpt lat="45.25232" lon="-72.48142">
        <ele>202.59</ele>
      </trkpt>
      <trkpt lat="45.25235" lon="-72.48263">
        <ele>201.65</ele>
      </trkpt>
      <trkpt lat="45.25238" lon="-72.48384">
        <ele>201.24</ele>
      </trkpt>
      <trkpt lat="45.25232" lon="-72.48411">
        <ele>201.25</ele>
      </trkpt>
      <trkpt lat="45.25225" lon="-72.48428">
        <ele>201.33</ele>
      </trkpt>
      <trkpt lat="45.25171" lon="-72.48524">
        <ele>200.61</ele>
      </trkpt>
      <trkpt lat="45.25138" lon="-72.48591">
        <ele>200.7</ele>
      </trkpt>
      <trkpt lat="45.25157" lon="-72.48598">
        <ele>200.6</ele>
      </trkpt>
      <trkpt lat="45.25233" lon="-72.48604">
        <ele>200.65</ele>
      </trkpt>
      <trkpt lat="45.2531325" lon="-72.4861425">
        <ele>200</ele>
      </trkpt>
      <trkpt lat="45.253935" lon="-72.486245">
        <ele>200.18</ele>
      </trkpt>
      <trkpt lat="45.2547375" lon="-72.4863475">
        <ele>200.19</ele>
      </trkpt>
      <trkpt lat="45.25554" lon="-72.48645">
        <ele>200.41</ele>
      </trkpt>
      <trkpt lat="45.25554" lon="-72.48645">
        <ele>200.41</ele>
      </trkpt>
      <trkpt lat="45.256215" lon="-72.486535">
        <ele>200.4</ele>
      </trkpt>
      <trkpt lat="45.25689" lon="-72.48662">
        <ele>200.46</ele>
      </trkpt>
      <trkpt lat="45.257565" lon="-72.486705">
        <ele>200.43</ele>
      </trkpt>
      <trkpt lat="45.25824" lon="-72.48679">
        <ele>200.58</ele>
      </trkpt>
      <trkpt lat="45.25842" lon="-72.48675">
        <ele>200.59</ele>
      </trkpt>
      <trkpt lat="45.25848" lon="-72.48675">
        <ele>200.56</ele>
      </trkpt>
      <trkpt lat="45.25867" lon="-72.48684">
        <ele>200.42</ele>
      </trkpt>
      <trkpt lat="45.2593867" lon="-72.4869133">
        <ele>200.32</ele>
      </trkpt>
      <trkpt lat="45.2601033" lon="-72.4869867">
        <ele>200.2</ele>
      </trkpt>
      <trkpt lat="45.26082" lon="-72.48706">
        <ele>200.45</ele>
      </trkpt>
      <trkpt lat="45.2615467" lon="-72.4871767">
        <ele>200.38</ele>
      </trkpt>
      <trkpt lat="45.2622733" lon="-72.4872933">
        <ele>199.93</ele>
      </trkpt>
      <trkpt lat="45.263" lon="-72.48741">
        <ele>199.81</ele>
      </trkpt>
      <trkpt lat="45.2637267" lon="-72.4875067">
        <ele>199.85</ele>
      </trkpt>
      <trkpt lat="45.2644533" lon="-72.4876033">
        <ele>199.81</ele>
      </trkpt>
      <trkpt lat="45.26518" lon="-72.4877">
        <ele>199.79</ele>
      </trkpt>
      <trkpt lat="45.2660246" lon="-72.4877946">
        <ele>199.62</ele>
      </trkpt>
      <trkpt lat="45.2668692" lon="-72.4878892">
        <ele>199.62</ele>
      </trkpt>
      <trkpt lat="45.2677138" lon="-72.4879838">
        <ele>199.66</ele>
      </trkpt>
      <trkpt lat="45.2685585" lon="-72.4880784">
        <ele>199.81</ele>
      </trkpt>
      <trkpt lat="45.2694031" lon="-72.488173">
        <ele>199.83</ele>
      </trkpt>
      <trkpt lat="45.2702477" lon="-72.4882676">
        <ele>199.76</ele>
      </trkpt>
      <trkpt lat="45.2710923" lon="-72.4883622">
        <ele>199.74</ele>
      </trkpt>
      <trkpt lat="45.2719369" lon="-72.4884569">
        <ele>199.6</ele>
      </trkpt>
      <trkpt lat="45.2727815" lon="-72.4885515">
        <ele>199.33</ele>
      </trkpt>
      <trkpt lat="45.2736262" lon="-72.4886461">
        <ele>199.27</ele>
      </trkpt>
      <trkpt lat="45.2744708" lon="-72.4887407">
        <ele>199.73</ele>
      </trkpt>
      <trkpt lat="45.2753154" lon="-72.4888354">
        <ele>199.79</ele>
      </trkpt>
      <trkpt lat="45.27616" lon="-72.48893">
        <ele>200.09</ele>
      </trkpt>
      <trkpt lat="45.2770163" lon="-72.4890387">
        <ele>199.04</ele>
      </trkpt>
      <trkpt lat="45.2778725" lon="-72.4891475">
        <ele>198.58</ele>
      </trkpt>
      <trkpt lat="45.2787288" lon="-72.4892562">
        <ele>198.72</ele>
      </trkpt>
      <trkpt lat="45.279585" lon="-72.489365">
        <ele>198.72</ele>
      </trkpt>
      <trkpt lat="45.2804413" lon="-72.4894737">
        <ele>199.59</ele>
      </trkpt>
      <trkpt lat="45.2812975" lon="-72.4895825">
        <ele>200.73</ele>
      </trkpt>
      <trkpt lat="45.2821538" lon="-72.4896912">
        <ele>203.67</ele>
      </trkpt>
      <trkpt lat="45.28301" lon="-72.4898">
        <ele>206.05</ele>
      </trkpt>
      <trkpt lat="45.28334" lon="-72.48988">
        <ele>206.05</ele>
      </trkpt>
      <trkpt lat="45.28376" lon="-72.49002">
        <ele>207.06</ele>
      </trkpt>
      <trkpt lat="45.28428" lon="-72.49031">
        <ele>208.29</ele>
      </trkpt>
      <trkpt lat="45.28428" lon="-72.49031">
        <ele>208.26</ele>
      </trkpt>
      <trkpt lat="45.28442" lon="-72.49038">
        <ele>208.66</ele>
      </trkpt>
      <trkpt lat="45.28495" lon="-72.49074">
        <ele>210.08</ele>
      </trkpt>
      <trkpt lat="45.28548" lon="-72.4911">
        <ele>211.8</ele>
      </trkpt>
      <trkpt lat="45.28565" lon="-72.49128">
        <ele>212.36</ele>
      </trkpt>
      <trkpt lat="45.28578" lon="-72.49154">
        <ele>212.62</ele>
      </trkpt>
      <trkpt lat="45.28639" lon="-72.49207">
        <ele>214.47</ele>
      </trkpt>
      <trkpt lat="45.2865" lon="-72.49207">
        <ele>214.59</ele>
      </trkpt>
      <trkpt lat="45.28651" lon="-72.49188">
        <ele>214.72</ele>
      </trkpt>
      <trkpt lat="45.28693" lon="-72.49235">
        <ele>214.4</ele>
      </trkpt>
      <trkpt lat="45.2871" lon="-72.49248">
        <ele>214.4</ele>
      </trkpt>
      <trkpt lat="45.28719" lon="-72.49251">
        <ele>214.36</ele>
      </trkpt>
      <trkpt lat="45.28722" lon="-72.49257">
        <ele>214.4</ele>
      </trkpt>
      <trkpt lat="45.287655" lon="-72.493015">
        <ele>214.71</ele>
      </trkpt>
      <trkpt lat="45.28809" lon="-72.49346">
        <ele>213.97</ele>
      </trkpt>
      <trkpt lat="45.28858" lon="-72.49391">
        <ele>213.58</ele>
      </trkpt>
      <trkpt lat="45.28926" lon="-72.49447">
        <ele>213.59</ele>
      </trkpt>
      <trkpt lat="45.2899925" lon="-72.495105">
        <ele>213.21</ele>
      </trkpt>
      <trkpt lat="45.290725" lon="-72.49574">
        <ele>213.43</ele>
      </trkpt>
      <trkpt lat="45.2914575" lon="-72.496375">
        <ele>212.81</ele>
      </trkpt>
      <trkpt lat="45.29219" lon="-72.49701">
        <ele>213.05</ele>
      </trkpt>
      <trkpt lat="45.29263" lon="-72.4973">
        <ele>213.01</ele>
      </trkpt>
      <trkpt lat="45.29263" lon="-72.4973">
        <ele>213.01</ele>
      </trkpt>
      <trkpt lat="45.29306" lon="-72.49749">
        <ele>213.51</ele>
      </trkpt>
      <trkpt lat="45.29322" lon="-72.49753">
        <ele>213.52</ele>
      </trkpt>
      <trkpt lat="45.2929533" lon="-72.49865">
        <ele>212.41</ele>
      </trkpt>
      <trkpt lat="45.2926867" lon="-72.49977">
        <ele>211.74</ele>
      </trkpt>
      <trkpt lat="45.29242" lon="-72.50089">
        <ele>212.82</ele>
      </trkpt>
      <trkpt lat="45.29242" lon="-72.50089">
        <ele>212.82</ele>
      </trkpt>
      <trkpt lat="45.2926867" lon="-72.49977">
        <ele>211.74</ele>
      </trkpt>
      <trkpt lat="45.2929533" lon="-72.49865">
        <ele>212.41</ele>
      </trkpt>
      <trkpt lat="45.29322" lon="-72.49753">
        <ele>213.52</ele>
      </trkpt>
      <trkpt lat="45.29332" lon="-72.49758">
        <ele>213.52</ele>
      </trkpt>
      <trkpt lat="45.2936" lon="-72.49763">
        <ele>212.47</ele>
      </trkpt>
      <trkpt lat="45.29393" lon="-72.49764">
        <ele>212.29</ele>
      </trkpt>
      <trkpt lat="45.2942" lon="-72.49763">
        <ele>212.41</ele>
      </trkpt>
      <trkpt lat="45.2949725" lon="-72.497565">
        <ele>212.57</ele>
      </trkpt>
      <trkpt lat="45.295745" lon="-72.4975">
        <ele>212.94</ele>
      </trkpt>
      <trkpt lat="45.2965175" lon="-72.497435">
        <ele>214.04</ele>
      </trkpt>
      <trkpt lat="45.29729" lon="-72.49737">
        <ele>213.88</ele>
      </trkpt>
      <trkpt lat="45.29809" lon="-72.4972833">
        <ele>214.39</ele>
      </trkpt>
      <trkpt lat="45.29889" lon="-72.4971967">
        <ele>214.63</ele>
      </trkpt>
      <trkpt lat="45.29969" lon="-72.49711">
        <ele>215.48</ele>
      </trkpt>
      <trkpt lat="45.29968" lon="-72.49711">
        <ele>215.48</ele>
      </trkpt>
      <trkpt lat="45.3004567" lon="-72.4970433">
        <ele>215.7</ele>
      </trkpt>
      <trkpt lat="45.3012333" lon="-72.4969767">
        <ele>216.33</ele>
      </trkpt>
      <trkpt lat="45.30201" lon="-72.49691">
        <ele>217.3</ele>
      </trkpt>
      <trkpt lat="45.30231" lon="-72.49691">
        <ele>217.63</ele>
      </trkpt>
      <trkpt lat="45.3029" lon="-72.49701">
        <ele>218.21</ele>
      </trkpt>
      <trkpt lat="45.30352" lon="-72.49723">
        <ele>218.85</ele>
      </trkpt>
      <trkpt lat="45.304336" lon="-72.49756">
        <ele>219.83</ele>
      </trkpt>
      <trkpt lat="45.305152" lon="-72.49789">
        <ele>220.81</ele>
      </trkpt>
      <trkpt lat="45.305968" lon="-72.49822">
        <ele>221.15</ele>
      </trkpt>
      <trkpt lat="45.306784" lon="-72.49855">
        <ele>221.78</ele>
      </trkpt>
      <trkpt lat="45.3076" lon="-72.49888">
        <ele>222.73</ele>
      </trkpt>
      <trkpt lat="45.30806" lon="-72.49902">
        <ele>223</ele>
      </trkpt>
      <trkpt lat="45.30828" lon="-72.49906">
        <ele>223.42</ele>
      </trkpt>
      <trkpt lat="45.30877" lon="-72.49904">
        <ele>224.09</ele>
      </trkpt>
      <trkpt lat="45.30883" lon="-72.4993">
        <ele>223.8</ele>
      </trkpt>
      <trkpt lat="45.30848" lon="-72.49933">
        <ele>222.47</ele>
      </trkpt>
      <trkpt lat="45.3082" lon="-72.49932">
        <ele>221.48</ele>
      </trkpt>
      <trkpt lat="45.30757" lon="-72.49914">
        <ele>220.76</ele>
      </trkpt>
      <trkpt lat="45.30757" lon="-72.49988">
        <ele>219.84</ele>
      </trkpt>
      <trkpt lat="45.30757" lon="-72.50062">
        <ele>221.38</ele>
      </trkpt>
      <trkpt lat="45.30757" lon="-72.50063">
        <ele>221.37</ele>
      </trkpt>
      <trkpt lat="45.30757" lon="-72.5016033">
        <ele>223.7</ele>
      </trkpt>
      <trkpt lat="45.30757" lon="-72.5025767">
        <ele>223.55</ele>
      </trkpt>
      <trkpt lat="45.30757" lon="-72.50355">
        <ele>223.59</ele>
      </trkpt>
      <trkpt lat="45.307545" lon="-72.504755">
        <ele>222.64</ele>
      </trkpt>
      <trkpt lat="45.30752" lon="-72.50596">
        <ele>224.92</ele>
      </trkpt>
      <trkpt lat="45.30757" lon="-72.50663">
        <ele>226.66</ele>
      </trkpt>
      <trkpt lat="45.3077" lon="-72.50722">
        <ele>227.07</ele>
      </trkpt>
      <trkpt lat="45.30783" lon="-72.50761">
        <ele>225.96</ele>
      </trkpt>
      <trkpt lat="45.30823" lon="-72.50849">
        <ele>222.56</ele>
      </trkpt>
      <trkpt lat="45.30863" lon="-72.50937">
        <ele>223.38</ele>
      </trkpt>
      <trkpt lat="45.30903" lon="-72.51025">
        <ele>229.7</ele>
      </trkpt>
      <trkpt lat="45.30924" lon="-72.51075">
        <ele>231.12</ele>
      </trkpt>
      <trkpt lat="45.30951" lon="-72.51172">
        <ele>226.52</ele>
      </trkpt>
      <trkpt lat="45.30954" lon="-72.51191">
        <ele>225.93</ele>
      </trkpt>
      <trkpt lat="45.30959" lon="-72.51232">
        <ele>225.53</ele>
      </trkpt>
      <trkpt lat="45.30962" lon="-72.513165">
        <ele>227.49</ele>
      </trkpt>
      <trkpt lat="45.30965" lon="-72.51401">
        <ele>230.32</ele>
      </trkpt>
      <trkpt lat="45.30959" lon="-72.51501">
        <ele>229.8</ele>
      </trkpt>
      <trkpt lat="45.30953" lon="-72.51601">
        <ele>228.75</ele>
      </trkpt>
      <trkpt lat="45.309465" lon="-72.516715">
        <ele>227.03</ele>
      </trkpt>
      <trkpt lat="45.3094" lon="-72.51742">
        <ele>226.33</ele>
      </trkpt>
      <trkpt lat="45.30922" lon="-72.51867">
        <ele>224.99</ele>
      </trkpt>
      <trkpt lat="45.30899" lon="-72.5197125">
        <ele>223.18</ele>
      </trkpt>
      <trkpt lat="45.30876" lon="-72.520755">
        <ele>220.38</ele>
      </trkpt>
      <trkpt lat="45.30853" lon="-72.5217975">
        <ele>216.58</ele>
      </trkpt>
      <trkpt lat="45.3083" lon="-72.52284">
        <ele>214.07</ele>
      </trkpt>
      <trkpt lat="45.3082" lon="-72.52338">
        <ele>212.46</ele>
      </trkpt>
      <trkpt lat="45.308095" lon="-72.524165">
        <ele>208.89</ele>
      </trkpt>
      <trkpt lat="45.30799" lon="-72.52495">
        <ele>207.06</ele>
      </trkpt>
      <trkpt lat="45.307785" lon="-72.525755">
        <ele>210.98</ele>
      </trkpt>
      <trkpt lat="45.30758" lon="-72.52656">
        <ele>219.22</ele>
      </trkpt>
      <trkpt lat="45.30749" lon="-72.527">
        <ele>221.46</ele>
      </trkpt>
      <trkpt lat="45.30746" lon="-72.52745">
        <ele>223.48</ele>
      </trkpt>
      <trkpt lat="45.3074572" lon="-72.52855">
        <ele>224.79</ele>
      </trkpt>
      <trkpt lat="45.3074543" lon="-72.52965">
        <ele>223.97</ele>
      </trkpt>
      <trkpt lat="45.3074515" lon="-72.53075">
        <ele>226.3</ele>
      </trkpt>
      <trkpt lat="45.3074486" lon="-72.53185">
        <ele>227.01</ele>
      </trkpt>
      <trkpt lat="45.3074458" lon="-72.53295">
        <ele>226.65</ele>
      </trkpt>
      <trkpt lat="45.3074429" lon="-72.53405">
        <ele>227.8</ele>
      </trkpt>
      <trkpt lat="45.30744" lon="-72.53515">
        <ele>229.96</ele>
      </trkpt>
      <trkpt lat="45.3074313" lon="-72.5363863">
        <ele>226.96</ele>
      </trkpt>
      <trkpt lat="45.3074226" lon="-72.5376225">
        <ele>226.18</ele>
      </trkpt>
      <trkpt lat="45.3074139" lon="-72.5388588">
        <ele>229.14</ele>
      </trkpt>
      <trkpt lat="45.3074051" lon="-72.540095">
        <ele>231.21</ele>
      </trkpt>
      <trkpt lat="45.3073964" lon="-72.5413313">
        <ele>230.97</ele>
      </trkpt>
      <trkpt lat="45.3073876" lon="-72.5425675">
        <ele>230.43</ele>
      </trkpt>
      <trkpt lat="45.3073788" lon="-72.5438038">
        <ele>229.96</ele>
      </trkpt>
      <trkpt lat="45.30737" lon="-72.54504">
        <ele>229.12</ele>
      </trkpt>
      <trkpt lat="45.30737" lon="-72.54505">
        <ele>229.13</ele>
      </trkpt>
      <trkpt lat="45.307366" lon="-72.54626">
        <ele>229.01</ele>
      </trkpt>
      <trkpt lat="45.307362" lon="-72.54747">
        <ele>228.98</ele>
      </trkpt>
      <trkpt lat="45.307358" lon="-72.54868">
        <ele>228.85</ele>
      </trkpt>
      <trkpt lat="45.307354" lon="-72.54989">
        <ele>227.36</ele>
      </trkpt>
      <trkpt lat="45.30735" lon="-72.5511">
        <ele>227.43</ele>
      </trkpt>
      <trkpt lat="45.3073333" lon="-72.5523233">
        <ele>226.86</ele>
      </trkpt>
      <trkpt lat="45.3073167" lon="-72.5535467">
        <ele>225.97</ele>
      </trkpt>
      <trkpt lat="45.3073" lon="-72.55477">
        <ele>225.64</ele>
      </trkpt>
      <trkpt lat="45.3072934" lon="-72.5558433">
        <ele>225.81</ele>
      </trkpt>
      <trkpt lat="45.3072867" lon="-72.5569167">
        <ele>225.85</ele>
      </trkpt>
      <trkpt lat="45.30728" lon="-72.55799">
        <ele>226.52</ele>
      </trkpt>
      <trkpt lat="45.3072734" lon="-72.5590633">
        <ele>226.1</ele>
      </trkpt>
      <trkpt lat="45.3072667" lon="-72.5601367">
        <ele>223.52</ele>
      </trkpt>
      <trkpt lat="45.30726" lon="-72.56121">
        <ele>221.3</ele>
      </trkpt>
      <trkpt lat="45.3072625" lon="-72.56217">
        <ele>217.05</ele>
      </trkpt>
      <trkpt lat="45.307265" lon="-72.56313">
        <ele>212.72</ele>
      </trkpt>
      <trkpt lat="45.3072675" lon="-72.56409">
        <ele>210.2</ele>
      </trkpt>
      <trkpt lat="45.30727" lon="-72.56505">
        <ele>208.4</ele>
      </trkpt>
      <trkpt lat="45.3073" lon="-72.56581">
        <ele>207.83</ele>
      </trkpt>
      <trkpt lat="45.30744" lon="-72.566975">
        <ele>207.41</ele>
      </trkpt>
      <trkpt lat="45.30758" lon="-72.56814">
        <ele>205.44</ele>
      </trkpt>
      <trkpt lat="45.3076" lon="-72.56855">
        <ele>201.69</ele>
      </trkpt>
      <trkpt lat="45.30756" lon="-72.56896">
        <ele>197.45</ele>
      </trkpt>
      <trkpt lat="45.30742" lon="-72.56963">
        <ele>194.92</ele>
      </trkpt>
      <trkpt lat="45.30734" lon="-72.57015">
        <ele>193.02</ele>
      </trkpt>
      <trkpt lat="45.30731" lon="-72.5706">
        <ele>192.87</ele>
      </trkpt>
      <trkpt lat="45.3073" lon="-72.5711">
        <ele>193.24</ele>
      </trkpt>
      <trkpt lat="45.307288" lon="-72.572344">
        <ele>188.88</ele>
      </trkpt>
      <trkpt lat="45.307276" lon="-72.573588">
        <ele>182.7</ele>
      </trkpt>
      <trkpt lat="45.307264" lon="-72.574832">
        <ele>175.51</ele>
      </trkpt>
      <trkpt lat="45.307252" lon="-72.576076">
        <ele>171.02</ele>
      </trkpt>
      <trkpt lat="45.30724" lon="-72.57732">
        <ele>169.22</ele>
      </trkpt>
      <trkpt lat="45.3072425" lon="-72.5784512">
        <ele>168.49</ele>
      </trkpt>
      <trkpt lat="45.3072451" lon="-72.5795825">
        <ele>169.06</ele>
      </trkpt>
      <trkpt lat="45.3072476" lon="-72.5807137">
        <ele>168.34</ele>
      </trkpt>
      <trkpt lat="45.3072501" lon="-72.581845">
        <ele>165.55</ele>
      </trkpt>
      <trkpt lat="45.3072526" lon="-72.5829762">
        <ele>163.94</ele>
      </trkpt>
      <trkpt lat="45.3072551" lon="-72.5841075">
        <ele>167.58</ele>
      </trkpt>
      <trkpt lat="45.3072575" lon="-72.5852387">
        <ele>172.78</ele>
      </trkpt>
      <trkpt lat="45.30726" lon="-72.58637">
        <ele>173.53</ele>
      </trkpt>
      <trkpt lat="45.307275" lon="-72.58718">
        <ele>172.55</ele>
      </trkpt>
      <trkpt lat="45.30729" lon="-72.58799">
        <ele>170.79</ele>
      </trkpt>
      <trkpt lat="45.3072884" lon="-72.5892417">
        <ele>166.44</ele>
      </trkpt>
      <trkpt lat="45.3072867" lon="-72.5904933">
        <ele>162.43</ele>
      </trkpt>
      <trkpt lat="45.3072851" lon="-72.591745">
        <ele>159.16</ele>
      </trkpt>
      <trkpt lat="45.3072834" lon="-72.5929967">
        <ele>159.31</ele>
      </trkpt>
      <trkpt lat="45.3072817" lon="-72.5942483">
        <ele>157.79</ele>
      </trkpt>
      <trkpt lat="45.30728" lon="-72.5955">
        <ele>155.61</ele>
      </trkpt>
      <trkpt lat="45.308035" lon="-72.5954675">
        <ele>154.3</ele>
      </trkpt>
      <trkpt lat="45.30879" lon="-72.595435">
        <ele>156.04</ele>
      </trkpt>
      <trkpt lat="45.309545" lon="-72.5954025">
        <ele>156.56</ele>
      </trkpt>
      <trkpt lat="45.3103" lon="-72.59537">
        <ele>156.19</ele>
      </trkpt>
      <trkpt lat="45.3109267" lon="-72.5953367">
        <ele>157.12</ele>
      </trkpt>
      <trkpt lat="45.3115533" lon="-72.5953033">
        <ele>157.91</ele>
      </trkpt>
      <trkpt lat="45.31218" lon="-72.59527">
        <ele>159.71</ele>
      </trkpt>
      <trkpt lat="45.3128967" lon="-72.59525">
        <ele>162.06</ele>
      </trkpt>
      <trkpt lat="45.3136133" lon="-72.59523">
        <ele>162.36</ele>
      </trkpt>
      <trkpt lat="45.31433" lon="-72.59521">
        <ele>160.45</ele>
      </trkpt>
      <trkpt lat="45.31432" lon="-72.59521">
        <ele>160.46</ele>
      </trkpt>
      <trkpt lat="45.31496" lon="-72.59518">
        <ele>159.91</ele>
      </trkpt>
      <trkpt lat="45.3156" lon="-72.59515">
        <ele>161.57</ele>
      </trkpt>
      <trkpt lat="45.31624" lon="-72.59512">
        <ele>161.02</ele>
      </trkpt>
      <trkpt lat="45.31705" lon="-72.59511">
        <ele>159.92</ele>
      </trkpt>
      <trkpt lat="45.31736" lon="-72.59505">
        <ele>160.19</ele>
      </trkpt>
      <trkpt lat="45.31754" lon="-72.59489">
        <ele>160.38</ele>
      </trkpt>
      <trkpt lat="45.31777" lon="-72.5946">
        <ele>160.54</ele>
      </trkpt>
      <trkpt lat="45.31812" lon="-72.59404">
        <ele>161.2</ele>
      </trkpt>
      <trkpt lat="45.31847" lon="-72.59348">
        <ele>162.05</ele>
      </trkpt>
      <trkpt lat="45.31864" lon="-72.5933">
        <ele>162.01</ele>
      </trkpt>
      <trkpt lat="45.31882" lon="-72.59317">
        <ele>161.9</ele>
      </trkpt>
      <trkpt lat="45.31902" lon="-72.59308">
        <ele>161.91</ele>
      </trkpt>
      <trkpt lat="45.31923" lon="-72.59308">
        <ele>162.04</ele>
      </trkpt>
      <trkpt lat="45.3199917" lon="-72.5931233">
        <ele>165.4</ele>
      </trkpt>
      <trkpt lat="45.3207533" lon="-72.5931667">
        <ele>169.7</ele>
      </trkpt>
      <trkpt lat="45.321515" lon="-72.59321">
        <ele>171.27</ele>
      </trkpt>
      <trkpt lat="45.3222767" lon="-72.5932533">
        <ele>173.38</ele>
      </trkpt>
      <trkpt lat="45.3230383" lon="-72.5932967">
        <ele>175.49</ele>
      </trkpt>
      <trkpt lat="45.3238" lon="-72.59334">
        <ele>176.17</ele>
      </trkpt>
      <trkpt lat="45.3246967" lon="-72.5934067">
        <ele>179.89</ele>
      </trkpt>
      <trkpt lat="45.3255933" lon="-72.5934733">
        <ele>183.08</ele>
      </trkpt>
      <trkpt lat="45.32649" lon="-72.59354">
        <ele>184.65</ele>
      </trkpt>
      <trkpt lat="45.32695" lon="-72.59352">
        <ele>185.53</ele>
      </trkpt>
      <trkpt lat="45.32783" lon="-72.59332">
        <ele>189.01</ele>
      </trkpt>
      <trkpt lat="45.32871" lon="-72.59312">
        <ele>196.63</ele>
      </trkpt>
      <trkpt lat="45.3289333" lon="-72.5939367">
        <ele>198.34</ele>
      </trkpt>
      <trkpt lat="45.3291567" lon="-72.5947533">
        <ele>199.57</ele>
      </trkpt>
      <trkpt lat="45.32938" lon="-72.59557">
        <ele>201.73</ele>
      </trkpt>
      <trkpt lat="45.32935" lon="-72.59546">
        <ele>201.45</ele>
      </trkpt>
      <trkpt lat="45.329626" lon="-72.596496">
        <ele>202.97</ele>
      </trkpt>
      <trkpt lat="45.329902" lon="-72.597532">
        <ele>202.06</ele>
      </trkpt>
      <trkpt lat="45.330178" lon="-72.598568">
        <ele>201.67</ele>
      </trkpt>
      <trkpt lat="45.330454" lon="-72.599604">
        <ele>199.3</ele>
      </trkpt>
      <trkpt lat="45.33073" lon="-72.60064">
        <ele>196.53</ele>
      </trkpt>
      <trkpt lat="45.33084" lon="-72.601">
        <ele>196.11</ele>
      </trkpt>
      <trkpt lat="45.33107" lon="-72.6017">
        <ele>196.12</ele>
      </trkpt>
      <trkpt lat="45.331295" lon="-72.602275">
        <ele>195.42</ele>
      </trkpt>
      <trkpt lat="45.33152" lon="-72.60285">
        <ele>194.91</ele>
      </trkpt>
      <trkpt lat="45.33165" lon="-72.60302">
        <ele>195.57</ele>
      </trkpt>
      <trkpt lat="45.33173" lon="-72.60307">
        <ele>196.06</ele>
      </trkpt>
      <trkpt lat="45.33192" lon="-72.60311">
        <ele>197.6</ele>
      </trkpt>
      <trkpt lat="45.33249" lon="-72.60313">
        <ele>201.07</ele>
      </trkpt>
      <trkpt lat="45.33306" lon="-72.60315">
        <ele>202.52</ele>
      </trkpt>
      <trkpt lat="45.33317" lon="-72.60316">
        <ele>202.49</ele>
      </trkpt>
      <trkpt lat="45.33332" lon="-72.6033">
        <ele>202.32</ele>
      </trkpt>
      <trkpt lat="45.33337" lon="-72.60342">
        <ele>202.18</ele>
      </trkpt>
      <trkpt lat="45.33347" lon="-72.60445">
        <ele>199.4</ele>
      </trkpt>
      <trkpt lat="45.33348" lon="-72.6053">
        <ele>195.52</ele>
      </trkpt>
      <trkpt lat="45.33351" lon="-72.60615">
        <ele>189.38</ele>
      </trkpt>
      <trkpt lat="45.33356" lon="-72.60682">
        <ele>186.95</ele>
      </trkpt>
      <trkpt lat="45.33356" lon="-72.60682">
        <ele>186.92</ele>
      </trkpt>
      <trkpt lat="45.333625" lon="-72.607495">
        <ele>184.05</ele>
      </trkpt>
      <trkpt lat="45.33369" lon="-72.60817">
        <ele>181.56</ele>
      </trkpt>
      <trkpt lat="45.33374" lon="-72.609105">
        <ele>179.57</ele>
      </trkpt>
      <trkpt lat="45.33379" lon="-72.61004">
        <ele>177.08</ele>
      </trkpt>
      <trkpt lat="45.33383" lon="-72.61036">
        <ele>176.72</ele>
      </trkpt>
      <trkpt lat="45.3339" lon="-72.61059">
        <ele>175.93</ele>
      </trkpt>
      <trkpt lat="45.33345" lon="-72.61063">
        <ele>170.02</ele>
      </trkpt>
      <trkpt lat="45.33265" lon="-72.61059">
        <ele>163.47</ele>
      </trkpt>
      <trkpt lat="45.33232" lon="-72.61053">
        <ele>161.84</ele>
      </trkpt>
      <trkpt lat="45.33208" lon="-72.61041">
        <ele>161.33</ele>
      </trkpt>
      <trkpt lat="45.3319" lon="-72.61027">
        <ele>161.3</ele>
      </trkpt>
      <trkpt lat="45.33156" lon="-72.60979">
        <ele>162.44</ele>
      </trkpt>
      <trkpt lat="45.33138" lon="-72.60964">
        <ele>162.91</ele>
      </trkpt>
      <trkpt lat="45.33114" lon="-72.60956">
        <ele>162.88</ele>
      </trkpt>
      <trkpt lat="45.33073" lon="-72.60953">
        <ele>162.19</ele>
      </trkpt>
      <trkpt lat="45.33073" lon="-72.60953">
        <ele>162.21</ele>
      </trkpt>
      <trkpt lat="45.33052" lon="-72.60951">
        <ele>161.64</ele>
      </trkpt>
      <trkpt lat="45.33029" lon="-72.60952">
        <ele>160.48</ele>
      </trkpt>
      <trkpt lat="45.33016" lon="-72.6096">
        <ele>159.32</ele>
      </trkpt>
      <trkpt lat="45.33005" lon="-72.6097">
        <ele>158.75</ele>
      </trkpt>
      <trkpt lat="45.3303" lon="-72.61009">
        <ele>158.02</ele>
      </trkpt>
      <trkpt lat="45.33063" lon="-72.61067">
        <ele>156.71</ele>
      </trkpt>
      <trkpt lat="45.33098" lon="-72.61143">
        <ele>155.22</ele>
      </trkpt>
      <trkpt lat="45.33128" lon="-72.61229">
        <ele>154.17</ele>
      </trkpt>
      <trkpt lat="45.33149" lon="-72.61319">
        <ele>153.68</ele>
      </trkpt>
      <trkpt lat="45.3316725" lon="-72.6144075">
        <ele>153.16</ele>
      </trkpt>
      <trkpt lat="45.331855" lon="-72.615625">
        <ele>152.71</ele>
      </trkpt>
      <trkpt lat="45.3320375" lon="-72.6168425">
        <ele>152.02</ele>
      </trkpt>
      <trkpt lat="45.33222" lon="-72.61806">
        <ele>151.3</ele>
      </trkpt>
      <trkpt lat="45.33246" lon="-72.61922">
        <ele>151.23</ele>
      </trkpt>
      <trkpt lat="45.3328" lon="-72.62034">
        <ele>150.62</ele>
      </trkpt>
      <trkpt lat="45.333105" lon="-72.62101">
        <ele>150.51</ele>
      </trkpt>
      <trkpt lat="45.33341" lon="-72.62168">
        <ele>150.84</ele>
      </trkpt>
      <trkpt lat="45.3338813" lon="-72.6226087">
        <ele>148.94</ele>
      </trkpt>
      <trkpt lat="45.3343525" lon="-72.6235374">
        <ele>148.43</ele>
      </trkpt>
      <trkpt lat="45.3348238" lon="-72.6244661">
        <ele>148.12</ele>
      </trkpt>
      <trkpt lat="45.3352951" lon="-72.6253949">
        <ele>148</ele>
      </trkpt>
      <trkpt lat="45.3357663" lon="-72.6263236">
        <ele>147.61</ele>
      </trkpt>
      <trkpt lat="45.3362375" lon="-72.6272524">
        <ele>147.11</ele>
      </trkpt>
      <trkpt lat="45.3367088" lon="-72.6281812">
        <ele>145.89</ele>
      </trkpt>
      <trkpt lat="45.33718" lon="-72.62911">
        <ele>144.86</ele>
      </trkpt>
      <trkpt lat="45.33742" lon="-72.62968">
        <ele>144.29</ele>
      </trkpt>
      <trkpt lat="45.33766" lon="-72.63025">
        <ele>144.35</ele>
      </trkpt>
      <trkpt lat="45.33784" lon="-72.63094">
        <ele>144.01</ele>
      </trkpt>
      <trkpt lat="45.33802" lon="-72.63163">
        <ele>143.58</ele>
      </trkpt>
      <trkpt lat="45.33816" lon="-72.63284">
        <ele>143.55</ele>
      </trkpt>
      <trkpt lat="45.3383" lon="-72.63405">
        <ele>143.32</ele>
      </trkpt>
      <trkpt lat="45.338455" lon="-72.634875">
        <ele>143.39</ele>
      </trkpt>
      <trkpt lat="45.33861" lon="-72.6357">
        <ele>142.46</ele>
      </trkpt>
      <trkpt lat="45.33878" lon="-72.63624">
        <ele>141.82</ele>
      </trkpt>
      <trkpt lat="45.33917" lon="-72.6371">
        <ele>141.2</ele>
      </trkpt>
      <trkpt lat="45.339674" lon="-72.638064">
        <ele>140.2</ele>
      </trkpt>
      <trkpt lat="45.340178" lon="-72.6390279">
        <ele>138.68</ele>
      </trkpt>
      <trkpt lat="45.340682" lon="-72.6399919">
        <ele>137.41</ele>
      </trkpt>
      <trkpt lat="45.341186" lon="-72.640956">
        <ele>136.5</ele>
      </trkpt>
      <trkpt lat="45.34169" lon="-72.64192">
        <ele>135.93</ele>
      </trkpt>
      <trkpt lat="45.34214" lon="-72.64295">
        <ele>134.85</ele>
      </trkpt>
      <trkpt lat="45.34249" lon="-72.64407">
        <ele>134.28</ele>
      </trkpt>
      <trkpt lat="45.342655" lon="-72.6451875">
        <ele>133.61</ele>
      </trkpt>
      <trkpt lat="45.34282" lon="-72.646305">
        <ele>133.62</ele>
      </trkpt>
      <trkpt lat="45.342985" lon="-72.6474225">
        <ele>133.59</ele>
      </trkpt>
      <trkpt lat="45.34315" lon="-72.64854">
        <ele>133.46</ele>
      </trkpt>
    </trkseg>
  </trk>
</gpx>