<?xml version='1.0' encoding='utf-8'?>
<gpx xmlns="http://www.topografix.com/GPX/1/1" xmlns:xsi="http://www.w3.org/2001/XMLSchema-instance" version="1.1" creator="Gravelle Estrie" xsi:schemaLocation="http://www.topografix.com/GPX/1/1 http://www.topografix.com/GPX/1/1/gpx.xsd">
  <metadata>
    <name>Happy Mother Day</name>
  </metadata>
  <trk>
    <name>Happy Mother Day</name>
    <trkseg>
      <trkpt lat="45.34324" lon="-72.64909">
        <ele>133.3</ele>
      </trkpt>
      <trkpt lat="45.34306" lon="-72.64793">
        <ele>134.4</ele>
      </trkpt>
      <trkpt lat="45.342917" lon="-72.646964">
        <ele>133.7</ele>
      </trkpt>
      <trkpt lat="45.342775" lon="-72.645999">
        <ele>133.6</ele>
      </trkpt>
      <trkpt lat="45.342632" lon="-72.645034">
        <ele>133.9</ele>
      </trkpt>
      <trkpt lat="45.34249" lon="-72.64407">
        <ele>134.5</ele>
      </trkpt>
      <trkpt lat="45.34214" lon="-72.64295">
        <ele>135.3</ele>
      </trkpt>
      <trkpt lat="45.34169" lon="-72.64192">
        <ele>136.2</ele>
      </trkpt>
      <trkpt lat="45.34118" lon="-72.640941">
        <ele>137.2</ele>
      </trkpt>
      <trkpt lat="45.34067" lon="-72.639963">
        <ele>138</ele>
      </trkpt>
      <trkpt lat="45.34016" lon="-72.638985">
        <ele>139.2</ele>
      </trkpt>
      <trkpt lat="45.33965" lon="-72.638007">
        <ele>140.9</ele>
      </trkpt>
      <trkpt lat="45.33914" lon="-72.63703">
        <ele>141.6</ele>
      </trkpt>
      <trkpt lat="45.33878" lon="-72.63624">
        <ele>142.4</ele>
      </trkpt>
      <trkpt lat="45.33861" lon="-72.6357">
        <ele>143</ele>
      </trkpt>
      <trkpt lat="45.338455" lon="-72.634874">
        <ele>143.7</ele>
      </trkpt>
      <trkpt lat="45.3383" lon="-72.63405">
        <ele>143.6</ele>
      </trkpt>
      <trkpt lat="45.33816" lon="-72.632839">
        <ele>144</ele>
      </trkpt>
      <trkpt lat="45.33802" lon="-72.63163">
        <ele>144.2</ele>
      </trkpt>
      <trkpt lat="45.337855" lon="-72.631009">
        <ele>144.3</ele>
      </trkpt>
      <trkpt lat="45.33769" lon="-72.63039">
        <ele>144.6</ele>
      </trkpt>
      <trkpt lat="45.33766" lon="-72.63025">
        <ele>144.7</ele>
      </trkpt>
      <trkpt lat="45.33742" lon="-72.629679">
        <ele>144.8</ele>
      </trkpt>
      <trkpt lat="45.33718" lon="-72.62911">
        <ele>145.7</ele>
      </trkpt>
      <trkpt lat="45.336708" lon="-72.628181">
        <ele>146.5</ele>
      </trkpt>
      <trkpt lat="45.336237" lon="-72.627252">
        <ele>147.5</ele>
      </trkpt>
      <trkpt lat="45.335766" lon="-72.626323">
        <ele>147.9</ele>
      </trkpt>
      <trkpt lat="45.335295" lon="-72.625394">
        <ele>148.3</ele>
      </trkpt>
      <trkpt lat="45.334823" lon="-72.624466">
        <ele>148.4</ele>
      </trkpt>
      <trkpt lat="45.334352" lon="-72.623537">
        <ele>148.5</ele>
      </trkpt>
      <trkpt lat="45.333881" lon="-72.622608">
        <ele>148.8</ele>
      </trkpt>
      <trkpt lat="45.33341" lon="-72.62168">
        <ele>151</ele>
      </trkpt>
      <trkpt lat="45.333105" lon="-72.621009">
        <ele>150.7</ele>
      </trkpt>
      <trkpt lat="45.3328" lon="-72.62034">
        <ele>150.5</ele>
      </trkpt>
      <trkpt lat="45.33246" lon="-72.61922">
        <ele>151.1</ele>
      </trkpt>
      <trkpt lat="45.33222" lon="-72.61806">
        <ele>151.3</ele>
      </trkpt>
      <trkpt lat="45.332037" lon="-72.616842">
        <ele>151.9</ele>
      </trkpt>
      <trkpt lat="45.331855" lon="-72.615624">
        <ele>152.8</ele>
      </trkpt>
      <trkpt lat="45.331672" lon="-72.614407">
        <ele>153.5</ele>
      </trkpt>
      <trkpt lat="45.33149" lon="-72.61319">
        <ele>154</ele>
      </trkpt>
      <trkpt lat="45.33128" lon="-72.61229">
        <ele>154.5</ele>
      </trkpt>
      <trkpt lat="45.33098" lon="-72.61143">
        <ele>155.2</ele>
      </trkpt>
      <trkpt lat="45.33063" lon="-72.61067">
        <ele>156.9</ele>
      </trkpt>
      <trkpt lat="45.3303" lon="-72.61009">
        <ele>158</ele>
      </trkpt>
      <trkpt lat="45.32995" lon="-72.60956">
        <ele>158.9</ele>
      </trkpt>
      <trkpt lat="45.329446" lon="-72.608843">
        <ele>159.1</ele>
      </trkpt>
      <trkpt lat="45.328943" lon="-72.608126">
        <ele>159.7</ele>
      </trkpt>
      <trkpt lat="45.32844" lon="-72.60741">
        <ele>160.9</ele>
      </trkpt>
      <trkpt lat="45.32801" lon="-72.6066">
        <ele>161.6</ele>
      </trkpt>
      <trkpt lat="45.32758" lon="-72.60548">
        <ele>162.6</ele>
      </trkpt>
      <trkpt lat="45.327221" lon="-72.604428">
        <ele>164.3</ele>
      </trkpt>
      <trkpt lat="45.326863" lon="-72.603376">
        <ele>165.3</ele>
      </trkpt>
      <trkpt lat="45.326505" lon="-72.602324">
        <ele>166.7</ele>
      </trkpt>
      <trkpt lat="45.326146" lon="-72.601273">
        <ele>167.6</ele>
      </trkpt>
      <trkpt lat="45.325788" lon="-72.600221">
        <ele>168.6</ele>
      </trkpt>
      <trkpt lat="45.32543" lon="-72.59917">
        <ele>169.6</ele>
      </trkpt>
      <trkpt lat="45.32507" lon="-72.598123">
        <ele>170.3</ele>
      </trkpt>
      <trkpt lat="45.32471" lon="-72.597076">
        <ele>171.3</ele>
      </trkpt>
      <trkpt lat="45.32435" lon="-72.59603">
        <ele>172.3</ele>
      </trkpt>
      <trkpt lat="45.3241" lon="-72.59519">
        <ele>173.5</ele>
      </trkpt>
      <trkpt lat="45.32396" lon="-72.59456">
        <ele>174</ele>
      </trkpt>
      <trkpt lat="45.3238" lon="-72.59334">
        <ele>176.1</ele>
      </trkpt>
      <trkpt lat="45.32299" lon="-72.593293">
        <ele>175.4</ele>
      </trkpt>
      <trkpt lat="45.32218" lon="-72.593246">
        <ele>172.3</ele>
      </trkpt>
      <trkpt lat="45.32137" lon="-72.5932">
        <ele>171.1</ele>
      </trkpt>
      <trkpt lat="45.320656" lon="-72.593159">
        <ele>168.9</ele>
      </trkpt>
      <trkpt lat="45.319943" lon="-72.593119">
        <ele>164.8</ele>
      </trkpt>
      <trkpt lat="45.31923" lon="-72.59308">
        <ele>161.9</ele>
      </trkpt>
      <trkpt lat="45.31902" lon="-72.59308">
        <ele>161.8</ele>
      </trkpt>
      <trkpt lat="45.31882" lon="-72.59317">
        <ele>161.8</ele>
      </trkpt>
      <trkpt lat="45.31864" lon="-72.5933">
        <ele>162</ele>
      </trkpt>
      <trkpt lat="45.31847" lon="-72.59348">
        <ele>162</ele>
      </trkpt>
      <trkpt lat="45.31812" lon="-72.59404">
        <ele>161.5</ele>
      </trkpt>
      <trkpt lat="45.31777" lon="-72.5946">
        <ele>160.6</ele>
      </trkpt>
      <trkpt lat="45.31754" lon="-72.59489">
        <ele>160.2</ele>
      </trkpt>
      <trkpt lat="45.31736" lon="-72.59505">
        <ele>160.1</ele>
      </trkpt>
      <trkpt lat="45.31716" lon="-72.59509">
        <ele>159.8</ele>
      </trkpt>
      <trkpt lat="45.31705" lon="-72.59511">
        <ele>159.8</ele>
      </trkpt>
      <trkpt lat="45.31624" lon="-72.59512">
        <ele>160.8</ele>
      </trkpt>
      <trkpt lat="45.315363" lon="-72.59516">
        <ele>160.1</ele>
      </trkpt>
      <trkpt lat="45.314486" lon="-72.5952">
        <ele>159.8</ele>
      </trkpt>
      <trkpt lat="45.31361" lon="-72.59524">
        <ele>162.1</ele>
      </trkpt>
      <trkpt lat="45.312894" lon="-72.595255">
        <ele>161.6</ele>
      </trkpt>
      <trkpt lat="45.31218" lon="-72.59527">
        <ele>159.3</ele>
      </trkpt>
      <trkpt lat="45.311553" lon="-72.595303">
        <ele>158.2</ele>
      </trkpt>
      <trkpt lat="45.310926" lon="-72.595336">
        <ele>156.9</ele>
      </trkpt>
      <trkpt lat="45.3103" lon="-72.59537">
        <ele>156.1</ele>
      </trkpt>
      <trkpt lat="45.309545" lon="-72.595402">
        <ele>156.4</ele>
      </trkpt>
      <trkpt lat="45.30879" lon="-72.595435">
        <ele>156</ele>
      </trkpt>
      <trkpt lat="45.308035" lon="-72.595467">
        <ele>154.5</ele>
      </trkpt>
      <trkpt lat="45.30728" lon="-72.5955">
        <ele>156.1</ele>
      </trkpt>
      <trkpt lat="45.307281" lon="-72.594248">
        <ele>158.9</ele>
      </trkpt>
      <trkpt lat="45.307283" lon="-72.592996">
        <ele>159.4</ele>
      </trkpt>
      <trkpt lat="45.307285" lon="-72.591745">
        <ele>159.6</ele>
      </trkpt>
      <trkpt lat="45.307286" lon="-72.590493">
        <ele>162.2</ele>
      </trkpt>
      <trkpt lat="45.307288" lon="-72.589241">
        <ele>167.5</ele>
      </trkpt>
      <trkpt lat="45.30729" lon="-72.58799">
        <ele>170.9</ele>
      </trkpt>
      <trkpt lat="45.307275" lon="-72.587179">
        <ele>172.9</ele>
      </trkpt>
      <trkpt lat="45.30726" lon="-72.58637">
        <ele>173.7</ele>
      </trkpt>
      <trkpt lat="45.307257" lon="-72.585154">
        <ele>172.5</ele>
      </trkpt>
      <trkpt lat="45.307255" lon="-72.583939">
        <ele>166.6</ele>
      </trkpt>
      <trkpt lat="45.307252" lon="-72.582724">
        <ele>164.2</ele>
      </trkpt>
      <trkpt lat="45.30725" lon="-72.58151">
        <ele>166.3</ele>
      </trkpt>
      <trkpt lat="45.307247" lon="-72.580462">
        <ele>168.9</ele>
      </trkpt>
      <trkpt lat="45.307245" lon="-72.579414">
        <ele>168.7</ele>
      </trkpt>
      <trkpt lat="45.307242" lon="-72.578367">
        <ele>168.7</ele>
      </trkpt>
      <trkpt lat="45.30724" lon="-72.57732">
        <ele>169.7</ele>
      </trkpt>
      <trkpt lat="45.307251" lon="-72.5762">
        <ele>171.6</ele>
      </trkpt>
      <trkpt lat="45.307263" lon="-72.57508">
        <ele>174.6</ele>
      </trkpt>
      <trkpt lat="45.307275" lon="-72.57396">
        <ele>181.8</ele>
      </trkpt>
      <trkpt lat="45.307286" lon="-72.57284">
        <ele>186.1</ele>
      </trkpt>
      <trkpt lat="45.307298" lon="-72.57172">
        <ele>193.1</ele>
      </trkpt>
      <trkpt lat="45.30731" lon="-72.5706">
        <ele>193.3</ele>
      </trkpt>
      <trkpt lat="45.30734" lon="-72.57015">
        <ele>193.5</ele>
      </trkpt>
      <trkpt lat="45.30742" lon="-72.56963">
        <ele>195.1</ele>
      </trkpt>
      <trkpt lat="45.30756" lon="-72.56896">
        <ele>198.4</ele>
      </trkpt>
      <trkpt lat="45.3076" lon="-72.56855">
        <ele>201.2</ele>
      </trkpt>
      <trkpt lat="45.30758" lon="-72.56814">
        <ele>206</ele>
      </trkpt>
      <trkpt lat="45.30744" lon="-72.566974">
        <ele>207.8</ele>
      </trkpt>
      <trkpt lat="45.3073" lon="-72.56581">
        <ele>208</ele>
      </trkpt>
      <trkpt lat="45.30727" lon="-72.56505">
        <ele>208.9</ele>
      </trkpt>
      <trkpt lat="45.307267" lon="-72.564089">
        <ele>210.4</ele>
      </trkpt>
      <trkpt lat="45.307265" lon="-72.563129">
        <ele>213.1</ele>
      </trkpt>
      <trkpt lat="45.307262" lon="-72.562169">
        <ele>218.4</ele>
      </trkpt>
      <trkpt lat="45.30726" lon="-72.56121">
        <ele>221.6</ele>
      </trkpt>
      <trkpt lat="45.307266" lon="-72.560136">
        <ele>224.2</ele>
      </trkpt>
      <trkpt lat="45.307273" lon="-72.559063">
        <ele>226.7</ele>
      </trkpt>
      <trkpt lat="45.30728" lon="-72.55799">
        <ele>226.9</ele>
      </trkpt>
      <trkpt lat="45.307286" lon="-72.556916">
        <ele>226.2</ele>
      </trkpt>
      <trkpt lat="45.307293" lon="-72.555843">
        <ele>226</ele>
      </trkpt>
      <trkpt lat="45.3073" lon="-72.55477">
        <ele>225.9</ele>
      </trkpt>
      <trkpt lat="45.307316" lon="-72.553546">
        <ele>226</ele>
      </trkpt>
      <trkpt lat="45.307333" lon="-72.552323">
        <ele>226.7</ele>
      </trkpt>
      <trkpt lat="45.30735" lon="-72.5511">
        <ele>227.5</ele>
      </trkpt>
      <trkpt lat="45.307355" lon="-72.549823">
        <ele>227.4</ele>
      </trkpt>
      <trkpt lat="45.30736" lon="-72.548546">
        <ele>228.9</ele>
      </trkpt>
      <trkpt lat="45.307365" lon="-72.54727">
        <ele>228.8</ele>
      </trkpt>
      <trkpt lat="45.30737" lon="-72.545993">
        <ele>229.2</ele>
      </trkpt>
      <trkpt lat="45.307375" lon="-72.544716">
        <ele>229.1</ele>
      </trkpt>
      <trkpt lat="45.30738" lon="-72.54344">
        <ele>230.4</ele>
      </trkpt>
      <trkpt lat="45.307388" lon="-72.542255">
        <ele>230.7</ele>
      </trkpt>
      <trkpt lat="45.307397" lon="-72.541071">
        <ele>231.6</ele>
      </trkpt>
      <trkpt lat="45.307405" lon="-72.539887">
        <ele>231.1</ele>
      </trkpt>
      <trkpt lat="45.307414" lon="-72.538702">
        <ele>228.7</ele>
      </trkpt>
      <trkpt lat="45.307422" lon="-72.537518">
        <ele>226.8</ele>
      </trkpt>
      <trkpt lat="45.307431" lon="-72.536334">
        <ele>228.1</ele>
      </trkpt>
      <trkpt lat="45.30744" lon="-72.53515">
        <ele>230.4</ele>
      </trkpt>
      <trkpt lat="45.307442" lon="-72.53405">
        <ele>228.3</ele>
      </trkpt>
      <trkpt lat="45.307445" lon="-72.53295">
        <ele>227</ele>
      </trkpt>
      <trkpt lat="45.307448" lon="-72.53185">
        <ele>227.3</ele>
      </trkpt>
      <trkpt lat="45.307451" lon="-72.53075">
        <ele>226.4</ele>
      </trkpt>
      <trkpt lat="45.307454" lon="-72.52965">
        <ele>224.3</ele>
      </trkpt>
      <trkpt lat="45.307457" lon="-72.52855">
        <ele>225</ele>
      </trkpt>
      <trkpt lat="45.30746" lon="-72.52745">
        <ele>223.4</ele>
      </trkpt>
      <trkpt lat="45.30749" lon="-72.527">
        <ele>220.9</ele>
      </trkpt>
      <trkpt lat="45.30758" lon="-72.52656">
        <ele>217</ele>
      </trkpt>
      <trkpt lat="45.307785" lon="-72.525755">
        <ele>210.8</ele>
      </trkpt>
      <trkpt lat="45.30799" lon="-72.52495">
        <ele>207.8</ele>
      </trkpt>
      <trkpt lat="45.308095" lon="-72.524165">
        <ele>209.8</ele>
      </trkpt>
      <trkpt lat="45.3082" lon="-72.52338">
        <ele>213.5</ele>
      </trkpt>
      <trkpt lat="45.3083" lon="-72.52284">
        <ele>214.6</ele>
      </trkpt>
      <trkpt lat="45.30853" lon="-72.521797">
        <ele>217.5</ele>
      </trkpt>
      <trkpt lat="45.30876" lon="-72.520755">
        <ele>220.5</ele>
      </trkpt>
      <trkpt lat="45.30899" lon="-72.519712">
        <ele>223.6</ele>
      </trkpt>
      <trkpt lat="45.30922" lon="-72.51867">
        <ele>226.2</ele>
      </trkpt>
      <trkpt lat="45.3094" lon="-72.51742">
        <ele>226.8</ele>
      </trkpt>
      <trkpt lat="45.30947" lon="-72.51658">
        <ele>228.2</ele>
      </trkpt>
      <trkpt lat="45.30954" lon="-72.51574">
        <ele>229.5</ele>
      </trkpt>
      <trkpt lat="45.30954" lon="-72.51575">
        <ele>229.4</ele>
      </trkpt>
      <trkpt lat="45.309595" lon="-72.51488">
        <ele>230.3</ele>
      </trkpt>
      <trkpt lat="45.30965" lon="-72.51401">
        <ele>230.7</ele>
      </trkpt>
      <trkpt lat="45.30962" lon="-72.513164">
        <ele>227.7</ele>
      </trkpt>
      <trkpt lat="45.30959" lon="-72.51232">
        <ele>226.2</ele>
      </trkpt>
      <trkpt lat="45.30951" lon="-72.51172">
        <ele>227</ele>
      </trkpt>
      <trkpt lat="45.30924" lon="-72.51075">
        <ele>230.8</ele>
      </trkpt>
      <trkpt lat="45.30903" lon="-72.51025">
        <ele>228</ele>
      </trkpt>
      <trkpt lat="45.30863" lon="-72.509369">
        <ele>223.6</ele>
      </trkpt>
      <trkpt lat="45.30823" lon="-72.508489">
        <ele>223.3</ele>
      </trkpt>
      <trkpt lat="45.30783" lon="-72.50761">
        <ele>226.5</ele>
      </trkpt>
      <trkpt lat="45.3077" lon="-72.50722">
        <ele>227.3</ele>
      </trkpt>
      <trkpt lat="45.30757" lon="-72.50663">
        <ele>226.8</ele>
      </trkpt>
      <trkpt lat="45.30752" lon="-72.50596">
        <ele>224.5</ele>
      </trkpt>
      <trkpt lat="45.307545" lon="-72.504755">
        <ele>223</ele>
      </trkpt>
      <trkpt lat="45.30757" lon="-72.50355">
        <ele>223.9</ele>
      </trkpt>
      <trkpt lat="45.30757" lon="-72.50253">
        <ele>223.9</ele>
      </trkpt>
      <trkpt lat="45.30757" lon="-72.50151">
        <ele>224</ele>
      </trkpt>
      <trkpt lat="45.30757" lon="-72.50049">
        <ele>221.4</ele>
      </trkpt>
      <trkpt lat="45.30757" lon="-72.50051">
        <ele>221.4</ele>
      </trkpt>
      <trkpt lat="45.30757" lon="-72.499825">
        <ele>220.1</ele>
      </trkpt>
      <trkpt lat="45.30757" lon="-72.49914">
        <ele>221</ele>
      </trkpt>
      <trkpt lat="45.3082" lon="-72.49932">
        <ele>222.1</ele>
      </trkpt>
      <trkpt lat="45.30848" lon="-72.49933">
        <ele>222.9</ele>
      </trkpt>
      <trkpt lat="45.30883" lon="-72.4993">
        <ele>223.9</ele>
      </trkpt>
      <trkpt lat="45.30868" lon="-72.49864">
        <ele>224.7</ele>
      </trkpt>
      <trkpt lat="45.308346" lon="-72.497509">
        <ele>226.2</ele>
      </trkpt>
      <trkpt lat="45.308013" lon="-72.496379">
        <ele>229.8</ele>
      </trkpt>
      <trkpt lat="45.30768" lon="-72.49525">
        <ele>235.6</ele>
      </trkpt>
      <trkpt lat="45.30758" lon="-72.49463">
        <ele>241.6</ele>
      </trkpt>
      <trkpt lat="45.30756" lon="-72.49392">
        <ele>244.3</ele>
      </trkpt>
      <trkpt lat="45.307553" lon="-72.492736">
        <ele>249.6</ele>
      </trkpt>
      <trkpt lat="45.307546" lon="-72.491553">
        <ele>253.4</ele>
      </trkpt>
      <trkpt lat="45.30754" lon="-72.49037">
        <ele>258</ele>
      </trkpt>
      <trkpt lat="45.30752" lon="-72.48957">
        <ele>262</ele>
      </trkpt>
      <trkpt lat="45.30745" lon="-72.48905">
        <ele>263.3</ele>
      </trkpt>
      <trkpt lat="45.30741" lon="-72.48882">
        <ele>263.7</ele>
      </trkpt>
      <trkpt lat="45.307195" lon="-72.487989">
        <ele>266.4</ele>
      </trkpt>
      <trkpt lat="45.30698" lon="-72.48716">
        <ele>267.8</ele>
      </trkpt>
      <trkpt lat="45.30689" lon="-72.48707">
        <ele>267.9</ele>
      </trkpt>
      <trkpt lat="45.30678" lon="-72.48706">
        <ele>268</ele>
      </trkpt>
      <trkpt lat="45.305945" lon="-72.487415">
        <ele>265</ele>
      </trkpt>
      <trkpt lat="45.30511" lon="-72.48777">
        <ele>261.9</ele>
      </trkpt>
      <trkpt lat="45.30465" lon="-72.487935">
        <ele>261.1</ele>
      </trkpt>
      <trkpt lat="45.30419" lon="-72.4881">
        <ele>259.2</ele>
      </trkpt>
      <trkpt lat="45.30392" lon="-72.48822">
        <ele>257.9</ele>
      </trkpt>
      <trkpt lat="45.30392" lon="-72.48823">
        <ele>257.9</ele>
      </trkpt>
      <trkpt lat="45.30321" lon="-72.4885">
        <ele>254.3</ele>
      </trkpt>
      <trkpt lat="45.30307" lon="-72.48858">
        <ele>253.2</ele>
      </trkpt>
      <trkpt lat="45.3028" lon="-72.4888">
        <ele>251.4</ele>
      </trkpt>
      <trkpt lat="45.30209" lon="-72.489506">
        <ele>248.1</ele>
      </trkpt>
      <trkpt lat="45.30138" lon="-72.490213">
        <ele>246</ele>
      </trkpt>
      <trkpt lat="45.30067" lon="-72.49092">
        <ele>243.2</ele>
      </trkpt>
      <trkpt lat="45.299975" lon="-72.491585">
        <ele>239.3</ele>
      </trkpt>
      <trkpt lat="45.29928" lon="-72.49225">
        <ele>235.5</ele>
      </trkpt>
      <trkpt lat="45.298915" lon="-72.492655">
        <ele>233.4</ele>
      </trkpt>
      <trkpt lat="45.29855" lon="-72.49306">
        <ele>230.5</ele>
      </trkpt>
      <trkpt lat="45.2981" lon="-72.49351">
        <ele>229.3</ele>
      </trkpt>
      <trkpt lat="45.297715" lon="-72.49393">
        <ele>225.9</ele>
      </trkpt>
      <trkpt lat="45.29733" lon="-72.49435">
        <ele>224.1</ele>
      </trkpt>
      <trkpt lat="45.29706" lon="-72.49455">
        <ele>224.2</ele>
      </trkpt>
      <trkpt lat="45.29703" lon="-72.49444">
        <ele>224.2</ele>
      </trkpt>
      <trkpt lat="45.29698" lon="-72.493774">
        <ele>226.8</ele>
      </trkpt>
      <trkpt lat="45.29693" lon="-72.49311">
        <ele>230.6</ele>
      </trkpt>
      <trkpt lat="45.29691" lon="-72.49262">
        <ele>231.7</ele>
      </trkpt>
      <trkpt lat="45.296916" lon="-72.491473">
        <ele>234.9</ele>
      </trkpt>
      <trkpt lat="45.296923" lon="-72.490326">
        <ele>239.8</ele>
      </trkpt>
      <trkpt lat="45.29693" lon="-72.48918">
        <ele>243.3</ele>
      </trkpt>
      <trkpt lat="45.296932" lon="-72.488008">
        <ele>243.4</ele>
      </trkpt>
      <trkpt lat="45.296934" lon="-72.486837">
        <ele>244.2</ele>
      </trkpt>
      <trkpt lat="45.296936" lon="-72.485666">
        <ele>244.3</ele>
      </trkpt>
      <trkpt lat="45.296939" lon="-72.484495">
        <ele>244.7</ele>
      </trkpt>
      <trkpt lat="45.296941" lon="-72.483324">
        <ele>244.7</ele>
      </trkpt>
      <trkpt lat="45.296943" lon="-72.482153">
        <ele>246</ele>
      </trkpt>
      <trkpt lat="45.296945" lon="-72.480982">
        <ele>248.3</ele>
      </trkpt>
      <trkpt lat="45.296947" lon="-72.479811">
        <ele>248.8</ele>
      </trkpt>
      <trkpt lat="45.29695" lon="-72.47864">
        <ele>247.7</ele>
      </trkpt>
      <trkpt lat="45.29696" lon="-72.47835">
        <ele>247.8</ele>
      </trkpt>
      <trkpt lat="45.297223" lon="-72.477333">
        <ele>248.8</ele>
      </trkpt>
      <trkpt lat="45.297486" lon="-72.476316">
        <ele>248.9</ele>
      </trkpt>
      <trkpt lat="45.29775" lon="-72.4753">
        <ele>249.5</ele>
      </trkpt>
      <trkpt lat="45.298013" lon="-72.47435">
        <ele>252.4</ele>
      </trkpt>
      <trkpt lat="45.298276" lon="-72.4734">
        <ele>254.4</ele>
      </trkpt>
      <trkpt lat="45.29854" lon="-72.47245">
        <ele>255.7</ele>
      </trkpt>
      <trkpt lat="45.297955" lon="-72.471854">
        <ele>254.9</ele>
      </trkpt>
      <trkpt lat="45.29737" lon="-72.47126">
        <ele>254.5</ele>
      </trkpt>
      <trkpt lat="45.296785" lon="-72.470629">
        <ele>253.5</ele>
      </trkpt>
      <trkpt lat="45.2962" lon="-72.47">
        <ele>252.2</ele>
      </trkpt>
      <trkpt lat="45.295492" lon="-72.469292">
        <ele>251</ele>
      </trkpt>
      <trkpt lat="45.294785" lon="-72.468584">
        <ele>249.7</ele>
      </trkpt>
      <trkpt lat="45.294077" lon="-72.467877">
        <ele>248.7</ele>
      </trkpt>
      <trkpt lat="45.29337" lon="-72.46717">
        <ele>246.7</ele>
      </trkpt>
      <trkpt lat="45.29268" lon="-72.466476">
        <ele>243.3</ele>
      </trkpt>
      <trkpt lat="45.29199" lon="-72.465783">
        <ele>239.7</ele>
      </trkpt>
      <trkpt lat="45.2913" lon="-72.46509">
        <ele>236.6</ele>
      </trkpt>
      <trkpt lat="45.29062" lon="-72.464479">
        <ele>234.8</ele>
      </trkpt>
      <trkpt lat="45.28994" lon="-72.46387">
        <ele>232.3</ele>
      </trkpt>
      <trkpt lat="45.28933" lon="-72.463349">
        <ele>228.2</ele>
      </trkpt>
      <trkpt lat="45.28872" lon="-72.462829">
        <ele>225.5</ele>
      </trkpt>
      <trkpt lat="45.28811" lon="-72.46231">
        <ele>223.2</ele>
      </trkpt>
      <trkpt lat="45.28746" lon="-72.461764">
        <ele>218.4</ele>
      </trkpt>
      <trkpt lat="45.28681" lon="-72.461219">
        <ele>217.8</ele>
      </trkpt>
      <trkpt lat="45.28616" lon="-72.460674">
        <ele>217.9</ele>
      </trkpt>
      <trkpt lat="45.28551" lon="-72.46013">
        <ele>215.8</ele>
      </trkpt>
      <trkpt lat="45.28487" lon="-72.45965">
        <ele>215.5</ele>
      </trkpt>
      <trkpt lat="45.284086" lon="-72.459079">
        <ele>215.3</ele>
      </trkpt>
      <trkpt lat="45.283303" lon="-72.458509">
        <ele>215.2</ele>
      </trkpt>
      <trkpt lat="45.28252" lon="-72.45794">
        <ele>216.7</ele>
      </trkpt>
      <trkpt lat="45.28246" lon="-72.45801">
        <ele>216.9</ele>
      </trkpt>
      <trkpt lat="45.28222" lon="-72.45809">
        <ele>217.8</ele>
      </trkpt>
      <trkpt lat="45.28177" lon="-72.45826">
        <ele>218.3</ele>
      </trkpt>
      <trkpt lat="45.28094" lon="-72.45863">
        <ele>219.4</ele>
      </trkpt>
      <trkpt lat="45.28011" lon="-72.459">
        <ele>221.1</ele>
      </trkpt>
      <trkpt lat="45.279346" lon="-72.45931">
        <ele>226.4</ele>
      </trkpt>
      <trkpt lat="45.278583" lon="-72.45962">
        <ele>227.8</ele>
      </trkpt>
      <trkpt lat="45.27782" lon="-72.45993">
        <ele>230.2</ele>
      </trkpt>
      <trkpt lat="45.27705" lon="-72.460232">
        <ele>233.4</ele>
      </trkpt>
      <trkpt lat="45.27628" lon="-72.460535">
        <ele>233.3</ele>
      </trkpt>
      <trkpt lat="45.27551" lon="-72.460837">
        <ele>232.9</ele>
      </trkpt>
      <trkpt lat="45.27474" lon="-72.46114">
        <ele>233.5</ele>
      </trkpt>
      <trkpt lat="45.274225" lon="-72.46135">
        <ele>233.7</ele>
      </trkpt>
      <trkpt lat="45.27371" lon="-72.46156">
        <ele>233.5</ele>
      </trkpt>
      <trkpt lat="45.27314" lon="-72.46181">
        <ele>232.5</ele>
      </trkpt>
      <trkpt lat="45.272325" lon="-72.462146">
        <ele>232.1</ele>
      </trkpt>
      <trkpt lat="45.27151" lon="-72.462483">
        <ele>231.7</ele>
      </trkpt>
      <trkpt lat="45.270695" lon="-72.46282">
        <ele>229.4</ele>
      </trkpt>
      <trkpt lat="45.26988" lon="-72.463156">
        <ele>230</ele>
      </trkpt>
      <trkpt lat="45.269065" lon="-72.463493">
        <ele>227.4</ele>
      </trkpt>
      <trkpt lat="45.26825" lon="-72.46383">
        <ele>226.7</ele>
      </trkpt>
      <trkpt lat="45.26823" lon="-72.46383">
        <ele>226.8</ele>
      </trkpt>
      <trkpt lat="45.26758" lon="-72.464085">
        <ele>232.6</ele>
      </trkpt>
      <trkpt lat="45.26693" lon="-72.46434">
        <ele>235.2</ele>
      </trkpt>
      <trkpt lat="45.266205" lon="-72.464575">
        <ele>236.9</ele>
      </trkpt>
      <trkpt lat="45.26548" lon="-72.46481">
        <ele>237.3</ele>
      </trkpt>
      <trkpt lat="45.264755" lon="-72.465045">
        <ele>237.6</ele>
      </trkpt>
      <trkpt lat="45.26403" lon="-72.46528">
        <ele>237.9</ele>
      </trkpt>
      <trkpt lat="45.26377" lon="-72.46544">
        <ele>236.3</ele>
      </trkpt>
      <trkpt lat="45.263235" lon="-72.46589">
        <ele>232.1</ele>
      </trkpt>
      <trkpt lat="45.2627" lon="-72.46634">
        <ele>229.3</ele>
      </trkpt>
      <trkpt lat="45.26232" lon="-72.46655">
        <ele>228.6</ele>
      </trkpt>
      <trkpt lat="45.26192" lon="-72.46669">
        <ele>229.6</ele>
      </trkpt>
      <trkpt lat="45.26112" lon="-72.46687">
        <ele>225.8</ele>
      </trkpt>
      <trkpt lat="45.260519" lon="-72.466965">
        <ele>224.7</ele>
      </trkpt>
      <trkpt lat="45.25992" lon="-72.46706">
        <ele>223</ele>
      </trkpt>
      <trkpt lat="45.25945" lon="-72.46712">
        <ele>222.1</ele>
      </trkpt>
      <trkpt lat="45.25898" lon="-72.46718">
        <ele>220.7</ele>
      </trkpt>
      <trkpt lat="45.25824" lon="-72.46724">
        <ele>217.4</ele>
      </trkpt>
      <trkpt lat="45.25781" lon="-72.46723">
        <ele>217.2</ele>
      </trkpt>
      <trkpt lat="45.257199" lon="-72.467134">
        <ele>219.6</ele>
      </trkpt>
      <trkpt lat="45.25659" lon="-72.46704">
        <ele>220.6</ele>
      </trkpt>
      <trkpt lat="45.25638" lon="-72.46705">
        <ele>220.6</ele>
      </trkpt>
      <trkpt lat="45.25623" lon="-72.4671">
        <ele>220.5</ele>
      </trkpt>
      <trkpt lat="45.25606" lon="-72.46722">
        <ele>220.5</ele>
      </trkpt>
      <trkpt lat="45.25588" lon="-72.46745">
        <ele>220.3</ele>
      </trkpt>
      <trkpt lat="45.25575" lon="-72.46771">
        <ele>220.1</ele>
      </trkpt>
      <trkpt lat="45.25553" lon="-72.46825">
        <ele>219.2</ele>
      </trkpt>
      <trkpt lat="45.255145" lon="-72.469115">
        <ele>217.8</ele>
      </trkpt>
      <trkpt lat="45.25476" lon="-72.46998">
        <ele>217.2</ele>
      </trkpt>
      <trkpt lat="45.254375" lon="-72.470845">
        <ele>216.4</ele>
      </trkpt>
      <trkpt lat="45.25399" lon="-72.47171">
        <ele>215</ele>
      </trkpt>
      <trkpt lat="45.25356" lon="-72.4726">
        <ele>213.2</ele>
      </trkpt>
      <trkpt lat="45.25339" lon="-72.47314">
        <ele>211.8</ele>
      </trkpt>
      <trkpt lat="45.25326" lon="-72.47372">
        <ele>211.1</ele>
      </trkpt>
      <trkpt lat="45.25319" lon="-72.47412">
        <ele>210.9</ele>
      </trkpt>
      <trkpt lat="45.253145" lon="-72.47477">
        <ele>210.8</ele>
      </trkpt>
      <trkpt lat="45.2531" lon="-72.47542">
        <ele>210.4</ele>
      </trkpt>
      <trkpt lat="45.25311" lon="-72.47659">
        <ele>209.1</ele>
      </trkpt>
      <trkpt lat="45.25308" lon="-72.47724">
        <ele>208</ele>
      </trkpt>
      <trkpt lat="45.25305" lon="-72.47789">
        <ele>207.5</ele>
      </trkpt>
      <trkpt lat="45.25292" lon="-72.47869">
        <ele>207.1</ele>
      </trkpt>
      <trkpt lat="45.25271" lon="-72.479515">
        <ele>206.6</ele>
      </trkpt>
      <trkpt lat="45.2525" lon="-72.48034">
        <ele>204.9</ele>
      </trkpt>
      <trkpt lat="45.25232" lon="-72.48142">
        <ele>203.1</ele>
      </trkpt>
      <trkpt lat="45.25235" lon="-72.482629">
        <ele>201.8</ele>
      </trkpt>
      <trkpt lat="45.25238" lon="-72.48384">
        <ele>201.4</ele>
      </trkpt>
      <trkpt lat="45.25232" lon="-72.48411">
        <ele>201.3</ele>
      </trkpt>
      <trkpt lat="45.25225" lon="-72.48428">
        <ele>201.4</ele>
      </trkpt>
      <trkpt lat="45.25171" lon="-72.48524">
        <ele>200.5</ele>
      </trkpt>
      <trkpt lat="45.25138" lon="-72.48591">
        <ele>200.7</ele>
      </trkpt>
      <trkpt lat="45.25068" lon="-72.48581">
        <ele>200.4</ele>
      </trkpt>
      <trkpt lat="45.249906" lon="-72.485721">
        <ele>200.6</ele>
      </trkpt>
      <trkpt lat="45.249133" lon="-72.485633">
        <ele>202.4</ele>
      </trkpt>
      <trkpt lat="45.24836" lon="-72.485544">
        <ele>203.2</ele>
      </trkpt>
      <trkpt lat="45.247586" lon="-72.485456">
        <ele>203.6</ele>
      </trkpt>
      <trkpt lat="45.246813" lon="-72.485368">
        <ele>204</ele>
      </trkpt>
      <trkpt lat="45.24604" lon="-72.48528">
        <ele>205.2</ele>
      </trkpt>
      <trkpt lat="45.24562" lon="-72.4853">
        <ele>205.5</ele>
      </trkpt>
      <trkpt lat="45.2455" lon="-72.48533">
        <ele>205.4</ele>
      </trkpt>
      <trkpt lat="45.24477" lon="-72.4855">
        <ele>205.3</ele>
      </trkpt>
      <trkpt lat="45.24448" lon="-72.48563">
        <ele>205.3</ele>
      </trkpt>
      <trkpt lat="45.244055" lon="-72.48588">
        <ele>205</ele>
      </trkpt>
      <trkpt lat="45.24363" lon="-72.48613">
        <ele>204.5</ele>
      </trkpt>
      <trkpt lat="45.24328" lon="-72.48639">
        <ele>204.4</ele>
      </trkpt>
      <trkpt lat="45.24286" lon="-72.48679">
        <ele>204</ele>
      </trkpt>
      <trkpt lat="45.24246" lon="-72.4872">
        <ele>204.3</ele>
      </trkpt>
      <trkpt lat="45.24237" lon="-72.48738">
        <ele>204.1</ele>
      </trkpt>
      <trkpt lat="45.24186" lon="-72.48809">
        <ele>204</ele>
      </trkpt>
      <trkpt lat="45.24185" lon="-72.48809">
        <ele>204</ele>
      </trkpt>
      <trkpt lat="45.24131" lon="-72.48885">
        <ele>203.3</ele>
      </trkpt>
      <trkpt lat="45.24074" lon="-72.48968">
        <ele>203.4</ele>
      </trkpt>
      <trkpt lat="45.24017" lon="-72.49051">
        <ele>203.8</ele>
      </trkpt>
      <trkpt lat="45.23993" lon="-72.49082">
        <ele>203.6</ele>
      </trkpt>
      <trkpt lat="45.23963" lon="-72.49109">
        <ele>203.4</ele>
      </trkpt>
      <trkpt lat="45.238863" lon="-72.49155">
        <ele>203.5</ele>
      </trkpt>
      <trkpt lat="45.238096" lon="-72.49201">
        <ele>203.6</ele>
      </trkpt>
      <trkpt lat="45.23733" lon="-72.49247">
        <ele>204.7</ele>
      </trkpt>
      <trkpt lat="45.23667" lon="-72.492933">
        <ele>204.9</ele>
      </trkpt>
      <trkpt lat="45.23601" lon="-72.493396">
        <ele>204.8</ele>
      </trkpt>
      <trkpt lat="45.23535" lon="-72.49386">
        <ele>204.5</ele>
      </trkpt>
      <trkpt lat="45.234592" lon="-72.494435">
        <ele>204</ele>
      </trkpt>
      <trkpt lat="45.233835" lon="-72.49501">
        <ele>204.3</ele>
      </trkpt>
      <trkpt lat="45.233077" lon="-72.495585">
        <ele>204.2</ele>
      </trkpt>
      <trkpt lat="45.23232" lon="-72.49616">
        <ele>204.1</ele>
      </trkpt>
      <trkpt lat="45.23183" lon="-72.49651">
        <ele>202.9</ele>
      </trkpt>
      <trkpt lat="45.23141" lon="-72.49675">
        <ele>201.3</ele>
      </trkpt>
      <trkpt lat="45.2314" lon="-72.49675">
        <ele>201.3</ele>
      </trkpt>
      <trkpt lat="45.23114" lon="-72.49691">
        <ele>201.9</ele>
      </trkpt>
      <trkpt lat="45.230415" lon="-72.49729">
        <ele>201.8</ele>
      </trkpt>
      <trkpt lat="45.22969" lon="-72.49767">
        <ele>201.9</ele>
      </trkpt>
      <trkpt lat="45.22918" lon="-72.49798">
        <ele>201.5</ele>
      </trkpt>
      <trkpt lat="45.2289" lon="-72.49822">
        <ele>200.6</ele>
      </trkpt>
      <trkpt lat="45.22874" lon="-72.49843">
        <ele>201.1</ele>
      </trkpt>
      <trkpt lat="45.22843" lon="-72.49887">
        <ele>201.3</ele>
      </trkpt>
      <trkpt lat="45.227836" lon="-72.499753">
        <ele>201.8</ele>
      </trkpt>
      <trkpt lat="45.227243" lon="-72.500636">
        <ele>201.6</ele>
      </trkpt>
      <trkpt lat="45.22665" lon="-72.50152">
        <ele>201.8</ele>
      </trkpt>
      <trkpt lat="45.22607" lon="-72.50232">
        <ele>202.2</ele>
      </trkpt>
      <trkpt lat="45.22588" lon="-72.50264">
        <ele>202.1</ele>
      </trkpt>
      <trkpt lat="45.22575" lon="-72.50297">
        <ele>202.3</ele>
      </trkpt>
      <trkpt lat="45.22579" lon="-72.50318">
        <ele>202.5</ele>
      </trkpt>
      <trkpt lat="45.22579" lon="-72.50337">
        <ele>202.7</ele>
      </trkpt>
      <trkpt lat="45.22545" lon="-72.5044">
        <ele>202.4</ele>
      </trkpt>
      <trkpt lat="45.22541" lon="-72.5047">
        <ele>202.2</ele>
      </trkpt>
      <trkpt lat="45.22539" lon="-72.50511">
        <ele>202</ele>
      </trkpt>
      <trkpt lat="45.2254" lon="-72.50551">
        <ele>202</ele>
      </trkpt>
      <trkpt lat="45.22547" lon="-72.50619">
        <ele>202.1</ele>
      </trkpt>
      <trkpt lat="45.22551" lon="-72.50701">
        <ele>202.2</ele>
      </trkpt>
      <trkpt lat="45.22555" lon="-72.507764">
        <ele>202.3</ele>
      </trkpt>
      <trkpt lat="45.22559" lon="-72.50852">
        <ele>202.3</ele>
      </trkpt>
      <trkpt lat="45.22558" lon="-72.50927">
        <ele>202.1</ele>
      </trkpt>
      <trkpt lat="45.22545" lon="-72.51048">
        <ele>202.4</ele>
      </trkpt>
      <trkpt lat="45.22535" lon="-72.51097">
        <ele>202.2</ele>
      </trkpt>
      <trkpt lat="45.225" lon="-72.51191">
        <ele>202.8</ele>
      </trkpt>
      <trkpt lat="45.22462" lon="-72.51262">
        <ele>204.1</ele>
      </trkpt>
      <trkpt lat="45.22411" lon="-72.5134">
        <ele>205.8</ele>
      </trkpt>
      <trkpt lat="45.2236" lon="-72.51418">
        <ele>206.7</ele>
      </trkpt>
      <trkpt lat="45.22309" lon="-72.51496">
        <ele>207.5</ele>
      </trkpt>
      <trkpt lat="45.22308" lon="-72.51496">
        <ele>207.5</ele>
      </trkpt>
      <trkpt lat="45.222485" lon="-72.51587">
        <ele>208.5</ele>
      </trkpt>
      <trkpt lat="45.22189" lon="-72.51678">
        <ele>208.9</ele>
      </trkpt>
      <trkpt lat="45.2219" lon="-72.51696">
        <ele>209</ele>
      </trkpt>
      <trkpt lat="45.221915" lon="-72.517859">
        <ele>209.2</ele>
      </trkpt>
      <trkpt lat="45.22193" lon="-72.51876">
        <ele>209.9</ele>
      </trkpt>
      <trkpt lat="45.22196" lon="-72.51894">
        <ele>209.8</ele>
      </trkpt>
      <trkpt lat="45.22202" lon="-72.51912">
        <ele>209.7</ele>
      </trkpt>
      <trkpt lat="45.22241" lon="-72.5201">
        <ele>208.5</ele>
      </trkpt>
      <trkpt lat="45.22265" lon="-72.52095">
        <ele>208.1</ele>
      </trkpt>
      <trkpt lat="45.22274" lon="-72.5214">
        <ele>207.9</ele>
      </trkpt>
      <trkpt lat="45.22278" lon="-72.52248">
        <ele>206.8</ele>
      </trkpt>
      <trkpt lat="45.22276" lon="-72.52292">
        <ele>206.1</ele>
      </trkpt>
      <trkpt lat="45.22267" lon="-72.52319">
        <ele>205.6</ele>
      </trkpt>
      <trkpt lat="45.22267" lon="-72.5232">
        <ele>205.6</ele>
      </trkpt>
      <trkpt lat="45.22245" lon="-72.52355">
        <ele>204.2</ele>
      </trkpt>
      <trkpt lat="45.22176" lon="-72.52429">
        <ele>201.9</ele>
      </trkpt>
      <trkpt lat="45.221345" lon="-72.5247">
        <ele>201.9</ele>
      </trkpt>
      <trkpt lat="45.22093" lon="-72.52511">
        <ele>202.7</ele>
      </trkpt>
      <trkpt lat="45.221246" lon="-72.526253">
        <ele>201.9</ele>
      </trkpt>
      <trkpt lat="45.221563" lon="-72.527396">
        <ele>201.9</ele>
      </trkpt>
      <trkpt lat="45.22188" lon="-72.52854">
        <ele>202.3</ele>
      </trkpt>
      <trkpt lat="45.22205" lon="-72.52914">
        <ele>202.7</ele>
      </trkpt>
      <trkpt lat="45.22218" lon="-72.52972">
        <ele>202.8</ele>
      </trkpt>
      <trkpt lat="45.22227" lon="-72.53042">
        <ele>202.8</ele>
      </trkpt>
      <trkpt lat="45.222296" lon="-72.531279">
        <ele>202.6</ele>
      </trkpt>
      <trkpt lat="45.222323" lon="-72.532139">
        <ele>202.4</ele>
      </trkpt>
      <trkpt lat="45.22235" lon="-72.533">
        <ele>202.1</ele>
      </trkpt>
      <trkpt lat="45.22231" lon="-72.53398">
        <ele>201.2</ele>
      </trkpt>
      <trkpt lat="45.22231" lon="-72.53486">
        <ele>199.6</ele>
      </trkpt>
      <trkpt lat="45.22234" lon="-72.53596">
        <ele>200.1</ele>
      </trkpt>
      <trkpt lat="45.22238" lon="-72.536823">
        <ele>205.4</ele>
      </trkpt>
      <trkpt lat="45.22242" lon="-72.537686">
        <ele>211</ele>
      </trkpt>
      <trkpt lat="45.22246" lon="-72.53855">
        <ele>212.3</ele>
      </trkpt>
      <trkpt lat="45.22263" lon="-72.53954">
        <ele>218.8</ele>
      </trkpt>
      <trkpt lat="45.22259" lon="-72.53977">
        <ele>219.7</ele>
      </trkpt>
      <trkpt lat="45.22248" lon="-72.54007">
        <ele>222.2</ele>
      </trkpt>
      <trkpt lat="45.22232" lon="-72.54042">
        <ele>224</ele>
      </trkpt>
      <trkpt lat="45.22203" lon="-72.54096">
        <ele>228.4</ele>
      </trkpt>
      <trkpt lat="45.22193" lon="-72.5411">
        <ele>231.1</ele>
      </trkpt>
      <trkpt lat="45.22159" lon="-72.54145">
        <ele>233.7</ele>
      </trkpt>
      <trkpt lat="45.22148" lon="-72.54159">
        <ele>237.6</ele>
      </trkpt>
      <trkpt lat="45.22141" lon="-72.54174">
        <ele>237.6</ele>
      </trkpt>
      <trkpt lat="45.22136" lon="-72.54209">
        <ele>240.8</ele>
      </trkpt>
      <trkpt lat="45.22139" lon="-72.5424">
        <ele>242.3</ele>
      </trkpt>
      <trkpt lat="45.22154" lon="-72.5428">
        <ele>244.6</ele>
      </trkpt>
      <trkpt lat="45.22198" lon="-72.543529">
        <ele>248.2</ele>
      </trkpt>
      <trkpt lat="45.22242" lon="-72.54426">
        <ele>252.8</ele>
      </trkpt>
      <trkpt lat="45.22258" lon="-72.54459">
        <ele>254.8</ele>
      </trkpt>
      <trkpt lat="45.2226" lon="-72.54465">
        <ele>254.8</ele>
      </trkpt>
      <trkpt lat="45.222623" lon="-72.545633">
        <ele>256.1</ele>
      </trkpt>
      <trkpt lat="45.222646" lon="-72.546616">
        <ele>253.3</ele>
      </trkpt>
      <trkpt lat="45.22267" lon="-72.5476">
        <ele>253.5</ele>
      </trkpt>
      <trkpt lat="45.222683" lon="-72.548556">
        <ele>256.1</ele>
      </trkpt>
      <trkpt lat="45.222696" lon="-72.549513">
        <ele>259.2</ele>
      </trkpt>
      <trkpt lat="45.22271" lon="-72.55047">
        <ele>263.2</ele>
      </trkpt>
      <trkpt lat="45.222755" lon="-72.551114">
        <ele>268</ele>
      </trkpt>
      <trkpt lat="45.2228" lon="-72.55176">
        <ele>273.4</ele>
      </trkpt>
      <trkpt lat="45.222816" lon="-72.552797">
        <ele>275.5</ele>
      </trkpt>
      <trkpt lat="45.222832" lon="-72.553835">
        <ele>276.6</ele>
      </trkpt>
      <trkpt lat="45.222848" lon="-72.554873">
        <ele>275.2</ele>
      </trkpt>
      <trkpt lat="45.222864" lon="-72.555911">
        <ele>271.1</ele>
      </trkpt>
      <trkpt lat="45.22288" lon="-72.55695">
        <ele>268.5</ele>
      </trkpt>
      <trkpt lat="45.22287" lon="-72.55762">
        <ele>266.9</ele>
      </trkpt>
      <trkpt lat="45.22282" lon="-72.55816">
        <ele>262</ele>
      </trkpt>
      <trkpt lat="45.22283" lon="-72.559054">
        <ele>257.9</ele>
      </trkpt>
      <trkpt lat="45.22284" lon="-72.55995">
        <ele>256</ele>
      </trkpt>
      <trkpt lat="45.222816" lon="-72.561115">
        <ele>258.9</ele>
      </trkpt>
      <trkpt lat="45.222793" lon="-72.56228">
        <ele>263.8</ele>
      </trkpt>
      <trkpt lat="45.22277" lon="-72.563445">
        <ele>269</ele>
      </trkpt>
      <trkpt lat="45.222746" lon="-72.56461">
        <ele>273.4</ele>
      </trkpt>
      <trkpt lat="45.222723" lon="-72.565775">
        <ele>282.7</ele>
      </trkpt>
      <trkpt lat="45.2227" lon="-72.56694">
        <ele>286.2</ele>
      </trkpt>
      <trkpt lat="45.222686" lon="-72.568058">
        <ele>285.9</ele>
      </trkpt>
      <trkpt lat="45.222672" lon="-72.569177">
        <ele>282.5</ele>
      </trkpt>
      <trkpt lat="45.222658" lon="-72.570296">
        <ele>279</ele>
      </trkpt>
      <trkpt lat="45.222645" lon="-72.571415">
        <ele>272.5</ele>
      </trkpt>
      <trkpt lat="45.222631" lon="-72.572533">
        <ele>266.3</ele>
      </trkpt>
      <trkpt lat="45.222617" lon="-72.573652">
        <ele>259.5</ele>
      </trkpt>
      <trkpt lat="45.222603" lon="-72.574771">
        <ele>252.9</ele>
      </trkpt>
      <trkpt lat="45.22259" lon="-72.57589">
        <ele>245.3</ele>
      </trkpt>
      <trkpt lat="45.222595" lon="-72.576669">
        <ele>238</ele>
      </trkpt>
      <trkpt lat="45.2226" lon="-72.57745">
        <ele>232.4</ele>
      </trkpt>
      <trkpt lat="45.22264" lon="-72.578654">
        <ele>227.5</ele>
      </trkpt>
      <trkpt lat="45.22268" lon="-72.579858">
        <ele>222.5</ele>
      </trkpt>
      <trkpt lat="45.22272" lon="-72.581063">
        <ele>217.9</ele>
      </trkpt>
      <trkpt lat="45.22276" lon="-72.582267">
        <ele>214.1</ele>
      </trkpt>
      <trkpt lat="45.2228" lon="-72.583472">
        <ele>208.3</ele>
      </trkpt>
      <trkpt lat="45.22284" lon="-72.584676">
        <ele>205.1</ele>
      </trkpt>
      <trkpt lat="45.22288" lon="-72.585881">
        <ele>202.4</ele>
      </trkpt>
      <trkpt lat="45.22292" lon="-72.587085">
        <ele>200.6</ele>
      </trkpt>
      <trkpt lat="45.22296" lon="-72.588289">
        <ele>201.4</ele>
      </trkpt>
      <trkpt lat="45.223" lon="-72.589494">
        <ele>205.1</ele>
      </trkpt>
      <trkpt lat="45.22304" lon="-72.590698">
        <ele>208.5</ele>
      </trkpt>
      <trkpt lat="45.22308" lon="-72.591903">
        <ele>211.7</ele>
      </trkpt>
      <trkpt lat="45.22312" lon="-72.593107">
        <ele>213.7</ele>
      </trkpt>
      <trkpt lat="45.22316" lon="-72.594312">
        <ele>217</ele>
      </trkpt>
      <trkpt lat="45.2232" lon="-72.595516">
        <ele>218.9</ele>
      </trkpt>
      <trkpt lat="45.22324" lon="-72.596721">
        <ele>219.6</ele>
      </trkpt>
      <trkpt lat="45.22328" lon="-72.597925">
        <ele>221.2</ele>
      </trkpt>
      <trkpt lat="45.22332" lon="-72.59913">
        <ele>221.1</ele>
      </trkpt>
      <trkpt lat="45.223377" lon="-72.600251">
        <ele>217.7</ele>
      </trkpt>
      <trkpt lat="45.223434" lon="-72.601372">
        <ele>212.9</ele>
      </trkpt>
      <trkpt lat="45.223491" lon="-72.602494">
        <ele>210</ele>
      </trkpt>
      <trkpt lat="45.223548" lon="-72.603615">
        <ele>210.2</ele>
      </trkpt>
      <trkpt lat="45.223605" lon="-72.604737">
        <ele>212.4</ele>
      </trkpt>
      <trkpt lat="45.223662" lon="-72.605858">
        <ele>215.5</ele>
      </trkpt>
      <trkpt lat="45.22372" lon="-72.60698">
        <ele>213.8</ele>
      </trkpt>
      <trkpt lat="45.223768" lon="-72.608111">
        <ele>210.5</ele>
      </trkpt>
      <trkpt lat="45.223817" lon="-72.609242">
        <ele>209</ele>
      </trkpt>
      <trkpt lat="45.223865" lon="-72.610374">
        <ele>209.4</ele>
      </trkpt>
      <trkpt lat="45.223914" lon="-72.611505">
        <ele>210.8</ele>
      </trkpt>
      <trkpt lat="45.223962" lon="-72.612637">
        <ele>213.5</ele>
      </trkpt>
      <trkpt lat="45.224011" lon="-72.613768">
        <ele>214.8</ele>
      </trkpt>
      <trkpt lat="45.22406" lon="-72.6149">
        <ele>215.2</ele>
      </trkpt>
      <trkpt lat="45.22411" lon="-72.616041">
        <ele>217.8</ele>
      </trkpt>
      <trkpt lat="45.22416" lon="-72.617183">
        <ele>215.1</ele>
      </trkpt>
      <trkpt lat="45.22421" lon="-72.618324">
        <ele>213.9</ele>
      </trkpt>
      <trkpt lat="45.22426" lon="-72.619466">
        <ele>214.9</ele>
      </trkpt>
      <trkpt lat="45.22431" lon="-72.620608">
        <ele>217.5</ele>
      </trkpt>
      <trkpt lat="45.22436" lon="-72.62175">
        <ele>217.2</ele>
      </trkpt>
      <trkpt lat="45.22524" lon="-72.62174">
        <ele>219.2</ele>
      </trkpt>
      <trkpt lat="45.22612" lon="-72.62173">
        <ele>222.8</ele>
      </trkpt>
      <trkpt lat="45.227" lon="-72.62172">
        <ele>229.4</ele>
      </trkpt>
      <trkpt lat="45.22788" lon="-72.62171">
        <ele>231.7</ele>
      </trkpt>
      <trkpt lat="45.22876" lon="-72.6217">
        <ele>233.4</ele>
      </trkpt>
      <trkpt lat="45.22964" lon="-72.62169">
        <ele>234.1</ele>
      </trkpt>
      <trkpt lat="45.23033" lon="-72.62168">
        <ele>234.5</ele>
      </trkpt>
      <trkpt lat="45.231064" lon="-72.62164">
        <ele>238.1</ele>
      </trkpt>
      <trkpt lat="45.2318" lon="-72.6216">
        <ele>242.6</ele>
      </trkpt>
      <trkpt lat="45.23254" lon="-72.6216">
        <ele>243.2</ele>
      </trkpt>
      <trkpt lat="45.23328" lon="-72.6216">
        <ele>243.8</ele>
      </trkpt>
      <trkpt lat="45.2338" lon="-72.6216">
        <ele>245.2</ele>
      </trkpt>
      <trkpt lat="45.234443" lon="-72.621566">
        <ele>246</ele>
      </trkpt>
      <trkpt lat="45.235086" lon="-72.621533">
        <ele>248.8</ele>
      </trkpt>
      <trkpt lat="45.23573" lon="-72.6215">
        <ele>252.5</ele>
      </trkpt>
      <trkpt lat="45.236425" lon="-72.621445">
        <ele>257.1</ele>
      </trkpt>
      <trkpt lat="45.23712" lon="-72.62139">
        <ele>260.7</ele>
      </trkpt>
      <trkpt lat="45.237814" lon="-72.621335">
        <ele>261.9</ele>
      </trkpt>
      <trkpt lat="45.23851" lon="-72.62128">
        <ele>263.5</ele>
      </trkpt>
      <trkpt lat="45.23926" lon="-72.62117">
        <ele>260.3</ele>
      </trkpt>
      <trkpt lat="45.24003" lon="-72.62111">
        <ele>256.5</ele>
      </trkpt>
      <trkpt lat="45.2407" lon="-72.62115">
        <ele>254.4</ele>
      </trkpt>
      <trkpt lat="45.24137" lon="-72.62129">
        <ele>253.5</ele>
      </trkpt>
      <trkpt lat="45.24208" lon="-72.62151">
        <ele>250.5</ele>
      </trkpt>
      <trkpt lat="45.24285" lon="-72.62183">
        <ele>249.2</ele>
      </trkpt>
      <trkpt lat="45.2431" lon="-72.62214">
        <ele>249</ele>
      </trkpt>
      <trkpt lat="45.24339" lon="-72.62272">
        <ele>248</ele>
      </trkpt>
      <trkpt lat="45.24357" lon="-72.623344">
        <ele>245.8</ele>
      </trkpt>
      <trkpt lat="45.24375" lon="-72.62397">
        <ele>243.9</ele>
      </trkpt>
      <trkpt lat="45.24386" lon="-72.62415">
        <ele>243.2</ele>
      </trkpt>
      <trkpt lat="45.244363" lon="-72.624793">
        <ele>238.1</ele>
      </trkpt>
      <trkpt lat="45.244866" lon="-72.625436">
        <ele>233.2</ele>
      </trkpt>
      <trkpt lat="45.24537" lon="-72.62608">
        <ele>230.8</ele>
      </trkpt>
      <trkpt lat="45.24588" lon="-72.62679">
        <ele>231.3</ele>
      </trkpt>
      <trkpt lat="45.24641" lon="-72.62743">
        <ele>234</ele>
      </trkpt>
      <trkpt lat="45.24669" lon="-72.62768">
        <ele>233.7</ele>
      </trkpt>
      <trkpt lat="45.24714" lon="-72.62792">
        <ele>231.5</ele>
      </trkpt>
      <trkpt lat="45.24734" lon="-72.628">
        <ele>228.8</ele>
      </trkpt>
      <trkpt lat="45.24758" lon="-72.62801">
        <ele>227.2</ele>
      </trkpt>
      <trkpt lat="45.24795" lon="-72.628">
        <ele>224.9</ele>
      </trkpt>
      <trkpt lat="45.24791" lon="-72.62872">
        <ele>227.4</ele>
      </trkpt>
      <trkpt lat="45.24787" lon="-72.62944">
        <ele>230.1</ele>
      </trkpt>
      <trkpt lat="45.24776" lon="-72.63051">
        <ele>231.9</ele>
      </trkpt>
      <trkpt lat="45.247645" lon="-72.631135">
        <ele>233.5</ele>
      </trkpt>
      <trkpt lat="45.24753" lon="-72.63176">
        <ele>235.7</ele>
      </trkpt>
      <trkpt lat="45.24719" lon="-72.63266">
        <ele>236.6</ele>
      </trkpt>
      <trkpt lat="45.24719" lon="-72.63267">
        <ele>236.6</ele>
      </trkpt>
      <trkpt lat="45.24694" lon="-72.63361">
        <ele>237.2</ele>
      </trkpt>
      <trkpt lat="45.24678" lon="-72.6345">
        <ele>233.8</ele>
      </trkpt>
      <trkpt lat="45.246615" lon="-72.63515">
        <ele>233.3</ele>
      </trkpt>
      <trkpt lat="45.24645" lon="-72.6358">
        <ele>234.3</ele>
      </trkpt>
      <trkpt lat="45.24624" lon="-72.63643">
        <ele>234.4</ele>
      </trkpt>
      <trkpt lat="45.24604" lon="-72.63741">
        <ele>231.9</ele>
      </trkpt>
      <trkpt lat="45.24591" lon="-72.63775">
        <ele>231.7</ele>
      </trkpt>
      <trkpt lat="45.24545" lon="-72.638535">
        <ele>230.1</ele>
      </trkpt>
      <trkpt lat="45.24499" lon="-72.63932">
        <ele>228.4</ele>
      </trkpt>
      <trkpt lat="45.24459" lon="-72.63995">
        <ele>228.5</ele>
      </trkpt>
      <trkpt lat="45.24445" lon="-72.64026">
        <ele>228.3</ele>
      </trkpt>
      <trkpt lat="45.24418" lon="-72.64107">
        <ele>225.8</ele>
      </trkpt>
      <trkpt lat="45.24396" lon="-72.641905">
        <ele>223.8</ele>
      </trkpt>
      <trkpt lat="45.24374" lon="-72.64274">
        <ele>221.5</ele>
      </trkpt>
      <trkpt lat="45.24358" lon="-72.64363">
        <ele>219.6</ele>
      </trkpt>
      <trkpt lat="45.24327" lon="-72.6447">
        <ele>216.8</ele>
      </trkpt>
      <trkpt lat="45.24306" lon="-72.6456">
        <ele>212.1</ele>
      </trkpt>
      <trkpt lat="45.24305" lon="-72.64571">
        <ele>212.1</ele>
      </trkpt>
      <trkpt lat="45.2429" lon="-72.64636">
        <ele>209.2</ele>
      </trkpt>
      <trkpt lat="45.24264" lon="-72.6473">
        <ele>206</ele>
      </trkpt>
      <trkpt lat="45.24233" lon="-72.64833">
        <ele>203</ele>
      </trkpt>
      <trkpt lat="45.24201" lon="-72.6495">
        <ele>199.1</ele>
      </trkpt>
      <trkpt lat="45.24167" lon="-72.65039">
        <ele>195.6</ele>
      </trkpt>
      <trkpt lat="45.24123" lon="-72.65111">
        <ele>193.6</ele>
      </trkpt>
      <trkpt lat="45.2409" lon="-72.65177">
        <ele>196.5</ele>
      </trkpt>
      <trkpt lat="45.24047" lon="-72.65232">
        <ele>195.8</ele>
      </trkpt>
      <trkpt lat="45.24012" lon="-72.65285">
        <ele>194.7</ele>
      </trkpt>
      <trkpt lat="45.23998" lon="-72.65312">
        <ele>194.7</ele>
      </trkpt>
      <trkpt lat="45.23973" lon="-72.6537">
        <ele>194.5</ele>
      </trkpt>
      <trkpt lat="45.23941" lon="-72.6546">
        <ele>191.7</ele>
      </trkpt>
      <trkpt lat="45.23898" lon="-72.655565">
        <ele>187.8</ele>
      </trkpt>
      <trkpt lat="45.23855" lon="-72.65653">
        <ele>184.6</ele>
      </trkpt>
      <trkpt lat="45.2381" lon="-72.65745">
        <ele>184.4</ele>
      </trkpt>
      <trkpt lat="45.238878" lon="-72.65741">
        <ele>182.2</ele>
      </trkpt>
      <trkpt lat="45.239656" lon="-72.65737">
        <ele>178.5</ele>
      </trkpt>
      <trkpt lat="45.240434" lon="-72.65733">
        <ele>176.1</ele>
      </trkpt>
      <trkpt lat="45.241212" lon="-72.65729">
        <ele>168.9</ele>
      </trkpt>
      <trkpt lat="45.24199" lon="-72.65725">
        <ele>164.6</ele>
      </trkpt>
      <trkpt lat="45.24198" lon="-72.65725">
        <ele>164.6</ele>
      </trkpt>
      <trkpt lat="45.242865" lon="-72.657175">
        <ele>164.6</ele>
      </trkpt>
      <trkpt lat="45.24375" lon="-72.6571">
        <ele>173</ele>
      </trkpt>
      <trkpt lat="45.244229" lon="-72.65708">
        <ele>177.6</ele>
      </trkpt>
      <trkpt lat="45.24471" lon="-72.65706">
        <ele>180.8</ele>
      </trkpt>
      <trkpt lat="45.245386" lon="-72.65699">
        <ele>184.3</ele>
      </trkpt>
      <trkpt lat="45.246063" lon="-72.65692">
        <ele>185.2</ele>
      </trkpt>
      <trkpt lat="45.24674" lon="-72.65685">
        <ele>187.4</ele>
      </trkpt>
      <trkpt lat="45.24762" lon="-72.65672">
        <ele>191.9</ele>
      </trkpt>
      <trkpt lat="45.24801" lon="-72.6567">
        <ele>193.1</ele>
      </trkpt>
      <trkpt lat="45.248773" lon="-72.656716">
        <ele>191.4</ele>
      </trkpt>
      <trkpt lat="45.249536" lon="-72.656733">
        <ele>189.2</ele>
      </trkpt>
      <trkpt lat="45.2503" lon="-72.65675">
        <ele>188.4</ele>
      </trkpt>
      <trkpt lat="45.25116" lon="-72.65679">
        <ele>187.6</ele>
      </trkpt>
      <trkpt lat="45.25201" lon="-72.65679">
        <ele>186</ele>
      </trkpt>
      <trkpt lat="45.25277" lon="-72.656755">
        <ele>178.4</ele>
      </trkpt>
      <trkpt lat="45.25353" lon="-72.65672">
        <ele>173.8</ele>
      </trkpt>
      <trkpt lat="45.25429" lon="-72.656685">
        <ele>171.5</ele>
      </trkpt>
      <trkpt lat="45.25505" lon="-72.65665">
        <ele>162</ele>
      </trkpt>
      <trkpt lat="45.25591" lon="-72.656633">
        <ele>153.8</ele>
      </trkpt>
      <trkpt lat="45.25677" lon="-72.656616">
        <ele>152.8</ele>
      </trkpt>
      <trkpt lat="45.25763" lon="-72.6566">
        <ele>155.7</ele>
      </trkpt>
      <trkpt lat="45.25787" lon="-72.65662">
        <ele>155.5</ele>
      </trkpt>
      <trkpt lat="45.258639" lon="-72.656649">
        <ele>151.9</ele>
      </trkpt>
      <trkpt lat="45.25941" lon="-72.65668">
        <ele>149.8</ele>
      </trkpt>
      <trkpt lat="45.260095" lon="-72.656684">
        <ele>152.4</ele>
      </trkpt>
      <trkpt lat="45.26078" lon="-72.65669">
        <ele>155.1</ele>
      </trkpt>
      <trkpt lat="45.26124" lon="-72.65664">
        <ele>157</ele>
      </trkpt>
      <trkpt lat="45.26119" lon="-72.657425">
        <ele>153.4</ele>
      </trkpt>
      <trkpt lat="45.26114" lon="-72.65821">
        <ele>152.1</ele>
      </trkpt>
      <trkpt lat="45.260963" lon="-72.659093">
        <ele>153.1</ele>
      </trkpt>
      <trkpt lat="45.260786" lon="-72.659976">
        <ele>153.2</ele>
      </trkpt>
      <trkpt lat="45.26061" lon="-72.66086">
        <ele>151.3</ele>
      </trkpt>
      <trkpt lat="45.26063" lon="-72.66076">
        <ele>151.6</ele>
      </trkpt>
      <trkpt lat="45.260395" lon="-72.66197">
        <ele>150.2</ele>
      </trkpt>
      <trkpt lat="45.26016" lon="-72.66318">
        <ele>150.3</ele>
      </trkpt>
      <trkpt lat="45.2599" lon="-72.6644">
        <ele>152.7</ele>
      </trkpt>
      <trkpt lat="45.25966" lon="-72.665095">
        <ele>152.7</ele>
      </trkpt>
      <trkpt lat="45.25942" lon="-72.66579">
        <ele>145.1</ele>
      </trkpt>
      <trkpt lat="45.25902" lon="-72.66681">
        <ele>141.3</ele>
      </trkpt>
      <trkpt lat="45.25894" lon="-72.66708">
        <ele>141.3</ele>
      </trkpt>
      <trkpt lat="45.25889" lon="-72.66741">
        <ele>141.2</ele>
      </trkpt>
      <trkpt lat="45.25888" lon="-72.6678">
        <ele>141.3</ele>
      </trkpt>
      <trkpt lat="45.258912" lon="-72.669074">
        <ele>144.4</ele>
      </trkpt>
      <trkpt lat="45.258945" lon="-72.670349">
        <ele>144.3</ele>
      </trkpt>
      <trkpt lat="45.258977" lon="-72.671624">
        <ele>142.8</ele>
      </trkpt>
      <trkpt lat="45.25901" lon="-72.6729">
        <ele>146.3</ele>
      </trkpt>
      <trkpt lat="45.25909" lon="-72.67322">
        <ele>146.9</ele>
      </trkpt>
      <trkpt lat="45.25929" lon="-72.67355">
        <ele>148.3</ele>
      </trkpt>
      <trkpt lat="45.25984" lon="-72.6742">
        <ele>150</ele>
      </trkpt>
      <trkpt lat="45.2602" lon="-72.67479">
        <ele>151.5</ele>
      </trkpt>
      <trkpt lat="45.26065" lon="-72.67582">
        <ele>153.2</ele>
      </trkpt>
      <trkpt lat="45.26074" lon="-72.67622">
        <ele>154.9</ele>
      </trkpt>
      <trkpt lat="45.26075" lon="-72.6765">
        <ele>156.1</ele>
      </trkpt>
      <trkpt lat="45.26068" lon="-72.67689">
        <ele>160.2</ele>
      </trkpt>
      <trkpt lat="45.26051" lon="-72.6773">
        <ele>162.5</ele>
      </trkpt>
      <trkpt lat="45.26041" lon="-72.67762">
        <ele>162.1</ele>
      </trkpt>
      <trkpt lat="45.2604" lon="-72.67787">
        <ele>160.1</ele>
      </trkpt>
      <trkpt lat="45.26043" lon="-72.6781">
        <ele>158.7</ele>
      </trkpt>
      <trkpt lat="45.260786" lon="-72.678879">
        <ele>151</ele>
      </trkpt>
      <trkpt lat="45.261143" lon="-72.679659">
        <ele>151.7</ele>
      </trkpt>
      <trkpt lat="45.2615" lon="-72.68044">
        <ele>153</ele>
      </trkpt>
      <trkpt lat="45.26187" lon="-72.6811">
        <ele>149.8</ele>
      </trkpt>
      <trkpt lat="45.26231" lon="-72.68164">
        <ele>143.9</ele>
      </trkpt>
      <trkpt lat="45.262815" lon="-72.682129">
        <ele>140.5</ele>
      </trkpt>
      <trkpt lat="45.26332" lon="-72.68262">
        <ele>139.6</ele>
      </trkpt>
      <trkpt lat="45.26358" lon="-72.68293">
        <ele>139.1</ele>
      </trkpt>
      <trkpt lat="45.26391" lon="-72.683479">
        <ele>137.1</ele>
      </trkpt>
      <trkpt lat="45.26424" lon="-72.68403">
        <ele>136.6</ele>
      </trkpt>
      <trkpt lat="45.264205" lon="-72.684725">
        <ele>137.2</ele>
      </trkpt>
      <trkpt lat="45.26417" lon="-72.68542">
        <ele>138.4</ele>
      </trkpt>
      <trkpt lat="45.26408" lon="-72.68645">
        <ele>139.2</ele>
      </trkpt>
      <trkpt lat="45.26408" lon="-72.68646">
        <ele>139.2</ele>
      </trkpt>
      <trkpt lat="45.26405" lon="-72.68679">
        <ele>138.8</ele>
      </trkpt>
      <trkpt lat="45.26389" lon="-72.68781">
        <ele>137.1</ele>
      </trkpt>
      <trkpt lat="45.26374" lon="-72.68858">
        <ele>134.7</ele>
      </trkpt>
      <trkpt lat="45.26349" lon="-72.6895">
        <ele>135.4</ele>
      </trkpt>
      <trkpt lat="45.26421" lon="-72.68983">
        <ele>148.6</ele>
      </trkpt>
      <trkpt lat="45.26433" lon="-72.68987">
        <ele>152.1</ele>
      </trkpt>
      <trkpt lat="45.26448" lon="-72.68987">
        <ele>152.1</ele>
      </trkpt>
      <trkpt lat="45.26465" lon="-72.68979">
        <ele>157.2</ele>
      </trkpt>
      <trkpt lat="45.26505" lon="-72.68952">
        <ele>161.7</ele>
      </trkpt>
      <trkpt lat="45.26516" lon="-72.68938">
        <ele>167.3</ele>
      </trkpt>
      <trkpt lat="45.26536" lon="-72.68898">
        <ele>171.6</ele>
      </trkpt>
      <trkpt lat="45.26545" lon="-72.68884">
        <ele>173.2</ele>
      </trkpt>
      <trkpt lat="45.26556" lon="-72.68875">
        <ele>175.3</ele>
      </trkpt>
      <trkpt lat="45.26593" lon="-72.68857">
        <ele>178.6</ele>
      </trkpt>
      <trkpt lat="45.26668" lon="-72.688276">
        <ele>183.7</ele>
      </trkpt>
      <trkpt lat="45.26743" lon="-72.687983">
        <ele>184.2</ele>
      </trkpt>
      <trkpt lat="45.26818" lon="-72.68769">
        <ele>184.8</ele>
      </trkpt>
      <trkpt lat="45.268735" lon="-72.687395">
        <ele>187.6</ele>
      </trkpt>
      <trkpt lat="45.26929" lon="-72.6871">
        <ele>190</ele>
      </trkpt>
      <trkpt lat="45.26964" lon="-72.68697">
        <ele>192.6</ele>
      </trkpt>
      <trkpt lat="45.27009" lon="-72.68696">
        <ele>196</ele>
      </trkpt>
      <trkpt lat="45.270609" lon="-72.687079">
        <ele>199.1</ele>
      </trkpt>
      <trkpt lat="45.27113" lon="-72.6872">
        <ele>200.6</ele>
      </trkpt>
      <trkpt lat="45.27175" lon="-72.68728">
        <ele>202.6</ele>
      </trkpt>
      <trkpt lat="45.27236" lon="-72.68731">
        <ele>205.9</ele>
      </trkpt>
      <trkpt lat="45.27306" lon="-72.68729">
        <ele>208.4</ele>
      </trkpt>
      <trkpt lat="45.27336" lon="-72.68723">
        <ele>208</ele>
      </trkpt>
      <trkpt lat="45.27408" lon="-72.68711">
        <ele>211.7</ele>
      </trkpt>
      <trkpt lat="45.274645" lon="-72.68695">
        <ele>216.3</ele>
      </trkpt>
      <trkpt lat="45.27521" lon="-72.68679">
        <ele>219.3</ele>
      </trkpt>
      <trkpt lat="45.275835" lon="-72.686565">
        <ele>222.1</ele>
      </trkpt>
      <trkpt lat="45.27646" lon="-72.68634">
        <ele>226.3</ele>
      </trkpt>
      <trkpt lat="45.27645" lon="-72.68634">
        <ele>226.2</ele>
      </trkpt>
      <trkpt lat="45.27729" lon="-72.68604">
        <ele>229.4</ele>
      </trkpt>
      <trkpt lat="45.27813" lon="-72.68574">
        <ele>231.7</ele>
      </trkpt>
      <trkpt lat="45.27897" lon="-72.68544">
        <ele>233</ele>
      </trkpt>
      <trkpt lat="45.279545" lon="-72.6852">
        <ele>233.8</ele>
      </trkpt>
      <trkpt lat="45.28012" lon="-72.68496">
        <ele>234.4</ele>
      </trkpt>
      <trkpt lat="45.28058" lon="-72.684715">
        <ele>230.9</ele>
      </trkpt>
      <trkpt lat="45.28104" lon="-72.68447">
        <ele>228.3</ele>
      </trkpt>
      <trkpt lat="45.28181" lon="-72.6841">
        <ele>225.4</ele>
      </trkpt>
      <trkpt lat="45.28209" lon="-72.68396">
        <ele>225.4</ele>
      </trkpt>
      <trkpt lat="45.28236" lon="-72.68374">
        <ele>225.8</ele>
      </trkpt>
      <trkpt lat="45.28305" lon="-72.68298">
        <ele>223.4</ele>
      </trkpt>
      <trkpt lat="45.2832" lon="-72.68288">
        <ele>222.7</ele>
      </trkpt>
      <trkpt lat="45.28342" lon="-72.6828">
        <ele>221.2</ele>
      </trkpt>
      <trkpt lat="45.28399" lon="-72.6828">
        <ele>218.3</ele>
      </trkpt>
      <trkpt lat="45.2846" lon="-72.682816">
        <ele>218.1</ele>
      </trkpt>
      <trkpt lat="45.28521" lon="-72.682833">
        <ele>222.3</ele>
      </trkpt>
      <trkpt lat="45.28582" lon="-72.68285">
        <ele>223.2</ele>
      </trkpt>
      <trkpt lat="45.286269" lon="-72.682869">
        <ele>222.9</ele>
      </trkpt>
      <trkpt lat="45.28672" lon="-72.68289">
        <ele>222.7</ele>
      </trkpt>
      <trkpt lat="45.28756" lon="-72.68288">
        <ele>223.8</ele>
      </trkpt>
      <trkpt lat="45.28773" lon="-72.68281">
        <ele>224.1</ele>
      </trkpt>
      <trkpt lat="45.28783" lon="-72.68276">
        <ele>224.1</ele>
      </trkpt>
      <trkpt lat="45.28788" lon="-72.68267">
        <ele>224.6</ele>
      </trkpt>
      <trkpt lat="45.28791" lon="-72.68254">
        <ele>224.6</ele>
      </trkpt>
      <trkpt lat="45.28797" lon="-72.68163">
        <ele>223.7</ele>
      </trkpt>
      <trkpt lat="45.287996" lon="-72.680706">
        <ele>221.2</ele>
      </trkpt>
      <trkpt lat="45.288023" lon="-72.679783">
        <ele>216.1</ele>
      </trkpt>
      <trkpt lat="45.28805" lon="-72.67886">
        <ele>213.1</ele>
      </trkpt>
      <trkpt lat="45.288" lon="-72.6786">
        <ele>212.2</ele>
      </trkpt>
      <trkpt lat="45.28792" lon="-72.67832">
        <ele>211.8</ele>
      </trkpt>
      <trkpt lat="45.28761" lon="-72.67743">
        <ele>210.6</ele>
      </trkpt>
      <trkpt lat="45.2873" lon="-72.676604">
        <ele>206</ele>
      </trkpt>
      <trkpt lat="45.28699" lon="-72.67578">
        <ele>199.9</ele>
      </trkpt>
      <trkpt lat="45.28676" lon="-72.67535">
        <ele>198.1</ele>
      </trkpt>
      <trkpt lat="45.28641" lon="-72.67474">
        <ele>194.5</ele>
      </trkpt>
      <trkpt lat="45.28618" lon="-72.67447">
        <ele>193.2</ele>
      </trkpt>
      <trkpt lat="45.28578" lon="-72.67407">
        <ele>194.3</ele>
      </trkpt>
      <trkpt lat="45.28571" lon="-72.67392">
        <ele>194.5</ele>
      </trkpt>
      <trkpt lat="45.28567" lon="-72.6738">
        <ele>194.5</ele>
      </trkpt>
      <trkpt lat="45.28562" lon="-72.672794">
        <ele>194.2</ele>
      </trkpt>
      <trkpt lat="45.28557" lon="-72.67179">
        <ele>201.5</ele>
      </trkpt>
      <trkpt lat="45.28553" lon="-72.67163">
        <ele>202.3</ele>
      </trkpt>
      <trkpt lat="45.286276" lon="-72.670988">
        <ele>207.8</ele>
      </trkpt>
      <trkpt lat="45.287022" lon="-72.670346">
        <ele>209.9</ele>
      </trkpt>
      <trkpt lat="45.287768" lon="-72.669704">
        <ele>209</ele>
      </trkpt>
      <trkpt lat="45.288514" lon="-72.669062">
        <ele>205.8</ele>
      </trkpt>
      <trkpt lat="45.28926" lon="-72.66842">
        <ele>201.5</ele>
      </trkpt>
      <trkpt lat="45.289922" lon="-72.667778">
        <ele>199.2</ele>
      </trkpt>
      <trkpt lat="45.290584" lon="-72.667136">
        <ele>199.1</ele>
      </trkpt>
      <trkpt lat="45.291246" lon="-72.666494">
        <ele>199</ele>
      </trkpt>
      <trkpt lat="45.291908" lon="-72.665852">
        <ele>199</ele>
      </trkpt>
      <trkpt lat="45.29257" lon="-72.66521">
        <ele>198.4</ele>
      </trkpt>
      <trkpt lat="45.29291" lon="-72.66485">
        <ele>197</ele>
      </trkpt>
      <trkpt lat="45.29344" lon="-72.66414">
        <ele>192.3</ele>
      </trkpt>
      <trkpt lat="45.293975" lon="-72.663375">
        <ele>187.1</ele>
      </trkpt>
      <trkpt lat="45.29451" lon="-72.66261">
        <ele>185.2</ele>
      </trkpt>
      <trkpt lat="45.29466" lon="-72.66243">
        <ele>184.6</ele>
      </trkpt>
      <trkpt lat="45.29502" lon="-72.66207">
        <ele>183.9</ele>
      </trkpt>
      <trkpt lat="45.2955" lon="-72.66172">
        <ele>183.3</ele>
      </trkpt>
      <trkpt lat="45.29573" lon="-72.66163">
        <ele>182.8</ele>
      </trkpt>
      <trkpt lat="45.296471" lon="-72.661421">
        <ele>181.7</ele>
      </trkpt>
      <trkpt lat="45.297213" lon="-72.661213">
        <ele>177.4</ele>
      </trkpt>
      <trkpt lat="45.297955" lon="-72.661005">
        <ele>170.5</ele>
      </trkpt>
      <trkpt lat="45.298696" lon="-72.660796">
        <ele>164.7</ele>
      </trkpt>
      <trkpt lat="45.299438" lon="-72.660588">
        <ele>161.1</ele>
      </trkpt>
      <trkpt lat="45.30018" lon="-72.66038">
        <ele>159.9</ele>
      </trkpt>
      <trkpt lat="45.30095" lon="-72.660146">
        <ele>157.6</ele>
      </trkpt>
      <trkpt lat="45.30172" lon="-72.659913">
        <ele>153.4</ele>
      </trkpt>
      <trkpt lat="45.30249" lon="-72.65968">
        <ele>148.7</ele>
      </trkpt>
      <trkpt lat="45.30323" lon="-72.659466">
        <ele>143.5</ele>
      </trkpt>
      <trkpt lat="45.30397" lon="-72.659253">
        <ele>140.1</ele>
      </trkpt>
      <trkpt lat="45.30471" lon="-72.65904">
        <ele>137.5</ele>
      </trkpt>
      <trkpt lat="45.3047" lon="-72.65904">
        <ele>137.5</ele>
      </trkpt>
      <trkpt lat="45.305473" lon="-72.658816">
        <ele>138</ele>
      </trkpt>
      <trkpt lat="45.306246" lon="-72.658593">
        <ele>140.7</ele>
      </trkpt>
      <trkpt lat="45.30702" lon="-72.65837">
        <ele>143.7</ele>
      </trkpt>
      <trkpt lat="45.30759" lon="-72.65812">
        <ele>146</ele>
      </trkpt>
      <trkpt lat="45.30816" lon="-72.65787">
        <ele>147.1</ele>
      </trkpt>
      <trkpt lat="45.30899" lon="-72.65759">
        <ele>147.6</ele>
      </trkpt>
      <trkpt lat="45.30906" lon="-72.65768">
        <ele>147.4</ele>
      </trkpt>
      <trkpt lat="45.30913" lon="-72.65768">
        <ele>147.4</ele>
      </trkpt>
      <trkpt lat="45.30962" lon="-72.65759">
        <ele>146.9</ele>
      </trkpt>
      <trkpt lat="45.30994" lon="-72.65755">
        <ele>146.7</ele>
      </trkpt>
      <trkpt lat="45.31065" lon="-72.657495">
        <ele>146.2</ele>
      </trkpt>
      <trkpt lat="45.31136" lon="-72.65744">
        <ele>144.2</ele>
      </trkpt>
      <trkpt lat="45.312115" lon="-72.65739">
        <ele>141</ele>
      </trkpt>
      <trkpt lat="45.31287" lon="-72.65734">
        <ele>138.5</ele>
      </trkpt>
      <trkpt lat="45.313625" lon="-72.65729">
        <ele>135.6</ele>
      </trkpt>
      <trkpt lat="45.31438" lon="-72.65724">
        <ele>133.4</ele>
      </trkpt>
      <trkpt lat="45.31449" lon="-72.6572">
        <ele>132.9</ele>
      </trkpt>
      <trkpt lat="45.31462" lon="-72.65723">
        <ele>132.6</ele>
      </trkpt>
      <trkpt lat="45.31471" lon="-72.65719">
        <ele>132.3</ele>
      </trkpt>
      <trkpt lat="45.31487" lon="-72.65719">
        <ele>131.7</ele>
      </trkpt>
      <trkpt lat="45.315637" lon="-72.657152">
        <ele>128.2</ele>
      </trkpt>
      <trkpt lat="45.316405" lon="-72.657115">
        <ele>126.2</ele>
      </trkpt>
      <trkpt lat="45.317172" lon="-72.657077">
        <ele>126.6</ele>
      </trkpt>
      <trkpt lat="45.31794" lon="-72.65704">
        <ele>128.3</ele>
      </trkpt>
      <trkpt lat="45.318" lon="-72.65683">
        <ele>128.3</ele>
      </trkpt>
      <trkpt lat="45.318" lon="-72.65684">
        <ele>128.3</ele>
      </trkpt>
      <trkpt lat="45.31797" lon="-72.65696">
        <ele>128.3</ele>
      </trkpt>
      <trkpt lat="45.318535" lon="-72.65693">
        <ele>128</ele>
      </trkpt>
      <trkpt lat="45.3191" lon="-72.6569">
        <ele>127.5</ele>
      </trkpt>
      <trkpt lat="45.31921" lon="-72.65674">
        <ele>127.4</ele>
      </trkpt>
      <trkpt lat="45.31928" lon="-72.6567">
        <ele>127.1</ele>
      </trkpt>
      <trkpt lat="45.31958" lon="-72.6567">
        <ele>126.8</ele>
      </trkpt>
      <trkpt lat="45.3196" lon="-72.65665">
        <ele>126.8</ele>
      </trkpt>
      <trkpt lat="45.31956" lon="-72.65558">
        <ele>125.8</ele>
      </trkpt>
      <trkpt lat="45.31958" lon="-72.6555">
        <ele>125.8</ele>
      </trkpt>
      <trkpt lat="45.31972" lon="-72.6554">
        <ele>125.6</ele>
      </trkpt>
      <trkpt lat="45.31996" lon="-72.65537">
        <ele>124.9</ele>
      </trkpt>
      <trkpt lat="45.31995" lon="-72.65537">
        <ele>124.9</ele>
      </trkpt>
      <trkpt lat="45.32062" lon="-72.6553">
        <ele>124.2</ele>
      </trkpt>
      <trkpt lat="45.32064" lon="-72.65522">
        <ele>124.2</ele>
      </trkpt>
      <trkpt lat="45.32069" lon="-72.65465">
        <ele>123.8</ele>
      </trkpt>
      <trkpt lat="45.3207" lon="-72.65428">
        <ele>123.5</ele>
      </trkpt>
      <trkpt lat="45.32076" lon="-72.65419">
        <ele>123.5</ele>
      </trkpt>
      <trkpt lat="45.32097" lon="-72.65401">
        <ele>123.4</ele>
      </trkpt>
      <trkpt lat="45.32123" lon="-72.6537">
        <ele>123.6</ele>
      </trkpt>
      <trkpt lat="45.32126" lon="-72.65356">
        <ele>123.6</ele>
      </trkpt>
      <trkpt lat="45.32126" lon="-72.65339">
        <ele>123.6</ele>
      </trkpt>
      <trkpt lat="45.32117" lon="-72.65311">
        <ele>123.6</ele>
      </trkpt>
      <trkpt lat="45.32098" lon="-72.65289">
        <ele>123.7</ele>
      </trkpt>
      <trkpt lat="45.32078" lon="-72.65257">
        <ele>124.4</ele>
      </trkpt>
      <trkpt lat="45.32062" lon="-72.65236">
        <ele>125.7</ele>
      </trkpt>
      <trkpt lat="45.32055" lon="-72.65231">
        <ele>125.7</ele>
      </trkpt>
      <trkpt lat="45.32055" lon="-72.6523">
        <ele>125.7</ele>
      </trkpt>
      <trkpt lat="45.32032" lon="-72.65213">
        <ele>126.9</ele>
      </trkpt>
      <trkpt lat="45.32023" lon="-72.65197">
        <ele>127.1</ele>
      </trkpt>
      <trkpt lat="45.31996" lon="-72.65177">
        <ele>128.1</ele>
      </trkpt>
      <trkpt lat="45.31935" lon="-72.65146">
        <ele>130.6</ele>
      </trkpt>
      <trkpt lat="45.31954" lon="-72.650705">
        <ele>130.4</ele>
      </trkpt>
      <trkpt lat="45.31973" lon="-72.64995">
        <ele>129.2</ele>
      </trkpt>
      <trkpt lat="45.31992" lon="-72.64933">
        <ele>125.7</ele>
      </trkpt>
      <trkpt lat="45.32005" lon="-72.649">
        <ele>124</ele>
      </trkpt>
      <trkpt lat="45.32026" lon="-72.64855">
        <ele>121.5</ele>
      </trkpt>
      <trkpt lat="45.3207" lon="-72.64771">
        <ele>121</ele>
      </trkpt>
      <trkpt lat="45.32085" lon="-72.64775">
        <ele>121</ele>
      </trkpt>
      <trkpt lat="45.32086" lon="-72.6478">
        <ele>121</ele>
      </trkpt>
      <trkpt lat="45.32091" lon="-72.64788">
        <ele>120.6</ele>
      </trkpt>
      <trkpt lat="45.32114" lon="-72.64797">
        <ele>120.3</ele>
      </trkpt>
      <trkpt lat="45.32138" lon="-72.64807">
        <ele>120</ele>
      </trkpt>
      <trkpt lat="45.32156" lon="-72.64824">
        <ele>120.1</ele>
      </trkpt>
      <trkpt lat="45.322" lon="-72.64837">
        <ele>121.1</ele>
      </trkpt>
      <trkpt lat="45.32226" lon="-72.64851">
        <ele>122.7</ele>
      </trkpt>
      <trkpt lat="45.32285" lon="-72.64867">
        <ele>125.5</ele>
      </trkpt>
      <trkpt lat="45.32302" lon="-72.64901">
        <ele>125.2</ele>
      </trkpt>
      <trkpt lat="45.32318" lon="-72.64918">
        <ele>124.8</ele>
      </trkpt>
      <trkpt lat="45.32362" lon="-72.6494">
        <ele>124.4</ele>
      </trkpt>
      <trkpt lat="45.32402" lon="-72.64945">
        <ele>123.8</ele>
      </trkpt>
      <trkpt lat="45.32408" lon="-72.64949">
        <ele>123.7</ele>
      </trkpt>
      <trkpt lat="45.32414" lon="-72.64957">
        <ele>123.7</ele>
      </trkpt>
      <trkpt lat="45.32422" lon="-72.6498">
        <ele>123.4</ele>
      </trkpt>
      <trkpt lat="45.32432" lon="-72.64985">
        <ele>123</ele>
      </trkpt>
      <trkpt lat="45.32445" lon="-72.64971">
        <ele>121.8</ele>
      </trkpt>
      <trkpt lat="45.3245" lon="-72.64959">
        <ele>121.3</ele>
      </trkpt>
      <trkpt lat="45.32454" lon="-72.64944">
        <ele>120.8</ele>
      </trkpt>
      <trkpt lat="45.32453" lon="-72.64913">
        <ele>120</ele>
      </trkpt>
      <trkpt lat="45.32457" lon="-72.649">
        <ele>120</ele>
      </trkpt>
      <trkpt lat="45.32465" lon="-72.64892">
        <ele>119.7</ele>
      </trkpt>
      <trkpt lat="45.32476" lon="-72.64891">
        <ele>119.7</ele>
      </trkpt>
      <trkpt lat="45.32487" lon="-72.64895">
        <ele>119.7</ele>
      </trkpt>
      <trkpt lat="45.32502" lon="-72.6491">
        <ele>119.9</ele>
      </trkpt>
      <trkpt lat="45.32522" lon="-72.64923">
        <ele>120.1</ele>
      </trkpt>
      <trkpt lat="45.32551" lon="-72.64949">
        <ele>121.1</ele>
      </trkpt>
      <trkpt lat="45.32564" lon="-72.64963">
        <ele>121.1</ele>
      </trkpt>
      <trkpt lat="45.32579" lon="-72.64994">
        <ele>120.7</ele>
      </trkpt>
      <trkpt lat="45.32613" lon="-72.65025">
        <ele>119.6</ele>
      </trkpt>
      <trkpt lat="45.32623" lon="-72.65039">
        <ele>119</ele>
      </trkpt>
      <trkpt lat="45.32654" lon="-72.65106">
        <ele>117.7</ele>
      </trkpt>
      <trkpt lat="45.3268" lon="-72.65136">
        <ele>118.7</ele>
      </trkpt>
      <trkpt lat="45.32684" lon="-72.65137">
        <ele>118.7</ele>
      </trkpt>
      <trkpt lat="45.3269" lon="-72.65137">
        <ele>118.7</ele>
      </trkpt>
      <trkpt lat="45.32721" lon="-72.65098">
        <ele>118</ele>
      </trkpt>
      <trkpt lat="45.32743" lon="-72.65083">
        <ele>117.9</ele>
      </trkpt>
      <trkpt lat="45.32784" lon="-72.65065">
        <ele>117.6</ele>
      </trkpt>
      <trkpt lat="45.32809" lon="-72.65065">
        <ele>116.8</ele>
      </trkpt>
      <trkpt lat="45.32817" lon="-72.65057">
        <ele>116.6</ele>
      </trkpt>
      <trkpt lat="45.32859" lon="-72.65004">
        <ele>116.5</ele>
      </trkpt>
      <trkpt lat="45.3288" lon="-72.64989">
        <ele>116.6</ele>
      </trkpt>
      <trkpt lat="45.32902" lon="-72.64958">
        <ele>116.6</ele>
      </trkpt>
      <trkpt lat="45.32921" lon="-72.64949">
        <ele>116.7</ele>
      </trkpt>
      <trkpt lat="45.32935" lon="-72.64931">
        <ele>117</ele>
      </trkpt>
      <trkpt lat="45.32939" lon="-72.64928">
        <ele>117</ele>
      </trkpt>
      <trkpt lat="45.3295" lon="-72.64929">
        <ele>117</ele>
      </trkpt>
      <trkpt lat="45.32958" lon="-72.64931">
        <ele>116.9</ele>
      </trkpt>
      <trkpt lat="45.32977" lon="-72.6495">
        <ele>117</ele>
      </trkpt>
      <trkpt lat="45.32987" lon="-72.64954">
        <ele>117.1</ele>
      </trkpt>
      <trkpt lat="45.33006" lon="-72.64949">
        <ele>117.7</ele>
      </trkpt>
      <trkpt lat="45.33034" lon="-72.64958">
        <ele>117.5</ele>
      </trkpt>
      <trkpt lat="45.33039" lon="-72.64957">
        <ele>117.5</ele>
      </trkpt>
      <trkpt lat="45.33047" lon="-72.64947">
        <ele>117.4</ele>
      </trkpt>
      <trkpt lat="45.33046" lon="-72.64947">
        <ele>117.4</ele>
      </trkpt>
      <trkpt lat="45.33054" lon="-72.6494">
        <ele>117.3</ele>
      </trkpt>
      <trkpt lat="45.33067" lon="-72.64932">
        <ele>116.9</ele>
      </trkpt>
      <trkpt lat="45.3311" lon="-72.64936">
        <ele>115.3</ele>
      </trkpt>
      <trkpt lat="45.33136" lon="-72.6494">
        <ele>114.5</ele>
      </trkpt>
      <trkpt lat="45.33197" lon="-72.64944">
        <ele>114.5</ele>
      </trkpt>
      <trkpt lat="45.33209" lon="-72.64945">
        <ele>114.6</ele>
      </trkpt>
      <trkpt lat="45.33221" lon="-72.64954">
        <ele>115</ele>
      </trkpt>
      <trkpt lat="45.33243" lon="-72.64954">
        <ele>115.8</ele>
      </trkpt>
      <trkpt lat="45.3325" lon="-72.64959">
        <ele>116.2</ele>
      </trkpt>
      <trkpt lat="45.33255" lon="-72.64972">
        <ele>116.4</ele>
      </trkpt>
      <trkpt lat="45.33265" lon="-72.65083">
        <ele>116.3</ele>
      </trkpt>
      <trkpt lat="45.3327" lon="-72.65092">
        <ele>116.1</ele>
      </trkpt>
      <trkpt lat="45.33279" lon="-72.65101">
        <ele>116</ele>
      </trkpt>
      <trkpt lat="45.33287" lon="-72.65101">
        <ele>116</ele>
      </trkpt>
      <trkpt lat="45.33303" lon="-72.65088">
        <ele>116.1</ele>
      </trkpt>
      <trkpt lat="45.33317" lon="-72.65087">
        <ele>116.3</ele>
      </trkpt>
      <trkpt lat="45.33348" lon="-72.65105">
        <ele>117.1</ele>
      </trkpt>
      <trkpt lat="45.33367" lon="-72.65102">
        <ele>117.1</ele>
      </trkpt>
      <trkpt lat="45.3338" lon="-72.65107">
        <ele>117.3</ele>
      </trkpt>
      <trkpt lat="45.33388" lon="-72.6512">
        <ele>117.2</ele>
      </trkpt>
      <trkpt lat="45.33424" lon="-72.65155">
        <ele>117.9</ele>
      </trkpt>
      <trkpt lat="45.33431" lon="-72.65164">
        <ele>117.9</ele>
      </trkpt>
      <trkpt lat="45.33438" lon="-72.65182">
        <ele>118.3</ele>
      </trkpt>
      <trkpt lat="45.33447" lon="-72.65191">
        <ele>118.6</ele>
      </trkpt>
      <trkpt lat="45.33506" lon="-72.65178">
        <ele>120.7</ele>
      </trkpt>
      <trkpt lat="45.33506" lon="-72.65172">
        <ele>120.7</ele>
      </trkpt>
      <trkpt lat="45.3351" lon="-72.65168">
        <ele>120.7</ele>
      </trkpt>
      <trkpt lat="45.33546" lon="-72.65162">
        <ele>122.3</ele>
      </trkpt>
      <trkpt lat="45.33575" lon="-72.65159">
        <ele>122.8</ele>
      </trkpt>
      <trkpt lat="45.33604" lon="-72.65137">
        <ele>123</ele>
      </trkpt>
      <trkpt lat="45.33642" lon="-72.65128">
        <ele>123.2</ele>
      </trkpt>
      <trkpt lat="45.33651" lon="-72.65124">
        <ele>123.5</ele>
      </trkpt>
      <trkpt lat="45.33652" lon="-72.6512">
        <ele>123.5</ele>
      </trkpt>
      <trkpt lat="45.33651" lon="-72.65111">
        <ele>123.5</ele>
      </trkpt>
      <trkpt lat="45.33639" lon="-72.65065">
        <ele>125.1</ele>
      </trkpt>
      <trkpt lat="45.33641" lon="-72.65061">
        <ele>125.1</ele>
      </trkpt>
      <trkpt lat="45.33668" lon="-72.65048">
        <ele>125.3</ele>
      </trkpt>
      <trkpt lat="45.33673" lon="-72.65043">
        <ele>125.7</ele>
      </trkpt>
      <trkpt lat="45.33674" lon="-72.65034">
        <ele>125.9</ele>
      </trkpt>
      <trkpt lat="45.33649" lon="-72.64941">
        <ele>129.7</ele>
      </trkpt>
      <trkpt lat="45.3364" lon="-72.64908">
        <ele>131.5</ele>
      </trkpt>
      <trkpt lat="45.33641" lon="-72.64901">
        <ele>131.8</ele>
      </trkpt>
      <trkpt lat="45.33649" lon="-72.64896">
        <ele>132.2</ele>
      </trkpt>
      <trkpt lat="45.33712" lon="-72.64885">
        <ele>132.2</ele>
      </trkpt>
      <trkpt lat="45.33726" lon="-72.64886">
        <ele>131.9</ele>
      </trkpt>
      <trkpt lat="45.33778" lon="-72.64882">
        <ele>130.9</ele>
      </trkpt>
      <trkpt lat="45.3379" lon="-72.64886">
        <ele>130.8</ele>
      </trkpt>
      <trkpt lat="45.33803" lon="-72.64901">
        <ele>131</ele>
      </trkpt>
      <trkpt lat="45.33809" lon="-72.649">
        <ele>131</ele>
      </trkpt>
      <trkpt lat="45.3382" lon="-72.64901">
        <ele>130.8</ele>
      </trkpt>
      <trkpt lat="45.33818" lon="-72.64922">
        <ele>130.5</ele>
      </trkpt>
      <trkpt lat="45.33819" lon="-72.64931">
        <ele>130.3</ele>
      </trkpt>
      <trkpt lat="45.33824" lon="-72.64932">
        <ele>129.9</ele>
      </trkpt>
      <trkpt lat="45.33828" lon="-72.64931">
        <ele>129.9</ele>
      </trkpt>
      <trkpt lat="45.33841" lon="-72.6491">
        <ele>129.7</ele>
      </trkpt>
      <trkpt lat="45.33849" lon="-72.64913">
        <ele>130</ele>
      </trkpt>
      <trkpt lat="45.3387" lon="-72.64926">
        <ele>131.2</ele>
      </trkpt>
      <trkpt lat="45.33888" lon="-72.64913">
        <ele>132.4</ele>
      </trkpt>
      <trkpt lat="45.33897" lon="-72.6491">
        <ele>133.8</ele>
      </trkpt>
      <trkpt lat="45.33907" lon="-72.64914">
        <ele>133.8</ele>
      </trkpt>
      <trkpt lat="45.33918" lon="-72.64923">
        <ele>135.2</ele>
      </trkpt>
      <trkpt lat="45.3396" lon="-72.64931">
        <ele>136.6</ele>
      </trkpt>
      <trkpt lat="45.34005" lon="-72.64926">
        <ele>136.4</ele>
      </trkpt>
      <trkpt lat="45.34045" lon="-72.64935">
        <ele>137</ele>
      </trkpt>
      <trkpt lat="45.34062" lon="-72.64926">
        <ele>137.2</ele>
      </trkpt>
      <trkpt lat="45.34094" lon="-72.64913">
        <ele>137.3</ele>
      </trkpt>
      <trkpt lat="45.34135" lon="-72.64918">
        <ele>136.6</ele>
      </trkpt>
      <trkpt lat="45.34147" lon="-72.64917">
        <ele>136.8</ele>
      </trkpt>
      <trkpt lat="45.34146" lon="-72.64917">
        <ele>136.8</ele>
      </trkpt>
      <trkpt lat="45.34161" lon="-72.64914">
        <ele>137.2</ele>
      </trkpt>
      <trkpt lat="45.34169" lon="-72.64909">
        <ele>137.3</ele>
      </trkpt>
      <trkpt lat="45.34175" lon="-72.649">
        <ele>137.4</ele>
      </trkpt>
      <trkpt lat="45.34185" lon="-72.6486">
        <ele>137.2</ele>
      </trkpt>
      <trkpt lat="45.34189" lon="-72.64851">
        <ele>137.2</ele>
      </trkpt>
      <trkpt lat="45.34201" lon="-72.64849">
        <ele>137.2</ele>
      </trkpt>
      <trkpt lat="45.34229" lon="-72.64851">
        <ele>138</ele>
      </trkpt>
      <trkpt lat="45.34248" lon="-72.64854">
        <ele>137.5</ele>
      </trkpt>
      <trkpt lat="45.34272" lon="-72.64847">
        <ele>135.7</ele>
      </trkpt>
      <trkpt lat="45.34302" lon="-72.64859">
        <ele>134.1</ele>
      </trkpt>
      <trkpt lat="45.34315" lon="-72.64854">
        <ele>133.8</ele>
      </trkpt>
      <trkpt lat="45.34324" lon="-72.64909">
        <ele>133.3</ele>
      </trkpt>
    </trkseg>
  </trk>
</gpx>