<?xml version='1.0' encoding='utf-8'?>
<gpx xmlns="http://www.topografix.com/GPX/1/1" xmlns:xsi="http://www.w3.org/2001/XMLSchema-instance" version="1.1" creator="Gravelle Estrie" xsi:schemaLocation="http://www.topografix.com/GPX/1/1 http://www.topografix.com/GPX/1/1/gpx.xsd">
  <metadata>
    <name>Hard Sun</name>
  </metadata>
  <trk>
    <name>Hard Sun</name>
    <trkseg>
      <trkpt lat="45.34335" lon="-72.64972">
        <ele>132.8</ele>
      </trkpt>
      <trkpt lat="45.343205" lon="-72.648824">
        <ele>133</ele>
      </trkpt>
      <trkpt lat="45.34306" lon="-72.64793">
        <ele>134</ele>
      </trkpt>
      <trkpt lat="45.342917" lon="-72.646964">
        <ele>133.4</ele>
      </trkpt>
      <trkpt lat="45.342775" lon="-72.645999">
        <ele>133.1</ele>
      </trkpt>
      <trkpt lat="45.342632" lon="-72.645034">
        <ele>133.5</ele>
      </trkpt>
      <trkpt lat="45.34249" lon="-72.64407">
        <ele>133.8</ele>
      </trkpt>
      <trkpt lat="45.34214" lon="-72.64295">
        <ele>134.7</ele>
      </trkpt>
      <trkpt lat="45.34169" lon="-72.64192">
        <ele>135.6</ele>
      </trkpt>
      <trkpt lat="45.34118" lon="-72.640941">
        <ele>136.5</ele>
      </trkpt>
      <trkpt lat="45.34067" lon="-72.639963">
        <ele>137.5</ele>
      </trkpt>
      <trkpt lat="45.34016" lon="-72.638985">
        <ele>138.6</ele>
      </trkpt>
      <trkpt lat="45.33965" lon="-72.638007">
        <ele>140.1</ele>
      </trkpt>
      <trkpt lat="45.33914" lon="-72.63703">
        <ele>141.1</ele>
      </trkpt>
      <trkpt lat="45.33878" lon="-72.63624">
        <ele>141.8</ele>
      </trkpt>
      <trkpt lat="45.33861" lon="-72.6357">
        <ele>142.7</ele>
      </trkpt>
      <trkpt lat="45.338455" lon="-72.634874">
        <ele>143.5</ele>
      </trkpt>
      <trkpt lat="45.3383" lon="-72.63405">
        <ele>143.3</ele>
      </trkpt>
      <trkpt lat="45.33816" lon="-72.632839">
        <ele>143.5</ele>
      </trkpt>
      <trkpt lat="45.33802" lon="-72.63163">
        <ele>143.6</ele>
      </trkpt>
      <trkpt lat="45.33784" lon="-72.630939">
        <ele>143.8</ele>
      </trkpt>
      <trkpt lat="45.33766" lon="-72.63025">
        <ele>144.1</ele>
      </trkpt>
      <trkpt lat="45.33742" lon="-72.629679">
        <ele>144</ele>
      </trkpt>
      <trkpt lat="45.33718" lon="-72.62911">
        <ele>144.3</ele>
      </trkpt>
      <trkpt lat="45.336718" lon="-72.628197">
        <ele>145.8</ele>
      </trkpt>
      <trkpt lat="45.336256" lon="-72.627285">
        <ele>146.5</ele>
      </trkpt>
      <trkpt lat="45.335794" lon="-72.626373">
        <ele>147.1</ele>
      </trkpt>
      <trkpt lat="45.335332" lon="-72.625461">
        <ele>147.8</ele>
      </trkpt>
      <trkpt lat="45.33487" lon="-72.62455">
        <ele>147.8</ele>
      </trkpt>
      <trkpt lat="45.334383" lon="-72.623593">
        <ele>148.1</ele>
      </trkpt>
      <trkpt lat="45.333896" lon="-72.622636">
        <ele>148.4</ele>
      </trkpt>
      <trkpt lat="45.33341" lon="-72.62168">
        <ele>150.9</ele>
      </trkpt>
      <trkpt lat="45.333105" lon="-72.621009">
        <ele>150.4</ele>
      </trkpt>
      <trkpt lat="45.3328" lon="-72.62034">
        <ele>150.3</ele>
      </trkpt>
      <trkpt lat="45.33246" lon="-72.61922">
        <ele>150.9</ele>
      </trkpt>
      <trkpt lat="45.33222" lon="-72.61806">
        <ele>151.1</ele>
      </trkpt>
      <trkpt lat="45.332037" lon="-72.616842">
        <ele>152</ele>
      </trkpt>
      <trkpt lat="45.331855" lon="-72.615624">
        <ele>152.6</ele>
      </trkpt>
      <trkpt lat="45.331672" lon="-72.614407">
        <ele>153.2</ele>
      </trkpt>
      <trkpt lat="45.33149" lon="-72.61319">
        <ele>153.7</ele>
      </trkpt>
      <trkpt lat="45.33128" lon="-72.61229">
        <ele>154.3</ele>
      </trkpt>
      <trkpt lat="45.33098" lon="-72.61143">
        <ele>155.3</ele>
      </trkpt>
      <trkpt lat="45.33063" lon="-72.61067">
        <ele>157</ele>
      </trkpt>
      <trkpt lat="45.3303" lon="-72.61009">
        <ele>157.9</ele>
      </trkpt>
      <trkpt lat="45.32995" lon="-72.60956">
        <ele>158.7</ele>
      </trkpt>
      <trkpt lat="45.329446" lon="-72.608843">
        <ele>158.8</ele>
      </trkpt>
      <trkpt lat="45.328943" lon="-72.608126">
        <ele>159.8</ele>
      </trkpt>
      <trkpt lat="45.32844" lon="-72.60741">
        <ele>160.7</ele>
      </trkpt>
      <trkpt lat="45.32801" lon="-72.6066">
        <ele>161.4</ele>
      </trkpt>
      <trkpt lat="45.32758" lon="-72.60548">
        <ele>162.5</ele>
      </trkpt>
      <trkpt lat="45.327222" lon="-72.604425">
        <ele>163.7</ele>
      </trkpt>
      <trkpt lat="45.326864" lon="-72.603371">
        <ele>164.9</ele>
      </trkpt>
      <trkpt lat="45.326506" lon="-72.602316">
        <ele>166.6</ele>
      </trkpt>
      <trkpt lat="45.326148" lon="-72.601262">
        <ele>167.6</ele>
      </trkpt>
      <trkpt lat="45.325791" lon="-72.600207">
        <ele>168.6</ele>
      </trkpt>
      <trkpt lat="45.325433" lon="-72.599153">
        <ele>169.5</ele>
      </trkpt>
      <trkpt lat="45.325075" lon="-72.598098">
        <ele>170.6</ele>
      </trkpt>
      <trkpt lat="45.324717" lon="-72.597044">
        <ele>171.3</ele>
      </trkpt>
      <trkpt lat="45.32436" lon="-72.59599">
        <ele>172.4</ele>
      </trkpt>
      <trkpt lat="45.32417" lon="-72.595339">
        <ele>173.1</ele>
      </trkpt>
      <trkpt lat="45.32398" lon="-72.59469">
        <ele>173.5</ele>
      </trkpt>
      <trkpt lat="45.3238" lon="-72.59348">
        <ele>176</ele>
      </trkpt>
      <trkpt lat="45.3238" lon="-72.59334">
        <ele>176.1</ele>
      </trkpt>
      <trkpt lat="45.322939" lon="-72.593289">
        <ele>175.4</ele>
      </trkpt>
      <trkpt lat="45.32208" lon="-72.59324">
        <ele>173.1</ele>
      </trkpt>
      <trkpt lat="45.3214" lon="-72.593202">
        <ele>171.5</ele>
      </trkpt>
      <trkpt lat="45.32072" lon="-72.593164">
        <ele>169.7</ele>
      </trkpt>
      <trkpt lat="45.32004" lon="-72.593127">
        <ele>166.2</ele>
      </trkpt>
      <trkpt lat="45.31936" lon="-72.59309">
        <ele>162.9</ele>
      </trkpt>
      <trkpt lat="45.31889" lon="-72.59312">
        <ele>162.1</ele>
      </trkpt>
      <trkpt lat="45.31858" lon="-72.5934">
        <ele>162.1</ele>
      </trkpt>
      <trkpt lat="45.31809" lon="-72.594115">
        <ele>161.5</ele>
      </trkpt>
      <trkpt lat="45.3176" lon="-72.59483">
        <ele>160.3</ele>
      </trkpt>
      <trkpt lat="45.31746" lon="-72.595">
        <ele>160.2</ele>
      </trkpt>
      <trkpt lat="45.31732" lon="-72.59506">
        <ele>160.1</ele>
      </trkpt>
      <trkpt lat="45.31714" lon="-72.59511">
        <ele>160</ele>
      </trkpt>
      <trkpt lat="45.31632" lon="-72.59514">
        <ele>160.8</ele>
      </trkpt>
      <trkpt lat="45.3155" lon="-72.59517">
        <ele>160.7</ele>
      </trkpt>
      <trkpt lat="45.31468" lon="-72.5952">
        <ele>160.2</ele>
      </trkpt>
      <trkpt lat="45.31386" lon="-72.59523">
        <ele>162.2</ele>
      </trkpt>
      <trkpt lat="45.313216" lon="-72.595243">
        <ele>162.6</ele>
      </trkpt>
      <trkpt lat="45.312573" lon="-72.595256">
        <ele>161.4</ele>
      </trkpt>
      <trkpt lat="45.31193" lon="-72.59527">
        <ele>159.4</ele>
      </trkpt>
      <trkpt lat="45.31164" lon="-72.59532">
        <ele>158.5</ele>
      </trkpt>
      <trkpt lat="45.310975" lon="-72.59534">
        <ele>157.9</ele>
      </trkpt>
      <trkpt lat="45.31031" lon="-72.59536">
        <ele>156.7</ele>
      </trkpt>
      <trkpt lat="45.31004" lon="-72.59541">
        <ele>156.4</ele>
      </trkpt>
      <trkpt lat="45.30916" lon="-72.59541">
        <ele>156.8</ele>
      </trkpt>
      <trkpt lat="45.30899" lon="-72.59543">
        <ele>156.6</ele>
      </trkpt>
      <trkpt lat="45.30898" lon="-72.59543">
        <ele>156.6</ele>
      </trkpt>
      <trkpt lat="45.308139" lon="-72.59547">
        <ele>154.9</ele>
      </trkpt>
      <trkpt lat="45.3073" lon="-72.59551">
        <ele>156</ele>
      </trkpt>
      <trkpt lat="45.3073" lon="-72.594585">
        <ele>157.3</ele>
      </trkpt>
      <trkpt lat="45.3073" lon="-72.59366">
        <ele>158.9</ele>
      </trkpt>
      <trkpt lat="45.306625" lon="-72.593705">
        <ele>157.7</ele>
      </trkpt>
      <trkpt lat="45.30595" lon="-72.59375">
        <ele>156.7</ele>
      </trkpt>
      <trkpt lat="45.305269" lon="-72.593813">
        <ele>154.4</ele>
      </trkpt>
      <trkpt lat="45.304589" lon="-72.593876">
        <ele>150.7</ele>
      </trkpt>
      <trkpt lat="45.30391" lon="-72.59394">
        <ele>148.3</ele>
      </trkpt>
      <trkpt lat="45.30318" lon="-72.59398">
        <ele>145.6</ele>
      </trkpt>
      <trkpt lat="45.30245" lon="-72.59402">
        <ele>143</ele>
      </trkpt>
      <trkpt lat="45.30197" lon="-72.593954">
        <ele>143.8</ele>
      </trkpt>
      <trkpt lat="45.30149" lon="-72.59389">
        <ele>145.2</ele>
      </trkpt>
      <trkpt lat="45.300925" lon="-72.593684">
        <ele>147.4</ele>
      </trkpt>
      <trkpt lat="45.30036" lon="-72.59348">
        <ele>148.6</ele>
      </trkpt>
      <trkpt lat="45.29996" lon="-72.59343">
        <ele>151.3</ele>
      </trkpt>
      <trkpt lat="45.29945" lon="-72.59339">
        <ele>154.5</ele>
      </trkpt>
      <trkpt lat="45.29874" lon="-72.59353">
        <ele>163.1</ele>
      </trkpt>
      <trkpt lat="45.29806" lon="-72.593865">
        <ele>167.3</ele>
      </trkpt>
      <trkpt lat="45.29738" lon="-72.5942">
        <ele>170</ele>
      </trkpt>
      <trkpt lat="45.29712" lon="-72.59425">
        <ele>170.4</ele>
      </trkpt>
      <trkpt lat="45.29711" lon="-72.59425">
        <ele>170.4</ele>
      </trkpt>
      <trkpt lat="45.296485" lon="-72.594285">
        <ele>170.7</ele>
      </trkpt>
      <trkpt lat="45.29586" lon="-72.59432">
        <ele>171.5</ele>
      </trkpt>
      <trkpt lat="45.29583" lon="-72.59392">
        <ele>171</ele>
      </trkpt>
      <trkpt lat="45.29574" lon="-72.59335">
        <ele>170.7</ele>
      </trkpt>
      <trkpt lat="45.29556" lon="-72.59272">
        <ele>170.2</ele>
      </trkpt>
      <trkpt lat="45.295255" lon="-72.591979">
        <ele>169.5</ele>
      </trkpt>
      <trkpt lat="45.29495" lon="-72.59124">
        <ele>168.9</ele>
      </trkpt>
      <trkpt lat="45.29462" lon="-72.590483">
        <ele>169.4</ele>
      </trkpt>
      <trkpt lat="45.29429" lon="-72.589726">
        <ele>169.1</ele>
      </trkpt>
      <trkpt lat="45.29396" lon="-72.58897">
        <ele>167.6</ele>
      </trkpt>
      <trkpt lat="45.293685" lon="-72.588334">
        <ele>166.3</ele>
      </trkpt>
      <trkpt lat="45.29341" lon="-72.5877">
        <ele>163.1</ele>
      </trkpt>
      <trkpt lat="45.29313" lon="-72.58695">
        <ele>161.1</ele>
      </trkpt>
      <trkpt lat="45.29288" lon="-72.58614">
        <ele>164.2</ele>
      </trkpt>
      <trkpt lat="45.29269" lon="-72.58547">
        <ele>168.4</ele>
      </trkpt>
      <trkpt lat="45.29247" lon="-72.58453">
        <ele>172.7</ele>
      </trkpt>
      <trkpt lat="45.29235" lon="-72.583849">
        <ele>172.1</ele>
      </trkpt>
      <trkpt lat="45.29223" lon="-72.58317">
        <ele>169.9</ele>
      </trkpt>
      <trkpt lat="45.292006" lon="-72.581981">
        <ele>167.2</ele>
      </trkpt>
      <trkpt lat="45.291782" lon="-72.580793">
        <ele>169.6</ele>
      </trkpt>
      <trkpt lat="45.291558" lon="-72.579605">
        <ele>174.2</ele>
      </trkpt>
      <trkpt lat="45.291334" lon="-72.578417">
        <ele>178.8</ele>
      </trkpt>
      <trkpt lat="45.29111" lon="-72.57723">
        <ele>182</ele>
      </trkpt>
      <trkpt lat="45.291" lon="-72.57634">
        <ele>183.1</ele>
      </trkpt>
      <trkpt lat="45.29094" lon="-72.57549">
        <ele>184.5</ele>
      </trkpt>
      <trkpt lat="45.290098" lon="-72.575544">
        <ele>183.3</ele>
      </trkpt>
      <trkpt lat="45.289256" lon="-72.575598">
        <ele>185.1</ele>
      </trkpt>
      <trkpt lat="45.288414" lon="-72.575652">
        <ele>184.4</ele>
      </trkpt>
      <trkpt lat="45.287572" lon="-72.575706">
        <ele>185.1</ele>
      </trkpt>
      <trkpt lat="45.28673" lon="-72.57576">
        <ele>188</ele>
      </trkpt>
      <trkpt lat="45.28672" lon="-72.57576">
        <ele>188</ele>
      </trkpt>
      <trkpt lat="45.28621" lon="-72.5758">
        <ele>189.9</ele>
      </trkpt>
      <trkpt lat="45.285364" lon="-72.57583">
        <ele>194.1</ele>
      </trkpt>
      <trkpt lat="45.284518" lon="-72.57586">
        <ele>197.6</ele>
      </trkpt>
      <trkpt lat="45.283672" lon="-72.57589">
        <ele>199.3</ele>
      </trkpt>
      <trkpt lat="45.282826" lon="-72.57592">
        <ele>200.7</ele>
      </trkpt>
      <trkpt lat="45.28198" lon="-72.57595">
        <ele>201.4</ele>
      </trkpt>
      <trkpt lat="45.281154" lon="-72.575983">
        <ele>202.2</ele>
      </trkpt>
      <trkpt lat="45.280328" lon="-72.576016">
        <ele>203.3</ele>
      </trkpt>
      <trkpt lat="45.279503" lon="-72.57605">
        <ele>202.9</ele>
      </trkpt>
      <trkpt lat="45.278677" lon="-72.576083">
        <ele>204.5</ele>
      </trkpt>
      <trkpt lat="45.277852" lon="-72.576116">
        <ele>205.4</ele>
      </trkpt>
      <trkpt lat="45.277026" lon="-72.57615">
        <ele>206.8</ele>
      </trkpt>
      <trkpt lat="45.276201" lon="-72.576183">
        <ele>207.6</ele>
      </trkpt>
      <trkpt lat="45.275375" lon="-72.576216">
        <ele>208.4</ele>
      </trkpt>
      <trkpt lat="45.27455" lon="-72.57625">
        <ele>206.5</ele>
      </trkpt>
      <trkpt lat="45.27454" lon="-72.57625">
        <ele>206.5</ele>
      </trkpt>
      <trkpt lat="45.27369" lon="-72.57629">
        <ele>206.3</ele>
      </trkpt>
      <trkpt lat="45.272839" lon="-72.57633">
        <ele>202.8</ele>
      </trkpt>
      <trkpt lat="45.27199" lon="-72.57637">
        <ele>201.6</ele>
      </trkpt>
      <trkpt lat="45.271146" lon="-72.57637">
        <ele>200.4</ele>
      </trkpt>
      <trkpt lat="45.270303" lon="-72.57637">
        <ele>199.5</ele>
      </trkpt>
      <trkpt lat="45.26946" lon="-72.57637">
        <ele>199.8</ele>
      </trkpt>
      <trkpt lat="45.268648" lon="-72.576377">
        <ele>197.9</ele>
      </trkpt>
      <trkpt lat="45.267836" lon="-72.576384">
        <ele>197.6</ele>
      </trkpt>
      <trkpt lat="45.267024" lon="-72.576391">
        <ele>198.3</ele>
      </trkpt>
      <trkpt lat="45.266212" lon="-72.576398">
        <ele>198.9</ele>
      </trkpt>
      <trkpt lat="45.2654" lon="-72.576405">
        <ele>201.2</ele>
      </trkpt>
      <trkpt lat="45.264588" lon="-72.576412">
        <ele>202.4</ele>
      </trkpt>
      <trkpt lat="45.263776" lon="-72.576419">
        <ele>203.2</ele>
      </trkpt>
      <trkpt lat="45.262964" lon="-72.576426">
        <ele>202.1</ele>
      </trkpt>
      <trkpt lat="45.262152" lon="-72.576433">
        <ele>202.7</ele>
      </trkpt>
      <trkpt lat="45.26134" lon="-72.57644">
        <ele>203.1</ele>
      </trkpt>
      <trkpt lat="45.26048" lon="-72.576455">
        <ele>204</ele>
      </trkpt>
      <trkpt lat="45.25962" lon="-72.57647">
        <ele>204.8</ele>
      </trkpt>
      <trkpt lat="45.25944" lon="-72.57625">
        <ele>204.9</ele>
      </trkpt>
      <trkpt lat="45.25935" lon="-72.57598">
        <ele>204.7</ele>
      </trkpt>
      <trkpt lat="45.25941" lon="-72.57526">
        <ele>204.1</ele>
      </trkpt>
      <trkpt lat="45.25945" lon="-72.57421">
        <ele>203</ele>
      </trkpt>
      <trkpt lat="45.25949" lon="-72.57316">
        <ele>202</ele>
      </trkpt>
      <trkpt lat="45.25953" lon="-72.571924">
        <ele>201.5</ele>
      </trkpt>
      <trkpt lat="45.25957" lon="-72.570688">
        <ele>201.7</ele>
      </trkpt>
      <trkpt lat="45.25961" lon="-72.569452">
        <ele>200.5</ele>
      </trkpt>
      <trkpt lat="45.25965" lon="-72.568217">
        <ele>201.4</ele>
      </trkpt>
      <trkpt lat="45.25969" lon="-72.566981">
        <ele>202.5</ele>
      </trkpt>
      <trkpt lat="45.25973" lon="-72.565745">
        <ele>205.1</ele>
      </trkpt>
      <trkpt lat="45.25977" lon="-72.56451">
        <ele>208.4</ele>
      </trkpt>
      <trkpt lat="45.25981" lon="-72.56348">
        <ele>210.4</ele>
      </trkpt>
      <trkpt lat="45.25985" lon="-72.56245">
        <ele>213.6</ele>
      </trkpt>
      <trkpt lat="45.25989" lon="-72.56142">
        <ele>217</ele>
      </trkpt>
      <trkpt lat="45.25993" lon="-72.56039">
        <ele>220.9</ele>
      </trkpt>
      <trkpt lat="45.25993" lon="-72.5604">
        <ele>220.8</ele>
      </trkpt>
      <trkpt lat="45.259977" lon="-72.55929">
        <ele>221.9</ele>
      </trkpt>
      <trkpt lat="45.260025" lon="-72.55818">
        <ele>223</ele>
      </trkpt>
      <trkpt lat="45.260072" lon="-72.55707">
        <ele>222.6</ele>
      </trkpt>
      <trkpt lat="45.26012" lon="-72.55596">
        <ele>222.3</ele>
      </trkpt>
      <trkpt lat="45.26011" lon="-72.55556">
        <ele>222.1</ele>
      </trkpt>
      <trkpt lat="45.26006" lon="-72.55535">
        <ele>222.1</ele>
      </trkpt>
      <trkpt lat="45.25994" lon="-72.55529">
        <ele>221.9</ele>
      </trkpt>
      <trkpt lat="45.25911" lon="-72.555328">
        <ele>220.7</ele>
      </trkpt>
      <trkpt lat="45.25828" lon="-72.555367">
        <ele>216.9</ele>
      </trkpt>
      <trkpt lat="45.25745" lon="-72.555406">
        <ele>212.1</ele>
      </trkpt>
      <trkpt lat="45.25662" lon="-72.555445">
        <ele>209.3</ele>
      </trkpt>
      <trkpt lat="45.25579" lon="-72.555484">
        <ele>207.6</ele>
      </trkpt>
      <trkpt lat="45.25496" lon="-72.555523">
        <ele>207.2</ele>
      </trkpt>
      <trkpt lat="45.25413" lon="-72.555562">
        <ele>206.9</ele>
      </trkpt>
      <trkpt lat="45.2533" lon="-72.555601">
        <ele>207.7</ele>
      </trkpt>
      <trkpt lat="45.25247" lon="-72.55564">
        <ele>204.7</ele>
      </trkpt>
      <trkpt lat="45.251764" lon="-72.555642">
        <ele>203.4</ele>
      </trkpt>
      <trkpt lat="45.251059" lon="-72.555645">
        <ele>203.1</ele>
      </trkpt>
      <trkpt lat="45.250354" lon="-72.555647">
        <ele>201.9</ele>
      </trkpt>
      <trkpt lat="45.24965" lon="-72.55565">
        <ele>200.5</ele>
      </trkpt>
      <trkpt lat="45.24942" lon="-72.55564">
        <ele>200.3</ele>
      </trkpt>
      <trkpt lat="45.24933" lon="-72.5556">
        <ele>200.2</ele>
      </trkpt>
      <trkpt lat="45.24879" lon="-72.55528">
        <ele>200.4</ele>
      </trkpt>
      <trkpt lat="45.24807" lon="-72.5548">
        <ele>200.1</ele>
      </trkpt>
      <trkpt lat="45.24733" lon="-72.554309">
        <ele>201.3</ele>
      </trkpt>
      <trkpt lat="45.24659" lon="-72.55382">
        <ele>200.2</ele>
      </trkpt>
      <trkpt lat="45.24641" lon="-72.55395">
        <ele>200</ele>
      </trkpt>
      <trkpt lat="45.24613" lon="-72.55404">
        <ele>200.1</ele>
      </trkpt>
      <trkpt lat="45.24568" lon="-72.55404">
        <ele>200.9</ele>
      </trkpt>
      <trkpt lat="45.24511" lon="-72.55398">
        <ele>202.8</ele>
      </trkpt>
      <trkpt lat="45.244605" lon="-72.553944">
        <ele>205</ele>
      </trkpt>
      <trkpt lat="45.2441" lon="-72.55391">
        <ele>206.5</ele>
      </trkpt>
      <trkpt lat="45.24335" lon="-72.55381">
        <ele>211.9</ele>
      </trkpt>
      <trkpt lat="45.24279" lon="-72.55376">
        <ele>216.3</ele>
      </trkpt>
      <trkpt lat="45.24226" lon="-72.55375">
        <ele>220.6</ele>
      </trkpt>
      <trkpt lat="45.24171" lon="-72.5537">
        <ele>225.4</ele>
      </trkpt>
      <trkpt lat="45.240957" lon="-72.553657">
        <ele>231.9</ele>
      </trkpt>
      <trkpt lat="45.240205" lon="-72.553614">
        <ele>239.7</ele>
      </trkpt>
      <trkpt lat="45.239452" lon="-72.553572">
        <ele>244.2</ele>
      </trkpt>
      <trkpt lat="45.2387" lon="-72.55353">
        <ele>249.2</ele>
      </trkpt>
      <trkpt lat="45.23827" lon="-72.55351">
        <ele>251</ele>
      </trkpt>
      <trkpt lat="45.23765" lon="-72.55354">
        <ele>255.5</ele>
      </trkpt>
      <trkpt lat="45.23752" lon="-72.55355">
        <ele>257.3</ele>
      </trkpt>
      <trkpt lat="45.23741" lon="-72.5536">
        <ele>257.3</ele>
      </trkpt>
      <trkpt lat="45.23669" lon="-72.55416">
        <ele>263.8</ele>
      </trkpt>
      <trkpt lat="45.23669" lon="-72.55417">
        <ele>263.9</ele>
      </trkpt>
      <trkpt lat="45.23639" lon="-72.55441">
        <ele>266.8</ele>
      </trkpt>
      <trkpt lat="45.23617" lon="-72.55453">
        <ele>268.6</ele>
      </trkpt>
      <trkpt lat="45.236" lon="-72.55459">
        <ele>270.8</ele>
      </trkpt>
      <trkpt lat="45.23579" lon="-72.55462">
        <ele>275.3</ele>
      </trkpt>
      <trkpt lat="45.23555" lon="-72.55462">
        <ele>277.7</ele>
      </trkpt>
      <trkpt lat="45.23544" lon="-72.55458">
        <ele>278.7</ele>
      </trkpt>
      <trkpt lat="45.23529" lon="-72.5545">
        <ele>280.2</ele>
      </trkpt>
      <trkpt lat="45.23514" lon="-72.55427">
        <ele>281.3</ele>
      </trkpt>
      <trkpt lat="45.235" lon="-72.55399">
        <ele>281.4</ele>
      </trkpt>
      <trkpt lat="45.23493" lon="-72.55359">
        <ele>279.7</ele>
      </trkpt>
      <trkpt lat="45.234925" lon="-72.552494">
        <ele>274.6</ele>
      </trkpt>
      <trkpt lat="45.23492" lon="-72.5514">
        <ele>271.2</ele>
      </trkpt>
      <trkpt lat="45.23495" lon="-72.55131">
        <ele>271.2</ele>
      </trkpt>
      <trkpt lat="45.23513" lon="-72.55108">
        <ele>269</ele>
      </trkpt>
      <trkpt lat="45.23522" lon="-72.55091">
        <ele>268.3</ele>
      </trkpt>
      <trkpt lat="45.23525" lon="-72.55081">
        <ele>268</ele>
      </trkpt>
      <trkpt lat="45.23525" lon="-72.5501">
        <ele>268.2</ele>
      </trkpt>
      <trkpt lat="45.234374" lon="-72.549989">
        <ele>274.2</ele>
      </trkpt>
      <trkpt lat="45.2335" lon="-72.54988">
        <ele>281</ele>
      </trkpt>
      <trkpt lat="45.23265" lon="-72.54976">
        <ele>284.9</ele>
      </trkpt>
      <trkpt lat="45.23181" lon="-72.54965">
        <ele>287.3</ele>
      </trkpt>
      <trkpt lat="45.23135" lon="-72.54971">
        <ele>287.4</ele>
      </trkpt>
      <trkpt lat="45.2306" lon="-72.54989">
        <ele>285</ele>
      </trkpt>
      <trkpt lat="45.229898" lon="-72.550128">
        <ele>282</ele>
      </trkpt>
      <trkpt lat="45.229196" lon="-72.550366">
        <ele>279</ele>
      </trkpt>
      <trkpt lat="45.228494" lon="-72.550604">
        <ele>275.3</ele>
      </trkpt>
      <trkpt lat="45.227792" lon="-72.550842">
        <ele>273.7</ele>
      </trkpt>
      <trkpt lat="45.22709" lon="-72.55108">
        <ele>275.1</ele>
      </trkpt>
      <trkpt lat="45.226296" lon="-72.551333">
        <ele>275.4</ele>
      </trkpt>
      <trkpt lat="45.225503" lon="-72.551586">
        <ele>275.2</ele>
      </trkpt>
      <trkpt lat="45.22471" lon="-72.55184">
        <ele>277</ele>
      </trkpt>
      <trkpt lat="45.22452" lon="-72.55185">
        <ele>278.1</ele>
      </trkpt>
      <trkpt lat="45.224035" lon="-72.55187">
        <ele>278.2</ele>
      </trkpt>
      <trkpt lat="45.22355" lon="-72.55189">
        <ele>277.5</ele>
      </trkpt>
      <trkpt lat="45.2233" lon="-72.55188">
        <ele>275.6</ele>
      </trkpt>
      <trkpt lat="45.2228" lon="-72.55176">
        <ele>273.4</ele>
      </trkpt>
      <trkpt lat="45.22235" lon="-72.55171">
        <ele>271.1</ele>
      </trkpt>
      <trkpt lat="45.221845" lon="-72.551684">
        <ele>266.9</ele>
      </trkpt>
      <trkpt lat="45.22134" lon="-72.55166">
        <ele>265.3</ele>
      </trkpt>
      <trkpt lat="45.22068" lon="-72.551654">
        <ele>264.1</ele>
      </trkpt>
      <trkpt lat="45.22002" lon="-72.55165">
        <ele>267.2</ele>
      </trkpt>
      <trkpt lat="45.21946" lon="-72.55163">
        <ele>267.3</ele>
      </trkpt>
      <trkpt lat="45.218823" lon="-72.55166">
        <ele>267.3</ele>
      </trkpt>
      <trkpt lat="45.218186" lon="-72.55169">
        <ele>266.5</ele>
      </trkpt>
      <trkpt lat="45.21755" lon="-72.55172">
        <ele>261.5</ele>
      </trkpt>
      <trkpt lat="45.2172" lon="-72.55185">
        <ele>259.4</ele>
      </trkpt>
      <trkpt lat="45.21705" lon="-72.55194">
        <ele>258.9</ele>
      </trkpt>
      <trkpt lat="45.21688" lon="-72.55205">
        <ele>258.5</ele>
      </trkpt>
      <trkpt lat="45.21657" lon="-72.5522">
        <ele>257.8</ele>
      </trkpt>
      <trkpt lat="45.215927" lon="-72.552602">
        <ele>254.7</ele>
      </trkpt>
      <trkpt lat="45.215285" lon="-72.553005">
        <ele>251</ele>
      </trkpt>
      <trkpt lat="45.214642" lon="-72.553407">
        <ele>243.2</ele>
      </trkpt>
      <trkpt lat="45.214" lon="-72.55381">
        <ele>232.3</ele>
      </trkpt>
      <trkpt lat="45.21357" lon="-72.55409">
        <ele>228.2</ele>
      </trkpt>
      <trkpt lat="45.212886" lon="-72.554626">
        <ele>225</ele>
      </trkpt>
      <trkpt lat="45.212203" lon="-72.555163">
        <ele>223.4</ele>
      </trkpt>
      <trkpt lat="45.21152" lon="-72.5557">
        <ele>224.5</ele>
      </trkpt>
      <trkpt lat="45.21101" lon="-72.556115">
        <ele>227.7</ele>
      </trkpt>
      <trkpt lat="45.2105" lon="-72.55653">
        <ele>231.5</ele>
      </trkpt>
      <trkpt lat="45.21027" lon="-72.55677">
        <ele>232.1</ele>
      </trkpt>
      <trkpt lat="45.21015" lon="-72.55695">
        <ele>232.4</ele>
      </trkpt>
      <trkpt lat="45.21005" lon="-72.55712">
        <ele>233</ele>
      </trkpt>
      <trkpt lat="45.209595" lon="-72.558155">
        <ele>238.2</ele>
      </trkpt>
      <trkpt lat="45.20914" lon="-72.55919">
        <ele>241.3</ele>
      </trkpt>
      <trkpt lat="45.208783" lon="-72.55991">
        <ele>242.5</ele>
      </trkpt>
      <trkpt lat="45.208426" lon="-72.56063">
        <ele>242.5</ele>
      </trkpt>
      <trkpt lat="45.20807" lon="-72.56135">
        <ele>241.3</ele>
      </trkpt>
      <trkpt lat="45.20807" lon="-72.56136">
        <ele>241.3</ele>
      </trkpt>
      <trkpt lat="45.2076" lon="-72.56226">
        <ele>237.4</ele>
      </trkpt>
      <trkpt lat="45.20713" lon="-72.56316">
        <ele>232.7</ele>
      </trkpt>
      <trkpt lat="45.20666" lon="-72.56406">
        <ele>230.2</ele>
      </trkpt>
      <trkpt lat="45.20619" lon="-72.56496">
        <ele>229.6</ele>
      </trkpt>
      <trkpt lat="45.20583" lon="-72.565725">
        <ele>228.4</ele>
      </trkpt>
      <trkpt lat="45.20547" lon="-72.56649">
        <ele>227.7</ele>
      </trkpt>
      <trkpt lat="45.20528" lon="-72.56697">
        <ele>226.3</ele>
      </trkpt>
      <trkpt lat="45.20489" lon="-72.56774">
        <ele>220</ele>
      </trkpt>
      <trkpt lat="45.20443" lon="-72.56843">
        <ele>213.1</ele>
      </trkpt>
      <trkpt lat="45.20397" lon="-72.56912">
        <ele>207.3</ele>
      </trkpt>
      <trkpt lat="45.20354" lon="-72.569892">
        <ele>203.7</ele>
      </trkpt>
      <trkpt lat="45.20311" lon="-72.570665">
        <ele>202</ele>
      </trkpt>
      <trkpt lat="45.20268" lon="-72.571437">
        <ele>199.3</ele>
      </trkpt>
      <trkpt lat="45.20225" lon="-72.57221">
        <ele>199.7</ele>
      </trkpt>
      <trkpt lat="45.201876" lon="-72.57294">
        <ele>200.5</ele>
      </trkpt>
      <trkpt lat="45.201503" lon="-72.57367">
        <ele>200</ele>
      </trkpt>
      <trkpt lat="45.20113" lon="-72.5744">
        <ele>200.5</ele>
      </trkpt>
      <trkpt lat="45.20082" lon="-72.574975">
        <ele>201.2</ele>
      </trkpt>
      <trkpt lat="45.20051" lon="-72.57555">
        <ele>203.7</ele>
      </trkpt>
      <trkpt lat="45.199899" lon="-72.575544">
        <ele>205.2</ele>
      </trkpt>
      <trkpt lat="45.19929" lon="-72.57554">
        <ele>205.5</ele>
      </trkpt>
      <trkpt lat="45.19897" lon="-72.57548">
        <ele>204.5</ele>
      </trkpt>
      <trkpt lat="45.19893" lon="-72.57548">
        <ele>204.5</ele>
      </trkpt>
      <trkpt lat="45.19857" lon="-72.57525">
        <ele>202.6</ele>
      </trkpt>
      <trkpt lat="45.19788" lon="-72.574636">
        <ele>201</ele>
      </trkpt>
      <trkpt lat="45.19719" lon="-72.574023">
        <ele>201.1</ele>
      </trkpt>
      <trkpt lat="45.1965" lon="-72.57341">
        <ele>201</ele>
      </trkpt>
      <trkpt lat="45.19623" lon="-72.57316">
        <ele>201.5</ele>
      </trkpt>
      <trkpt lat="45.19575" lon="-72.572644">
        <ele>201.7</ele>
      </trkpt>
      <trkpt lat="45.19527" lon="-72.57213">
        <ele>202</ele>
      </trkpt>
      <trkpt lat="45.19488" lon="-72.57177">
        <ele>202.6</ele>
      </trkpt>
      <trkpt lat="45.19455" lon="-72.57168">
        <ele>203.8</ele>
      </trkpt>
      <trkpt lat="45.19412" lon="-72.57173">
        <ele>206.2</ele>
      </trkpt>
      <trkpt lat="45.19379" lon="-72.57101">
        <ele>207.8</ele>
      </trkpt>
      <trkpt lat="45.19366" lon="-72.57078">
        <ele>208</ele>
      </trkpt>
      <trkpt lat="45.19317" lon="-72.56998">
        <ele>207.9</ele>
      </trkpt>
      <trkpt lat="45.19302" lon="-72.56979">
        <ele>206.3</ele>
      </trkpt>
      <trkpt lat="45.19261" lon="-72.56935">
        <ele>204.7</ele>
      </trkpt>
      <trkpt lat="45.19234" lon="-72.56902">
        <ele>204.5</ele>
      </trkpt>
      <trkpt lat="45.19199" lon="-72.5685">
        <ele>204.8</ele>
      </trkpt>
      <trkpt lat="45.19175" lon="-72.56805">
        <ele>205.4</ele>
      </trkpt>
      <trkpt lat="45.1914" lon="-72.567253">
        <ele>204.6</ele>
      </trkpt>
      <trkpt lat="45.19105" lon="-72.566456">
        <ele>205.1</ele>
      </trkpt>
      <trkpt lat="45.1907" lon="-72.56566">
        <ele>205.6</ele>
      </trkpt>
      <trkpt lat="45.19022" lon="-72.564589">
        <ele>206.1</ele>
      </trkpt>
      <trkpt lat="45.18974" lon="-72.563519">
        <ele>207.1</ele>
      </trkpt>
      <trkpt lat="45.18926" lon="-72.562449">
        <ele>207.8</ele>
      </trkpt>
      <trkpt lat="45.18878" lon="-72.56138">
        <ele>209</ele>
      </trkpt>
      <trkpt lat="45.188516" lon="-72.560589">
        <ele>209.3</ele>
      </trkpt>
      <trkpt lat="45.188253" lon="-72.559799">
        <ele>209</ele>
      </trkpt>
      <trkpt lat="45.18799" lon="-72.55901">
        <ele>209.7</ele>
      </trkpt>
      <trkpt lat="45.18773" lon="-72.5582">
        <ele>210.3</ele>
      </trkpt>
      <trkpt lat="45.18759" lon="-72.55749">
        <ele>212</ele>
      </trkpt>
      <trkpt lat="45.18757" lon="-72.55718">
        <ele>213</ele>
      </trkpt>
      <trkpt lat="45.18756" lon="-72.55655">
        <ele>215.2</ele>
      </trkpt>
      <trkpt lat="45.18758" lon="-72.5561">
        <ele>216.2</ele>
      </trkpt>
      <trkpt lat="45.18764" lon="-72.55544">
        <ele>217.6</ele>
      </trkpt>
      <trkpt lat="45.187706" lon="-72.554406">
        <ele>221.3</ele>
      </trkpt>
      <trkpt lat="45.187773" lon="-72.553373">
        <ele>226.4</ele>
      </trkpt>
      <trkpt lat="45.18784" lon="-72.55234">
        <ele>226.5</ele>
      </trkpt>
      <trkpt lat="45.18786" lon="-72.55109">
        <ele>227.6</ele>
      </trkpt>
      <trkpt lat="45.18786" lon="-72.550066">
        <ele>230</ele>
      </trkpt>
      <trkpt lat="45.18786" lon="-72.549043">
        <ele>230.4</ele>
      </trkpt>
      <trkpt lat="45.18786" lon="-72.54802">
        <ele>230.5</ele>
      </trkpt>
      <trkpt lat="45.18831" lon="-72.547263">
        <ele>233.6</ele>
      </trkpt>
      <trkpt lat="45.18876" lon="-72.546506">
        <ele>243</ele>
      </trkpt>
      <trkpt lat="45.18921" lon="-72.54575">
        <ele>250.6</ele>
      </trkpt>
      <trkpt lat="45.189535" lon="-72.54499">
        <ele>255.1</ele>
      </trkpt>
      <trkpt lat="45.18986" lon="-72.54423">
        <ele>258.4</ele>
      </trkpt>
      <trkpt lat="45.19005" lon="-72.54356">
        <ele>260.3</ele>
      </trkpt>
      <trkpt lat="45.190185" lon="-72.542785">
        <ele>264.2</ele>
      </trkpt>
      <trkpt lat="45.19032" lon="-72.54201">
        <ele>269.1</ele>
      </trkpt>
      <trkpt lat="45.19032" lon="-72.54202">
        <ele>269.1</ele>
      </trkpt>
      <trkpt lat="45.19038" lon="-72.54173">
        <ele>273.3</ele>
      </trkpt>
      <trkpt lat="45.19049" lon="-72.54137">
        <ele>274.2</ele>
      </trkpt>
      <trkpt lat="45.191033" lon="-72.540456">
        <ele>279.1</ele>
      </trkpt>
      <trkpt lat="45.191576" lon="-72.539543">
        <ele>283.4</ele>
      </trkpt>
      <trkpt lat="45.19212" lon="-72.53863">
        <ele>287.8</ele>
      </trkpt>
      <trkpt lat="45.192685" lon="-72.53783">
        <ele>289.2</ele>
      </trkpt>
      <trkpt lat="45.19325" lon="-72.53703">
        <ele>289.4</ele>
      </trkpt>
      <trkpt lat="45.19374" lon="-72.53606">
        <ele>291.9</ele>
      </trkpt>
      <trkpt lat="45.194151" lon="-72.53513">
        <ele>295.6</ele>
      </trkpt>
      <trkpt lat="45.194562" lon="-72.5342">
        <ele>296</ele>
      </trkpt>
      <trkpt lat="45.194974" lon="-72.53327">
        <ele>298.4</ele>
      </trkpt>
      <trkpt lat="45.195385" lon="-72.53234">
        <ele>301.3</ele>
      </trkpt>
      <trkpt lat="45.195797" lon="-72.53141">
        <ele>301.1</ele>
      </trkpt>
      <trkpt lat="45.196208" lon="-72.53048">
        <ele>301.1</ele>
      </trkpt>
      <trkpt lat="45.19662" lon="-72.52955">
        <ele>302.6</ele>
      </trkpt>
      <trkpt lat="45.196985" lon="-72.52868">
        <ele>304.6</ele>
      </trkpt>
      <trkpt lat="45.19735" lon="-72.52781">
        <ele>302.6</ele>
      </trkpt>
      <trkpt lat="45.197804" lon="-72.526822">
        <ele>303.7</ele>
      </trkpt>
      <trkpt lat="45.198258" lon="-72.525834">
        <ele>305</ele>
      </trkpt>
      <trkpt lat="45.198713" lon="-72.524846">
        <ele>308.6</ele>
      </trkpt>
      <trkpt lat="45.199167" lon="-72.523859">
        <ele>310.9</ele>
      </trkpt>
      <trkpt lat="45.199622" lon="-72.522871">
        <ele>312.9</ele>
      </trkpt>
      <trkpt lat="45.200076" lon="-72.521883">
        <ele>316.4</ele>
      </trkpt>
      <trkpt lat="45.200531" lon="-72.520895">
        <ele>319.5</ele>
      </trkpt>
      <trkpt lat="45.200985" lon="-72.519907">
        <ele>318.1</ele>
      </trkpt>
      <trkpt lat="45.20144" lon="-72.51892">
        <ele>318.7</ele>
      </trkpt>
      <trkpt lat="45.20194" lon="-72.517862">
        <ele>314.9</ele>
      </trkpt>
      <trkpt lat="45.20244" lon="-72.516805">
        <ele>314.3</ele>
      </trkpt>
      <trkpt lat="45.20294" lon="-72.515747">
        <ele>314</ele>
      </trkpt>
      <trkpt lat="45.20344" lon="-72.51469">
        <ele>308.4</ele>
      </trkpt>
      <trkpt lat="45.203892" lon="-72.513705">
        <ele>301</ele>
      </trkpt>
      <trkpt lat="45.204345" lon="-72.51272">
        <ele>298.9</ele>
      </trkpt>
      <trkpt lat="45.204797" lon="-72.511735">
        <ele>296.7</ele>
      </trkpt>
      <trkpt lat="45.20525" lon="-72.51075">
        <ele>290.3</ele>
      </trkpt>
      <trkpt lat="45.20538" lon="-72.51053">
        <ele>288.9</ele>
      </trkpt>
      <trkpt lat="45.20594" lon="-72.50999">
        <ele>280.8</ele>
      </trkpt>
      <trkpt lat="45.20642" lon="-72.50954">
        <ele>272.4</ele>
      </trkpt>
      <trkpt lat="45.20641" lon="-72.50954">
        <ele>272.5</ele>
      </trkpt>
      <trkpt lat="45.20705" lon="-72.50896">
        <ele>261.3</ele>
      </trkpt>
      <trkpt lat="45.20765" lon="-72.50842">
        <ele>253.5</ele>
      </trkpt>
      <trkpt lat="45.20806" lon="-72.50815">
        <ele>246.1</ele>
      </trkpt>
      <trkpt lat="45.20762" lon="-72.50749">
        <ele>251.2</ele>
      </trkpt>
      <trkpt lat="45.20744" lon="-72.50712">
        <ele>253.3</ele>
      </trkpt>
      <trkpt lat="45.20706" lon="-72.506069">
        <ele>256.1</ele>
      </trkpt>
      <trkpt lat="45.20668" lon="-72.50502">
        <ele>260.1</ele>
      </trkpt>
      <trkpt lat="45.20646" lon="-72.50465">
        <ele>262.5</ele>
      </trkpt>
      <trkpt lat="45.205893" lon="-72.503936">
        <ele>267</ele>
      </trkpt>
      <trkpt lat="45.205326" lon="-72.503223">
        <ele>272.3</ele>
      </trkpt>
      <trkpt lat="45.20476" lon="-72.50251">
        <ele>277.7</ele>
      </trkpt>
      <trkpt lat="45.204356" lon="-72.501689">
        <ele>279.6</ele>
      </trkpt>
      <trkpt lat="45.203953" lon="-72.500869">
        <ele>279.3</ele>
      </trkpt>
      <trkpt lat="45.20355" lon="-72.50005">
        <ele>278.9</ele>
      </trkpt>
      <trkpt lat="45.20323" lon="-72.499289">
        <ele>278.7</ele>
      </trkpt>
      <trkpt lat="45.20291" lon="-72.49853">
        <ele>279.5</ele>
      </trkpt>
      <trkpt lat="45.20259" lon="-72.4979">
        <ele>280.6</ele>
      </trkpt>
      <trkpt lat="45.20248" lon="-72.49776">
        <ele>281.3</ele>
      </trkpt>
      <trkpt lat="45.20234" lon="-72.49728">
        <ele>282</ele>
      </trkpt>
      <trkpt lat="45.20205" lon="-72.496469">
        <ele>285.6</ele>
      </trkpt>
      <trkpt lat="45.20176" lon="-72.49566">
        <ele>291.4</ele>
      </trkpt>
      <trkpt lat="45.20161" lon="-72.49495">
        <ele>295.7</ele>
      </trkpt>
      <trkpt lat="45.20158" lon="-72.49396">
        <ele>301</ele>
      </trkpt>
      <trkpt lat="45.20161" lon="-72.49382">
        <ele>302.3</ele>
      </trkpt>
      <trkpt lat="45.2018" lon="-72.49329">
        <ele>306.6</ele>
      </trkpt>
      <trkpt lat="45.2019" lon="-72.49306">
        <ele>307.7</ele>
      </trkpt>
      <trkpt lat="45.202245" lon="-72.4921">
        <ele>309.3</ele>
      </trkpt>
      <trkpt lat="45.20259" lon="-72.49114">
        <ele>310.5</ele>
      </trkpt>
      <trkpt lat="45.20297" lon="-72.49017">
        <ele>312.7</ele>
      </trkpt>
      <trkpt lat="45.20297" lon="-72.49018">
        <ele>312.7</ele>
      </trkpt>
      <trkpt lat="45.2034" lon="-72.48922">
        <ele>314.9</ele>
      </trkpt>
      <trkpt lat="45.20391" lon="-72.4882">
        <ele>315.4</ele>
      </trkpt>
      <trkpt lat="45.20437" lon="-72.48724">
        <ele>313.4</ele>
      </trkpt>
      <trkpt lat="45.204715" lon="-72.48657">
        <ele>312.8</ele>
      </trkpt>
      <trkpt lat="45.20506" lon="-72.4859">
        <ele>310.9</ele>
      </trkpt>
      <trkpt lat="45.2053" lon="-72.4855">
        <ele>309</ele>
      </trkpt>
      <trkpt lat="45.2054" lon="-72.48531">
        <ele>307.6</ele>
      </trkpt>
      <trkpt lat="45.20566" lon="-72.48501">
        <ele>304.7</ele>
      </trkpt>
      <trkpt lat="45.206075" lon="-72.484695">
        <ele>299.2</ele>
      </trkpt>
      <trkpt lat="45.20649" lon="-72.48438">
        <ele>295.3</ele>
      </trkpt>
      <trkpt lat="45.20663" lon="-72.48429">
        <ele>293.3</ele>
      </trkpt>
      <trkpt lat="45.20683" lon="-72.48424">
        <ele>290.7</ele>
      </trkpt>
      <trkpt lat="45.20705" lon="-72.48425">
        <ele>289.6</ele>
      </trkpt>
      <trkpt lat="45.20728" lon="-72.48433">
        <ele>285.6</ele>
      </trkpt>
      <trkpt lat="45.20776" lon="-72.48438">
        <ele>281.2</ele>
      </trkpt>
      <trkpt lat="45.20795" lon="-72.48442">
        <ele>278.9</ele>
      </trkpt>
      <trkpt lat="45.20832" lon="-72.48456">
        <ele>275.9</ele>
      </trkpt>
      <trkpt lat="45.20883" lon="-72.48487">
        <ele>271</ele>
      </trkpt>
      <trkpt lat="45.20935" lon="-72.48523">
        <ele>268.3</ele>
      </trkpt>
      <trkpt lat="45.209986" lon="-72.485646">
        <ele>271.3</ele>
      </trkpt>
      <trkpt lat="45.210623" lon="-72.486063">
        <ele>269.4</ele>
      </trkpt>
      <trkpt lat="45.21126" lon="-72.48648">
        <ele>263.7</ele>
      </trkpt>
      <trkpt lat="45.21201" lon="-72.4871">
        <ele>255.6</ele>
      </trkpt>
      <trkpt lat="45.21276" lon="-72.48778">
        <ele>248.3</ele>
      </trkpt>
      <trkpt lat="45.2129" lon="-72.48795">
        <ele>246.8</ele>
      </trkpt>
      <trkpt lat="45.213165" lon="-72.488694">
        <ele>242.7</ele>
      </trkpt>
      <trkpt lat="45.21343" lon="-72.48944">
        <ele>240.2</ele>
      </trkpt>
      <trkpt lat="45.213723" lon="-72.490319">
        <ele>237.5</ele>
      </trkpt>
      <trkpt lat="45.214016" lon="-72.491199">
        <ele>235</ele>
      </trkpt>
      <trkpt lat="45.21431" lon="-72.49208">
        <ele>231.8</ele>
      </trkpt>
      <trkpt lat="45.21457" lon="-72.49279">
        <ele>229</ele>
      </trkpt>
      <trkpt lat="45.21482" lon="-72.4932">
        <ele>225.1</ele>
      </trkpt>
      <trkpt lat="45.215445" lon="-72.493944">
        <ele>219.7</ele>
      </trkpt>
      <trkpt lat="45.21607" lon="-72.49469">
        <ele>213.9</ele>
      </trkpt>
      <trkpt lat="45.21624" lon="-72.49494">
        <ele>212.5</ele>
      </trkpt>
      <trkpt lat="45.21641" lon="-72.49504">
        <ele>210.9</ele>
      </trkpt>
      <trkpt lat="45.21652" lon="-72.49504">
        <ele>210.6</ele>
      </trkpt>
      <trkpt lat="45.21659" lon="-72.49502">
        <ele>210.1</ele>
      </trkpt>
      <trkpt lat="45.2169" lon="-72.49485">
        <ele>209.4</ele>
      </trkpt>
      <trkpt lat="45.2172" lon="-72.49479">
        <ele>209.4</ele>
      </trkpt>
      <trkpt lat="45.21792" lon="-72.494909">
        <ele>210.4</ele>
      </trkpt>
      <trkpt lat="45.21864" lon="-72.49503">
        <ele>216.2</ele>
      </trkpt>
      <trkpt lat="45.219085" lon="-72.495139">
        <ele>219.9</ele>
      </trkpt>
      <trkpt lat="45.21953" lon="-72.49525">
        <ele>226.8</ele>
      </trkpt>
      <trkpt lat="45.21979" lon="-72.49521">
        <ele>230.3</ele>
      </trkpt>
      <trkpt lat="45.220255" lon="-72.49502">
        <ele>233.8</ele>
      </trkpt>
      <trkpt lat="45.22072" lon="-72.49483">
        <ele>235.6</ele>
      </trkpt>
      <trkpt lat="45.22063" lon="-72.49445">
        <ele>237.8</ele>
      </trkpt>
      <trkpt lat="45.22059" lon="-72.49401">
        <ele>241.1</ele>
      </trkpt>
      <trkpt lat="45.22063" lon="-72.49373">
        <ele>242.5</ele>
      </trkpt>
      <trkpt lat="45.22074" lon="-72.49322">
        <ele>244</ele>
      </trkpt>
      <trkpt lat="45.22111" lon="-72.49214">
        <ele>244.7</ele>
      </trkpt>
      <trkpt lat="45.22108" lon="-72.49222">
        <ele>244.6</ele>
      </trkpt>
      <trkpt lat="45.22125" lon="-72.49176">
        <ele>245</ele>
      </trkpt>
      <trkpt lat="45.22164" lon="-72.49086">
        <ele>244.2</ele>
      </trkpt>
      <trkpt lat="45.22185" lon="-72.4906">
        <ele>243.6</ele>
      </trkpt>
      <trkpt lat="45.22254" lon="-72.48986">
        <ele>242.4</ele>
      </trkpt>
      <trkpt lat="45.2227" lon="-72.48961">
        <ele>242.6</ele>
      </trkpt>
      <trkpt lat="45.22282" lon="-72.4893">
        <ele>243.5</ele>
      </trkpt>
      <trkpt lat="45.22291" lon="-72.48873">
        <ele>244.4</ele>
      </trkpt>
      <trkpt lat="45.22291" lon="-72.48845">
        <ele>244.7</ele>
      </trkpt>
      <trkpt lat="45.222923" lon="-72.48718">
        <ele>243.1</ele>
      </trkpt>
      <trkpt lat="45.222936" lon="-72.48591">
        <ele>240.1</ele>
      </trkpt>
      <trkpt lat="45.22295" lon="-72.48464">
        <ele>236.7</ele>
      </trkpt>
      <trkpt lat="45.22304" lon="-72.48375">
        <ele>236.5</ele>
      </trkpt>
      <trkpt lat="45.22315" lon="-72.48321">
        <ele>237.5</ele>
      </trkpt>
      <trkpt lat="45.22321" lon="-72.48304">
        <ele>237.8</ele>
      </trkpt>
      <trkpt lat="45.22339" lon="-72.48271">
        <ele>239.3</ele>
      </trkpt>
      <trkpt lat="45.22363" lon="-72.48233">
        <ele>241.8</ele>
      </trkpt>
      <trkpt lat="45.224206" lon="-72.481604">
        <ele>240.8</ele>
      </trkpt>
      <trkpt lat="45.224782" lon="-72.480878">
        <ele>239.8</ele>
      </trkpt>
      <trkpt lat="45.225358" lon="-72.480152">
        <ele>240.3</ele>
      </trkpt>
      <trkpt lat="45.225934" lon="-72.479426">
        <ele>243.7</ele>
      </trkpt>
      <trkpt lat="45.22651" lon="-72.4787">
        <ele>250.5</ele>
      </trkpt>
      <trkpt lat="45.22674" lon="-72.47838">
        <ele>253.4</ele>
      </trkpt>
      <trkpt lat="45.22717" lon="-72.47788">
        <ele>258.4</ele>
      </trkpt>
      <trkpt lat="45.22743" lon="-72.47749">
        <ele>259.4</ele>
      </trkpt>
      <trkpt lat="45.22751" lon="-72.47735">
        <ele>260.2</ele>
      </trkpt>
      <trkpt lat="45.22776" lon="-72.4765">
        <ele>261</ele>
      </trkpt>
      <trkpt lat="45.22781" lon="-72.476">
        <ele>260.5</ele>
      </trkpt>
      <trkpt lat="45.22786" lon="-72.47506">
        <ele>259.3</ele>
      </trkpt>
      <trkpt lat="45.22785" lon="-72.47426">
        <ele>257.4</ele>
      </trkpt>
      <trkpt lat="45.22777" lon="-72.47351">
        <ele>252.9</ele>
      </trkpt>
      <trkpt lat="45.22768" lon="-72.47238">
        <ele>250.9</ele>
      </trkpt>
      <trkpt lat="45.227642" lon="-72.471155">
        <ele>254</ele>
      </trkpt>
      <trkpt lat="45.227604" lon="-72.469931">
        <ele>255.3</ele>
      </trkpt>
      <trkpt lat="45.227566" lon="-72.468707">
        <ele>255.3</ele>
      </trkpt>
      <trkpt lat="45.227528" lon="-72.467483">
        <ele>257.1</ele>
      </trkpt>
      <trkpt lat="45.22749" lon="-72.46626">
        <ele>264.3</ele>
      </trkpt>
      <trkpt lat="45.22748" lon="-72.465214">
        <ele>268.6</ele>
      </trkpt>
      <trkpt lat="45.22747" lon="-72.46417">
        <ele>272.7</ele>
      </trkpt>
      <trkpt lat="45.22774" lon="-72.46369">
        <ele>275.7</ele>
      </trkpt>
      <trkpt lat="45.22787" lon="-72.46342">
        <ele>278.7</ele>
      </trkpt>
      <trkpt lat="45.22815" lon="-72.46257">
        <ele>288.5</ele>
      </trkpt>
      <trkpt lat="45.22829" lon="-72.46204">
        <ele>293</ele>
      </trkpt>
      <trkpt lat="45.2283" lon="-72.46178">
        <ele>293.8</ele>
      </trkpt>
      <trkpt lat="45.22825" lon="-72.46158">
        <ele>294.8</ele>
      </trkpt>
      <trkpt lat="45.22806" lon="-72.46127">
        <ele>295.5</ele>
      </trkpt>
      <trkpt lat="45.22788" lon="-72.46105">
        <ele>295.9</ele>
      </trkpt>
      <trkpt lat="45.22768" lon="-72.46074">
        <ele>295.9</ele>
      </trkpt>
      <trkpt lat="45.22762" lon="-72.46051">
        <ele>296.8</ele>
      </trkpt>
      <trkpt lat="45.22761" lon="-72.4602">
        <ele>297.1</ele>
      </trkpt>
      <trkpt lat="45.22766" lon="-72.45989">
        <ele>297.4</ele>
      </trkpt>
      <trkpt lat="45.22785" lon="-72.45934">
        <ele>298.1</ele>
      </trkpt>
      <trkpt lat="45.22803" lon="-72.459">
        <ele>298.4</ele>
      </trkpt>
      <trkpt lat="45.22824" lon="-72.45881">
        <ele>298</ele>
      </trkpt>
      <trkpt lat="45.22841" lon="-72.45868">
        <ele>297.3</ele>
      </trkpt>
      <trkpt lat="45.22871" lon="-72.45854">
        <ele>296.5</ele>
      </trkpt>
      <trkpt lat="45.22892" lon="-72.45836">
        <ele>296.4</ele>
      </trkpt>
      <trkpt lat="45.229" lon="-72.45823">
        <ele>296.5</ele>
      </trkpt>
      <trkpt lat="45.22908" lon="-72.45797">
        <ele>296.9</ele>
      </trkpt>
      <trkpt lat="45.2291" lon="-72.45743">
        <ele>299</ele>
      </trkpt>
      <trkpt lat="45.22908" lon="-72.45679">
        <ele>299.2</ele>
      </trkpt>
      <trkpt lat="45.22921" lon="-72.45564">
        <ele>298</ele>
      </trkpt>
      <trkpt lat="45.22933" lon="-72.45536">
        <ele>299</ele>
      </trkpt>
      <trkpt lat="45.2296" lon="-72.45487">
        <ele>300.2</ele>
      </trkpt>
      <trkpt lat="45.22965" lon="-72.45465">
        <ele>299.8</ele>
      </trkpt>
      <trkpt lat="45.22967" lon="-72.45424">
        <ele>297</ele>
      </trkpt>
      <trkpt lat="45.22991" lon="-72.45351">
        <ele>294.2</ele>
      </trkpt>
      <trkpt lat="45.23009" lon="-72.45295">
        <ele>295</ele>
      </trkpt>
      <trkpt lat="45.23018" lon="-72.4525">
        <ele>298.5</ele>
      </trkpt>
      <trkpt lat="45.23045" lon="-72.45178">
        <ele>302.5</ele>
      </trkpt>
      <trkpt lat="45.230635" lon="-72.451145">
        <ele>305.4</ele>
      </trkpt>
      <trkpt lat="45.23082" lon="-72.45051">
        <ele>307.8</ele>
      </trkpt>
      <trkpt lat="45.23082" lon="-72.45052">
        <ele>307.7</ele>
      </trkpt>
      <trkpt lat="45.23094" lon="-72.45013">
        <ele>310.8</ele>
      </trkpt>
      <trkpt lat="45.23116" lon="-72.44968">
        <ele>315.4</ele>
      </trkpt>
      <trkpt lat="45.23135" lon="-72.44909">
        <ele>319.8</ele>
      </trkpt>
      <trkpt lat="45.23158" lon="-72.448465">
        <ele>323.1</ele>
      </trkpt>
      <trkpt lat="45.23181" lon="-72.44784">
        <ele>325.2</ele>
      </trkpt>
      <trkpt lat="45.232175" lon="-72.44706">
        <ele>325.4</ele>
      </trkpt>
      <trkpt lat="45.23254" lon="-72.44628">
        <ele>327.2</ele>
      </trkpt>
      <trkpt lat="45.23268" lon="-72.44602">
        <ele>327.8</ele>
      </trkpt>
      <trkpt lat="45.2328" lon="-72.44574">
        <ele>328.4</ele>
      </trkpt>
      <trkpt lat="45.23286" lon="-72.44525">
        <ele>329.1</ele>
      </trkpt>
      <trkpt lat="45.23288" lon="-72.44493">
        <ele>331.6</ele>
      </trkpt>
      <trkpt lat="45.232893" lon="-72.444">
        <ele>336.2</ele>
      </trkpt>
      <trkpt lat="45.232906" lon="-72.44307">
        <ele>340</ele>
      </trkpt>
      <trkpt lat="45.23292" lon="-72.44214">
        <ele>346.9</ele>
      </trkpt>
      <trkpt lat="45.23292" lon="-72.440935">
        <ele>357.5</ele>
      </trkpt>
      <trkpt lat="45.23292" lon="-72.43973">
        <ele>364.9</ele>
      </trkpt>
      <trkpt lat="45.23336" lon="-72.43973">
        <ele>363.4</ele>
      </trkpt>
      <trkpt lat="45.2336" lon="-72.4397">
        <ele>360.7</ele>
      </trkpt>
      <trkpt lat="45.234184" lon="-72.43968">
        <ele>357.5</ele>
      </trkpt>
      <trkpt lat="45.23477" lon="-72.43966">
        <ele>355.9</ele>
      </trkpt>
      <trkpt lat="45.23527" lon="-72.43963">
        <ele>354.9</ele>
      </trkpt>
      <trkpt lat="45.23608" lon="-72.439595">
        <ele>351</ele>
      </trkpt>
      <trkpt lat="45.23689" lon="-72.43956">
        <ele>349.2</ele>
      </trkpt>
      <trkpt lat="45.23715" lon="-72.43955">
        <ele>349.1</ele>
      </trkpt>
      <trkpt lat="45.23749" lon="-72.43943">
        <ele>348.2</ele>
      </trkpt>
      <trkpt lat="45.23777" lon="-72.43925">
        <ele>347</ele>
      </trkpt>
      <trkpt lat="45.23822" lon="-72.43884">
        <ele>348.6</ele>
      </trkpt>
      <trkpt lat="45.23856" lon="-72.43858">
        <ele>351.8</ele>
      </trkpt>
      <trkpt lat="45.23921" lon="-72.437975">
        <ele>354.9</ele>
      </trkpt>
      <trkpt lat="45.23986" lon="-72.43737">
        <ele>356</ele>
      </trkpt>
      <trkpt lat="45.240375" lon="-72.43696">
        <ele>356.5</ele>
      </trkpt>
      <trkpt lat="45.24089" lon="-72.43655">
        <ele>359.4</ele>
      </trkpt>
      <trkpt lat="45.24123" lon="-72.43634">
        <ele>360.7</ele>
      </trkpt>
      <trkpt lat="45.24167" lon="-72.43612">
        <ele>360.8</ele>
      </trkpt>
      <trkpt lat="45.24167" lon="-72.43613">
        <ele>360.8</ele>
      </trkpt>
      <trkpt lat="45.24211" lon="-72.43593">
        <ele>360.7</ele>
      </trkpt>
      <trkpt lat="45.2428" lon="-72.43576">
        <ele>361</ele>
      </trkpt>
      <trkpt lat="45.243555" lon="-72.435525">
        <ele>360.6</ele>
      </trkpt>
      <trkpt lat="45.24431" lon="-72.43529">
        <ele>359.9</ele>
      </trkpt>
      <trkpt lat="45.24485" lon="-72.43517">
        <ele>358.8</ele>
      </trkpt>
      <trkpt lat="45.245335" lon="-72.43508">
        <ele>358.1</ele>
      </trkpt>
      <trkpt lat="45.24582" lon="-72.43499">
        <ele>356.2</ele>
      </trkpt>
      <trkpt lat="45.24624" lon="-72.43499">
        <ele>355.9</ele>
      </trkpt>
      <trkpt lat="45.24659" lon="-72.43504">
        <ele>354.5</ele>
      </trkpt>
      <trkpt lat="45.24707" lon="-72.43506">
        <ele>353.7</ele>
      </trkpt>
      <trkpt lat="45.24761" lon="-72.43513">
        <ele>352.5</ele>
      </trkpt>
      <trkpt lat="45.24845" lon="-72.43514">
        <ele>349.6</ele>
      </trkpt>
      <trkpt lat="45.249224" lon="-72.43505">
        <ele>349</ele>
      </trkpt>
      <trkpt lat="45.25" lon="-72.43496">
        <ele>346.1</ele>
      </trkpt>
      <trkpt lat="45.250759" lon="-72.43492">
        <ele>338.8</ele>
      </trkpt>
      <trkpt lat="45.25152" lon="-72.43488">
        <ele>333.5</ele>
      </trkpt>
      <trkpt lat="45.25228" lon="-72.43486">
        <ele>328.7</ele>
      </trkpt>
      <trkpt lat="45.2528" lon="-72.43486">
        <ele>325.4</ele>
      </trkpt>
      <trkpt lat="45.25332" lon="-72.43486">
        <ele>323.3</ele>
      </trkpt>
      <trkpt lat="45.25394" lon="-72.43496">
        <ele>318.8</ele>
      </trkpt>
      <trkpt lat="45.254585" lon="-72.435224">
        <ele>313.8</ele>
      </trkpt>
      <trkpt lat="45.25523" lon="-72.43549">
        <ele>308.3</ele>
      </trkpt>
      <trkpt lat="45.255785" lon="-72.435864">
        <ele>308.6</ele>
      </trkpt>
      <trkpt lat="45.25634" lon="-72.43624">
        <ele>309.2</ele>
      </trkpt>
      <trkpt lat="45.256805" lon="-72.436529">
        <ele>309.6</ele>
      </trkpt>
      <trkpt lat="45.25727" lon="-72.43682">
        <ele>310.5</ele>
      </trkpt>
      <trkpt lat="45.257803" lon="-72.437329">
        <ele>308.6</ele>
      </trkpt>
      <trkpt lat="45.258336" lon="-72.437839">
        <ele>302.2</ele>
      </trkpt>
      <trkpt lat="45.25887" lon="-72.43835">
        <ele>296.4</ele>
      </trkpt>
      <trkpt lat="45.25951" lon="-72.43881">
        <ele>293.3</ele>
      </trkpt>
      <trkpt lat="45.26002" lon="-72.43902">
        <ele>292.6</ele>
      </trkpt>
      <trkpt lat="45.260559" lon="-72.439">
        <ele>290.5</ele>
      </trkpt>
      <trkpt lat="45.2611" lon="-72.43898">
        <ele>287.8</ele>
      </trkpt>
      <trkpt lat="45.26173" lon="-72.438933">
        <ele>291.2</ele>
      </trkpt>
      <trkpt lat="45.26236" lon="-72.438886">
        <ele>294.1</ele>
      </trkpt>
      <trkpt lat="45.26299" lon="-72.43884">
        <ele>295.6</ele>
      </trkpt>
      <trkpt lat="45.26326" lon="-72.43889">
        <ele>296</ele>
      </trkpt>
      <trkpt lat="45.263763" lon="-72.438216">
        <ele>296.5</ele>
      </trkpt>
      <trkpt lat="45.264266" lon="-72.437543">
        <ele>297.7</ele>
      </trkpt>
      <trkpt lat="45.26477" lon="-72.43687">
        <ele>300</ele>
      </trkpt>
      <trkpt lat="45.26524" lon="-72.436286">
        <ele>303.6</ele>
      </trkpt>
      <trkpt lat="45.26571" lon="-72.435703">
        <ele>307.8</ele>
      </trkpt>
      <trkpt lat="45.26618" lon="-72.43512">
        <ele>311.8</ele>
      </trkpt>
      <trkpt lat="45.266667" lon="-72.434415">
        <ele>314.7</ele>
      </trkpt>
      <trkpt lat="45.267155" lon="-72.43371">
        <ele>317.1</ele>
      </trkpt>
      <trkpt lat="45.267642" lon="-72.433005">
        <ele>318.7</ele>
      </trkpt>
      <trkpt lat="45.26813" lon="-72.4323">
        <ele>320.1</ele>
      </trkpt>
      <trkpt lat="45.26859" lon="-72.43157">
        <ele>321.8</ele>
      </trkpt>
      <trkpt lat="45.26859" lon="-72.43158">
        <ele>321.8</ele>
      </trkpt>
      <trkpt lat="45.26895" lon="-72.43102">
        <ele>322.9</ele>
      </trkpt>
      <trkpt lat="45.269595" lon="-72.430145">
        <ele>325.2</ele>
      </trkpt>
      <trkpt lat="45.27024" lon="-72.42927">
        <ele>325.8</ele>
      </trkpt>
      <trkpt lat="45.270885" lon="-72.428395">
        <ele>325.7</ele>
      </trkpt>
      <trkpt lat="45.27153" lon="-72.42752">
        <ele>324.4</ele>
      </trkpt>
      <trkpt lat="45.27216" lon="-72.42661">
        <ele>325.7</ele>
      </trkpt>
      <trkpt lat="45.27279" lon="-72.4257">
        <ele>329.5</ele>
      </trkpt>
      <trkpt lat="45.27342" lon="-72.42479">
        <ele>331.7</ele>
      </trkpt>
      <trkpt lat="45.27395" lon="-72.424115">
        <ele>330.9</ele>
      </trkpt>
      <trkpt lat="45.27448" lon="-72.42344">
        <ele>331.6</ele>
      </trkpt>
      <trkpt lat="45.275105" lon="-72.422727">
        <ele>337.3</ele>
      </trkpt>
      <trkpt lat="45.27573" lon="-72.422015">
        <ele>346</ele>
      </trkpt>
      <trkpt lat="45.276355" lon="-72.421302">
        <ele>349.4</ele>
      </trkpt>
      <trkpt lat="45.27698" lon="-72.42059">
        <ele>352</ele>
      </trkpt>
      <trkpt lat="45.27729" lon="-72.42026">
        <ele>352.8</ele>
      </trkpt>
      <trkpt lat="45.2775" lon="-72.42012">
        <ele>352.9</ele>
      </trkpt>
      <trkpt lat="45.27772" lon="-72.42004">
        <ele>351.9</ele>
      </trkpt>
      <trkpt lat="45.278503" lon="-72.42002">
        <ele>343.6</ele>
      </trkpt>
      <trkpt lat="45.279286" lon="-72.42">
        <ele>332.9</ele>
      </trkpt>
      <trkpt lat="45.28007" lon="-72.41998">
        <ele>325.7</ele>
      </trkpt>
      <trkpt lat="45.2809" lon="-72.419952">
        <ele>326.5</ele>
      </trkpt>
      <trkpt lat="45.28173" lon="-72.419924">
        <ele>330.5</ele>
      </trkpt>
      <trkpt lat="45.28256" lon="-72.419896">
        <ele>333.8</ele>
      </trkpt>
      <trkpt lat="45.28339" lon="-72.419868">
        <ele>333.6</ele>
      </trkpt>
      <trkpt lat="45.28422" lon="-72.419841">
        <ele>331.4</ele>
      </trkpt>
      <trkpt lat="45.28505" lon="-72.419813">
        <ele>333</ele>
      </trkpt>
      <trkpt lat="45.28588" lon="-72.419785">
        <ele>337.1</ele>
      </trkpt>
      <trkpt lat="45.28671" lon="-72.419757">
        <ele>338.8</ele>
      </trkpt>
      <trkpt lat="45.28754" lon="-72.41973">
        <ele>341.4</ele>
      </trkpt>
      <trkpt lat="45.28837" lon="-72.419716">
        <ele>343.4</ele>
      </trkpt>
      <trkpt lat="45.2892" lon="-72.419703">
        <ele>346.4</ele>
      </trkpt>
      <trkpt lat="45.29003" lon="-72.41969">
        <ele>344.9</ele>
      </trkpt>
      <trkpt lat="45.290549" lon="-72.41966">
        <ele>342.2</ele>
      </trkpt>
      <trkpt lat="45.29107" lon="-72.41963">
        <ele>340</ele>
      </trkpt>
      <trkpt lat="45.29177" lon="-72.41962">
        <ele>340</ele>
      </trkpt>
      <trkpt lat="45.29176" lon="-72.41962">
        <ele>340</ele>
      </trkpt>
      <trkpt lat="45.292639" lon="-72.41961">
        <ele>341.4</ele>
      </trkpt>
      <trkpt lat="45.29352" lon="-72.4196">
        <ele>333.5</ele>
      </trkpt>
      <trkpt lat="45.294401" lon="-72.419596">
        <ele>333.8</ele>
      </trkpt>
      <trkpt lat="45.295283" lon="-72.419593">
        <ele>339.4</ele>
      </trkpt>
      <trkpt lat="45.296165" lon="-72.41959">
        <ele>337.9</ele>
      </trkpt>
      <trkpt lat="45.297046" lon="-72.419586">
        <ele>335.2</ele>
      </trkpt>
      <trkpt lat="45.297928" lon="-72.419583">
        <ele>331.2</ele>
      </trkpt>
      <trkpt lat="45.29881" lon="-72.41958">
        <ele>325</ele>
      </trkpt>
      <trkpt lat="45.29889" lon="-72.420529">
        <ele>322.3</ele>
      </trkpt>
      <trkpt lat="45.29897" lon="-72.42148">
        <ele>315.4</ele>
      </trkpt>
      <trkpt lat="45.29896" lon="-72.42183">
        <ele>313.3</ele>
      </trkpt>
      <trkpt lat="45.29885" lon="-72.42255">
        <ele>310.9</ele>
      </trkpt>
      <trkpt lat="45.29866" lon="-72.42323">
        <ele>306.8</ele>
      </trkpt>
      <trkpt lat="45.29818" lon="-72.42411">
        <ele>301.4</ele>
      </trkpt>
      <trkpt lat="45.297795" lon="-72.424465">
        <ele>300.6</ele>
      </trkpt>
      <trkpt lat="45.29741" lon="-72.42482">
        <ele>301</ele>
      </trkpt>
      <trkpt lat="45.2972" lon="-72.42505">
        <ele>301.7</ele>
      </trkpt>
      <trkpt lat="45.29696" lon="-72.42542">
        <ele>303.4</ele>
      </trkpt>
      <trkpt lat="45.296745" lon="-72.426005">
        <ele>304.6</ele>
      </trkpt>
      <trkpt lat="45.29653" lon="-72.42659">
        <ele>305.3</ele>
      </trkpt>
      <trkpt lat="45.29627" lon="-72.42739">
        <ele>305.3</ele>
      </trkpt>
      <trkpt lat="45.29601" lon="-72.42819">
        <ele>303.7</ele>
      </trkpt>
      <trkpt lat="45.295725" lon="-72.42884">
        <ele>299.2</ele>
      </trkpt>
      <trkpt lat="45.29544" lon="-72.42949">
        <ele>296.3</ele>
      </trkpt>
      <trkpt lat="45.29513" lon="-72.43001">
        <ele>297.7</ele>
      </trkpt>
      <trkpt lat="45.29482" lon="-72.43053">
        <ele>298.5</ele>
      </trkpt>
      <trkpt lat="45.294246" lon="-72.431346">
        <ele>301.5</ele>
      </trkpt>
      <trkpt lat="45.293673" lon="-72.432163">
        <ele>297.3</ele>
      </trkpt>
      <trkpt lat="45.2931" lon="-72.43298">
        <ele>295.2</ele>
      </trkpt>
      <trkpt lat="45.29309" lon="-72.43298">
        <ele>295.1</ele>
      </trkpt>
      <trkpt lat="45.29288" lon="-72.43329">
        <ele>294.8</ele>
      </trkpt>
      <trkpt lat="45.29241" lon="-72.43405">
        <ele>293</ele>
      </trkpt>
      <trkpt lat="45.29232" lon="-72.43432">
        <ele>291.7</ele>
      </trkpt>
      <trkpt lat="45.29219" lon="-72.43497">
        <ele>288.8</ele>
      </trkpt>
      <trkpt lat="45.29206" lon="-72.43562">
        <ele>284.7</ele>
      </trkpt>
      <trkpt lat="45.291826" lon="-72.43647">
        <ele>275.2</ele>
      </trkpt>
      <trkpt lat="45.291593" lon="-72.43732">
        <ele>270.3</ele>
      </trkpt>
      <trkpt lat="45.29136" lon="-72.43817">
        <ele>266.1</ele>
      </trkpt>
      <trkpt lat="45.29119" lon="-72.43901">
        <ele>258.2</ele>
      </trkpt>
      <trkpt lat="45.29102" lon="-72.43985">
        <ele>252.5</ele>
      </trkpt>
      <trkpt lat="45.290693" lon="-72.440873">
        <ele>245.8</ele>
      </trkpt>
      <trkpt lat="45.290366" lon="-72.441896">
        <ele>235.8</ele>
      </trkpt>
      <trkpt lat="45.29004" lon="-72.44292">
        <ele>236.3</ele>
      </trkpt>
      <trkpt lat="45.28992" lon="-72.44363">
        <ele>239.1</ele>
      </trkpt>
      <trkpt lat="45.289935" lon="-72.444697">
        <ele>234</ele>
      </trkpt>
      <trkpt lat="45.28995" lon="-72.445764">
        <ele>230.4</ele>
      </trkpt>
      <trkpt lat="45.289965" lon="-72.446832">
        <ele>229.6</ele>
      </trkpt>
      <trkpt lat="45.28998" lon="-72.4479">
        <ele>229</ele>
      </trkpt>
      <trkpt lat="45.289952" lon="-72.44904">
        <ele>224.7</ele>
      </trkpt>
      <trkpt lat="45.289925" lon="-72.45018">
        <ele>223</ele>
      </trkpt>
      <trkpt lat="45.289897" lon="-72.45132">
        <ele>227.1</ele>
      </trkpt>
      <trkpt lat="45.28987" lon="-72.45246">
        <ele>230.2</ele>
      </trkpt>
      <trkpt lat="45.28987" lon="-72.453284">
        <ele>228.9</ele>
      </trkpt>
      <trkpt lat="45.28987" lon="-72.45411">
        <ele>227.2</ele>
      </trkpt>
      <trkpt lat="45.2898" lon="-72.45523">
        <ele>225</ele>
      </trkpt>
      <trkpt lat="45.289655" lon="-72.45624">
        <ele>220.9</ele>
      </trkpt>
      <trkpt lat="45.28951" lon="-72.45725">
        <ele>218.6</ele>
      </trkpt>
      <trkpt lat="45.2895" lon="-72.45751">
        <ele>218.3</ele>
      </trkpt>
      <trkpt lat="45.28957" lon="-72.45846">
        <ele>218.2</ele>
      </trkpt>
      <trkpt lat="45.28966" lon="-72.459219">
        <ele>220</ele>
      </trkpt>
      <trkpt lat="45.28975" lon="-72.45998">
        <ele>221</ele>
      </trkpt>
      <trkpt lat="45.28974" lon="-72.46057">
        <ele>221.1</ele>
      </trkpt>
      <trkpt lat="45.28971" lon="-72.46083">
        <ele>221.1</ele>
      </trkpt>
      <trkpt lat="45.28958" lon="-72.46132">
        <ele>221.3</ele>
      </trkpt>
      <trkpt lat="45.28943" lon="-72.46159">
        <ele>221.6</ele>
      </trkpt>
      <trkpt lat="45.28898" lon="-72.46213">
        <ele>222.8</ele>
      </trkpt>
      <trkpt lat="45.28853" lon="-72.46267">
        <ele>225.4</ele>
      </trkpt>
      <trkpt lat="45.28865" lon="-72.46279">
        <ele>225.6</ele>
      </trkpt>
      <trkpt lat="45.28934" lon="-72.46333">
        <ele>228.9</ele>
      </trkpt>
      <trkpt lat="45.28994" lon="-72.46387">
        <ele>232.9</ele>
      </trkpt>
      <trkpt lat="45.29062" lon="-72.464479">
        <ele>235.9</ele>
      </trkpt>
      <trkpt lat="45.2913" lon="-72.46509">
        <ele>237.5</ele>
      </trkpt>
      <trkpt lat="45.29166" lon="-72.46545">
        <ele>238.7</ele>
      </trkpt>
      <trkpt lat="45.29166" lon="-72.46544">
        <ele>238.7</ele>
      </trkpt>
      <trkpt lat="45.29238" lon="-72.46612">
        <ele>241.3</ele>
      </trkpt>
      <trkpt lat="45.293016" lon="-72.466766">
        <ele>245.7</ele>
      </trkpt>
      <trkpt lat="45.293653" lon="-72.467413">
        <ele>248</ele>
      </trkpt>
      <trkpt lat="45.29429" lon="-72.468059">
        <ele>249.6</ele>
      </trkpt>
      <trkpt lat="45.294926" lon="-72.468706">
        <ele>250.5</ele>
      </trkpt>
      <trkpt lat="45.295563" lon="-72.469353">
        <ele>251.7</ele>
      </trkpt>
      <trkpt lat="45.2962" lon="-72.47">
        <ele>253.1</ele>
      </trkpt>
      <trkpt lat="45.296787" lon="-72.470604">
        <ele>254</ele>
      </trkpt>
      <trkpt lat="45.297375" lon="-72.471209">
        <ele>255.2</ele>
      </trkpt>
      <trkpt lat="45.297962" lon="-72.471814">
        <ele>255.7</ele>
      </trkpt>
      <trkpt lat="45.29855" lon="-72.47242">
        <ele>256.3</ele>
      </trkpt>
      <trkpt lat="45.299243" lon="-72.473119">
        <ele>258.8</ele>
      </trkpt>
      <trkpt lat="45.299936" lon="-72.473819">
        <ele>262.1</ele>
      </trkpt>
      <trkpt lat="45.30063" lon="-72.47452">
        <ele>264.2</ele>
      </trkpt>
      <trkpt lat="45.30137" lon="-72.47521">
        <ele>265</ele>
      </trkpt>
      <trkpt lat="45.30166" lon="-72.47542">
        <ele>265.3</ele>
      </trkpt>
      <trkpt lat="45.30192" lon="-72.47551">
        <ele>266.5</ele>
      </trkpt>
      <trkpt lat="45.30214" lon="-72.47552">
        <ele>268</ele>
      </trkpt>
      <trkpt lat="45.30237" lon="-72.47551">
        <ele>268.4</ele>
      </trkpt>
      <trkpt lat="45.303042" lon="-72.475377">
        <ele>271.6</ele>
      </trkpt>
      <trkpt lat="45.303715" lon="-72.475245">
        <ele>273.6</ele>
      </trkpt>
      <trkpt lat="45.304387" lon="-72.475112">
        <ele>274.6</ele>
      </trkpt>
      <trkpt lat="45.30506" lon="-72.47498">
        <ele>274.5</ele>
      </trkpt>
      <trkpt lat="45.30574" lon="-72.47493">
        <ele>272.3</ele>
      </trkpt>
      <trkpt lat="45.30622" lon="-72.47492">
        <ele>269.4</ele>
      </trkpt>
      <trkpt lat="45.306734" lon="-72.474984">
        <ele>267.1</ele>
      </trkpt>
      <trkpt lat="45.30725" lon="-72.47505">
        <ele>264.2</ele>
      </trkpt>
      <trkpt lat="45.307759" lon="-72.475124">
        <ele>262.5</ele>
      </trkpt>
      <trkpt lat="45.30827" lon="-72.4752">
        <ele>262.8</ele>
      </trkpt>
      <trkpt lat="45.3086" lon="-72.47529">
        <ele>263.2</ele>
      </trkpt>
      <trkpt lat="45.30904" lon="-72.47537">
        <ele>264.5</ele>
      </trkpt>
      <trkpt lat="45.30984" lon="-72.47556">
        <ele>267</ele>
      </trkpt>
      <trkpt lat="45.31053" lon="-72.47577">
        <ele>271.3</ele>
      </trkpt>
      <trkpt lat="45.31122" lon="-72.476">
        <ele>273.9</ele>
      </trkpt>
      <trkpt lat="45.3119" lon="-72.476164">
        <ele>279.5</ele>
      </trkpt>
      <trkpt lat="45.31258" lon="-72.47633">
        <ele>280.3</ele>
      </trkpt>
      <trkpt lat="45.313435" lon="-72.476582">
        <ele>281.4</ele>
      </trkpt>
      <trkpt lat="45.31429" lon="-72.476834">
        <ele>281.3</ele>
      </trkpt>
      <trkpt lat="45.315145" lon="-72.477087">
        <ele>279.5</ele>
      </trkpt>
      <trkpt lat="45.316" lon="-72.47734">
        <ele>279.1</ele>
      </trkpt>
      <trkpt lat="45.31638" lon="-72.47748">
        <ele>279.6</ele>
      </trkpt>
      <trkpt lat="45.31679" lon="-72.47766">
        <ele>279.4</ele>
      </trkpt>
      <trkpt lat="45.31718" lon="-72.47789">
        <ele>280.1</ele>
      </trkpt>
      <trkpt lat="45.31745" lon="-72.47809">
        <ele>279.2</ele>
      </trkpt>
      <trkpt lat="45.31745" lon="-72.4781">
        <ele>279.2</ele>
      </trkpt>
      <trkpt lat="45.318185" lon="-72.478634">
        <ele>276</ele>
      </trkpt>
      <trkpt lat="45.31892" lon="-72.47917">
        <ele>275.9</ele>
      </trkpt>
      <trkpt lat="45.31968" lon="-72.47976">
        <ele>271.2</ele>
      </trkpt>
      <trkpt lat="45.31984" lon="-72.4798">
        <ele>269.8</ele>
      </trkpt>
      <trkpt lat="45.3205" lon="-72.47972">
        <ele>258.9</ele>
      </trkpt>
      <trkpt lat="45.32067" lon="-72.47972">
        <ele>258.9</ele>
      </trkpt>
      <trkpt lat="45.32082" lon="-72.47975">
        <ele>256.7</ele>
      </trkpt>
      <trkpt lat="45.32132" lon="-72.48007">
        <ele>252.9</ele>
      </trkpt>
      <trkpt lat="45.321972" lon="-72.480387">
        <ele>251.8</ele>
      </trkpt>
      <trkpt lat="45.322625" lon="-72.480704">
        <ele>250.8</ele>
      </trkpt>
      <trkpt lat="45.323277" lon="-72.481022">
        <ele>245.5</ele>
      </trkpt>
      <trkpt lat="45.32393" lon="-72.48134">
        <ele>243.6</ele>
      </trkpt>
      <trkpt lat="45.323865" lon="-72.48216">
        <ele>241</ele>
      </trkpt>
      <trkpt lat="45.3238" lon="-72.48298">
        <ele>241.1</ele>
      </trkpt>
      <trkpt lat="45.32396" lon="-72.48347">
        <ele>241.9</ele>
      </trkpt>
      <trkpt lat="45.32399" lon="-72.48362">
        <ele>242.1</ele>
      </trkpt>
      <trkpt lat="45.323886" lon="-72.484776">
        <ele>246.6</ele>
      </trkpt>
      <trkpt lat="45.323782" lon="-72.485932">
        <ele>245</ele>
      </trkpt>
      <trkpt lat="45.323679" lon="-72.487089">
        <ele>237.9</ele>
      </trkpt>
      <trkpt lat="45.323575" lon="-72.488245">
        <ele>235.3</ele>
      </trkpt>
      <trkpt lat="45.323471" lon="-72.489401">
        <ele>236.7</ele>
      </trkpt>
      <trkpt lat="45.323368" lon="-72.490558">
        <ele>235.2</ele>
      </trkpt>
      <trkpt lat="45.323264" lon="-72.491714">
        <ele>232.3</ele>
      </trkpt>
      <trkpt lat="45.323161" lon="-72.49287">
        <ele>232.4</ele>
      </trkpt>
      <trkpt lat="45.323057" lon="-72.494027">
        <ele>232.9</ele>
      </trkpt>
      <trkpt lat="45.322953" lon="-72.495183">
        <ele>233.3</ele>
      </trkpt>
      <trkpt lat="45.32285" lon="-72.49634">
        <ele>232.3</ele>
      </trkpt>
      <trkpt lat="45.32278" lon="-72.49656">
        <ele>231.6</ele>
      </trkpt>
      <trkpt lat="45.32243" lon="-72.49728">
        <ele>231</ele>
      </trkpt>
      <trkpt lat="45.32235" lon="-72.49817">
        <ele>233.9</ele>
      </trkpt>
      <trkpt lat="45.32227" lon="-72.49906">
        <ele>232.7</ele>
      </trkpt>
      <trkpt lat="45.32214" lon="-72.4992">
        <ele>232.7</ele>
      </trkpt>
      <trkpt lat="45.32211" lon="-72.49929">
        <ele>232.5</ele>
      </trkpt>
      <trkpt lat="45.3221" lon="-72.49961">
        <ele>232.2</ele>
      </trkpt>
      <trkpt lat="45.32207" lon="-72.49965">
        <ele>232.2</ele>
      </trkpt>
      <trkpt lat="45.32191" lon="-72.49961">
        <ele>231.9</ele>
      </trkpt>
      <trkpt lat="45.32181" lon="-72.49965">
        <ele>231.9</ele>
      </trkpt>
      <trkpt lat="45.32178" lon="-72.49974">
        <ele>231.4</ele>
      </trkpt>
      <trkpt lat="45.32174" lon="-72.50036">
        <ele>230.4</ele>
      </trkpt>
      <trkpt lat="45.32176" lon="-72.50049">
        <ele>229.5</ele>
      </trkpt>
      <trkpt lat="45.32181" lon="-72.50054">
        <ele>229</ele>
      </trkpt>
      <trkpt lat="45.32197" lon="-72.50064">
        <ele>228.4</ele>
      </trkpt>
      <trkpt lat="45.32207" lon="-72.50125">
        <ele>227.6</ele>
      </trkpt>
      <trkpt lat="45.32201" lon="-72.50197">
        <ele>227</ele>
      </trkpt>
      <trkpt lat="45.32204" lon="-72.50303">
        <ele>226</ele>
      </trkpt>
      <trkpt lat="45.32142" lon="-72.502954">
        <ele>226.4</ele>
      </trkpt>
      <trkpt lat="45.3208" lon="-72.50288">
        <ele>227</ele>
      </trkpt>
      <trkpt lat="45.320066" lon="-72.502795">
        <ele>227.8</ele>
      </trkpt>
      <trkpt lat="45.319332" lon="-72.502711">
        <ele>229.8</ele>
      </trkpt>
      <trkpt lat="45.318598" lon="-72.502627">
        <ele>230.5</ele>
      </trkpt>
      <trkpt lat="45.317864" lon="-72.502543">
        <ele>230.9</ele>
      </trkpt>
      <trkpt lat="45.31713" lon="-72.50246">
        <ele>231.8</ele>
      </trkpt>
      <trkpt lat="45.31633" lon="-72.50228">
        <ele>231.9</ele>
      </trkpt>
      <trkpt lat="45.3161" lon="-72.5022">
        <ele>231.7</ele>
      </trkpt>
      <trkpt lat="45.31533" lon="-72.501629">
        <ele>231</ele>
      </trkpt>
      <trkpt lat="45.31456" lon="-72.501059">
        <ele>230.6</ele>
      </trkpt>
      <trkpt lat="45.31379" lon="-72.50049">
        <ele>231.3</ele>
      </trkpt>
      <trkpt lat="45.31364" lon="-72.50041">
        <ele>231.4</ele>
      </trkpt>
      <trkpt lat="45.31298" lon="-72.50018">
        <ele>231.3</ele>
      </trkpt>
      <trkpt lat="45.31288" lon="-72.50013">
        <ele>231.5</ele>
      </trkpt>
      <trkpt lat="45.31283" lon="-72.50008">
        <ele>231.5</ele>
      </trkpt>
      <trkpt lat="45.31282" lon="-72.50004">
        <ele>231.5</ele>
      </trkpt>
      <trkpt lat="45.31283" lon="-72.49981">
        <ele>231.2</ele>
      </trkpt>
      <trkpt lat="45.31206" lon="-72.49942">
        <ele>230.3</ele>
      </trkpt>
      <trkpt lat="45.31154" lon="-72.49924">
        <ele>229.7</ele>
      </trkpt>
      <trkpt lat="45.31121" lon="-72.49916">
        <ele>229.1</ele>
      </trkpt>
      <trkpt lat="45.3108" lon="-72.49915">
        <ele>227.9</ele>
      </trkpt>
      <trkpt lat="45.31015" lon="-72.499223">
        <ele>226</ele>
      </trkpt>
      <trkpt lat="45.3095" lon="-72.499296">
        <ele>225.2</ele>
      </trkpt>
      <trkpt lat="45.30885" lon="-72.49937">
        <ele>224</ele>
      </trkpt>
      <trkpt lat="45.30815" lon="-72.49937">
        <ele>222.5</ele>
      </trkpt>
      <trkpt lat="45.30793" lon="-72.49933">
        <ele>221.3</ele>
      </trkpt>
      <trkpt lat="45.30757" lon="-72.49923">
        <ele>221</ele>
      </trkpt>
      <trkpt lat="45.307572" lon="-72.500317">
        <ele>220.9</ele>
      </trkpt>
      <trkpt lat="45.307575" lon="-72.501404">
        <ele>223.5</ele>
      </trkpt>
      <trkpt lat="45.307577" lon="-72.502492">
        <ele>223.5</ele>
      </trkpt>
      <trkpt lat="45.30758" lon="-72.50358">
        <ele>223.7</ele>
      </trkpt>
      <trkpt lat="45.307566" lon="-72.50451">
        <ele>222.6</ele>
      </trkpt>
      <trkpt lat="45.307553" lon="-72.50544">
        <ele>223.5</ele>
      </trkpt>
      <trkpt lat="45.30754" lon="-72.50637">
        <ele>226.3</ele>
      </trkpt>
      <trkpt lat="45.30758" lon="-72.50672">
        <ele>226.9</ele>
      </trkpt>
      <trkpt lat="45.30765" lon="-72.50708">
        <ele>227.2</ele>
      </trkpt>
      <trkpt lat="45.30783" lon="-72.50766">
        <ele>226</ele>
      </trkpt>
      <trkpt lat="45.30807" lon="-72.508199">
        <ele>223.5</ele>
      </trkpt>
      <trkpt lat="45.30831" lon="-72.50874">
        <ele>222.7</ele>
      </trkpt>
      <trkpt lat="45.30877" lon="-72.509699">
        <ele>224.8</ele>
      </trkpt>
      <trkpt lat="45.30923" lon="-72.51066">
        <ele>230.3</ele>
      </trkpt>
      <trkpt lat="45.30937" lon="-72.51111">
        <ele>229.3</ele>
      </trkpt>
      <trkpt lat="45.30957" lon="-72.51202">
        <ele>226.1</ele>
      </trkpt>
      <trkpt lat="45.30963" lon="-72.512879">
        <ele>226.8</ele>
      </trkpt>
      <trkpt lat="45.30969" lon="-72.51374">
        <ele>229.8</ele>
      </trkpt>
      <trkpt lat="45.30967" lon="-72.51434">
        <ele>230.9</ele>
      </trkpt>
      <trkpt lat="45.309593" lon="-72.51526">
        <ele>229.9</ele>
      </trkpt>
      <trkpt lat="45.309516" lon="-72.51618">
        <ele>229</ele>
      </trkpt>
      <trkpt lat="45.30944" lon="-72.5171">
        <ele>227.3</ele>
      </trkpt>
      <trkpt lat="45.30933" lon="-72.51813">
        <ele>226.7</ele>
      </trkpt>
      <trkpt lat="45.30919" lon="-72.51885">
        <ele>225</ele>
      </trkpt>
      <trkpt lat="45.308955" lon="-72.51995">
        <ele>222.4</ele>
      </trkpt>
      <trkpt lat="45.30872" lon="-72.52105">
        <ele>219.5</ele>
      </trkpt>
      <trkpt lat="45.308485" lon="-72.52215">
        <ele>215.8</ele>
      </trkpt>
      <trkpt lat="45.30825" lon="-72.52325">
        <ele>213.6</ele>
      </trkpt>
      <trkpt lat="45.30816" lon="-72.52382">
        <ele>211.3</ele>
      </trkpt>
      <trkpt lat="45.30801" lon="-72.52494">
        <ele>208.1</ele>
      </trkpt>
      <trkpt lat="45.30777" lon="-72.525945">
        <ele>212.3</ele>
      </trkpt>
      <trkpt lat="45.30753" lon="-72.52695">
        <ele>220.4</ele>
      </trkpt>
      <trkpt lat="45.30749" lon="-72.52736">
        <ele>222.8</ele>
      </trkpt>
      <trkpt lat="45.3075" lon="-72.52862">
        <ele>224.9</ele>
      </trkpt>
      <trkpt lat="45.307495" lon="-72.52971">
        <ele>224.5</ele>
      </trkpt>
      <trkpt lat="45.30749" lon="-72.5308">
        <ele>226.4</ele>
      </trkpt>
      <trkpt lat="45.307485" lon="-72.53189">
        <ele>227.2</ele>
      </trkpt>
      <trkpt lat="45.30748" lon="-72.53298">
        <ele>226.9</ele>
      </trkpt>
      <trkpt lat="45.307475" lon="-72.53407">
        <ele>228</ele>
      </trkpt>
      <trkpt lat="45.30747" lon="-72.53516">
        <ele>230</ele>
      </trkpt>
      <trkpt lat="45.30746" lon="-72.53638">
        <ele>227.5</ele>
      </trkpt>
      <trkpt lat="45.307451" lon="-72.537601">
        <ele>226.5</ele>
      </trkpt>
      <trkpt lat="45.307442" lon="-72.538822">
        <ele>228</ele>
      </trkpt>
      <trkpt lat="45.307432" lon="-72.540042">
        <ele>231</ele>
      </trkpt>
      <trkpt lat="45.307423" lon="-72.541263">
        <ele>231.1</ele>
      </trkpt>
      <trkpt lat="45.307414" lon="-72.542484">
        <ele>230.6</ele>
      </trkpt>
      <trkpt lat="45.307405" lon="-72.543704">
        <ele>229.9</ele>
      </trkpt>
      <trkpt lat="45.307395" lon="-72.544925">
        <ele>228.6</ele>
      </trkpt>
      <trkpt lat="45.307386" lon="-72.546146">
        <ele>228.3</ele>
      </trkpt>
      <trkpt lat="45.307376" lon="-72.547366">
        <ele>228.1</ele>
      </trkpt>
      <trkpt lat="45.307367" lon="-72.548587">
        <ele>227.7</ele>
      </trkpt>
      <trkpt lat="45.307358" lon="-72.549808">
        <ele>226.1</ele>
      </trkpt>
      <trkpt lat="45.307348" lon="-72.551028">
        <ele>226.1</ele>
      </trkpt>
      <trkpt lat="45.307339" lon="-72.552249">
        <ele>225.7</ele>
      </trkpt>
      <trkpt lat="45.30733" lon="-72.55347">
        <ele>225.4</ele>
      </trkpt>
      <trkpt lat="45.307325" lon="-72.554625">
        <ele>225.5</ele>
      </trkpt>
      <trkpt lat="45.30732" lon="-72.55578">
        <ele>225.5</ele>
      </trkpt>
      <trkpt lat="45.307315" lon="-72.556935">
        <ele>225.8</ele>
      </trkpt>
      <trkpt lat="45.30731" lon="-72.55809">
        <ele>227.2</ele>
      </trkpt>
      <trkpt lat="45.307305" lon="-72.559245">
        <ele>227</ele>
      </trkpt>
      <trkpt lat="45.3073" lon="-72.5604">
        <ele>224.1</ele>
      </trkpt>
      <trkpt lat="45.307295" lon="-72.561555">
        <ele>221</ele>
      </trkpt>
      <trkpt lat="45.30729" lon="-72.56271">
        <ele>214.9</ele>
      </trkpt>
      <trkpt lat="45.307285" lon="-72.563865">
        <ele>210.8</ele>
      </trkpt>
      <trkpt lat="45.30728" lon="-72.56502">
        <ele>208.8</ele>
      </trkpt>
      <trkpt lat="45.30731" lon="-72.56563">
        <ele>208.2</ele>
      </trkpt>
      <trkpt lat="45.30736" lon="-72.56621">
        <ele>207.5</ele>
      </trkpt>
      <trkpt lat="45.30745" lon="-72.56682">
        <ele>207.4</ele>
      </trkpt>
      <trkpt lat="45.30754" lon="-72.567544">
        <ele>207.2</ele>
      </trkpt>
      <trkpt lat="45.30763" lon="-72.56827">
        <ele>203.4</ele>
      </trkpt>
      <trkpt lat="45.3076" lon="-72.56886">
        <ele>198.1</ele>
      </trkpt>
      <trkpt lat="45.30737" lon="-72.56998">
        <ele>193.6</ele>
      </trkpt>
      <trkpt lat="45.30733" lon="-72.5706">
        <ele>193.2</ele>
      </trkpt>
      <trkpt lat="45.307307" lon="-72.57185">
        <ele>191.9</ele>
      </trkpt>
      <trkpt lat="45.307285" lon="-72.5731">
        <ele>184.8</ele>
      </trkpt>
      <trkpt lat="45.307262" lon="-72.57435">
        <ele>177.9</ele>
      </trkpt>
      <trkpt lat="45.30724" lon="-72.5756">
        <ele>172.3</ele>
      </trkpt>
      <trkpt lat="45.307242" lon="-72.576671">
        <ele>170.1</ele>
      </trkpt>
      <trkpt lat="45.307244" lon="-72.577743">
        <ele>167.8</ele>
      </trkpt>
      <trkpt lat="45.307246" lon="-72.578815">
        <ele>166.7</ele>
      </trkpt>
      <trkpt lat="45.307248" lon="-72.579887">
        <ele>168.1</ele>
      </trkpt>
      <trkpt lat="45.30725" lon="-72.58096">
        <ele>166.6</ele>
      </trkpt>
      <trkpt lat="45.307255" lon="-72.582042">
        <ele>164.4</ele>
      </trkpt>
      <trkpt lat="45.30726" lon="-72.583124">
        <ele>164.4</ele>
      </trkpt>
      <trkpt lat="45.307265" lon="-72.584207">
        <ele>167.8</ele>
      </trkpt>
      <trkpt lat="45.30727" lon="-72.58529">
        <ele>172.4</ele>
      </trkpt>
      <trkpt lat="45.307283" lon="-72.586189">
        <ele>173.1</ele>
      </trkpt>
      <trkpt lat="45.307296" lon="-72.587089">
        <ele>172.4</ele>
      </trkpt>
      <trkpt lat="45.30731" lon="-72.58799">
        <ele>170.4</ele>
      </trkpt>
      <trkpt lat="45.307308" lon="-72.589243">
        <ele>167</ele>
      </trkpt>
      <trkpt lat="45.307306" lon="-72.590496">
        <ele>162.3</ele>
      </trkpt>
      <trkpt lat="45.307305" lon="-72.59175">
        <ele>159.4</ele>
      </trkpt>
      <trkpt lat="45.307303" lon="-72.593003">
        <ele>159.1</ele>
      </trkpt>
      <trkpt lat="45.307301" lon="-72.594256">
        <ele>157.9</ele>
      </trkpt>
      <trkpt lat="45.3073" lon="-72.59551">
        <ele>156</ele>
      </trkpt>
      <trkpt lat="45.308099" lon="-72.59548">
        <ele>154.9</ele>
      </trkpt>
      <trkpt lat="45.3089" lon="-72.59545">
        <ele>156.6</ele>
      </trkpt>
      <trkpt lat="45.30916" lon="-72.59541">
        <ele>156.8</ele>
      </trkpt>
      <trkpt lat="45.31004" lon="-72.59541">
        <ele>156.4</ele>
      </trkpt>
      <trkpt lat="45.31031" lon="-72.59536">
        <ele>156.7</ele>
      </trkpt>
      <trkpt lat="45.310974" lon="-72.59534">
        <ele>157.9</ele>
      </trkpt>
      <trkpt lat="45.31164" lon="-72.59532">
        <ele>158.7</ele>
      </trkpt>
      <trkpt lat="45.31193" lon="-72.59527">
        <ele>159.4</ele>
      </trkpt>
      <trkpt lat="45.312573" lon="-72.595256">
        <ele>161.4</ele>
      </trkpt>
      <trkpt lat="45.313216" lon="-72.595243">
        <ele>162.6</ele>
      </trkpt>
      <trkpt lat="45.31386" lon="-72.59523">
        <ele>162.2</ele>
      </trkpt>
      <trkpt lat="45.314679" lon="-72.5952">
        <ele>160.1</ele>
      </trkpt>
      <trkpt lat="45.315499" lon="-72.59517">
        <ele>161.1</ele>
      </trkpt>
      <trkpt lat="45.316319" lon="-72.59514">
        <ele>160.8</ele>
      </trkpt>
      <trkpt lat="45.31714" lon="-72.59511">
        <ele>160</ele>
      </trkpt>
      <trkpt lat="45.31732" lon="-72.59506">
        <ele>160.1</ele>
      </trkpt>
      <trkpt lat="45.31746" lon="-72.595">
        <ele>160.2</ele>
      </trkpt>
      <trkpt lat="45.3176" lon="-72.59483">
        <ele>160.3</ele>
      </trkpt>
      <trkpt lat="45.31809" lon="-72.594115">
        <ele>161.5</ele>
      </trkpt>
      <trkpt lat="45.31858" lon="-72.5934">
        <ele>162.1</ele>
      </trkpt>
      <trkpt lat="45.31889" lon="-72.59312">
        <ele>162.1</ele>
      </trkpt>
      <trkpt lat="45.31936" lon="-72.59309">
        <ele>162.9</ele>
      </trkpt>
      <trkpt lat="45.320105" lon="-72.593132">
        <ele>167.5</ele>
      </trkpt>
      <trkpt lat="45.32085" lon="-72.593174">
        <ele>170.3</ele>
      </trkpt>
      <trkpt lat="45.321594" lon="-72.593217">
        <ele>171.9</ele>
      </trkpt>
      <trkpt lat="45.32234" lon="-72.59326">
        <ele>173.9</ele>
      </trkpt>
      <trkpt lat="45.32307" lon="-72.593299">
        <ele>175.4</ele>
      </trkpt>
      <trkpt lat="45.3238" lon="-72.59334">
        <ele>176.1</ele>
      </trkpt>
      <trkpt lat="45.3238" lon="-72.59348">
        <ele>176</ele>
      </trkpt>
      <trkpt lat="45.32398" lon="-72.59469">
        <ele>173.5</ele>
      </trkpt>
      <trkpt lat="45.32417" lon="-72.595339">
        <ele>173.1</ele>
      </trkpt>
      <trkpt lat="45.32436" lon="-72.59599">
        <ele>172.4</ele>
      </trkpt>
      <trkpt lat="45.324717" lon="-72.597044">
        <ele>171.3</ele>
      </trkpt>
      <trkpt lat="45.325075" lon="-72.598098">
        <ele>170.6</ele>
      </trkpt>
      <trkpt lat="45.325433" lon="-72.599153">
        <ele>169.5</ele>
      </trkpt>
      <trkpt lat="45.325791" lon="-72.600207">
        <ele>168.6</ele>
      </trkpt>
      <trkpt lat="45.326148" lon="-72.601262">
        <ele>167.6</ele>
      </trkpt>
      <trkpt lat="45.326506" lon="-72.602316">
        <ele>166.6</ele>
      </trkpt>
      <trkpt lat="45.326864" lon="-72.603371">
        <ele>164.9</ele>
      </trkpt>
      <trkpt lat="45.327222" lon="-72.604425">
        <ele>163.7</ele>
      </trkpt>
      <trkpt lat="45.32758" lon="-72.60548">
        <ele>162.5</ele>
      </trkpt>
      <trkpt lat="45.32801" lon="-72.6066">
        <ele>161.4</ele>
      </trkpt>
      <trkpt lat="45.32844" lon="-72.60741">
        <ele>160.4</ele>
      </trkpt>
      <trkpt lat="45.328943" lon="-72.608126">
        <ele>159.8</ele>
      </trkpt>
      <trkpt lat="45.329446" lon="-72.608843">
        <ele>158.8</ele>
      </trkpt>
      <trkpt lat="45.32995" lon="-72.60956">
        <ele>158.7</ele>
      </trkpt>
      <trkpt lat="45.3303" lon="-72.61009">
        <ele>157.9</ele>
      </trkpt>
      <trkpt lat="45.33063" lon="-72.61067">
        <ele>157</ele>
      </trkpt>
      <trkpt lat="45.33098" lon="-72.61143">
        <ele>155.3</ele>
      </trkpt>
      <trkpt lat="45.33128" lon="-72.61229">
        <ele>154.3</ele>
      </trkpt>
      <trkpt lat="45.33149" lon="-72.61319">
        <ele>153.7</ele>
      </trkpt>
      <trkpt lat="45.331672" lon="-72.614407">
        <ele>153.2</ele>
      </trkpt>
      <trkpt lat="45.331855" lon="-72.615624">
        <ele>152.6</ele>
      </trkpt>
      <trkpt lat="45.332037" lon="-72.616842">
        <ele>152</ele>
      </trkpt>
      <trkpt lat="45.33222" lon="-72.61806">
        <ele>151.1</ele>
      </trkpt>
      <trkpt lat="45.33246" lon="-72.61922">
        <ele>150.9</ele>
      </trkpt>
      <trkpt lat="45.3328" lon="-72.62034">
        <ele>150.3</ele>
      </trkpt>
      <trkpt lat="45.333105" lon="-72.621009">
        <ele>150.4</ele>
      </trkpt>
      <trkpt lat="45.33341" lon="-72.62168">
        <ele>150.9</ele>
      </trkpt>
      <trkpt lat="45.333881" lon="-72.622608">
        <ele>148.4</ele>
      </trkpt>
      <trkpt lat="45.334352" lon="-72.623537">
        <ele>148.1</ele>
      </trkpt>
      <trkpt lat="45.334823" lon="-72.624466">
        <ele>147.9</ele>
      </trkpt>
      <trkpt lat="45.335295" lon="-72.625394">
        <ele>147.8</ele>
      </trkpt>
      <trkpt lat="45.335766" lon="-72.626323">
        <ele>147.1</ele>
      </trkpt>
      <trkpt lat="45.336237" lon="-72.627252">
        <ele>146.5</ele>
      </trkpt>
      <trkpt lat="45.336708" lon="-72.628181">
        <ele>145.8</ele>
      </trkpt>
      <trkpt lat="45.33718" lon="-72.62911">
        <ele>144.3</ele>
      </trkpt>
      <trkpt lat="45.33742" lon="-72.629679">
        <ele>144</ele>
      </trkpt>
      <trkpt lat="45.33766" lon="-72.63025">
        <ele>144.1</ele>
      </trkpt>
      <trkpt lat="45.33784" lon="-72.630939">
        <ele>143.8</ele>
      </trkpt>
      <trkpt lat="45.33802" lon="-72.63163">
        <ele>143.6</ele>
      </trkpt>
      <trkpt lat="45.33816" lon="-72.632839">
        <ele>143.5</ele>
      </trkpt>
      <trkpt lat="45.3383" lon="-72.63405">
        <ele>143.3</ele>
      </trkpt>
      <trkpt lat="45.338455" lon="-72.634874">
        <ele>143.5</ele>
      </trkpt>
      <trkpt lat="45.33861" lon="-72.6357">
        <ele>142.7</ele>
      </trkpt>
      <trkpt lat="45.33878" lon="-72.63624">
        <ele>141.8</ele>
      </trkpt>
      <trkpt lat="45.33914" lon="-72.63703">
        <ele>141.1</ele>
      </trkpt>
      <trkpt lat="45.33965" lon="-72.638007">
        <ele>140.1</ele>
      </trkpt>
      <trkpt lat="45.34016" lon="-72.638985">
        <ele>138.6</ele>
      </trkpt>
      <trkpt lat="45.34067" lon="-72.639963">
        <ele>137.4</ele>
      </trkpt>
      <trkpt lat="45.34118" lon="-72.640941">
        <ele>136.5</ele>
      </trkpt>
      <trkpt lat="45.34169" lon="-72.64192">
        <ele>135.6</ele>
      </trkpt>
      <trkpt lat="45.34214" lon="-72.64295">
        <ele>134.7</ele>
      </trkpt>
      <trkpt lat="45.34249" lon="-72.64407">
        <ele>133.8</ele>
      </trkpt>
      <trkpt lat="45.342632" lon="-72.645034">
        <ele>133.5</ele>
      </trkpt>
      <trkpt lat="45.342775" lon="-72.645999">
        <ele>133.1</ele>
      </trkpt>
      <trkpt lat="45.342917" lon="-72.646964">
        <ele>133.4</ele>
      </trkpt>
      <trkpt lat="45.34306" lon="-72.64793">
        <ele>134</ele>
      </trkpt>
      <trkpt lat="45.343195" lon="-72.648759">
        <ele>133</ele>
      </trkpt>
      <trkpt lat="45.34333" lon="-72.64959">
        <ele>132.8</ele>
      </trkpt>
    </trkseg>
  </trk>
</gpx>