<?xml version='1.0' encoding='utf-8'?>
<gpx xmlns="http://www.topografix.com/GPX/1/1" xmlns:xsi="http://www.w3.org/2001/XMLSchema-instance" version="1.1" creator="Gravelle Estrie" xsi:schemaLocation="http://www.topografix.com/GPX/1/1 http://www.topografix.com/GPX/1/1/gpx.xsd">
  <metadata>
    <name>Heureux d'un Printemps MOD</name>
  </metadata>
  <trk>
    <name>Heureux d'un Printemps MOD</name>
    <trkseg>
      <trkpt lat="45.31777" lon="-72.6523">
        <ele>126.3</ele>
      </trkpt>
      <trkpt lat="45.31791" lon="-72.651635">
        <ele>126.77</ele>
      </trkpt>
      <trkpt lat="45.31805" lon="-72.65097">
        <ele>126.69</ele>
      </trkpt>
      <trkpt lat="45.31808" lon="-72.65092">
        <ele>126.88</ele>
      </trkpt>
      <trkpt lat="45.31815" lon="-72.65088">
        <ele>126.88</ele>
      </trkpt>
      <trkpt lat="45.31855" lon="-72.65106">
        <ele>128.97</ele>
      </trkpt>
      <trkpt lat="45.31891" lon="-72.65124">
        <ele>130.25</ele>
      </trkpt>
      <trkpt lat="45.319" lon="-72.65132">
        <ele>130.25</ele>
      </trkpt>
      <trkpt lat="45.31924" lon="-72.65145">
        <ele>130.52</ele>
      </trkpt>
      <trkpt lat="45.31935" lon="-72.65146">
        <ele>130.53</ele>
      </trkpt>
      <trkpt lat="45.31954" lon="-72.650705">
        <ele>130.19</ele>
      </trkpt>
      <trkpt lat="45.31973" lon="-72.64995">
        <ele>129.1</ele>
      </trkpt>
      <trkpt lat="45.31988" lon="-72.64946">
        <ele>126.21</ele>
      </trkpt>
      <trkpt lat="45.31988" lon="-72.64947">
        <ele>126.27</ele>
      </trkpt>
      <trkpt lat="45.31992" lon="-72.64933">
        <ele>125.27</ele>
      </trkpt>
      <trkpt lat="45.32007" lon="-72.64913">
        <ele>123.6</ele>
      </trkpt>
      <trkpt lat="45.32021" lon="-72.64877">
        <ele>121.83</ele>
      </trkpt>
      <trkpt lat="45.320475" lon="-72.648245">
        <ele>120.83</ele>
      </trkpt>
      <trkpt lat="45.32074" lon="-72.64772">
        <ele>120.55</ele>
      </trkpt>
      <trkpt lat="45.32085" lon="-72.64775">
        <ele>120.55</ele>
      </trkpt>
      <trkpt lat="45.32086" lon="-72.6478">
        <ele>120.55</ele>
      </trkpt>
      <trkpt lat="45.32091" lon="-72.64788">
        <ele>120.29</ele>
      </trkpt>
      <trkpt lat="45.32138" lon="-72.64807">
        <ele>119.81</ele>
      </trkpt>
      <trkpt lat="45.32156" lon="-72.64824">
        <ele>119.85</ele>
      </trkpt>
      <trkpt lat="45.322" lon="-72.64837">
        <ele>120.86</ele>
      </trkpt>
      <trkpt lat="45.32226" lon="-72.64851">
        <ele>122.61</ele>
      </trkpt>
      <trkpt lat="45.32285" lon="-72.64867">
        <ele>125.11</ele>
      </trkpt>
      <trkpt lat="45.32302" lon="-72.64901">
        <ele>124.65</ele>
      </trkpt>
      <trkpt lat="45.32318" lon="-72.64918">
        <ele>124.54</ele>
      </trkpt>
      <trkpt lat="45.32362" lon="-72.6494">
        <ele>123.95</ele>
      </trkpt>
      <trkpt lat="45.32402" lon="-72.64945">
        <ele>123.35</ele>
      </trkpt>
      <trkpt lat="45.32408" lon="-72.64949">
        <ele>123.39</ele>
      </trkpt>
      <trkpt lat="45.32414" lon="-72.64957">
        <ele>123.39</ele>
      </trkpt>
      <trkpt lat="45.32422" lon="-72.6498">
        <ele>123.18</ele>
      </trkpt>
      <trkpt lat="45.32432" lon="-72.64985">
        <ele>122.59</ele>
      </trkpt>
      <trkpt lat="45.32445" lon="-72.64971">
        <ele>121.29</ele>
      </trkpt>
      <trkpt lat="45.3245" lon="-72.64959">
        <ele>120.98</ele>
      </trkpt>
      <trkpt lat="45.32454" lon="-72.64944">
        <ele>120.26</ele>
      </trkpt>
      <trkpt lat="45.32453" lon="-72.64913">
        <ele>119.68</ele>
      </trkpt>
      <trkpt lat="45.32457" lon="-72.649">
        <ele>119.39</ele>
      </trkpt>
      <trkpt lat="45.32465" lon="-72.64892">
        <ele>119.39</ele>
      </trkpt>
      <trkpt lat="45.32476" lon="-72.64891">
        <ele>119.3</ele>
      </trkpt>
      <trkpt lat="45.32487" lon="-72.64895">
        <ele>119.3</ele>
      </trkpt>
      <trkpt lat="45.32502" lon="-72.6491">
        <ele>119.44</ele>
      </trkpt>
      <trkpt lat="45.32522" lon="-72.64923">
        <ele>119.69</ele>
      </trkpt>
      <trkpt lat="45.32551" lon="-72.64949">
        <ele>120.81</ele>
      </trkpt>
      <trkpt lat="45.32564" lon="-72.64963">
        <ele>120.84</ele>
      </trkpt>
      <trkpt lat="45.32579" lon="-72.64994">
        <ele>120.56</ele>
      </trkpt>
      <trkpt lat="45.32613" lon="-72.65025">
        <ele>119.35</ele>
      </trkpt>
      <trkpt lat="45.32623" lon="-72.65039">
        <ele>118.78</ele>
      </trkpt>
      <trkpt lat="45.32654" lon="-72.65106">
        <ele>117.34</ele>
      </trkpt>
      <trkpt lat="45.3268" lon="-72.65136">
        <ele>118.14</ele>
      </trkpt>
      <trkpt lat="45.32684" lon="-72.65137">
        <ele>118.14</ele>
      </trkpt>
      <trkpt lat="45.3269" lon="-72.65137">
        <ele>118.11</ele>
      </trkpt>
      <trkpt lat="45.32721" lon="-72.65098">
        <ele>117.58</ele>
      </trkpt>
      <trkpt lat="45.32743" lon="-72.65083">
        <ele>117.57</ele>
      </trkpt>
      <trkpt lat="45.32784" lon="-72.65065">
        <ele>117.18</ele>
      </trkpt>
      <trkpt lat="45.32809" lon="-72.65065">
        <ele>116.26</ele>
      </trkpt>
      <trkpt lat="45.32817" lon="-72.65057">
        <ele>116.26</ele>
      </trkpt>
      <trkpt lat="45.32859" lon="-72.65004">
        <ele>116.24</ele>
      </trkpt>
      <trkpt lat="45.3288" lon="-72.64989">
        <ele>116.44</ele>
      </trkpt>
      <trkpt lat="45.32902" lon="-72.64958">
        <ele>116.44</ele>
      </trkpt>
      <trkpt lat="45.32921" lon="-72.64949">
        <ele>116.37</ele>
      </trkpt>
      <trkpt lat="45.32935" lon="-72.64931">
        <ele>116.56</ele>
      </trkpt>
      <trkpt lat="45.32939" lon="-72.64928">
        <ele>116.56</ele>
      </trkpt>
      <trkpt lat="45.3295" lon="-72.64929">
        <ele>116.6</ele>
      </trkpt>
      <trkpt lat="45.32958" lon="-72.64931">
        <ele>116.47</ele>
      </trkpt>
      <trkpt lat="45.32977" lon="-72.6495">
        <ele>116.75</ele>
      </trkpt>
      <trkpt lat="45.32987" lon="-72.64954">
        <ele>117.29</ele>
      </trkpt>
      <trkpt lat="45.33006" lon="-72.64949">
        <ele>117.53</ele>
      </trkpt>
      <trkpt lat="45.33034" lon="-72.64958">
        <ele>117.2</ele>
      </trkpt>
      <trkpt lat="45.33039" lon="-72.64957">
        <ele>117.2</ele>
      </trkpt>
      <trkpt lat="45.33054" lon="-72.6494">
        <ele>116.94</ele>
      </trkpt>
      <trkpt lat="45.33067" lon="-72.64932">
        <ele>116.53</ele>
      </trkpt>
      <trkpt lat="45.3311" lon="-72.64936">
        <ele>114.74</ele>
      </trkpt>
      <trkpt lat="45.33136" lon="-72.6494">
        <ele>113.91</ele>
      </trkpt>
      <trkpt lat="45.33197" lon="-72.64944">
        <ele>114.03</ele>
      </trkpt>
      <trkpt lat="45.33209" lon="-72.64945">
        <ele>114.03</ele>
      </trkpt>
      <trkpt lat="45.33221" lon="-72.64954">
        <ele>114.68</ele>
      </trkpt>
      <trkpt lat="45.33243" lon="-72.64954">
        <ele>115.64</ele>
      </trkpt>
      <trkpt lat="45.3325" lon="-72.64959">
        <ele>115.73</ele>
      </trkpt>
      <trkpt lat="45.33255" lon="-72.64972">
        <ele>115.86</ele>
      </trkpt>
      <trkpt lat="45.33265" lon="-72.65083">
        <ele>115.1</ele>
      </trkpt>
      <trkpt lat="45.33275" lon="-72.65097">
        <ele>115.04</ele>
      </trkpt>
      <trkpt lat="45.33279" lon="-72.65101">
        <ele>115.04</ele>
      </trkpt>
      <trkpt lat="45.33287" lon="-72.65101">
        <ele>115.04</ele>
      </trkpt>
      <trkpt lat="45.33303" lon="-72.65088">
        <ele>115.12</ele>
      </trkpt>
      <trkpt lat="45.33316" lon="-72.65083">
        <ele>115.55</ele>
      </trkpt>
      <trkpt lat="45.33348" lon="-72.65105">
        <ele>115.94</ele>
      </trkpt>
      <trkpt lat="45.33353" lon="-72.65106">
        <ele>116.06</ele>
      </trkpt>
      <trkpt lat="45.33362" lon="-72.65101">
        <ele>116.06</ele>
      </trkpt>
      <trkpt lat="45.33369" lon="-72.65101">
        <ele>116.25</ele>
      </trkpt>
      <trkpt lat="45.33375" lon="-72.65102">
        <ele>116.25</ele>
      </trkpt>
      <trkpt lat="45.3338" lon="-72.65107">
        <ele>116.25</ele>
      </trkpt>
      <trkpt lat="45.33388" lon="-72.6512">
        <ele>116.37</ele>
      </trkpt>
      <trkpt lat="45.33424" lon="-72.65155">
        <ele>117.14</ele>
      </trkpt>
      <trkpt lat="45.33431" lon="-72.65164">
        <ele>117.14</ele>
      </trkpt>
      <trkpt lat="45.33438" lon="-72.65182">
        <ele>117.5</ele>
      </trkpt>
      <trkpt lat="45.33447" lon="-72.65191">
        <ele>118.37</ele>
      </trkpt>
      <trkpt lat="45.33506" lon="-72.65178">
        <ele>120.3</ele>
      </trkpt>
      <trkpt lat="45.33506" lon="-72.65172">
        <ele>120.3</ele>
      </trkpt>
      <trkpt lat="45.3351" lon="-72.65168">
        <ele>120.51</ele>
      </trkpt>
      <trkpt lat="45.33546" lon="-72.65162">
        <ele>121.48</ele>
      </trkpt>
      <trkpt lat="45.33575" lon="-72.65159">
        <ele>122.03</ele>
      </trkpt>
      <trkpt lat="45.33604" lon="-72.65137">
        <ele>122.58</ele>
      </trkpt>
      <trkpt lat="45.33642" lon="-72.65128">
        <ele>123.07</ele>
      </trkpt>
      <trkpt lat="45.33651" lon="-72.65124">
        <ele>123.07</ele>
      </trkpt>
      <trkpt lat="45.33652" lon="-72.6512">
        <ele>123.07</ele>
      </trkpt>
      <trkpt lat="45.33651" lon="-72.65111">
        <ele>123.95</ele>
      </trkpt>
      <trkpt lat="45.33639" lon="-72.65065">
        <ele>124.7</ele>
      </trkpt>
      <trkpt lat="45.33641" lon="-72.65061">
        <ele>124.7</ele>
      </trkpt>
      <trkpt lat="45.33668" lon="-72.65048">
        <ele>125.2</ele>
      </trkpt>
      <trkpt lat="45.33673" lon="-72.65043">
        <ele>125.2</ele>
      </trkpt>
      <trkpt lat="45.33674" lon="-72.65034">
        <ele>125.81</ele>
      </trkpt>
      <trkpt lat="45.33657" lon="-72.64971">
        <ele>128.35</ele>
      </trkpt>
      <trkpt lat="45.3364" lon="-72.64908">
        <ele>131.67</ele>
      </trkpt>
      <trkpt lat="45.33641" lon="-72.64901">
        <ele>131.84</ele>
      </trkpt>
      <trkpt lat="45.33649" lon="-72.64896">
        <ele>131.93</ele>
      </trkpt>
      <trkpt lat="45.33712" lon="-72.64885">
        <ele>131.68</ele>
      </trkpt>
      <trkpt lat="45.33726" lon="-72.64886">
        <ele>131.48</ele>
      </trkpt>
      <trkpt lat="45.33778" lon="-72.64882">
        <ele>130.36</ele>
      </trkpt>
      <trkpt lat="45.3379" lon="-72.64886">
        <ele>130.43</ele>
      </trkpt>
      <trkpt lat="45.33803" lon="-72.64901">
        <ele>130.57</ele>
      </trkpt>
      <trkpt lat="45.33809" lon="-72.649">
        <ele>130.44</ele>
      </trkpt>
      <trkpt lat="45.3382" lon="-72.64901">
        <ele>130.15</ele>
      </trkpt>
      <trkpt lat="45.33818" lon="-72.64922">
        <ele>129.44</ele>
      </trkpt>
      <trkpt lat="45.33819" lon="-72.64931">
        <ele>129.44</ele>
      </trkpt>
      <trkpt lat="45.33824" lon="-72.64932">
        <ele>129.29</ele>
      </trkpt>
      <trkpt lat="45.33828" lon="-72.64931">
        <ele>129.2</ele>
      </trkpt>
      <trkpt lat="45.33841" lon="-72.6491">
        <ele>129.56</ele>
      </trkpt>
      <trkpt lat="45.33849" lon="-72.64913">
        <ele>129.75</ele>
      </trkpt>
      <trkpt lat="45.33868" lon="-72.64922">
        <ele>130.69</ele>
      </trkpt>
      <trkpt lat="45.33876" lon="-72.64922">
        <ele>131.24</ele>
      </trkpt>
      <trkpt lat="45.33888" lon="-72.64913">
        <ele>132.71</ele>
      </trkpt>
      <trkpt lat="45.33897" lon="-72.6491">
        <ele>132.71</ele>
      </trkpt>
      <trkpt lat="45.33899" lon="-72.64912">
        <ele>132.71</ele>
      </trkpt>
      <trkpt lat="45.33899" lon="-72.64911">
        <ele>132.97</ele>
      </trkpt>
      <trkpt lat="45.33907" lon="-72.64914">
        <ele>134.04</ele>
      </trkpt>
      <trkpt lat="45.33918" lon="-72.64923">
        <ele>134.68</ele>
      </trkpt>
      <trkpt lat="45.33943" lon="-72.64931">
        <ele>135.91</ele>
      </trkpt>
      <trkpt lat="45.3396" lon="-72.64931">
        <ele>136.34</ele>
      </trkpt>
      <trkpt lat="45.34005" lon="-72.64926">
        <ele>136.14</ele>
      </trkpt>
      <trkpt lat="45.34017" lon="-72.64927">
        <ele>136.18</ele>
      </trkpt>
      <trkpt lat="45.34029" lon="-72.64931">
        <ele>136.28</ele>
      </trkpt>
      <trkpt lat="45.34045" lon="-72.64935">
        <ele>136.41</ele>
      </trkpt>
      <trkpt lat="45.34057" lon="-72.64931">
        <ele>136.88</ele>
      </trkpt>
      <trkpt lat="45.34088" lon="-72.64909">
        <ele>137.19</ele>
      </trkpt>
      <trkpt lat="45.341" lon="-72.64904">
        <ele>137.11</ele>
      </trkpt>
      <trkpt lat="45.34142" lon="-72.6491">
        <ele>136.54</ele>
      </trkpt>
      <trkpt lat="45.34166" lon="-72.64909">
        <ele>136.92</ele>
      </trkpt>
      <trkpt lat="45.34175" lon="-72.64904">
        <ele>136.94</ele>
      </trkpt>
      <trkpt lat="45.34179" lon="-72.649">
        <ele>136.83</ele>
      </trkpt>
      <trkpt lat="45.34185" lon="-72.6486">
        <ele>136.81</ele>
      </trkpt>
      <trkpt lat="45.34189" lon="-72.64851">
        <ele>136.92</ele>
      </trkpt>
      <trkpt lat="45.34201" lon="-72.64849">
        <ele>136.92</ele>
      </trkpt>
      <trkpt lat="45.34229" lon="-72.64851">
        <ele>137.71</ele>
      </trkpt>
      <trkpt lat="45.34248" lon="-72.64854">
        <ele>137.55</ele>
      </trkpt>
      <trkpt lat="45.34272" lon="-72.64847">
        <ele>135.41</ele>
      </trkpt>
      <trkpt lat="45.34302" lon="-72.64859">
        <ele>133.79</ele>
      </trkpt>
      <trkpt lat="45.34315" lon="-72.64854">
        <ele>133.46</ele>
      </trkpt>
      <trkpt lat="45.342985" lon="-72.6474225">
        <ele>133.58</ele>
      </trkpt>
      <trkpt lat="45.34282" lon="-72.646305">
        <ele>133.46</ele>
      </trkpt>
      <trkpt lat="45.342655" lon="-72.6451875">
        <ele>133.67</ele>
      </trkpt>
      <trkpt lat="45.34249" lon="-72.64407">
        <ele>134.28</ele>
      </trkpt>
      <trkpt lat="45.34214" lon="-72.64295">
        <ele>135.09</ele>
      </trkpt>
      <trkpt lat="45.34169" lon="-72.64192">
        <ele>135.93</ele>
      </trkpt>
      <trkpt lat="45.341196" lon="-72.640974">
        <ele>136.98</ele>
      </trkpt>
      <trkpt lat="45.340702" lon="-72.640028">
        <ele>138.04</ele>
      </trkpt>
      <trkpt lat="45.340208" lon="-72.639082">
        <ele>138.85</ele>
      </trkpt>
      <trkpt lat="45.339714" lon="-72.638136">
        <ele>140.2</ele>
      </trkpt>
      <trkpt lat="45.33922" lon="-72.63719">
        <ele>141.2</ele>
      </trkpt>
      <trkpt lat="45.33922" lon="-72.63719">
        <ele>141.2</ele>
      </trkpt>
      <trkpt lat="45.33878" lon="-72.63624">
        <ele>142.04</ele>
      </trkpt>
      <trkpt lat="45.33861" lon="-72.6357">
        <ele>142.72</ele>
      </trkpt>
      <trkpt lat="45.338455" lon="-72.634875">
        <ele>143.39</ele>
      </trkpt>
      <trkpt lat="45.3383" lon="-72.63405">
        <ele>143.32</ele>
      </trkpt>
      <trkpt lat="45.33816" lon="-72.63284">
        <ele>143.55</ele>
      </trkpt>
      <trkpt lat="45.33802" lon="-72.63163">
        <ele>143.58</ele>
      </trkpt>
      <trkpt lat="45.33784" lon="-72.63094">
        <ele>144.01</ele>
      </trkpt>
      <trkpt lat="45.33766" lon="-72.63025">
        <ele>144.35</ele>
      </trkpt>
      <trkpt lat="45.33742" lon="-72.62968">
        <ele>144.29</ele>
      </trkpt>
      <trkpt lat="45.33718" lon="-72.62911">
        <ele>144.86</ele>
      </trkpt>
      <trkpt lat="45.3367088" lon="-72.6281812">
        <ele>145.89</ele>
      </trkpt>
      <trkpt lat="45.3362375" lon="-72.6272524">
        <ele>147.11</ele>
      </trkpt>
      <trkpt lat="45.3357663" lon="-72.6263236">
        <ele>147.61</ele>
      </trkpt>
      <trkpt lat="45.3352951" lon="-72.6253949">
        <ele>148</ele>
      </trkpt>
      <trkpt lat="45.3348238" lon="-72.6244661">
        <ele>148.32</ele>
      </trkpt>
      <trkpt lat="45.3343525" lon="-72.6235374">
        <ele>148.43</ele>
      </trkpt>
      <trkpt lat="45.3338813" lon="-72.6226087">
        <ele>148.94</ele>
      </trkpt>
      <trkpt lat="45.33341" lon="-72.62168">
        <ele>150.84</ele>
      </trkpt>
      <trkpt lat="45.333105" lon="-72.62101">
        <ele>150.48</ele>
      </trkpt>
      <trkpt lat="45.3328" lon="-72.62034">
        <ele>150.62</ele>
      </trkpt>
      <trkpt lat="45.33246" lon="-72.61922">
        <ele>151.23</ele>
      </trkpt>
      <trkpt lat="45.33222" lon="-72.61806">
        <ele>151.3</ele>
      </trkpt>
      <trkpt lat="45.3320375" lon="-72.6168425">
        <ele>152.02</ele>
      </trkpt>
      <trkpt lat="45.331855" lon="-72.615625">
        <ele>152.71</ele>
      </trkpt>
      <trkpt lat="45.3316725" lon="-72.6144075">
        <ele>153.33</ele>
      </trkpt>
      <trkpt lat="45.33149" lon="-72.61319">
        <ele>153.68</ele>
      </trkpt>
      <trkpt lat="45.33128" lon="-72.61229">
        <ele>154.17</ele>
      </trkpt>
      <trkpt lat="45.33098" lon="-72.61143">
        <ele>155.22</ele>
      </trkpt>
      <trkpt lat="45.33063" lon="-72.61067">
        <ele>156.71</ele>
      </trkpt>
      <trkpt lat="45.3303" lon="-72.61009">
        <ele>158.02</ele>
      </trkpt>
      <trkpt lat="45.32995" lon="-72.60956">
        <ele>158.81</ele>
      </trkpt>
      <trkpt lat="45.3294467" lon="-72.6088433">
        <ele>158.85</ele>
      </trkpt>
      <trkpt lat="45.3289433" lon="-72.6081267">
        <ele>159.6</ele>
      </trkpt>
      <trkpt lat="45.32844" lon="-72.60741">
        <ele>161.01</ele>
      </trkpt>
      <trkpt lat="45.32801" lon="-72.6066">
        <ele>161.6</ele>
      </trkpt>
      <trkpt lat="45.32758" lon="-72.60548">
        <ele>162.79</ele>
      </trkpt>
      <trkpt lat="45.3272217" lon="-72.6044283">
        <ele>163.9</ele>
      </trkpt>
      <trkpt lat="45.3268634" lon="-72.6033766">
        <ele>165.28</ele>
      </trkpt>
      <trkpt lat="45.326505" lon="-72.6023249">
        <ele>166.93</ele>
      </trkpt>
      <trkpt lat="45.3261467" lon="-72.6012733">
        <ele>167.85</ele>
      </trkpt>
      <trkpt lat="45.3257884" lon="-72.6002216">
        <ele>168.59</ele>
      </trkpt>
      <trkpt lat="45.32543" lon="-72.59917">
        <ele>169.52</ele>
      </trkpt>
      <trkpt lat="45.32507" lon="-72.5981233">
        <ele>170.54</ele>
      </trkpt>
      <trkpt lat="45.32471" lon="-72.5970767">
        <ele>171.37</ele>
      </trkpt>
      <trkpt lat="45.32435" lon="-72.59603">
        <ele>172.31</ele>
      </trkpt>
      <trkpt lat="45.3241" lon="-72.59519">
        <ele>173.32</ele>
      </trkpt>
      <trkpt lat="45.32396" lon="-72.59456">
        <ele>174.24</ele>
      </trkpt>
      <trkpt lat="45.3238" lon="-72.59334">
        <ele>176.19</ele>
      </trkpt>
      <trkpt lat="45.32378" lon="-72.59259">
        <ele>175.36</ele>
      </trkpt>
      <trkpt lat="45.32379" lon="-72.59222">
        <ele>175.23</ele>
      </trkpt>
      <trkpt lat="45.32385" lon="-72.59147">
        <ele>175.31</ele>
      </trkpt>
      <trkpt lat="45.32396" lon="-72.59075">
        <ele>175.98</ele>
      </trkpt>
      <trkpt lat="45.32412" lon="-72.59004">
        <ele>176.57</ele>
      </trkpt>
      <trkpt lat="45.32432" lon="-72.58937">
        <ele>177.68</ele>
      </trkpt>
      <trkpt lat="45.32457" lon="-72.58874">
        <ele>178.31</ele>
      </trkpt>
      <trkpt lat="45.3250633" lon="-72.58774">
        <ele>179.54</ele>
      </trkpt>
      <trkpt lat="45.3255567" lon="-72.58674">
        <ele>180.62</ele>
      </trkpt>
      <trkpt lat="45.32605" lon="-72.58574">
        <ele>182.62</ele>
      </trkpt>
      <trkpt lat="45.32638" lon="-72.58501">
        <ele>183.33</ele>
      </trkpt>
      <trkpt lat="45.32671" lon="-72.58386">
        <ele>184.06</ele>
      </trkpt>
      <trkpt lat="45.32688" lon="-72.58287">
        <ele>184.71</ele>
      </trkpt>
      <trkpt lat="45.32692" lon="-72.58251">
        <ele>185.56</ele>
      </trkpt>
      <trkpt lat="45.32697" lon="-72.58165">
        <ele>186.22</ele>
      </trkpt>
      <trkpt lat="45.3269325" lon="-72.58065">
        <ele>186.51</ele>
      </trkpt>
      <trkpt lat="45.326895" lon="-72.57965">
        <ele>187.26</ele>
      </trkpt>
      <trkpt lat="45.3268575" lon="-72.57865">
        <ele>188.47</ele>
      </trkpt>
      <trkpt lat="45.32682" lon="-72.57765">
        <ele>189.27</ele>
      </trkpt>
      <trkpt lat="45.32682" lon="-72.57765">
        <ele>189.26</ele>
      </trkpt>
      <trkpt lat="45.32679" lon="-72.57679">
        <ele>190.18</ele>
      </trkpt>
      <trkpt lat="45.32676" lon="-72.57593">
        <ele>190.96</ele>
      </trkpt>
      <trkpt lat="45.32677" lon="-72.57486">
        <ele>192.19</ele>
      </trkpt>
      <trkpt lat="45.32682" lon="-72.57405">
        <ele>193.57</ele>
      </trkpt>
      <trkpt lat="45.32689" lon="-72.57345">
        <ele>195.27</ele>
      </trkpt>
      <trkpt lat="45.32698" lon="-72.57281">
        <ele>195.03</ele>
      </trkpt>
      <trkpt lat="45.32714" lon="-72.57204">
        <ele>195.27</ele>
      </trkpt>
      <trkpt lat="45.32732" lon="-72.57132">
        <ele>195.57</ele>
      </trkpt>
      <trkpt lat="45.32756" lon="-72.57056">
        <ele>196.14</ele>
      </trkpt>
      <trkpt lat="45.32787" lon="-72.56972">
        <ele>196.72</ele>
      </trkpt>
      <trkpt lat="45.32836" lon="-72.56872">
        <ele>198.48</ele>
      </trkpt>
      <trkpt lat="45.3288817" lon="-72.5677351">
        <ele>199.22</ele>
      </trkpt>
      <trkpt lat="45.3294034" lon="-72.5667502">
        <ele>200.78</ele>
      </trkpt>
      <trkpt lat="45.3299251" lon="-72.5657652">
        <ele>202.03</ele>
      </trkpt>
      <trkpt lat="45.3304468" lon="-72.5647803">
        <ele>203.59</ele>
      </trkpt>
      <trkpt lat="45.3309685" lon="-72.5637953">
        <ele>204.94</ele>
      </trkpt>
      <trkpt lat="45.3314902" lon="-72.5628103">
        <ele>206.38</ele>
      </trkpt>
      <trkpt lat="45.3320118" lon="-72.5618253">
        <ele>207.88</ele>
      </trkpt>
      <trkpt lat="45.3325335" lon="-72.5608403">
        <ele>208.65</ele>
      </trkpt>
      <trkpt lat="45.3330551" lon="-72.5598552">
        <ele>209.71</ele>
      </trkpt>
      <trkpt lat="45.3335768" lon="-72.5588702">
        <ele>210.83</ele>
      </trkpt>
      <trkpt lat="45.3340984" lon="-72.5578851">
        <ele>211.71</ele>
      </trkpt>
      <trkpt lat="45.33462" lon="-72.5569">
        <ele>212.21</ele>
      </trkpt>
      <trkpt lat="45.33496" lon="-72.55619">
        <ele>212.58</ele>
      </trkpt>
      <trkpt lat="45.33534" lon="-72.55517">
        <ele>212.84</ele>
      </trkpt>
      <trkpt lat="45.3356" lon="-72.55431">
        <ele>213.34</ele>
      </trkpt>
      <trkpt lat="45.335735" lon="-72.55368">
        <ele>213.72</ele>
      </trkpt>
      <trkpt lat="45.33587" lon="-72.55305">
        <ele>213.99</ele>
      </trkpt>
      <trkpt lat="45.33601" lon="-72.55208">
        <ele>214.35</ele>
      </trkpt>
      <trkpt lat="45.3361067" lon="-72.5510633">
        <ele>214.38</ele>
      </trkpt>
      <trkpt lat="45.3362033" lon="-72.5500467">
        <ele>214.55</ele>
      </trkpt>
      <trkpt lat="45.3363" lon="-72.54903">
        <ele>214.68</ele>
      </trkpt>
      <trkpt lat="45.3364167" lon="-72.5478209">
        <ele>214.51</ele>
      </trkpt>
      <trkpt lat="45.3365335" lon="-72.5466117">
        <ele>214.4</ele>
      </trkpt>
      <trkpt lat="45.3366502" lon="-72.5454026">
        <ele>214.13</ele>
      </trkpt>
      <trkpt lat="45.3367669" lon="-72.5441934">
        <ele>214</ele>
      </trkpt>
      <trkpt lat="45.3368836" lon="-72.5429843">
        <ele>213.55</ele>
      </trkpt>
      <trkpt lat="45.3370002" lon="-72.5417751">
        <ele>212.84</ele>
      </trkpt>
      <trkpt lat="45.3371169" lon="-72.5405659">
        <ele>212.37</ele>
      </trkpt>
      <trkpt lat="45.3372335" lon="-72.5393567">
        <ele>211.73</ele>
      </trkpt>
      <trkpt lat="45.3373502" lon="-72.5381476">
        <ele>211.25</ele>
      </trkpt>
      <trkpt lat="45.3374668" lon="-72.5369384">
        <ele>211.06</ele>
      </trkpt>
      <trkpt lat="45.3375834" lon="-72.5357292">
        <ele>210.77</ele>
      </trkpt>
      <trkpt lat="45.3377" lon="-72.53452">
        <ele>211.26</ele>
      </trkpt>
      <trkpt lat="45.33775" lon="-72.53375">
        <ele>211.33</ele>
      </trkpt>
      <trkpt lat="45.3377833" lon="-72.53278">
        <ele>211.36</ele>
      </trkpt>
      <trkpt lat="45.3378167" lon="-72.53181">
        <ele>212.06</ele>
      </trkpt>
      <trkpt lat="45.33785" lon="-72.53084">
        <ele>212.37</ele>
      </trkpt>
      <trkpt lat="45.33791" lon="-72.52995">
        <ele>212.43</ele>
      </trkpt>
      <trkpt lat="45.33799" lon="-72.52924">
        <ele>211.98</ele>
      </trkpt>
      <trkpt lat="45.3381" lon="-72.52852">
        <ele>212.08</ele>
      </trkpt>
      <trkpt lat="45.3382" lon="-72.52802">
        <ele>212.01</ele>
      </trkpt>
      <trkpt lat="45.3384467" lon="-72.5270233">
        <ele>211.47</ele>
      </trkpt>
      <trkpt lat="45.3386933" lon="-72.5260267">
        <ele>211.31</ele>
      </trkpt>
      <trkpt lat="45.33894" lon="-72.52503">
        <ele>210.53</ele>
      </trkpt>
      <trkpt lat="45.339095" lon="-72.52423">
        <ele>210.51</ele>
      </trkpt>
      <trkpt lat="45.33925" lon="-72.52343">
        <ele>211.12</ele>
      </trkpt>
      <trkpt lat="45.33949" lon="-72.52342">
        <ele>210.29</ele>
      </trkpt>
      <trkpt lat="45.33975" lon="-72.52337">
        <ele>210.12</ele>
      </trkpt>
      <trkpt lat="45.340485" lon="-72.523165">
        <ele>210.2</ele>
      </trkpt>
      <trkpt lat="45.34122" lon="-72.52296">
        <ele>211.08</ele>
      </trkpt>
      <trkpt lat="45.34196" lon="-72.522765">
        <ele>211.53</ele>
      </trkpt>
      <trkpt lat="45.3427" lon="-72.52257">
        <ele>212.22</ele>
      </trkpt>
      <trkpt lat="45.34276" lon="-72.52252">
        <ele>212.22</ele>
      </trkpt>
      <trkpt lat="45.34285" lon="-72.52194">
        <ele>213.9</ele>
      </trkpt>
      <trkpt lat="45.3429" lon="-72.5218">
        <ele>213.83</ele>
      </trkpt>
      <trkpt lat="45.34295" lon="-72.52174">
        <ele>213.83</ele>
      </trkpt>
      <trkpt lat="45.34367" lon="-72.52158">
        <ele>212.42</ele>
      </trkpt>
      <trkpt lat="45.34382" lon="-72.52157">
        <ele>212.67</ele>
      </trkpt>
      <trkpt lat="45.34388" lon="-72.52158">
        <ele>212.67</ele>
      </trkpt>
      <trkpt lat="45.34392" lon="-72.52118">
        <ele>211.98</ele>
      </trkpt>
      <trkpt lat="45.34392" lon="-72.52073">
        <ele>212.09</ele>
      </trkpt>
      <trkpt lat="45.34397" lon="-72.52069">
        <ele>212.09</ele>
      </trkpt>
      <trkpt lat="45.34448" lon="-72.5209">
        <ele>212.1</ele>
      </trkpt>
      <trkpt lat="45.34461" lon="-72.52086">
        <ele>212.12</ele>
      </trkpt>
      <trkpt lat="45.34495" lon="-72.52099">
        <ele>212.47</ele>
      </trkpt>
      <trkpt lat="45.3455" lon="-72.52104">
        <ele>212</ele>
      </trkpt>
      <trkpt lat="45.34571" lon="-72.52113">
        <ele>211.74</ele>
      </trkpt>
      <trkpt lat="45.34601" lon="-72.52131">
        <ele>211.51</ele>
      </trkpt>
      <trkpt lat="45.34611" lon="-72.52135">
        <ele>211.33</ele>
      </trkpt>
      <trkpt lat="45.34625" lon="-72.52132">
        <ele>210.85</ele>
      </trkpt>
      <trkpt lat="45.34643" lon="-72.52124">
        <ele>210.65</ele>
      </trkpt>
      <trkpt lat="45.34695" lon="-72.52091">
        <ele>210.18</ele>
      </trkpt>
      <trkpt lat="45.34742" lon="-72.52055">
        <ele>210.12</ele>
      </trkpt>
      <trkpt lat="45.3479" lon="-72.52028">
        <ele>212.23</ele>
      </trkpt>
      <trkpt lat="45.34773" lon="-72.51939">
        <ele>212.12</ele>
      </trkpt>
      <trkpt lat="45.34773" lon="-72.51939">
        <ele>212.12</ele>
      </trkpt>
      <trkpt lat="45.34757" lon="-72.51854">
        <ele>211.92</ele>
      </trkpt>
      <trkpt lat="45.34721" lon="-72.51859">
        <ele>210.22</ele>
      </trkpt>
      <trkpt lat="45.34658" lon="-72.51862">
        <ele>209.97</ele>
      </trkpt>
      <trkpt lat="45.34647" lon="-72.51863">
        <ele>209.97</ele>
      </trkpt>
      <trkpt lat="45.34637" lon="-72.51867">
        <ele>209.97</ele>
      </trkpt>
      <trkpt lat="45.34614" lon="-72.51883">
        <ele>209.99</ele>
      </trkpt>
      <trkpt lat="45.34597" lon="-72.51904">
        <ele>210.11</ele>
      </trkpt>
      <trkpt lat="45.346" lon="-72.51899">
        <ele>210.1</ele>
      </trkpt>
      <trkpt lat="45.34578" lon="-72.5193">
        <ele>210.16</ele>
      </trkpt>
      <trkpt lat="45.34573" lon="-72.51934">
        <ele>210.16</ele>
      </trkpt>
      <trkpt lat="45.34543" lon="-72.51939">
        <ele>210.16</ele>
      </trkpt>
      <trkpt lat="45.34464" lon="-72.51947">
        <ele>210.4</ele>
      </trkpt>
      <trkpt lat="45.34398" lon="-72.51951">
        <ele>210.4</ele>
      </trkpt>
      <trkpt lat="45.34365" lon="-72.51948">
        <ele>211.35</ele>
      </trkpt>
      <trkpt lat="45.34364" lon="-72.51925">
        <ele>211.24</ele>
      </trkpt>
      <trkpt lat="45.34365" lon="-72.51894">
        <ele>211.16</ele>
      </trkpt>
      <trkpt lat="45.3438" lon="-72.5180667">
        <ele>211.85</ele>
      </trkpt>
      <trkpt lat="45.34395" lon="-72.5171933">
        <ele>214.31</ele>
      </trkpt>
      <trkpt lat="45.3441" lon="-72.51632">
        <ele>216.3</ele>
      </trkpt>
      <trkpt lat="45.343356" lon="-72.516056">
        <ele>215.72</ele>
      </trkpt>
      <trkpt lat="45.342612" lon="-72.515792">
        <ele>213.91</ele>
      </trkpt>
      <trkpt lat="45.341868" lon="-72.515528">
        <ele>213.81</ele>
      </trkpt>
      <trkpt lat="45.341124" lon="-72.515264">
        <ele>213.3</ele>
      </trkpt>
      <trkpt lat="45.34038" lon="-72.515">
        <ele>212.12</ele>
      </trkpt>
      <trkpt lat="45.339715" lon="-72.514775">
        <ele>212.83</ele>
      </trkpt>
      <trkpt lat="45.33905" lon="-72.51455">
        <ele>216.15</ele>
      </trkpt>
      <trkpt lat="45.33891" lon="-72.51452">
        <ele>216.77</ele>
      </trkpt>
      <trkpt lat="45.33865" lon="-72.51451">
        <ele>216.96</ele>
      </trkpt>
      <trkpt lat="45.33853" lon="-72.51444">
        <ele>217.14</ele>
      </trkpt>
      <trkpt lat="45.33841" lon="-72.51428">
        <ele>217.47</ele>
      </trkpt>
      <trkpt lat="45.33836" lon="-72.51415">
        <ele>217.58</ele>
      </trkpt>
      <trkpt lat="45.33819" lon="-72.51338">
        <ele>217.73</ele>
      </trkpt>
      <trkpt lat="45.33802" lon="-72.51347">
        <ele>217.33</ele>
      </trkpt>
      <trkpt lat="45.33797" lon="-72.5134">
        <ele>217.33</ele>
      </trkpt>
      <trkpt lat="45.3377" lon="-72.512295">
        <ele>216.94</ele>
      </trkpt>
      <trkpt lat="45.33743" lon="-72.51119">
        <ele>217.5</ele>
      </trkpt>
      <trkpt lat="45.33663" lon="-72.51156">
        <ele>215.04</ele>
      </trkpt>
      <trkpt lat="45.3361325" lon="-72.51082">
        <ele>213.78</ele>
      </trkpt>
      <trkpt lat="45.335635" lon="-72.51008">
        <ele>213.73</ele>
      </trkpt>
      <trkpt lat="45.3351375" lon="-72.50934">
        <ele>213.17</ele>
      </trkpt>
      <trkpt lat="45.33464" lon="-72.5086">
        <ele>212.66</ele>
      </trkpt>
      <trkpt lat="45.3344" lon="-72.50828">
        <ele>212.34</ele>
      </trkpt>
      <trkpt lat="45.33411" lon="-72.50801">
        <ele>211.74</ele>
      </trkpt>
      <trkpt lat="45.33395" lon="-72.50788">
        <ele>211.27</ele>
      </trkpt>
      <trkpt lat="45.33363" lon="-72.50766">
        <ele>211.07</ele>
      </trkpt>
      <trkpt lat="45.33328" lon="-72.50752">
        <ele>210.86</ele>
      </trkpt>
      <trkpt lat="45.33277" lon="-72.50743">
        <ele>210.54</ele>
      </trkpt>
      <trkpt lat="45.3320825" lon="-72.5074175">
        <ele>210.76</ele>
      </trkpt>
      <trkpt lat="45.331395" lon="-72.507405">
        <ele>211.46</ele>
      </trkpt>
      <trkpt lat="45.3307075" lon="-72.5073925">
        <ele>212.43</ele>
      </trkpt>
      <trkpt lat="45.33002" lon="-72.50738">
        <ele>214.02</ele>
      </trkpt>
      <trkpt lat="45.32915" lon="-72.50728">
        <ele>216.44</ele>
      </trkpt>
      <trkpt lat="45.32884" lon="-72.50721">
        <ele>216.96</ele>
      </trkpt>
      <trkpt lat="45.32863" lon="-72.50712">
        <ele>217.38</ele>
      </trkpt>
      <trkpt lat="45.32817" lon="-72.50685">
        <ele>218.11</ele>
      </trkpt>
      <trkpt lat="45.32793" lon="-72.50664">
        <ele>218.19</ele>
      </trkpt>
      <trkpt lat="45.32727" lon="-72.505975">
        <ele>218.23</ele>
      </trkpt>
      <trkpt lat="45.32661" lon="-72.50531">
        <ele>217.37</ele>
      </trkpt>
      <trkpt lat="45.32661" lon="-72.50531">
        <ele>217.37</ele>
      </trkpt>
      <trkpt lat="45.326085" lon="-72.50479">
        <ele>217.7</ele>
      </trkpt>
      <trkpt lat="45.32556" lon="-72.50427">
        <ele>218.83</ele>
      </trkpt>
      <trkpt lat="45.32497" lon="-72.50377">
        <ele>220.76</ele>
      </trkpt>
      <trkpt lat="45.32472" lon="-72.50363">
        <ele>221.44</ele>
      </trkpt>
      <trkpt lat="45.32425" lon="-72.50341">
        <ele>222.44</ele>
      </trkpt>
      <trkpt lat="45.3238" lon="-72.50331">
        <ele>222.77</ele>
      </trkpt>
      <trkpt lat="45.322995" lon="-72.50319">
        <ele>223.93</ele>
      </trkpt>
      <trkpt lat="45.32219" lon="-72.50307">
        <ele>225.32</ele>
      </trkpt>
      <trkpt lat="45.321422" lon="-72.50296">
        <ele>226.29</ele>
      </trkpt>
      <trkpt lat="45.320654" lon="-72.50285">
        <ele>227.27</ele>
      </trkpt>
      <trkpt lat="45.319886" lon="-72.50274">
        <ele>228.39</ele>
      </trkpt>
      <trkpt lat="45.319118" lon="-72.50263">
        <ele>229.98</ele>
      </trkpt>
      <trkpt lat="45.31835" lon="-72.50252">
        <ele>230.64</ele>
      </trkpt>
      <trkpt lat="45.31755" lon="-72.502425">
        <ele>230.98</ele>
      </trkpt>
      <trkpt lat="45.31675" lon="-72.50233">
        <ele>231.71</ele>
      </trkpt>
      <trkpt lat="45.31631" lon="-72.5022">
        <ele>231.71</ele>
      </trkpt>
      <trkpt lat="45.3161" lon="-72.50211">
        <ele>231.5</ele>
      </trkpt>
      <trkpt lat="45.31568" lon="-72.50185">
        <ele>231.11</ele>
      </trkpt>
      <trkpt lat="45.31506" lon="-72.50137">
        <ele>230.41</ele>
      </trkpt>
      <trkpt lat="45.31444" lon="-72.50089">
        <ele>229.77</ele>
      </trkpt>
      <trkpt lat="45.31382" lon="-72.50041">
        <ele>230.47</ele>
      </trkpt>
      <trkpt lat="45.31358" lon="-72.5003">
        <ele>230.66</ele>
      </trkpt>
      <trkpt lat="45.31292" lon="-72.5001">
        <ele>231.2</ele>
      </trkpt>
      <trkpt lat="45.31285" lon="-72.50005">
        <ele>231.23</ele>
      </trkpt>
      <trkpt lat="45.3128" lon="-72.49996">
        <ele>231.23</ele>
      </trkpt>
      <trkpt lat="45.31281" lon="-72.49972">
        <ele>231</ele>
      </trkpt>
      <trkpt lat="45.31225" lon="-72.499475">
        <ele>230.22</ele>
      </trkpt>
      <trkpt lat="45.31169" lon="-72.49923">
        <ele>229.48</ele>
      </trkpt>
      <trkpt lat="45.3115" lon="-72.49915">
        <ele>229.48</ele>
      </trkpt>
      <trkpt lat="45.31122" lon="-72.4991">
        <ele>228.95</ele>
      </trkpt>
      <trkpt lat="45.31089" lon="-72.4991">
        <ele>227.87</ele>
      </trkpt>
      <trkpt lat="45.31" lon="-72.49917">
        <ele>225.92</ele>
      </trkpt>
      <trkpt lat="45.309415" lon="-72.499235">
        <ele>224.73</ele>
      </trkpt>
      <trkpt lat="45.30883" lon="-72.4993">
        <ele>223.8</ele>
      </trkpt>
      <trkpt lat="45.30877" lon="-72.49904">
        <ele>224.09</ele>
      </trkpt>
      <trkpt lat="45.30828" lon="-72.49906">
        <ele>223.42</ele>
      </trkpt>
      <trkpt lat="45.30806" lon="-72.49902">
        <ele>223</ele>
      </trkpt>
      <trkpt lat="45.3076" lon="-72.49888">
        <ele>222.64</ele>
      </trkpt>
      <trkpt lat="45.30699" lon="-72.4986367">
        <ele>222.21</ele>
      </trkpt>
      <trkpt lat="45.30638" lon="-72.4983933">
        <ele>221.6</ele>
      </trkpt>
      <trkpt lat="45.30577" lon="-72.49815">
        <ele>220.88</ele>
      </trkpt>
      <trkpt lat="45.30577" lon="-72.49815">
        <ele>220.87</ele>
      </trkpt>
      <trkpt lat="45.30502" lon="-72.4978433">
        <ele>220.52</ele>
      </trkpt>
      <trkpt lat="45.30427" lon="-72.4975367">
        <ele>219.72</ele>
      </trkpt>
      <trkpt lat="45.30352" lon="-72.49723">
        <ele>218.85</ele>
      </trkpt>
      <trkpt lat="45.3029" lon="-72.49701">
        <ele>218.21</ele>
      </trkpt>
      <trkpt lat="45.30231" lon="-72.49691">
        <ele>217.63</ele>
      </trkpt>
      <trkpt lat="45.30201" lon="-72.49691">
        <ele>217.3</ele>
      </trkpt>
      <trkpt lat="45.3013767" lon="-72.4969633">
        <ele>216.33</ele>
      </trkpt>
      <trkpt lat="45.3007433" lon="-72.4970167">
        <ele>215.82</ele>
      </trkpt>
      <trkpt lat="45.30011" lon="-72.49707">
        <ele>215.73</ele>
      </trkpt>
      <trkpt lat="45.299405" lon="-72.497145">
        <ele>215.02</ele>
      </trkpt>
      <trkpt lat="45.2987" lon="-72.49722">
        <ele>214.63</ele>
      </trkpt>
      <trkpt lat="45.297995" lon="-72.497295">
        <ele>214.39</ele>
      </trkpt>
      <trkpt lat="45.29729" lon="-72.49737">
        <ele>213.88</ele>
      </trkpt>
      <trkpt lat="45.2965175" lon="-72.497435">
        <ele>214.04</ele>
      </trkpt>
      <trkpt lat="45.295745" lon="-72.4975">
        <ele>212.94</ele>
      </trkpt>
      <trkpt lat="45.2949725" lon="-72.497565">
        <ele>212.57</ele>
      </trkpt>
      <trkpt lat="45.2942" lon="-72.49763">
        <ele>212.41</ele>
      </trkpt>
      <trkpt lat="45.29393" lon="-72.49764">
        <ele>212.29</ele>
      </trkpt>
      <trkpt lat="45.2936" lon="-72.49763">
        <ele>212.47</ele>
      </trkpt>
      <trkpt lat="45.29332" lon="-72.49758">
        <ele>213.52</ele>
      </trkpt>
      <trkpt lat="45.29322" lon="-72.49753">
        <ele>213.52</ele>
      </trkpt>
      <trkpt lat="45.29306" lon="-72.49749">
        <ele>213.51</ele>
      </trkpt>
      <trkpt lat="45.29258" lon="-72.49727">
        <ele>212.98</ele>
      </trkpt>
      <trkpt lat="45.29219" lon="-72.49701">
        <ele>213.05</ele>
      </trkpt>
      <trkpt lat="45.2914575" lon="-72.496375">
        <ele>212.81</ele>
      </trkpt>
      <trkpt lat="45.290725" lon="-72.49574">
        <ele>213.43</ele>
      </trkpt>
      <trkpt lat="45.2899925" lon="-72.495105">
        <ele>213.21</ele>
      </trkpt>
      <trkpt lat="45.28926" lon="-72.49447">
        <ele>213.59</ele>
      </trkpt>
      <trkpt lat="45.28858" lon="-72.49391">
        <ele>213.58</ele>
      </trkpt>
      <trkpt lat="45.28809" lon="-72.49346">
        <ele>213.97</ele>
      </trkpt>
      <trkpt lat="45.287655" lon="-72.493015">
        <ele>214.71</ele>
      </trkpt>
      <trkpt lat="45.28722" lon="-72.49257">
        <ele>214.36</ele>
      </trkpt>
      <trkpt lat="45.28719" lon="-72.49251">
        <ele>214.36</ele>
      </trkpt>
      <trkpt lat="45.2871" lon="-72.49248">
        <ele>214.4</ele>
      </trkpt>
      <trkpt lat="45.28693" lon="-72.49235">
        <ele>214.55</ele>
      </trkpt>
      <trkpt lat="45.28651" lon="-72.49188">
        <ele>214.72</ele>
      </trkpt>
      <trkpt lat="45.2865" lon="-72.49207">
        <ele>214.59</ele>
      </trkpt>
      <trkpt lat="45.28639" lon="-72.49207">
        <ele>214.29</ele>
      </trkpt>
      <trkpt lat="45.28578" lon="-72.49154">
        <ele>212.36</ele>
      </trkpt>
      <trkpt lat="45.28565" lon="-72.49128">
        <ele>211.8</ele>
      </trkpt>
      <trkpt lat="45.28548" lon="-72.4911">
        <ele>211.8</ele>
      </trkpt>
      <trkpt lat="45.28495" lon="-72.49074">
        <ele>210.08</ele>
      </trkpt>
      <trkpt lat="45.28442" lon="-72.49038">
        <ele>208.66</ele>
      </trkpt>
      <trkpt lat="45.28376" lon="-72.49002">
        <ele>207.06</ele>
      </trkpt>
      <trkpt lat="45.28334" lon="-72.48988">
        <ele>206.05</ele>
      </trkpt>
      <trkpt lat="45.28301" lon="-72.4898">
        <ele>204.96</ele>
      </trkpt>
      <trkpt lat="45.282125" lon="-72.48969">
        <ele>203.27</ele>
      </trkpt>
      <trkpt lat="45.28124" lon="-72.48958">
        <ele>200.62</ele>
      </trkpt>
      <trkpt lat="45.28124" lon="-72.48958">
        <ele>200.62</ele>
      </trkpt>
      <trkpt lat="45.2803933" lon="-72.4894717">
        <ele>199.59</ele>
      </trkpt>
      <trkpt lat="45.2795467" lon="-72.4893633">
        <ele>198.72</ele>
      </trkpt>
      <trkpt lat="45.2787" lon="-72.489255">
        <ele>198.65</ele>
      </trkpt>
      <trkpt lat="45.2778533" lon="-72.4891467">
        <ele>198.58</ele>
      </trkpt>
      <trkpt lat="45.2770067" lon="-72.4890383">
        <ele>199.04</ele>
      </trkpt>
      <trkpt lat="45.27616" lon="-72.48893">
        <ele>200.09</ele>
      </trkpt>
      <trkpt lat="45.2752786" lon="-72.4888314">
        <ele>199.79</ele>
      </trkpt>
      <trkpt lat="45.2743971" lon="-72.4887328">
        <ele>199.56</ele>
      </trkpt>
      <trkpt lat="45.2735157" lon="-72.4886343">
        <ele>199.27</ele>
      </trkpt>
      <trkpt lat="45.2726343" lon="-72.4885357">
        <ele>199.33</ele>
      </trkpt>
      <trkpt lat="45.2717529" lon="-72.4884371">
        <ele>199.74</ele>
      </trkpt>
      <trkpt lat="45.2708714" lon="-72.4883386">
        <ele>199.81</ele>
      </trkpt>
      <trkpt lat="45.26999" lon="-72.48824">
        <ele>199.75</ele>
      </trkpt>
      <trkpt lat="45.26999" lon="-72.48824">
        <ele>199.75</ele>
      </trkpt>
      <trkpt lat="45.2691883" lon="-72.48815">
        <ele>199.84</ele>
      </trkpt>
      <trkpt lat="45.2683867" lon="-72.48806">
        <ele>199.81</ele>
      </trkpt>
      <trkpt lat="45.267585" lon="-72.48797">
        <ele>199.66</ele>
      </trkpt>
      <trkpt lat="45.2667833" lon="-72.48788">
        <ele>199.62</ele>
      </trkpt>
      <trkpt lat="45.2659817" lon="-72.48779">
        <ele>199.62</ele>
      </trkpt>
      <trkpt lat="45.26518" lon="-72.4877">
        <ele>199.79</ele>
      </trkpt>
      <trkpt lat="45.2644533" lon="-72.4876033">
        <ele>199.81</ele>
      </trkpt>
      <trkpt lat="45.2637267" lon="-72.4875067">
        <ele>199.85</ele>
      </trkpt>
      <trkpt lat="45.263" lon="-72.48741">
        <ele>199.81</ele>
      </trkpt>
      <trkpt lat="45.2622733" lon="-72.4872933">
        <ele>199.93</ele>
      </trkpt>
      <trkpt lat="45.2615467" lon="-72.4871767">
        <ele>200.38</ele>
      </trkpt>
      <trkpt lat="45.26082" lon="-72.48706">
        <ele>200.45</ele>
      </trkpt>
      <trkpt lat="45.25999" lon="-72.48697">
        <ele>200.2</ele>
      </trkpt>
      <trkpt lat="45.25999" lon="-72.48697">
        <ele>200.2</ele>
      </trkpt>
      <trkpt lat="45.25933" lon="-72.486905">
        <ele>200.32</ele>
      </trkpt>
      <trkpt lat="45.25867" lon="-72.48684">
        <ele>200.42</ele>
      </trkpt>
      <trkpt lat="45.25848" lon="-72.48675">
        <ele>200.56</ele>
      </trkpt>
      <trkpt lat="45.25842" lon="-72.48675">
        <ele>200.59</ele>
      </trkpt>
      <trkpt lat="45.25824" lon="-72.48679">
        <ele>200.58</ele>
      </trkpt>
      <trkpt lat="45.2573957" lon="-72.4866828">
        <ele>200.46</ele>
      </trkpt>
      <trkpt lat="45.2565514" lon="-72.4865757">
        <ele>200.4</ele>
      </trkpt>
      <trkpt lat="45.2557071" lon="-72.4864686">
        <ele>200.48</ele>
      </trkpt>
      <trkpt lat="45.2548629" lon="-72.4863614">
        <ele>200.19</ele>
      </trkpt>
      <trkpt lat="45.2540186" lon="-72.4862543">
        <ele>200.18</ele>
      </trkpt>
      <trkpt lat="45.2531743" lon="-72.4861471">
        <ele>200</ele>
      </trkpt>
      <trkpt lat="45.25233" lon="-72.48604">
        <ele>200.65</ele>
      </trkpt>
      <trkpt lat="45.25157" lon="-72.48598">
        <ele>200.62</ele>
      </trkpt>
      <trkpt lat="45.25138" lon="-72.48591">
        <ele>200.7</ele>
      </trkpt>
      <trkpt lat="45.25068" lon="-72.48581">
        <ele>200.38</ele>
      </trkpt>
      <trkpt lat="45.2500267" lon="-72.4857333">
        <ele>200.3</ele>
      </trkpt>
      <trkpt lat="45.2493733" lon="-72.4856567">
        <ele>201.85</ele>
      </trkpt>
      <trkpt lat="45.24872" lon="-72.48558">
        <ele>203.21</ele>
      </trkpt>
      <trkpt lat="45.24867" lon="-72.48569">
        <ele>202.79</ele>
      </trkpt>
      <trkpt lat="45.247775" lon="-72.485725">
        <ele>202.25</ele>
      </trkpt>
      <trkpt lat="45.24688" lon="-72.48576">
        <ele>204.26</ele>
      </trkpt>
      <trkpt lat="45.24624" lon="-72.48574">
        <ele>207.21</ele>
      </trkpt>
      <trkpt lat="45.2456" lon="-72.48572">
        <ele>207.45</ele>
      </trkpt>
      <trkpt lat="45.2451" lon="-72.48573">
        <ele>206.3</ele>
      </trkpt>
      <trkpt lat="45.2447" lon="-72.4858">
        <ele>205.99</ele>
      </trkpt>
      <trkpt lat="45.24437" lon="-72.4859">
        <ele>205.68</ele>
      </trkpt>
      <trkpt lat="45.24406" lon="-72.48608">
        <ele>205.22</ele>
      </trkpt>
      <trkpt lat="45.24346" lon="-72.48661">
        <ele>203.93</ele>
      </trkpt>
      <trkpt lat="45.24305" lon="-72.48693">
        <ele>203.72</ele>
      </trkpt>
      <trkpt lat="45.24284" lon="-72.48703">
        <ele>203.77</ele>
      </trkpt>
      <trkpt lat="45.24246" lon="-72.4872">
        <ele>204.26</ele>
      </trkpt>
      <trkpt lat="45.24237" lon="-72.48738">
        <ele>203.74</ele>
      </trkpt>
      <trkpt lat="45.24184" lon="-72.488115">
        <ele>203.52</ele>
      </trkpt>
      <trkpt lat="45.24131" lon="-72.48885">
        <ele>202.89</ele>
      </trkpt>
      <trkpt lat="45.24083" lon="-72.48954">
        <ele>202.8</ele>
      </trkpt>
      <trkpt lat="45.24035" lon="-72.49023">
        <ele>203.14</ele>
      </trkpt>
      <trkpt lat="45.24036" lon="-72.49023">
        <ele>203.14</ele>
      </trkpt>
      <trkpt lat="45.23993" lon="-72.49082">
        <ele>203.07</ele>
      </trkpt>
      <trkpt lat="45.23963" lon="-72.49109">
        <ele>202.98</ele>
      </trkpt>
      <trkpt lat="45.2388633" lon="-72.49155">
        <ele>202.99</ele>
      </trkpt>
      <trkpt lat="45.2380967" lon="-72.49201">
        <ele>203.25</ele>
      </trkpt>
      <trkpt lat="45.23733" lon="-72.49247">
        <ele>204.24</ele>
      </trkpt>
      <trkpt lat="45.23667" lon="-72.4929333">
        <ele>204.56</ele>
      </trkpt>
      <trkpt lat="45.23601" lon="-72.4933967">
        <ele>204.49</ele>
      </trkpt>
      <trkpt lat="45.23535" lon="-72.49386">
        <ele>204.46</ele>
      </trkpt>
      <trkpt lat="45.2345925" lon="-72.494435">
        <ele>204</ele>
      </trkpt>
      <trkpt lat="45.233835" lon="-72.49501">
        <ele>204.2</ele>
      </trkpt>
      <trkpt lat="45.2330775" lon="-72.495585">
        <ele>204.1</ele>
      </trkpt>
      <trkpt lat="45.23232" lon="-72.49616">
        <ele>203.97</ele>
      </trkpt>
      <trkpt lat="45.23183" lon="-72.49651">
        <ele>202.86</ele>
      </trkpt>
      <trkpt lat="45.23114" lon="-72.49691">
        <ele>201.96</ele>
      </trkpt>
      <trkpt lat="45.230445" lon="-72.497265">
        <ele>201.85</ele>
      </trkpt>
      <trkpt lat="45.22975" lon="-72.49762">
        <ele>202</ele>
      </trkpt>
      <trkpt lat="45.22918" lon="-72.49798">
        <ele>201.5</ele>
      </trkpt>
      <trkpt lat="45.2289" lon="-72.49822">
        <ele>200.95</ele>
      </trkpt>
      <trkpt lat="45.22874" lon="-72.49843">
        <ele>201.28</ele>
      </trkpt>
      <trkpt lat="45.2282175" lon="-72.4992025">
        <ele>201.37</ele>
      </trkpt>
      <trkpt lat="45.227695" lon="-72.499975">
        <ele>201.84</ele>
      </trkpt>
      <trkpt lat="45.2271725" lon="-72.5007475">
        <ele>201.45</ele>
      </trkpt>
      <trkpt lat="45.22665" lon="-72.50152">
        <ele>202.16</ele>
      </trkpt>
      <trkpt lat="45.22607" lon="-72.50232">
        <ele>202.24</ele>
      </trkpt>
      <trkpt lat="45.22588" lon="-72.50264">
        <ele>202.11</ele>
      </trkpt>
      <trkpt lat="45.22575" lon="-72.50297">
        <ele>202.36</ele>
      </trkpt>
      <trkpt lat="45.22579" lon="-72.50318">
        <ele>202.36</ele>
      </trkpt>
      <trkpt lat="45.22579" lon="-72.50337">
        <ele>202.46</ele>
      </trkpt>
      <trkpt lat="45.22545" lon="-72.5044">
        <ele>202.37</ele>
      </trkpt>
      <trkpt lat="45.22541" lon="-72.5047">
        <ele>202.11</ele>
      </trkpt>
      <trkpt lat="45.22539" lon="-72.50511">
        <ele>202</ele>
      </trkpt>
      <trkpt lat="45.2254" lon="-72.50551">
        <ele>202</ele>
      </trkpt>
      <trkpt lat="45.22547" lon="-72.50619">
        <ele>202.27</ele>
      </trkpt>
      <trkpt lat="45.22553" lon="-72.507355">
        <ele>202.68</ele>
      </trkpt>
      <trkpt lat="45.22559" lon="-72.50852">
        <ele>202.55</ele>
      </trkpt>
      <trkpt lat="45.22557" lon="-72.50932">
        <ele>202.45</ele>
      </trkpt>
      <trkpt lat="45.22557" lon="-72.50933">
        <ele>202.46</ele>
      </trkpt>
      <trkpt lat="45.22545" lon="-72.51048">
        <ele>202.68</ele>
      </trkpt>
      <trkpt lat="45.22535" lon="-72.51097">
        <ele>202.55</ele>
      </trkpt>
      <trkpt lat="45.225" lon="-72.51191">
        <ele>202.94</ele>
      </trkpt>
      <trkpt lat="45.22462" lon="-72.51262">
        <ele>203.99</ele>
      </trkpt>
      <trkpt lat="45.224076" lon="-72.513448">
        <ele>206.17</ele>
      </trkpt>
      <trkpt lat="45.223532" lon="-72.514276">
        <ele>206.7</ele>
      </trkpt>
      <trkpt lat="45.222988" lon="-72.515104">
        <ele>207.77</ele>
      </trkpt>
      <trkpt lat="45.222444" lon="-72.515932">
        <ele>208.54</ele>
      </trkpt>
      <trkpt lat="45.2219" lon="-72.51676">
        <ele>209.14</ele>
      </trkpt>
      <trkpt lat="45.22192" lon="-72.51694">
        <ele>209.15</ele>
      </trkpt>
      <trkpt lat="45.22188" lon="-72.51695">
        <ele>209.15</ele>
      </trkpt>
      <trkpt lat="45.22192" lon="-72.51783">
        <ele>209.51</ele>
      </trkpt>
      <trkpt lat="45.22196" lon="-72.51871">
        <ele>209.91</ele>
      </trkpt>
      <trkpt lat="45.22201" lon="-72.51898">
        <ele>209.85</ele>
      </trkpt>
      <trkpt lat="45.2221" lon="-72.51929">
        <ele>209.61</ele>
      </trkpt>
      <trkpt lat="45.2224" lon="-72.52006">
        <ele>208.71</ele>
      </trkpt>
      <trkpt lat="45.22266" lon="-72.52095">
        <ele>208.17</ele>
      </trkpt>
      <trkpt lat="45.22275" lon="-72.5214">
        <ele>207.88</ele>
      </trkpt>
      <trkpt lat="45.22279" lon="-72.52211">
        <ele>206.85</ele>
      </trkpt>
      <trkpt lat="45.22279" lon="-72.52248">
        <ele>206.85</ele>
      </trkpt>
      <trkpt lat="45.22277" lon="-72.52283">
        <ele>206.32</ele>
      </trkpt>
      <trkpt lat="45.22272" lon="-72.52306">
        <ele>205.86</ele>
      </trkpt>
      <trkpt lat="45.22259" lon="-72.52337">
        <ele>205.08</ele>
      </trkpt>
      <trkpt lat="45.22192" lon="-72.52412">
        <ele>201.94</ele>
      </trkpt>
      <trkpt lat="45.221425" lon="-72.524615">
        <ele>201.99</ele>
      </trkpt>
      <trkpt lat="45.22093" lon="-72.52511">
        <ele>202.92</ele>
      </trkpt>
      <trkpt lat="45.22116" lon="-72.52595">
        <ele>202.47</ele>
      </trkpt>
      <trkpt lat="45.22139" lon="-72.52679">
        <ele>202.1</ele>
      </trkpt>
      <trkpt lat="45.22139" lon="-72.52679">
        <ele>202.1</ele>
      </trkpt>
      <trkpt lat="45.22172" lon="-72.527965">
        <ele>202.38</ele>
      </trkpt>
      <trkpt lat="45.22205" lon="-72.52914">
        <ele>202.66</ele>
      </trkpt>
      <trkpt lat="45.22218" lon="-72.52972">
        <ele>203.11</ele>
      </trkpt>
      <trkpt lat="45.22227" lon="-72.53042">
        <ele>203.03</ele>
      </trkpt>
      <trkpt lat="45.2222967" lon="-72.53128">
        <ele>202.73</ele>
      </trkpt>
      <trkpt lat="45.2223233" lon="-72.53214">
        <ele>202.58</ele>
      </trkpt>
      <trkpt lat="45.22235" lon="-72.533">
        <ele>202.26</ele>
      </trkpt>
      <trkpt lat="45.22231" lon="-72.53398">
        <ele>200.82</ele>
      </trkpt>
      <trkpt lat="45.222325" lon="-72.53497">
        <ele>199.69</ele>
      </trkpt>
      <trkpt lat="45.22234" lon="-72.53596">
        <ele>200.19</ele>
      </trkpt>
      <trkpt lat="45.22238" lon="-72.5368233">
        <ele>204.65</ele>
      </trkpt>
      <trkpt lat="45.22242" lon="-72.5376867">
        <ele>211.36</ele>
      </trkpt>
      <trkpt lat="45.22246" lon="-72.53855">
        <ele>212.72</ele>
      </trkpt>
      <trkpt lat="45.22263" lon="-72.53954">
        <ele>218.65</ele>
      </trkpt>
      <trkpt lat="45.22259" lon="-72.53977">
        <ele>220.11</ele>
      </trkpt>
      <trkpt lat="45.22248" lon="-72.54007">
        <ele>223.02</ele>
      </trkpt>
      <trkpt lat="45.22232" lon="-72.54042">
        <ele>226.55</ele>
      </trkpt>
      <trkpt lat="45.22203" lon="-72.54096">
        <ele>228.66</ele>
      </trkpt>
      <trkpt lat="45.22193" lon="-72.5411">
        <ele>231.06</ele>
      </trkpt>
      <trkpt lat="45.22159" lon="-72.54145">
        <ele>234.69</ele>
      </trkpt>
      <trkpt lat="45.22148" lon="-72.54159">
        <ele>237.25</ele>
      </trkpt>
      <trkpt lat="45.22141" lon="-72.54174">
        <ele>238.73</ele>
      </trkpt>
      <trkpt lat="45.22136" lon="-72.54209">
        <ele>241.27</ele>
      </trkpt>
      <trkpt lat="45.22139" lon="-72.5424">
        <ele>242.71</ele>
      </trkpt>
      <trkpt lat="45.22154" lon="-72.5428">
        <ele>244.44</ele>
      </trkpt>
      <trkpt lat="45.22198" lon="-72.54353">
        <ele>248.34</ele>
      </trkpt>
      <trkpt lat="45.22242" lon="-72.54426">
        <ele>253.2</ele>
      </trkpt>
      <trkpt lat="45.22258" lon="-72.54459">
        <ele>254.68</ele>
      </trkpt>
      <trkpt lat="45.2226" lon="-72.54465">
        <ele>255.37</ele>
      </trkpt>
      <trkpt lat="45.222635" lon="-72.545895">
        <ele>255.63</ele>
      </trkpt>
      <trkpt lat="45.22267" lon="-72.54714">
        <ele>252.48</ele>
      </trkpt>
      <trkpt lat="45.2226833" lon="-72.54825">
        <ele>254.32</ele>
      </trkpt>
      <trkpt lat="45.2226967" lon="-72.54936">
        <ele>258.47</ele>
      </trkpt>
      <trkpt lat="45.22271" lon="-72.55047">
        <ele>264.09</ele>
      </trkpt>
      <trkpt lat="45.222755" lon="-72.551115">
        <ele>267.63</ele>
      </trkpt>
      <trkpt lat="45.2228" lon="-72.55176">
        <ele>273.74</ele>
      </trkpt>
      <trkpt lat="45.222814" lon="-72.55285">
        <ele>276.13</ele>
      </trkpt>
      <trkpt lat="45.222828" lon="-72.55394">
        <ele>276.69</ele>
      </trkpt>
      <trkpt lat="45.222842" lon="-72.55503">
        <ele>274.53</ele>
      </trkpt>
      <trkpt lat="45.222856" lon="-72.55612">
        <ele>270.49</ele>
      </trkpt>
      <trkpt lat="45.22287" lon="-72.55721">
        <ele>268.03</ele>
      </trkpt>
      <trkpt lat="45.22287" lon="-72.55722">
        <ele>268.02</ele>
      </trkpt>
      <trkpt lat="45.22287" lon="-72.55762">
        <ele>266.6</ele>
      </trkpt>
      <trkpt lat="45.22282" lon="-72.55816">
        <ele>264.11</ele>
      </trkpt>
      <trkpt lat="45.22283" lon="-72.559055">
        <ele>256.91</ele>
      </trkpt>
      <trkpt lat="45.22284" lon="-72.55995">
        <ele>254.95</ele>
      </trkpt>
      <trkpt lat="45.2228167" lon="-72.561115">
        <ele>258.28</ele>
      </trkpt>
      <trkpt lat="45.2227934" lon="-72.56228">
        <ele>262.92</ele>
      </trkpt>
      <trkpt lat="45.2227701" lon="-72.563445">
        <ele>267.82</ele>
      </trkpt>
      <trkpt lat="45.2227467" lon="-72.56461">
        <ele>273.63</ele>
      </trkpt>
      <trkpt lat="45.2227234" lon="-72.565775">
        <ele>282.74</ele>
      </trkpt>
      <trkpt lat="45.2227" lon="-72.56694">
        <ele>286.16</ele>
      </trkpt>
      <trkpt lat="45.2226863" lon="-72.5680588">
        <ele>286.08</ele>
      </trkpt>
      <trkpt lat="45.2226726" lon="-72.5691775">
        <ele>282.49</ele>
      </trkpt>
      <trkpt lat="45.2226588" lon="-72.5702963">
        <ele>279.34</ele>
      </trkpt>
      <trkpt lat="45.2226451" lon="-72.571415">
        <ele>272.25</ele>
      </trkpt>
      <trkpt lat="45.2226313" lon="-72.5725338">
        <ele>266.31</ele>
      </trkpt>
      <trkpt lat="45.2226176" lon="-72.5736525">
        <ele>258.56</ele>
      </trkpt>
      <trkpt lat="45.2226038" lon="-72.5747713">
        <ele>252.29</ele>
      </trkpt>
      <trkpt lat="45.22259" lon="-72.57589">
        <ele>245.28</ele>
      </trkpt>
      <trkpt lat="45.222595" lon="-72.57667">
        <ele>238.62</ele>
      </trkpt>
      <trkpt lat="45.2226" lon="-72.57745">
        <ele>232.8</ele>
      </trkpt>
      <trkpt lat="45.2226384" lon="-72.5786333">
        <ele>227.5</ele>
      </trkpt>
      <trkpt lat="45.2226768" lon="-72.5798167">
        <ele>221.75</ele>
      </trkpt>
      <trkpt lat="45.2227152" lon="-72.581">
        <ele>218.23</ele>
      </trkpt>
      <trkpt lat="45.2227535" lon="-72.5821833">
        <ele>214.29</ele>
      </trkpt>
      <trkpt lat="45.2227919" lon="-72.5833666">
        <ele>208.67</ele>
      </trkpt>
      <trkpt lat="45.2228302" lon="-72.58455">
        <ele>205.58</ele>
      </trkpt>
      <trkpt lat="45.2228685" lon="-72.5857333">
        <ele>202.55</ele>
      </trkpt>
      <trkpt lat="45.2229069" lon="-72.5869166">
        <ele>200.31</ele>
      </trkpt>
      <trkpt lat="45.2229452" lon="-72.5881">
        <ele>200.65</ele>
      </trkpt>
      <trkpt lat="45.2229835" lon="-72.5892833">
        <ele>204.36</ele>
      </trkpt>
      <trkpt lat="45.2230217" lon="-72.5904667">
        <ele>208.41</ele>
      </trkpt>
      <trkpt lat="45.22306" lon="-72.59165">
        <ele>211.06</ele>
      </trkpt>
      <trkpt lat="45.22306" lon="-72.59165">
        <ele>211.06</ele>
      </trkpt>
      <trkpt lat="45.2231034" lon="-72.5928967">
        <ele>213.7</ele>
      </trkpt>
      <trkpt lat="45.2231467" lon="-72.5941433">
        <ele>216.25</ele>
      </trkpt>
      <trkpt lat="45.2231901" lon="-72.59539">
        <ele>218.39</ele>
      </trkpt>
      <trkpt lat="45.2232334" lon="-72.5966367">
        <ele>219.65</ele>
      </trkpt>
      <trkpt lat="45.2232767" lon="-72.5978833">
        <ele>221.46</ele>
      </trkpt>
      <trkpt lat="45.22332" lon="-72.59913">
        <ele>221.27</ele>
      </trkpt>
      <trkpt lat="45.2233772" lon="-72.6002514">
        <ele>218.34</ele>
      </trkpt>
      <trkpt lat="45.2234343" lon="-72.6013728">
        <ele>212.58</ele>
      </trkpt>
      <trkpt lat="45.2234915" lon="-72.6024943">
        <ele>210.06</ele>
      </trkpt>
      <trkpt lat="45.2235486" lon="-72.6036157">
        <ele>210.28</ele>
      </trkpt>
      <trkpt lat="45.2236058" lon="-72.6047371">
        <ele>213</ele>
      </trkpt>
      <trkpt lat="45.2236629" lon="-72.6058586">
        <ele>216.03</ele>
      </trkpt>
      <trkpt lat="45.22372" lon="-72.60698">
        <ele>214.04</ele>
      </trkpt>
      <trkpt lat="45.2237734" lon="-72.6082108">
        <ele>210.42</ele>
      </trkpt>
      <trkpt lat="45.2238268" lon="-72.6094416">
        <ele>208.91</ele>
      </trkpt>
      <trkpt lat="45.2238802" lon="-72.6106725">
        <ele>209.41</ele>
      </trkpt>
      <trkpt lat="45.2239335" lon="-72.6119033">
        <ele>211.17</ele>
      </trkpt>
      <trkpt lat="45.2239869" lon="-72.6131341">
        <ele>214.7</ele>
      </trkpt>
      <trkpt lat="45.2240402" lon="-72.614365">
        <ele>214.93</ele>
      </trkpt>
      <trkpt lat="45.2240936" lon="-72.6155958">
        <ele>216.67</ele>
      </trkpt>
      <trkpt lat="45.2241469" lon="-72.6168266">
        <ele>216.09</ele>
      </trkpt>
      <trkpt lat="45.2242002" lon="-72.6180575">
        <ele>213.87</ele>
      </trkpt>
      <trkpt lat="45.2242535" lon="-72.6192883">
        <ele>214.61</ele>
      </trkpt>
      <trkpt lat="45.2243067" lon="-72.6205192">
        <ele>217.56</ele>
      </trkpt>
      <trkpt lat="45.22436" lon="-72.62175">
        <ele>217.48</ele>
      </trkpt>
      <trkpt lat="45.22524" lon="-72.62174">
        <ele>219.6</ele>
      </trkpt>
      <trkpt lat="45.22612" lon="-72.62173">
        <ele>223.41</ele>
      </trkpt>
      <trkpt lat="45.227" lon="-72.62172">
        <ele>228.56</ele>
      </trkpt>
      <trkpt lat="45.22788" lon="-72.62171">
        <ele>232.1</ele>
      </trkpt>
      <trkpt lat="45.22876" lon="-72.6217">
        <ele>234</ele>
      </trkpt>
      <trkpt lat="45.22964" lon="-72.62169">
        <ele>234.2</ele>
      </trkpt>
      <trkpt lat="45.23033" lon="-72.62168">
        <ele>234.5</ele>
      </trkpt>
      <trkpt lat="45.231065" lon="-72.62164">
        <ele>237.69</ele>
      </trkpt>
      <trkpt lat="45.2318" lon="-72.6216">
        <ele>242.9</ele>
      </trkpt>
      <trkpt lat="45.23239" lon="-72.6216">
        <ele>243.52</ele>
      </trkpt>
      <trkpt lat="45.23239" lon="-72.6216">
        <ele>243.52</ele>
      </trkpt>
      <trkpt lat="45.233095" lon="-72.6216">
        <ele>243.92</ele>
      </trkpt>
      <trkpt lat="45.2338" lon="-72.6216">
        <ele>245.74</ele>
      </trkpt>
      <trkpt lat="45.2344433" lon="-72.6215667">
        <ele>246.66</ele>
      </trkpt>
      <trkpt lat="45.2350867" lon="-72.6215333">
        <ele>249.13</ele>
      </trkpt>
      <trkpt lat="45.23573" lon="-72.6215">
        <ele>252.94</ele>
      </trkpt>
      <trkpt lat="45.236425" lon="-72.621445">
        <ele>257.65</ele>
      </trkpt>
      <trkpt lat="45.23712" lon="-72.62139">
        <ele>261.22</ele>
      </trkpt>
      <trkpt lat="45.237815" lon="-72.621335">
        <ele>262.29</ele>
      </trkpt>
      <trkpt lat="45.23851" lon="-72.62128">
        <ele>263.89</ele>
      </trkpt>
      <trkpt lat="45.23926" lon="-72.62117">
        <ele>260.47</ele>
      </trkpt>
      <trkpt lat="45.24003" lon="-72.62111">
        <ele>256.39</ele>
      </trkpt>
      <trkpt lat="45.2407" lon="-72.62115">
        <ele>254.5</ele>
      </trkpt>
      <trkpt lat="45.24137" lon="-72.62129">
        <ele>253.4</ele>
      </trkpt>
      <trkpt lat="45.24208" lon="-72.62151">
        <ele>250.89</ele>
      </trkpt>
      <trkpt lat="45.24285" lon="-72.62183">
        <ele>249.35</ele>
      </trkpt>
      <trkpt lat="45.2431" lon="-72.62214">
        <ele>249.21</ele>
      </trkpt>
      <trkpt lat="45.24339" lon="-72.62272">
        <ele>248.24</ele>
      </trkpt>
      <trkpt lat="45.24357" lon="-72.623345">
        <ele>246.41</ele>
      </trkpt>
      <trkpt lat="45.24375" lon="-72.62397">
        <ele>243.64</ele>
      </trkpt>
      <trkpt lat="45.24386" lon="-72.62415">
        <ele>242.94</ele>
      </trkpt>
      <trkpt lat="45.2443633" lon="-72.6247933">
        <ele>238.25</ele>
      </trkpt>
      <trkpt lat="45.2448667" lon="-72.6254367">
        <ele>233.53</ele>
      </trkpt>
      <trkpt lat="45.24537" lon="-72.62608">
        <ele>230.61</ele>
      </trkpt>
      <trkpt lat="45.24588" lon="-72.62679">
        <ele>231.24</ele>
      </trkpt>
      <trkpt lat="45.24641" lon="-72.62743">
        <ele>234.31</ele>
      </trkpt>
      <trkpt lat="45.24669" lon="-72.62768">
        <ele>233.95</ele>
      </trkpt>
      <trkpt lat="45.24714" lon="-72.62792">
        <ele>232.47</ele>
      </trkpt>
      <trkpt lat="45.24734" lon="-72.628">
        <ele>228.19</ele>
      </trkpt>
      <trkpt lat="45.24758" lon="-72.62801">
        <ele>226.66</ele>
      </trkpt>
      <trkpt lat="45.24795" lon="-72.628">
        <ele>225.06</ele>
      </trkpt>
      <trkpt lat="45.248545" lon="-72.627805">
        <ele>222.69</ele>
      </trkpt>
      <trkpt lat="45.24914" lon="-72.62761">
        <ele>220.11</ele>
      </trkpt>
      <trkpt lat="45.2494" lon="-72.62756">
        <ele>218.69</ele>
      </trkpt>
      <trkpt lat="45.24959" lon="-72.62755">
        <ele>218.03</ele>
      </trkpt>
      <trkpt lat="45.24998" lon="-72.62759">
        <ele>217.08</ele>
      </trkpt>
      <trkpt lat="45.25062" lon="-72.62766">
        <ele>215.14</ele>
      </trkpt>
      <trkpt lat="45.25126" lon="-72.62773">
        <ele>213.32</ele>
      </trkpt>
      <trkpt lat="45.25156" lon="-72.62769">
        <ele>213</ele>
      </trkpt>
      <trkpt lat="45.25243" lon="-72.62747">
        <ele>213.22</ele>
      </trkpt>
      <trkpt lat="45.25309" lon="-72.62726">
        <ele>215.99</ele>
      </trkpt>
      <trkpt lat="45.25364" lon="-72.627095">
        <ele>218.42</ele>
      </trkpt>
      <trkpt lat="45.25419" lon="-72.62693">
        <ele>218.86</ele>
      </trkpt>
      <trkpt lat="45.254745" lon="-72.62674">
        <ele>216.99</ele>
      </trkpt>
      <trkpt lat="45.2553" lon="-72.62655">
        <ele>215.93</ele>
      </trkpt>
      <trkpt lat="45.2560533" lon="-72.6263333">
        <ele>214.83</ele>
      </trkpt>
      <trkpt lat="45.2568067" lon="-72.6261167">
        <ele>213.66</ele>
      </trkpt>
      <trkpt lat="45.25756" lon="-72.6259">
        <ele>208.04</ele>
      </trkpt>
      <trkpt lat="45.25775" lon="-72.626705">
        <ele>202.48</ele>
      </trkpt>
      <trkpt lat="45.25794" lon="-72.62751">
        <ele>196.7</ele>
      </trkpt>
      <trkpt lat="45.258155" lon="-72.628095">
        <ele>191.73</ele>
      </trkpt>
      <trkpt lat="45.25837" lon="-72.62868">
        <ele>189.15</ele>
      </trkpt>
      <trkpt lat="45.25853" lon="-72.62916">
        <ele>187.9</ele>
      </trkpt>
      <trkpt lat="45.25874" lon="-72.62993">
        <ele>186.31</ele>
      </trkpt>
      <trkpt lat="45.25899" lon="-72.63042">
        <ele>183.05</ele>
      </trkpt>
      <trkpt lat="45.25927" lon="-72.63074">
        <ele>180.57</ele>
      </trkpt>
      <trkpt lat="45.25944" lon="-72.63109">
        <ele>176.9</ele>
      </trkpt>
      <trkpt lat="45.25977" lon="-72.63183">
        <ele>173.17</ele>
      </trkpt>
      <trkpt lat="45.25983" lon="-72.63202">
        <ele>172.52</ele>
      </trkpt>
      <trkpt lat="45.25993" lon="-72.63257">
        <ele>168.98</ele>
      </trkpt>
      <trkpt lat="45.26006" lon="-72.6337">
        <ele>166.64</ele>
      </trkpt>
      <trkpt lat="45.26004" lon="-72.63396">
        <ele>165.91</ele>
      </trkpt>
      <trkpt lat="45.25995" lon="-72.63435">
        <ele>163.66</ele>
      </trkpt>
      <trkpt lat="45.2599" lon="-72.63476">
        <ele>161.26</ele>
      </trkpt>
      <trkpt lat="45.26003" lon="-72.635835">
        <ele>158.54</ele>
      </trkpt>
      <trkpt lat="45.26016" lon="-72.63691">
        <ele>157.71</ele>
      </trkpt>
      <trkpt lat="45.26016" lon="-72.63692">
        <ele>157.71</ele>
      </trkpt>
      <trkpt lat="45.2602867" lon="-72.6379467">
        <ele>156.98</ele>
      </trkpt>
      <trkpt lat="45.2604133" lon="-72.6389733">
        <ele>156.33</ele>
      </trkpt>
      <trkpt lat="45.26054" lon="-72.64">
        <ele>155.41</ele>
      </trkpt>
      <trkpt lat="45.2606633" lon="-72.64109">
        <ele>154.27</ele>
      </trkpt>
      <trkpt lat="45.2607867" lon="-72.64218">
        <ele>153.98</ele>
      </trkpt>
      <trkpt lat="45.26091" lon="-72.64327">
        <ele>159.59</ele>
      </trkpt>
      <trkpt lat="45.26091" lon="-72.64358">
        <ele>161.13</ele>
      </trkpt>
      <trkpt lat="45.260855" lon="-72.64433">
        <ele>164.17</ele>
      </trkpt>
      <trkpt lat="45.2608" lon="-72.64508">
        <ele>166.42</ele>
      </trkpt>
      <trkpt lat="45.26078" lon="-72.64583">
        <ele>168.38</ele>
      </trkpt>
      <trkpt lat="45.26078" lon="-72.64661">
        <ele>167.87</ele>
      </trkpt>
      <trkpt lat="45.26078" lon="-72.64739">
        <ele>162.59</ele>
      </trkpt>
      <trkpt lat="45.26081" lon="-72.64819">
        <ele>160.95</ele>
      </trkpt>
      <trkpt lat="45.26087" lon="-72.64851">
        <ele>160.21</ele>
      </trkpt>
      <trkpt lat="45.26096" lon="-72.64943">
        <ele>158.2</ele>
      </trkpt>
      <trkpt lat="45.26101" lon="-72.65007">
        <ele>156.53</ele>
      </trkpt>
      <trkpt lat="45.2610333" lon="-72.65125">
        <ele>159.43</ele>
      </trkpt>
      <trkpt lat="45.2610567" lon="-72.65243">
        <ele>162.9</ele>
      </trkpt>
      <trkpt lat="45.26108" lon="-72.65361">
        <ele>162.21</ele>
      </trkpt>
      <trkpt lat="45.26118" lon="-72.654465">
        <ele>159.55</ele>
      </trkpt>
      <trkpt lat="45.26128" lon="-72.65532">
        <ele>158.72</ele>
      </trkpt>
      <trkpt lat="45.26131" lon="-72.65581">
        <ele>158.43</ele>
      </trkpt>
      <trkpt lat="45.261225" lon="-72.65701">
        <ele>156.2</ele>
      </trkpt>
      <trkpt lat="45.26114" lon="-72.65821">
        <ele>152.2</ele>
      </trkpt>
      <trkpt lat="45.260944" lon="-72.659204">
        <ele>153.41</ele>
      </trkpt>
      <trkpt lat="45.260748" lon="-72.660198">
        <ele>152.85</ele>
      </trkpt>
      <trkpt lat="45.260552" lon="-72.661192">
        <ele>150.84</ele>
      </trkpt>
      <trkpt lat="45.260356" lon="-72.662186">
        <ele>150.15</ele>
      </trkpt>
      <trkpt lat="45.26016" lon="-72.66318">
        <ele>150.21</ele>
      </trkpt>
      <trkpt lat="45.2599" lon="-72.6644">
        <ele>153.1</ele>
      </trkpt>
      <trkpt lat="45.25966" lon="-72.665095">
        <ele>152.44</ele>
      </trkpt>
      <trkpt lat="45.25942" lon="-72.66579">
        <ele>144.75</ele>
      </trkpt>
      <trkpt lat="45.25902" lon="-72.66681">
        <ele>141.28</ele>
      </trkpt>
      <trkpt lat="45.25894" lon="-72.66708">
        <ele>141.22</ele>
      </trkpt>
      <trkpt lat="45.25889" lon="-72.66741">
        <ele>141.21</ele>
      </trkpt>
      <trkpt lat="45.25888" lon="-72.6678">
        <ele>141.66</ele>
      </trkpt>
      <trkpt lat="45.2589125" lon="-72.669075">
        <ele>144.72</ele>
      </trkpt>
      <trkpt lat="45.258945" lon="-72.67035">
        <ele>144.28</ele>
      </trkpt>
      <trkpt lat="45.2589775" lon="-72.671625">
        <ele>142.81</ele>
      </trkpt>
      <trkpt lat="45.25901" lon="-72.6729">
        <ele>146.18</ele>
      </trkpt>
      <trkpt lat="45.25909" lon="-72.67322">
        <ele>147.55</ele>
      </trkpt>
      <trkpt lat="45.25929" lon="-72.67355">
        <ele>148.35</ele>
      </trkpt>
      <trkpt lat="45.25984" lon="-72.6742">
        <ele>150.4</ele>
      </trkpt>
      <trkpt lat="45.2602" lon="-72.67479">
        <ele>152.01</ele>
      </trkpt>
      <trkpt lat="45.26065" lon="-72.67582">
        <ele>153.12</ele>
      </trkpt>
      <trkpt lat="45.26074" lon="-72.67622">
        <ele>154.97</ele>
      </trkpt>
      <trkpt lat="45.26075" lon="-72.6765">
        <ele>156.55</ele>
      </trkpt>
      <trkpt lat="45.26068" lon="-72.67689">
        <ele>159.64</ele>
      </trkpt>
      <trkpt lat="45.26051" lon="-72.6773">
        <ele>162.55</ele>
      </trkpt>
      <trkpt lat="45.26041" lon="-72.67762">
        <ele>161.86</ele>
      </trkpt>
      <trkpt lat="45.2604" lon="-72.67787">
        <ele>159.91</ele>
      </trkpt>
      <trkpt lat="45.26043" lon="-72.6781">
        <ele>158.62</ele>
      </trkpt>
      <trkpt lat="45.26049" lon="-72.67829">
        <ele>155.18</ele>
      </trkpt>
      <trkpt lat="45.26093" lon="-72.67929">
        <ele>150.62</ele>
      </trkpt>
      <trkpt lat="45.26137" lon="-72.68029">
        <ele>153.19</ele>
      </trkpt>
      <trkpt lat="45.26176" lon="-72.68093">
        <ele>151.34</ele>
      </trkpt>
      <trkpt lat="45.26176" lon="-72.68093">
        <ele>151.34</ele>
      </trkpt>
      <trkpt lat="45.26187" lon="-72.6811">
        <ele>150.12</ele>
      </trkpt>
      <trkpt lat="45.26231" lon="-72.68164">
        <ele>144.51</ele>
      </trkpt>
      <trkpt lat="45.262815" lon="-72.68213">
        <ele>140.58</ele>
      </trkpt>
      <trkpt lat="45.26332" lon="-72.68262">
        <ele>139.72</ele>
      </trkpt>
      <trkpt lat="45.26358" lon="-72.68293">
        <ele>139.23</ele>
      </trkpt>
      <trkpt lat="45.26391" lon="-72.68348">
        <ele>137.13</ele>
      </trkpt>
      <trkpt lat="45.26424" lon="-72.68403">
        <ele>136.62</ele>
      </trkpt>
      <trkpt lat="45.26428" lon="-72.68337">
        <ele>137.87</ele>
      </trkpt>
      <trkpt lat="45.26432" lon="-72.68271">
        <ele>137.77</ele>
      </trkpt>
      <trkpt lat="45.26442" lon="-72.68199">
        <ele>136.22</ele>
      </trkpt>
      <trkpt lat="45.26461" lon="-72.681365">
        <ele>136.08</ele>
      </trkpt>
      <trkpt lat="45.2648" lon="-72.68074">
        <ele>136.55</ele>
      </trkpt>
      <trkpt lat="45.26498" lon="-72.679955">
        <ele>137.47</ele>
      </trkpt>
      <trkpt lat="45.26516" lon="-72.67917">
        <ele>137.12</ele>
      </trkpt>
      <trkpt lat="45.2656" lon="-72.67819">
        <ele>138.62</ele>
      </trkpt>
      <trkpt lat="45.26587" lon="-72.6777">
        <ele>137.93</ele>
      </trkpt>
      <trkpt lat="45.2662" lon="-72.67725">
        <ele>137.14</ele>
      </trkpt>
      <trkpt lat="45.26646" lon="-72.67702">
        <ele>136.83</ele>
      </trkpt>
      <trkpt lat="45.26723" lon="-72.67658">
        <ele>136.21</ele>
      </trkpt>
      <trkpt lat="45.26768" lon="-72.67617">
        <ele>136.73</ele>
      </trkpt>
      <trkpt lat="45.26797" lon="-72.67578">
        <ele>139.41</ele>
      </trkpt>
      <trkpt lat="45.26865" lon="-72.67523">
        <ele>145.91</ele>
      </trkpt>
      <trkpt lat="45.26921" lon="-72.67492">
        <ele>146.46</ele>
      </trkpt>
      <trkpt lat="45.27" lon="-72.67456">
        <ele>145.95</ele>
      </trkpt>
      <trkpt lat="45.27058" lon="-72.67443">
        <ele>144.24</ele>
      </trkpt>
      <trkpt lat="45.27116" lon="-72.6743">
        <ele>142.53</ele>
      </trkpt>
      <trkpt lat="45.2718" lon="-72.67407">
        <ele>143.02</ele>
      </trkpt>
      <trkpt lat="45.27244" lon="-72.67384">
        <ele>143.98</ele>
      </trkpt>
      <trkpt lat="45.27327" lon="-72.67362">
        <ele>148.68</ele>
      </trkpt>
      <trkpt lat="45.27379" lon="-72.673575">
        <ele>152.3</ele>
      </trkpt>
      <trkpt lat="45.27431" lon="-72.67353">
        <ele>157.71</ele>
      </trkpt>
      <trkpt lat="45.27466" lon="-72.67354">
        <ele>159.99</ele>
      </trkpt>
      <trkpt lat="45.27497" lon="-72.67358">
        <ele>162.38</ele>
      </trkpt>
      <trkpt lat="45.27557" lon="-72.67376">
        <ele>166.64</ele>
      </trkpt>
      <trkpt lat="45.27639" lon="-72.67407">
        <ele>169.6</ele>
      </trkpt>
      <trkpt lat="45.2768" lon="-72.67429">
        <ele>170.08</ele>
      </trkpt>
      <trkpt lat="45.27716" lon="-72.67445">
        <ele>171</ele>
      </trkpt>
      <trkpt lat="45.27765" lon="-72.6747">
        <ele>171.69</ele>
      </trkpt>
      <trkpt lat="45.27806" lon="-72.67487">
        <ele>171.87</ele>
      </trkpt>
      <trkpt lat="45.27849" lon="-72.67496">
        <ele>171.98</ele>
      </trkpt>
      <trkpt lat="45.27882" lon="-72.67499">
        <ele>172.25</ele>
      </trkpt>
      <trkpt lat="45.27934" lon="-72.67501">
        <ele>172.32</ele>
      </trkpt>
      <trkpt lat="45.27969" lon="-72.67498">
        <ele>172.44</ele>
      </trkpt>
      <trkpt lat="45.27968" lon="-72.67498">
        <ele>172.44</ele>
      </trkpt>
      <trkpt lat="45.27996" lon="-72.67496">
        <ele>172.58</ele>
      </trkpt>
      <trkpt lat="45.28039" lon="-72.67482">
        <ele>172.57</ele>
      </trkpt>
      <trkpt lat="45.28098" lon="-72.67456">
        <ele>172.67</ele>
      </trkpt>
      <trkpt lat="45.28161" lon="-72.67425">
        <ele>173.31</ele>
      </trkpt>
      <trkpt lat="45.28224" lon="-72.67394">
        <ele>175.14</ele>
      </trkpt>
      <trkpt lat="45.282745" lon="-72.673645">
        <ele>177.33</ele>
      </trkpt>
      <trkpt lat="45.28325" lon="-72.67335">
        <ele>179.54</ele>
      </trkpt>
      <trkpt lat="45.283935" lon="-72.67288">
        <ele>184.59</ele>
      </trkpt>
      <trkpt lat="45.28462" lon="-72.67241">
        <ele>192.44</ele>
      </trkpt>
      <trkpt lat="45.2852829" lon="-72.67184">
        <ele>198.36</ele>
      </trkpt>
      <trkpt lat="45.2859457" lon="-72.6712701">
        <ele>205.7</ele>
      </trkpt>
      <trkpt lat="45.2866086" lon="-72.6707001">
        <ele>208.98</ele>
      </trkpt>
      <trkpt lat="45.2872714" lon="-72.6701301">
        <ele>209.7</ele>
      </trkpt>
      <trkpt lat="45.2879343" lon="-72.6695601">
        <ele>208.06</ele>
      </trkpt>
      <trkpt lat="45.2885972" lon="-72.66899">
        <ele>205.45</ele>
      </trkpt>
      <trkpt lat="45.28926" lon="-72.66842">
        <ele>200.89</ele>
      </trkpt>
      <trkpt lat="45.2899475" lon="-72.667755">
        <ele>198.84</ele>
      </trkpt>
      <trkpt lat="45.290635" lon="-72.66709">
        <ele>198.95</ele>
      </trkpt>
      <trkpt lat="45.2913225" lon="-72.666425">
        <ele>199.03</ele>
      </trkpt>
      <trkpt lat="45.29201" lon="-72.66576">
        <ele>198.63</ele>
      </trkpt>
      <trkpt lat="45.29257" lon="-72.66521">
        <ele>198.04</ele>
      </trkpt>
      <trkpt lat="45.29291" lon="-72.66485">
        <ele>196.58</ele>
      </trkpt>
      <trkpt lat="45.29344" lon="-72.66414">
        <ele>191.59</ele>
      </trkpt>
      <trkpt lat="45.29378" lon="-72.663645">
        <ele>187.65</ele>
      </trkpt>
      <trkpt lat="45.29412" lon="-72.66315">
        <ele>185.34</ele>
      </trkpt>
      <trkpt lat="45.29451" lon="-72.66261">
        <ele>185.11</ele>
      </trkpt>
      <trkpt lat="45.29466" lon="-72.66243">
        <ele>184.69</ele>
      </trkpt>
      <trkpt lat="45.29502" lon="-72.66207">
        <ele>184.23</ele>
      </trkpt>
      <trkpt lat="45.2955" lon="-72.66172">
        <ele>182.88</ele>
      </trkpt>
      <trkpt lat="45.29573" lon="-72.66163">
        <ele>182.88</ele>
      </trkpt>
      <trkpt lat="45.2964717" lon="-72.6614217">
        <ele>181.06</ele>
      </trkpt>
      <trkpt lat="45.2972133" lon="-72.6612134">
        <ele>176.53</ele>
      </trkpt>
      <trkpt lat="45.297955" lon="-72.661005">
        <ele>173.72</ele>
      </trkpt>
      <trkpt lat="45.2986967" lon="-72.6607967">
        <ele>164.7</ele>
      </trkpt>
      <trkpt lat="45.2994383" lon="-72.6605883">
        <ele>161.05</ele>
      </trkpt>
      <trkpt lat="45.30018" lon="-72.66038">
        <ele>159.61</ele>
      </trkpt>
      <trkpt lat="45.300955" lon="-72.660145">
        <ele>157.65</ele>
      </trkpt>
      <trkpt lat="45.30173" lon="-72.65991">
        <ele>152.84</ele>
      </trkpt>
      <trkpt lat="45.30172" lon="-72.65992">
        <ele>152.93</ele>
      </trkpt>
      <trkpt lat="45.30249" lon="-72.65968">
        <ele>148.53</ele>
      </trkpt>
      <trkpt lat="45.30334" lon="-72.659436">
        <ele>144.23</ele>
      </trkpt>
      <trkpt lat="45.30419" lon="-72.659192">
        <ele>139.42</ele>
      </trkpt>
      <trkpt lat="45.30504" lon="-72.658948">
        <ele>137.05</ele>
      </trkpt>
      <trkpt lat="45.30589" lon="-72.658704">
        <ele>139.18</ele>
      </trkpt>
      <trkpt lat="45.30674" lon="-72.65846">
        <ele>142.96</ele>
      </trkpt>
      <trkpt lat="45.30702" lon="-72.65837">
        <ele>143.55</ele>
      </trkpt>
      <trkpt lat="45.30759" lon="-72.65812">
        <ele>145.44</ele>
      </trkpt>
      <trkpt lat="45.30816" lon="-72.65787">
        <ele>146.99</ele>
      </trkpt>
      <trkpt lat="45.30899" lon="-72.65759">
        <ele>147.34</ele>
      </trkpt>
      <trkpt lat="45.30906" lon="-72.65768">
        <ele>147.34</ele>
      </trkpt>
      <trkpt lat="45.30913" lon="-72.65768">
        <ele>147.34</ele>
      </trkpt>
      <trkpt lat="45.30962" lon="-72.65759">
        <ele>146.61</ele>
      </trkpt>
      <trkpt lat="45.31049" lon="-72.657515">
        <ele>146.22</ele>
      </trkpt>
      <trkpt lat="45.31136" lon="-72.65744">
        <ele>144.78</ele>
      </trkpt>
      <trkpt lat="45.312115" lon="-72.65739">
        <ele>140.9</ele>
      </trkpt>
      <trkpt lat="45.31287" lon="-72.65734">
        <ele>138.52</ele>
      </trkpt>
      <trkpt lat="45.313625" lon="-72.65729">
        <ele>135.82</ele>
      </trkpt>
      <trkpt lat="45.31438" lon="-72.65724">
        <ele>133.21</ele>
      </trkpt>
      <trkpt lat="45.31449" lon="-72.6572">
        <ele>132.82</ele>
      </trkpt>
      <trkpt lat="45.31462" lon="-72.65723">
        <ele>132.6</ele>
      </trkpt>
      <trkpt lat="45.31471" lon="-72.65719">
        <ele>132.3</ele>
      </trkpt>
      <trkpt lat="45.3154" lon="-72.65716">
        <ele>129.28</ele>
      </trkpt>
      <trkpt lat="45.31609" lon="-72.65713">
        <ele>126.81</ele>
      </trkpt>
      <trkpt lat="45.31608" lon="-72.65713">
        <ele>126.82</ele>
      </trkpt>
      <trkpt lat="45.31675" lon="-72.6571">
        <ele>126.25</ele>
      </trkpt>
      <trkpt lat="45.31678" lon="-72.657">
        <ele>126.31</ele>
      </trkpt>
      <trkpt lat="45.31678" lon="-72.657">
        <ele>127.36</ele>
      </trkpt>
      <trkpt lat="45.3170275" lon="-72.655825">
        <ele>126.81</ele>
      </trkpt>
      <trkpt lat="45.317275" lon="-72.65465">
        <ele>126.85</ele>
      </trkpt>
      <trkpt lat="45.3175225" lon="-72.653475">
        <ele>126.9</ele>
      </trkpt>
      <trkpt lat="45.31777" lon="-72.6523">
        <ele>125.89</ele>
      </trkpt>
    </trkseg>
  </trk>
</gpx>