<?xml version='1.0' encoding='utf-8'?>
<gpx xmlns="http://www.topografix.com/GPX/1/1" xmlns:xsi="http://www.w3.org/2001/XMLSchema-instance" version="1.1" creator="Gravelle Estrie" xsi:schemaLocation="http://www.topografix.com/GPX/1/1 http://www.topografix.com/GPX/1/1/gpx.xsd">
  <metadata>
    <name>HOME</name>
  </metadata>
  <trk>
    <name>HOME</name>
    <trkseg>
      <trkpt lat="45.05544" lon="-72.83703">
        <ele>107.7</ele>
      </trkpt>
      <trkpt lat="45.05556" lon="-72.83745">
        <ele>107</ele>
      </trkpt>
      <trkpt lat="45.0554" lon="-72.83761">
        <ele>106.1</ele>
      </trkpt>
      <trkpt lat="45.05549" lon="-72.83784">
        <ele>105.6</ele>
      </trkpt>
      <trkpt lat="45.05549" lon="-72.8384">
        <ele>103.7</ele>
      </trkpt>
      <trkpt lat="45.0555" lon="-72.83865">
        <ele>103.4</ele>
      </trkpt>
      <trkpt lat="45.05556" lon="-72.83903">
        <ele>103.5</ele>
      </trkpt>
      <trkpt lat="45.05587" lon="-72.83906">
        <ele>104.9</ele>
      </trkpt>
      <trkpt lat="45.05611" lon="-72.83905">
        <ele>106.8</ele>
      </trkpt>
      <trkpt lat="45.05622" lon="-72.83901">
        <ele>106.8</ele>
      </trkpt>
      <trkpt lat="45.0564" lon="-72.8389">
        <ele>108.6</ele>
      </trkpt>
      <trkpt lat="45.05639" lon="-72.8389">
        <ele>108.5</ele>
      </trkpt>
      <trkpt lat="45.057075" lon="-72.83848">
        <ele>115.8</ele>
      </trkpt>
      <trkpt lat="45.05776" lon="-72.83806">
        <ele>121.2</ele>
      </trkpt>
      <trkpt lat="45.058634" lon="-72.837955">
        <ele>132.3</ele>
      </trkpt>
      <trkpt lat="45.05951" lon="-72.83785">
        <ele>139.1</ele>
      </trkpt>
      <trkpt lat="45.060014" lon="-72.837869">
        <ele>143.1</ele>
      </trkpt>
      <trkpt lat="45.06052" lon="-72.83789">
        <ele>150.8</ele>
      </trkpt>
      <trkpt lat="45.06102" lon="-72.838024">
        <ele>155.4</ele>
      </trkpt>
      <trkpt lat="45.06152" lon="-72.83816">
        <ele>159.3</ele>
      </trkpt>
      <trkpt lat="45.06199" lon="-72.83833">
        <ele>160.7</ele>
      </trkpt>
      <trkpt lat="45.062701" lon="-72.838719">
        <ele>163.3</ele>
      </trkpt>
      <trkpt lat="45.063413" lon="-72.839109">
        <ele>165.5</ele>
      </trkpt>
      <trkpt lat="45.064125" lon="-72.839499">
        <ele>168.4</ele>
      </trkpt>
      <trkpt lat="45.064836" lon="-72.839889">
        <ele>172.7</ele>
      </trkpt>
      <trkpt lat="45.065548" lon="-72.840279">
        <ele>180</ele>
      </trkpt>
      <trkpt lat="45.06626" lon="-72.84067">
        <ele>188.8</ele>
      </trkpt>
      <trkpt lat="45.06707" lon="-72.84099">
        <ele>197</ele>
      </trkpt>
      <trkpt lat="45.06774" lon="-72.841184">
        <ele>198.8</ele>
      </trkpt>
      <trkpt lat="45.06841" lon="-72.84138">
        <ele>200.2</ele>
      </trkpt>
      <trkpt lat="45.068904" lon="-72.841469">
        <ele>197.1</ele>
      </trkpt>
      <trkpt lat="45.0694" lon="-72.84156">
        <ele>191.8</ele>
      </trkpt>
      <trkpt lat="45.070149" lon="-72.84156">
        <ele>188.2</ele>
      </trkpt>
      <trkpt lat="45.0709" lon="-72.84156">
        <ele>188.4</ele>
      </trkpt>
      <trkpt lat="45.071642" lon="-72.84156">
        <ele>186.8</ele>
      </trkpt>
      <trkpt lat="45.072384" lon="-72.84156">
        <ele>179.2</ele>
      </trkpt>
      <trkpt lat="45.073127" lon="-72.84156">
        <ele>171.2</ele>
      </trkpt>
      <trkpt lat="45.07387" lon="-72.84156">
        <ele>168.8</ele>
      </trkpt>
      <trkpt lat="45.074634" lon="-72.841515">
        <ele>176</ele>
      </trkpt>
      <trkpt lat="45.0754" lon="-72.84147">
        <ele>184.1</ele>
      </trkpt>
      <trkpt lat="45.0757" lon="-72.84134">
        <ele>185.2</ele>
      </trkpt>
      <trkpt lat="45.07648" lon="-72.84097">
        <ele>184.7</ele>
      </trkpt>
      <trkpt lat="45.077085" lon="-72.84066">
        <ele>185.5</ele>
      </trkpt>
      <trkpt lat="45.07769" lon="-72.84035">
        <ele>186.8</ele>
      </trkpt>
      <trkpt lat="45.07816" lon="-72.84019">
        <ele>187.4</ele>
      </trkpt>
      <trkpt lat="45.07869" lon="-72.84008">
        <ele>191.9</ele>
      </trkpt>
      <trkpt lat="45.07905" lon="-72.84004">
        <ele>195.3</ele>
      </trkpt>
      <trkpt lat="45.07954" lon="-72.8399">
        <ele>194.8</ele>
      </trkpt>
      <trkpt lat="45.0802" lon="-72.83994">
        <ele>190.7</ele>
      </trkpt>
      <trkpt lat="45.08054" lon="-72.83991">
        <ele>188</ele>
      </trkpt>
      <trkpt lat="45.08082" lon="-72.83986">
        <ele>186.7</ele>
      </trkpt>
      <trkpt lat="45.08115" lon="-72.83976">
        <ele>185.4</ele>
      </trkpt>
      <trkpt lat="45.08157" lon="-72.83954">
        <ele>185</ele>
      </trkpt>
      <trkpt lat="45.08177" lon="-72.83932">
        <ele>185.3</ele>
      </trkpt>
      <trkpt lat="45.08223" lon="-72.83878">
        <ele>186.7</ele>
      </trkpt>
      <trkpt lat="45.08284" lon="-72.83833">
        <ele>189.2</ele>
      </trkpt>
      <trkpt lat="45.08296" lon="-72.83825">
        <ele>190.2</ele>
      </trkpt>
      <trkpt lat="45.08307" lon="-72.8382">
        <ele>190.2</ele>
      </trkpt>
      <trkpt lat="45.0834" lon="-72.83816">
        <ele>193.4</ele>
      </trkpt>
      <trkpt lat="45.0837" lon="-72.83816">
        <ele>194.7</ele>
      </trkpt>
      <trkpt lat="45.08383" lon="-72.8382">
        <ele>194.8</ele>
      </trkpt>
      <trkpt lat="45.08416" lon="-72.83821">
        <ele>194.6</ele>
      </trkpt>
      <trkpt lat="45.08471" lon="-72.83812">
        <ele>195.4</ele>
      </trkpt>
      <trkpt lat="45.08499" lon="-72.83802">
        <ele>196.6</ele>
      </trkpt>
      <trkpt lat="45.085415" lon="-72.837705">
        <ele>197.8</ele>
      </trkpt>
      <trkpt lat="45.08584" lon="-72.83739">
        <ele>198.8</ele>
      </trkpt>
      <trkpt lat="45.08611" lon="-72.83713">
        <ele>200</ele>
      </trkpt>
      <trkpt lat="45.0864" lon="-72.83675">
        <ele>201.9</ele>
      </trkpt>
      <trkpt lat="45.08673" lon="-72.83619">
        <ele>203.7</ele>
      </trkpt>
      <trkpt lat="45.08706" lon="-72.83563">
        <ele>206.5</ele>
      </trkpt>
      <trkpt lat="45.08706" lon="-72.83564">
        <ele>206.5</ele>
      </trkpt>
      <trkpt lat="45.08751" lon="-72.835046">
        <ele>209.2</ele>
      </trkpt>
      <trkpt lat="45.08796" lon="-72.834453">
        <ele>209.9</ele>
      </trkpt>
      <trkpt lat="45.08841" lon="-72.83386">
        <ele>210.7</ele>
      </trkpt>
      <trkpt lat="45.08862" lon="-72.83369">
        <ele>211.2</ele>
      </trkpt>
      <trkpt lat="45.08907" lon="-72.83341">
        <ele>213.5</ele>
      </trkpt>
      <trkpt lat="45.08924" lon="-72.83332">
        <ele>213.5</ele>
      </trkpt>
      <trkpt lat="45.08966" lon="-72.83307">
        <ele>216.7</ele>
      </trkpt>
      <trkpt lat="45.09008" lon="-72.83282">
        <ele>218</ele>
      </trkpt>
      <trkpt lat="45.09051" lon="-72.83257">
        <ele>218.7</ele>
      </trkpt>
      <trkpt lat="45.09096" lon="-72.83242">
        <ele>218.9</ele>
      </trkpt>
      <trkpt lat="45.09148" lon="-72.83229">
        <ele>217.9</ele>
      </trkpt>
      <trkpt lat="45.0917" lon="-72.83225">
        <ele>217.6</ele>
      </trkpt>
      <trkpt lat="45.09208" lon="-72.83225">
        <ele>216.4</ele>
      </trkpt>
      <trkpt lat="45.09257" lon="-72.83233">
        <ele>214.5</ele>
      </trkpt>
      <trkpt lat="45.09333" lon="-72.832513">
        <ele>213.4</ele>
      </trkpt>
      <trkpt lat="45.09409" lon="-72.832696">
        <ele>214.4</ele>
      </trkpt>
      <trkpt lat="45.09485" lon="-72.83288">
        <ele>217.7</ele>
      </trkpt>
      <trkpt lat="45.09553" lon="-72.83301">
        <ele>220.8</ele>
      </trkpt>
      <trkpt lat="45.09579" lon="-72.83305">
        <ele>221.5</ele>
      </trkpt>
      <trkpt lat="45.09599" lon="-72.83301">
        <ele>221.8</ele>
      </trkpt>
      <trkpt lat="45.09665" lon="-72.83283">
        <ele>222</ele>
      </trkpt>
      <trkpt lat="45.097215" lon="-72.83258">
        <ele>221.2</ele>
      </trkpt>
      <trkpt lat="45.09778" lon="-72.83233">
        <ele>219.7</ele>
      </trkpt>
      <trkpt lat="45.09811" lon="-72.83212">
        <ele>218.5</ele>
      </trkpt>
      <trkpt lat="45.09866" lon="-72.83175">
        <ele>214.5</ele>
      </trkpt>
      <trkpt lat="45.099165" lon="-72.831505">
        <ele>210.7</ele>
      </trkpt>
      <trkpt lat="45.09967" lon="-72.83126">
        <ele>207.1</ele>
      </trkpt>
      <trkpt lat="45.10021" lon="-72.83108">
        <ele>203.8</ele>
      </trkpt>
      <trkpt lat="45.10087" lon="-72.83077">
        <ele>201.5</ele>
      </trkpt>
      <trkpt lat="45.10174" lon="-72.830455">
        <ele>198.7</ele>
      </trkpt>
      <trkpt lat="45.10261" lon="-72.83014">
        <ele>196.4</ele>
      </trkpt>
      <trkpt lat="45.10277" lon="-72.83005">
        <ele>196</ele>
      </trkpt>
      <trkpt lat="45.1031" lon="-72.82992">
        <ele>194.4</ele>
      </trkpt>
      <trkpt lat="45.10338" lon="-72.82983">
        <ele>191.9</ele>
      </trkpt>
      <trkpt lat="45.10381" lon="-72.82978">
        <ele>185.5</ele>
      </trkpt>
      <trkpt lat="45.10434" lon="-72.82975">
        <ele>180.4</ele>
      </trkpt>
      <trkpt lat="45.10518" lon="-72.829789">
        <ele>171.5</ele>
      </trkpt>
      <trkpt lat="45.10602" lon="-72.82983">
        <ele>165.2</ele>
      </trkpt>
      <trkpt lat="45.106773" lon="-72.829879">
        <ele>158.1</ele>
      </trkpt>
      <trkpt lat="45.107526" lon="-72.829929">
        <ele>151.2</ele>
      </trkpt>
      <trkpt lat="45.10828" lon="-72.82998">
        <ele>148.8</ele>
      </trkpt>
      <trkpt lat="45.10875" lon="-72.830019">
        <ele>146.9</ele>
      </trkpt>
      <trkpt lat="45.10922" lon="-72.83006">
        <ele>145.4</ele>
      </trkpt>
      <trkpt lat="45.109873" lon="-72.830163">
        <ele>142.8</ele>
      </trkpt>
      <trkpt lat="45.110526" lon="-72.830266">
        <ele>142.5</ele>
      </trkpt>
      <trkpt lat="45.11118" lon="-72.83037">
        <ele>141.9</ele>
      </trkpt>
      <trkpt lat="45.11157" lon="-72.83036">
        <ele>141.9</ele>
      </trkpt>
      <trkpt lat="45.11216" lon="-72.83023">
        <ele>143.3</ele>
      </trkpt>
      <trkpt lat="45.1127" lon="-72.83019">
        <ele>143.2</ele>
      </trkpt>
      <trkpt lat="45.11324" lon="-72.83015">
        <ele>142</ele>
      </trkpt>
      <trkpt lat="45.11323" lon="-72.83015">
        <ele>142</ele>
      </trkpt>
      <trkpt lat="45.113856" lon="-72.830103">
        <ele>140.7</ele>
      </trkpt>
      <trkpt lat="45.114483" lon="-72.830056">
        <ele>139.5</ele>
      </trkpt>
      <trkpt lat="45.11511" lon="-72.83001">
        <ele>138.5</ele>
      </trkpt>
      <trkpt lat="45.116005" lon="-72.82998">
        <ele>136.9</ele>
      </trkpt>
      <trkpt lat="45.1169" lon="-72.82995">
        <ele>137.9</ele>
      </trkpt>
      <trkpt lat="45.11717" lon="-72.82943">
        <ele>136.3</ele>
      </trkpt>
      <trkpt lat="45.11751" lon="-72.82898">
        <ele>135.3</ele>
      </trkpt>
      <trkpt lat="45.118166" lon="-72.82826">
        <ele>135.3</ele>
      </trkpt>
      <trkpt lat="45.118823" lon="-72.82754">
        <ele>137.6</ele>
      </trkpt>
      <trkpt lat="45.11948" lon="-72.82682">
        <ele>142.9</ele>
      </trkpt>
      <trkpt lat="45.11992" lon="-72.82625">
        <ele>144.5</ele>
      </trkpt>
      <trkpt lat="45.120375" lon="-72.82551">
        <ele>146.9</ele>
      </trkpt>
      <trkpt lat="45.12083" lon="-72.82477">
        <ele>148.7</ele>
      </trkpt>
      <trkpt lat="45.12112" lon="-72.8244">
        <ele>149.5</ele>
      </trkpt>
      <trkpt lat="45.121678" lon="-72.82375">
        <ele>150.1</ele>
      </trkpt>
      <trkpt lat="45.122236" lon="-72.8231">
        <ele>150.6</ele>
      </trkpt>
      <trkpt lat="45.122794" lon="-72.82245">
        <ele>150.7</ele>
      </trkpt>
      <trkpt lat="45.123352" lon="-72.8218">
        <ele>150.8</ele>
      </trkpt>
      <trkpt lat="45.12391" lon="-72.82115">
        <ele>150.8</ele>
      </trkpt>
      <trkpt lat="45.12422" lon="-72.82068">
        <ele>150.6</ele>
      </trkpt>
      <trkpt lat="45.12453" lon="-72.82021">
        <ele>150.5</ele>
      </trkpt>
      <trkpt lat="45.12489" lon="-72.81952">
        <ele>150.4</ele>
      </trkpt>
      <trkpt lat="45.12512" lon="-72.81895">
        <ele>150.4</ele>
      </trkpt>
      <trkpt lat="45.12549" lon="-72.817964">
        <ele>151.2</ele>
      </trkpt>
      <trkpt lat="45.12586" lon="-72.816978">
        <ele>153.3</ele>
      </trkpt>
      <trkpt lat="45.12623" lon="-72.815992">
        <ele>153.5</ele>
      </trkpt>
      <trkpt lat="45.1266" lon="-72.815006">
        <ele>149.6</ele>
      </trkpt>
      <trkpt lat="45.12697" lon="-72.81402">
        <ele>143.2</ele>
      </trkpt>
      <trkpt lat="45.127205" lon="-72.81335">
        <ele>139.2</ele>
      </trkpt>
      <trkpt lat="45.12744" lon="-72.81268">
        <ele>137</ele>
      </trkpt>
      <trkpt lat="45.12758" lon="-72.81222">
        <ele>136.3</ele>
      </trkpt>
      <trkpt lat="45.12758" lon="-72.81223">
        <ele>136.3</ele>
      </trkpt>
      <trkpt lat="45.127932" lon="-72.81109">
        <ele>136.3</ele>
      </trkpt>
      <trkpt lat="45.128285" lon="-72.80995">
        <ele>136</ele>
      </trkpt>
      <trkpt lat="45.128638" lon="-72.80881">
        <ele>133.9</ele>
      </trkpt>
      <trkpt lat="45.128991" lon="-72.80767">
        <ele>132.8</ele>
      </trkpt>
      <trkpt lat="45.129344" lon="-72.80653">
        <ele>136</ele>
      </trkpt>
      <trkpt lat="45.129697" lon="-72.80539">
        <ele>142.6</ele>
      </trkpt>
      <trkpt lat="45.13005" lon="-72.80425">
        <ele>146.9</ele>
      </trkpt>
      <trkpt lat="45.13019" lon="-72.80364">
        <ele>147.6</ele>
      </trkpt>
      <trkpt lat="45.13025" lon="-72.80292">
        <ele>148.8</ele>
      </trkpt>
      <trkpt lat="45.130255" lon="-72.80181">
        <ele>151.7</ele>
      </trkpt>
      <trkpt lat="45.13026" lon="-72.8007">
        <ele>156.5</ele>
      </trkpt>
      <trkpt lat="45.130979" lon="-72.800663">
        <ele>155.3</ele>
      </trkpt>
      <trkpt lat="45.131699" lon="-72.800626">
        <ele>154.7</ele>
      </trkpt>
      <trkpt lat="45.13242" lon="-72.80059">
        <ele>152.5</ele>
      </trkpt>
      <trkpt lat="45.13302" lon="-72.80059">
        <ele>151.4</ele>
      </trkpt>
      <trkpt lat="45.13301" lon="-72.80059">
        <ele>151.4</ele>
      </trkpt>
      <trkpt lat="45.13389" lon="-72.80058">
        <ele>149</ele>
      </trkpt>
      <trkpt lat="45.13477" lon="-72.80057">
        <ele>146.4</ele>
      </trkpt>
      <trkpt lat="45.13565" lon="-72.80056">
        <ele>144.8</ele>
      </trkpt>
      <trkpt lat="45.135649" lon="-72.79939">
        <ele>145.3</ele>
      </trkpt>
      <trkpt lat="45.135648" lon="-72.798221">
        <ele>148.3</ele>
      </trkpt>
      <trkpt lat="45.135647" lon="-72.797052">
        <ele>153</ele>
      </trkpt>
      <trkpt lat="45.135646" lon="-72.795883">
        <ele>158</ele>
      </trkpt>
      <trkpt lat="45.135645" lon="-72.794714">
        <ele>161.2</ele>
      </trkpt>
      <trkpt lat="45.135644" lon="-72.793545">
        <ele>162.1</ele>
      </trkpt>
      <trkpt lat="45.135643" lon="-72.792376">
        <ele>165.1</ele>
      </trkpt>
      <trkpt lat="45.135642" lon="-72.791207">
        <ele>171.3</ele>
      </trkpt>
      <trkpt lat="45.135641" lon="-72.790038">
        <ele>173.9</ele>
      </trkpt>
      <trkpt lat="45.13564" lon="-72.78887">
        <ele>175.8</ele>
      </trkpt>
      <trkpt lat="45.135645" lon="-72.788105">
        <ele>177.3</ele>
      </trkpt>
      <trkpt lat="45.13565" lon="-72.78734">
        <ele>179.2</ele>
      </trkpt>
      <trkpt lat="45.135668" lon="-72.786186">
        <ele>181.5</ele>
      </trkpt>
      <trkpt lat="45.135686" lon="-72.785032">
        <ele>185.4</ele>
      </trkpt>
      <trkpt lat="45.135704" lon="-72.783878">
        <ele>187.4</ele>
      </trkpt>
      <trkpt lat="45.135722" lon="-72.782724">
        <ele>190.6</ele>
      </trkpt>
      <trkpt lat="45.13574" lon="-72.78157">
        <ele>193.4</ele>
      </trkpt>
      <trkpt lat="45.13575" lon="-72.7808">
        <ele>196.9</ele>
      </trkpt>
      <trkpt lat="45.13576" lon="-72.78003">
        <ele>198.5</ele>
      </trkpt>
      <trkpt lat="45.135754" lon="-72.778756">
        <ele>195.6</ele>
      </trkpt>
      <trkpt lat="45.135748" lon="-72.777483">
        <ele>190.7</ele>
      </trkpt>
      <trkpt lat="45.135742" lon="-72.776209">
        <ele>186.9</ele>
      </trkpt>
      <trkpt lat="45.135736" lon="-72.774936">
        <ele>183.2</ele>
      </trkpt>
      <trkpt lat="45.135731" lon="-72.773663">
        <ele>180.6</ele>
      </trkpt>
      <trkpt lat="45.135725" lon="-72.772389">
        <ele>175.8</ele>
      </trkpt>
      <trkpt lat="45.135719" lon="-72.771116">
        <ele>175.5</ele>
      </trkpt>
      <trkpt lat="45.135713" lon="-72.769843">
        <ele>180.3</ele>
      </trkpt>
      <trkpt lat="45.135707" lon="-72.768569">
        <ele>181.9</ele>
      </trkpt>
      <trkpt lat="45.135701" lon="-72.767296">
        <ele>183.4</ele>
      </trkpt>
      <trkpt lat="45.135695" lon="-72.766023">
        <ele>188</ele>
      </trkpt>
      <trkpt lat="45.13569" lon="-72.76475">
        <ele>193.8</ele>
      </trkpt>
      <trkpt lat="45.13569" lon="-72.763505">
        <ele>195.9</ele>
      </trkpt>
      <trkpt lat="45.13569" lon="-72.76226">
        <ele>194.4</ele>
      </trkpt>
      <trkpt lat="45.13575" lon="-72.7615">
        <ele>193.5</ele>
      </trkpt>
      <trkpt lat="45.13579" lon="-72.76119">
        <ele>193.5</ele>
      </trkpt>
      <trkpt lat="45.13592" lon="-72.76092">
        <ele>193.6</ele>
      </trkpt>
      <trkpt lat="45.13608" lon="-72.76061">
        <ele>193.5</ele>
      </trkpt>
      <trkpt lat="45.13637" lon="-72.76016">
        <ele>192.8</ele>
      </trkpt>
      <trkpt lat="45.13692" lon="-72.759515">
        <ele>190</ele>
      </trkpt>
      <trkpt lat="45.13747" lon="-72.75887">
        <ele>186.4</ele>
      </trkpt>
      <trkpt lat="45.13767" lon="-72.75859">
        <ele>185.8</ele>
      </trkpt>
      <trkpt lat="45.13788" lon="-72.75819">
        <ele>185</ele>
      </trkpt>
      <trkpt lat="45.13814" lon="-72.75763">
        <ele>183.4</ele>
      </trkpt>
      <trkpt lat="45.1384" lon="-72.75707">
        <ele>180.8</ele>
      </trkpt>
      <trkpt lat="45.138695" lon="-72.756335">
        <ele>178.2</ele>
      </trkpt>
      <trkpt lat="45.13899" lon="-72.7556">
        <ele>177.8</ele>
      </trkpt>
      <trkpt lat="45.13941" lon="-72.75471">
        <ele>179.7</ele>
      </trkpt>
      <trkpt lat="45.139855" lon="-72.75385">
        <ele>183.7</ele>
      </trkpt>
      <trkpt lat="45.1403" lon="-72.75299">
        <ele>189.9</ele>
      </trkpt>
      <trkpt lat="45.14051" lon="-72.7527">
        <ele>191.4</ele>
      </trkpt>
      <trkpt lat="45.141095" lon="-72.75211">
        <ele>193.5</ele>
      </trkpt>
      <trkpt lat="45.14168" lon="-72.75152">
        <ele>194.6</ele>
      </trkpt>
      <trkpt lat="45.14213" lon="-72.751005">
        <ele>195</ele>
      </trkpt>
      <trkpt lat="45.14258" lon="-72.75049">
        <ele>195.1</ele>
      </trkpt>
      <trkpt lat="45.14289" lon="-72.75009">
        <ele>194.2</ele>
      </trkpt>
      <trkpt lat="45.14341" lon="-72.7492">
        <ele>194</ele>
      </trkpt>
      <trkpt lat="45.14371" lon="-72.74866">
        <ele>196</ele>
      </trkpt>
      <trkpt lat="45.14401" lon="-72.74812">
        <ele>197.3</ele>
      </trkpt>
      <trkpt lat="45.14452" lon="-72.747115">
        <ele>199</ele>
      </trkpt>
      <trkpt lat="45.14503" lon="-72.74611">
        <ele>196.9</ele>
      </trkpt>
      <trkpt lat="45.14551" lon="-72.74504">
        <ele>195.7</ele>
      </trkpt>
      <trkpt lat="45.145876" lon="-72.744096">
        <ele>193.6</ele>
      </trkpt>
      <trkpt lat="45.146243" lon="-72.743153">
        <ele>194.8</ele>
      </trkpt>
      <trkpt lat="45.14661" lon="-72.74221">
        <ele>196.7</ele>
      </trkpt>
      <trkpt lat="45.146976" lon="-72.741266">
        <ele>201.4</ele>
      </trkpt>
      <trkpt lat="45.147343" lon="-72.740323">
        <ele>202.8</ele>
      </trkpt>
      <trkpt lat="45.14771" lon="-72.73938">
        <ele>202.6</ele>
      </trkpt>
      <trkpt lat="45.14786" lon="-72.7388">
        <ele>203.3</ele>
      </trkpt>
      <trkpt lat="45.14792" lon="-72.73815">
        <ele>205.1</ele>
      </trkpt>
      <trkpt lat="45.147966" lon="-72.737114">
        <ele>207.9</ele>
      </trkpt>
      <trkpt lat="45.148012" lon="-72.736078">
        <ele>209.3</ele>
      </trkpt>
      <trkpt lat="45.148058" lon="-72.735042">
        <ele>210.8</ele>
      </trkpt>
      <trkpt lat="45.148104" lon="-72.734006">
        <ele>212.8</ele>
      </trkpt>
      <trkpt lat="45.14815" lon="-72.73297">
        <ele>214.6</ele>
      </trkpt>
      <trkpt lat="45.14815" lon="-72.73298">
        <ele>214.6</ele>
      </trkpt>
      <trkpt lat="45.148194" lon="-72.731916">
        <ele>215.7</ele>
      </trkpt>
      <trkpt lat="45.148238" lon="-72.730852">
        <ele>218</ele>
      </trkpt>
      <trkpt lat="45.148282" lon="-72.729788">
        <ele>221.5</ele>
      </trkpt>
      <trkpt lat="45.148326" lon="-72.728724">
        <ele>223.6</ele>
      </trkpt>
      <trkpt lat="45.14837" lon="-72.72766">
        <ele>225.2</ele>
      </trkpt>
      <trkpt lat="45.14836" lon="-72.72713">
        <ele>227.6</ele>
      </trkpt>
      <trkpt lat="45.14828" lon="-72.72631">
        <ele>231.3</ele>
      </trkpt>
      <trkpt lat="45.14819" lon="-72.72561">
        <ele>234.1</ele>
      </trkpt>
      <trkpt lat="45.148087" lon="-72.724515">
        <ele>233.7</ele>
      </trkpt>
      <trkpt lat="45.147984" lon="-72.723421">
        <ele>230</ele>
      </trkpt>
      <trkpt lat="45.147881" lon="-72.722327">
        <ele>226.2</ele>
      </trkpt>
      <trkpt lat="45.147778" lon="-72.721232">
        <ele>225</ele>
      </trkpt>
      <trkpt lat="45.147675" lon="-72.720138">
        <ele>224.4</ele>
      </trkpt>
      <trkpt lat="45.147572" lon="-72.719044">
        <ele>225.5</ele>
      </trkpt>
      <trkpt lat="45.14747" lon="-72.71795">
        <ele>227.9</ele>
      </trkpt>
      <trkpt lat="45.14758" lon="-72.71781">
        <ele>227.1</ele>
      </trkpt>
      <trkpt lat="45.148176" lon="-72.717136">
        <ele>222.8</ele>
      </trkpt>
      <trkpt lat="45.148773" lon="-72.716463">
        <ele>218.5</ele>
      </trkpt>
      <trkpt lat="45.14937" lon="-72.71579">
        <ele>214.8</ele>
      </trkpt>
      <trkpt lat="45.149866" lon="-72.715273">
        <ele>211.6</ele>
      </trkpt>
      <trkpt lat="45.150363" lon="-72.714756">
        <ele>208.4</ele>
      </trkpt>
      <trkpt lat="45.15086" lon="-72.71424">
        <ele>206</ele>
      </trkpt>
      <trkpt lat="45.15086" lon="-72.71425">
        <ele>206.1</ele>
      </trkpt>
      <trkpt lat="45.15147" lon="-72.713586">
        <ele>202.9</ele>
      </trkpt>
      <trkpt lat="45.15208" lon="-72.712923">
        <ele>199.4</ele>
      </trkpt>
      <trkpt lat="45.15269" lon="-72.71226">
        <ele>195.4</ele>
      </trkpt>
      <trkpt lat="45.153123" lon="-72.711673">
        <ele>192.3</ele>
      </trkpt>
      <trkpt lat="45.153556" lon="-72.711086">
        <ele>190.1</ele>
      </trkpt>
      <trkpt lat="45.15399" lon="-72.7105">
        <ele>187.7</ele>
      </trkpt>
      <trkpt lat="45.15455" lon="-72.709786">
        <ele>182.7</ele>
      </trkpt>
      <trkpt lat="45.15511" lon="-72.709073">
        <ele>180.3</ele>
      </trkpt>
      <trkpt lat="45.15567" lon="-72.70836">
        <ele>178.9</ele>
      </trkpt>
      <trkpt lat="45.15602" lon="-72.70797">
        <ele>179.4</ele>
      </trkpt>
      <trkpt lat="45.15639" lon="-72.70769">
        <ele>181.3</ele>
      </trkpt>
      <trkpt lat="45.15663" lon="-72.70756">
        <ele>184</ele>
      </trkpt>
      <trkpt lat="45.15703" lon="-72.70739">
        <ele>187.5</ele>
      </trkpt>
      <trkpt lat="45.157699" lon="-72.70734">
        <ele>188.1</ele>
      </trkpt>
      <trkpt lat="45.15837" lon="-72.70729">
        <ele>188.7</ele>
      </trkpt>
      <trkpt lat="45.159044" lon="-72.707265">
        <ele>188</ele>
      </trkpt>
      <trkpt lat="45.15972" lon="-72.70724">
        <ele>186.7</ele>
      </trkpt>
      <trkpt lat="45.16003" lon="-72.7072">
        <ele>185.5</ele>
      </trkpt>
      <trkpt lat="45.16026" lon="-72.70716">
        <ele>185.3</ele>
      </trkpt>
      <trkpt lat="45.16051" lon="-72.70707">
        <ele>185.6</ele>
      </trkpt>
      <trkpt lat="45.16073" lon="-72.70689">
        <ele>185.9</ele>
      </trkpt>
      <trkpt lat="45.16111" lon="-72.70622">
        <ele>187.5</ele>
      </trkpt>
      <trkpt lat="45.16151" lon="-72.705258">
        <ele>190.3</ele>
      </trkpt>
      <trkpt lat="45.16191" lon="-72.704297">
        <ele>194</ele>
      </trkpt>
      <trkpt lat="45.16231" lon="-72.703335">
        <ele>196.2</ele>
      </trkpt>
      <trkpt lat="45.16271" lon="-72.702374">
        <ele>197.7</ele>
      </trkpt>
      <trkpt lat="45.16311" lon="-72.701412">
        <ele>198.8</ele>
      </trkpt>
      <trkpt lat="45.16351" lon="-72.700451">
        <ele>198</ele>
      </trkpt>
      <trkpt lat="45.16391" lon="-72.69949">
        <ele>197.3</ele>
      </trkpt>
      <trkpt lat="45.16409" lon="-72.6991">
        <ele>197.3</ele>
      </trkpt>
      <trkpt lat="45.16434" lon="-72.69883">
        <ele>197.1</ele>
      </trkpt>
      <trkpt lat="45.1645" lon="-72.69874">
        <ele>197</ele>
      </trkpt>
      <trkpt lat="45.16481" lon="-72.69865">
        <ele>196.8</ele>
      </trkpt>
      <trkpt lat="45.16526" lon="-72.698605">
        <ele>197</ele>
      </trkpt>
      <trkpt lat="45.16571" lon="-72.69856">
        <ele>196.7</ele>
      </trkpt>
      <trkpt lat="45.16626" lon="-72.69854">
        <ele>195.4</ele>
      </trkpt>
      <trkpt lat="45.16681" lon="-72.69852">
        <ele>192.8</ele>
      </trkpt>
      <trkpt lat="45.167279" lon="-72.698485">
        <ele>189.3</ele>
      </trkpt>
      <trkpt lat="45.16775" lon="-72.69845">
        <ele>186.2</ele>
      </trkpt>
      <trkpt lat="45.168205" lon="-72.698395">
        <ele>180</ele>
      </trkpt>
      <trkpt lat="45.16866" lon="-72.69834">
        <ele>176.4</ele>
      </trkpt>
      <trkpt lat="45.16904" lon="-72.69826">
        <ele>174.2</ele>
      </trkpt>
      <trkpt lat="45.16903" lon="-72.69826">
        <ele>174.1</ele>
      </trkpt>
      <trkpt lat="45.16945" lon="-72.69816">
        <ele>171.4</ele>
      </trkpt>
      <trkpt lat="45.16975" lon="-72.69807">
        <ele>169.7</ele>
      </trkpt>
      <trkpt lat="45.1703" lon="-72.69784">
        <ele>165.9</ele>
      </trkpt>
      <trkpt lat="45.17061" lon="-72.69766">
        <ele>164.3</ele>
      </trkpt>
      <trkpt lat="45.17117" lon="-72.69731">
        <ele>161.1</ele>
      </trkpt>
      <trkpt lat="45.1714" lon="-72.69712">
        <ele>160.3</ele>
      </trkpt>
      <trkpt lat="45.17194" lon="-72.69657">
        <ele>157.2</ele>
      </trkpt>
      <trkpt lat="45.17248" lon="-72.69602">
        <ele>155.8</ele>
      </trkpt>
      <trkpt lat="45.172985" lon="-72.695475">
        <ele>151.7</ele>
      </trkpt>
      <trkpt lat="45.17349" lon="-72.69493">
        <ele>149.5</ele>
      </trkpt>
      <trkpt lat="45.174105" lon="-72.694215">
        <ele>148.9</ele>
      </trkpt>
      <trkpt lat="45.17472" lon="-72.6935">
        <ele>148.3</ele>
      </trkpt>
      <trkpt lat="45.17515" lon="-72.69307">
        <ele>146.6</ele>
      </trkpt>
      <trkpt lat="45.175865" lon="-72.69241">
        <ele>142.7</ele>
      </trkpt>
      <trkpt lat="45.17658" lon="-72.69175">
        <ele>140.7</ele>
      </trkpt>
      <trkpt lat="45.17618" lon="-72.69117">
        <ele>142.6</ele>
      </trkpt>
      <trkpt lat="45.17564" lon="-72.69049">
        <ele>143.2</ele>
      </trkpt>
      <trkpt lat="45.175265" lon="-72.690009">
        <ele>143.8</ele>
      </trkpt>
      <trkpt lat="45.17489" lon="-72.68953">
        <ele>143.6</ele>
      </trkpt>
      <trkpt lat="45.17484" lon="-72.68929">
        <ele>143.2</ele>
      </trkpt>
      <trkpt lat="45.17476" lon="-72.688189">
        <ele>141.9</ele>
      </trkpt>
      <trkpt lat="45.17468" lon="-72.68709">
        <ele>139.7</ele>
      </trkpt>
      <trkpt lat="45.174575" lon="-72.685974">
        <ele>138.3</ele>
      </trkpt>
      <trkpt lat="45.17447" lon="-72.68486">
        <ele>137.3</ele>
      </trkpt>
      <trkpt lat="45.17441" lon="-72.683779">
        <ele>136.8</ele>
      </trkpt>
      <trkpt lat="45.17435" lon="-72.6827">
        <ele>135.6</ele>
      </trkpt>
      <trkpt lat="45.17427" lon="-72.681969">
        <ele>134.3</ele>
      </trkpt>
      <trkpt lat="45.17419" lon="-72.68124">
        <ele>133.5</ele>
      </trkpt>
      <trkpt lat="45.17403" lon="-72.6802">
        <ele>133.3</ele>
      </trkpt>
      <trkpt lat="45.17394" lon="-72.67923">
        <ele>135.1</ele>
      </trkpt>
      <trkpt lat="45.17389" lon="-72.678183">
        <ele>140.3</ele>
      </trkpt>
      <trkpt lat="45.17384" lon="-72.677136">
        <ele>137</ele>
      </trkpt>
      <trkpt lat="45.17379" lon="-72.67609">
        <ele>134.7</ele>
      </trkpt>
      <trkpt lat="45.17371" lon="-72.67541">
        <ele>136</ele>
      </trkpt>
      <trkpt lat="45.17363" lon="-72.674204">
        <ele>139.1</ele>
      </trkpt>
      <trkpt lat="45.17355" lon="-72.672999">
        <ele>140.3</ele>
      </trkpt>
      <trkpt lat="45.17347" lon="-72.671794">
        <ele>140.9</ele>
      </trkpt>
      <trkpt lat="45.17339" lon="-72.67059">
        <ele>144.4</ele>
      </trkpt>
      <trkpt lat="45.173345" lon="-72.669824">
        <ele>146.7</ele>
      </trkpt>
      <trkpt lat="45.1733" lon="-72.66906">
        <ele>148.2</ele>
      </trkpt>
      <trkpt lat="45.17328" lon="-72.668074">
        <ele>148.7</ele>
      </trkpt>
      <trkpt lat="45.17326" lon="-72.66709">
        <ele>148.9</ele>
      </trkpt>
      <trkpt lat="45.17329" lon="-72.66683">
        <ele>148.5</ele>
      </trkpt>
      <trkpt lat="45.17335" lon="-72.66665">
        <ele>147.7</ele>
      </trkpt>
      <trkpt lat="45.173802" lon="-72.665897">
        <ele>143.4</ele>
      </trkpt>
      <trkpt lat="45.174255" lon="-72.665145">
        <ele>140.9</ele>
      </trkpt>
      <trkpt lat="45.174707" lon="-72.664392">
        <ele>136.5</ele>
      </trkpt>
      <trkpt lat="45.17516" lon="-72.66364">
        <ele>129.6</ele>
      </trkpt>
      <trkpt lat="45.17571" lon="-72.66278">
        <ele>127.1</ele>
      </trkpt>
      <trkpt lat="45.17605" lon="-72.66212">
        <ele>128</ele>
      </trkpt>
      <trkpt lat="45.17607" lon="-72.66136">
        <ele>129.2</ele>
      </trkpt>
      <trkpt lat="45.17601" lon="-72.6601">
        <ele>129.8</ele>
      </trkpt>
      <trkpt lat="45.17591" lon="-72.65947">
        <ele>130.4</ele>
      </trkpt>
      <trkpt lat="45.17572" lon="-72.65904">
        <ele>131.6</ele>
      </trkpt>
      <trkpt lat="45.17535" lon="-72.65845">
        <ele>132.2</ele>
      </trkpt>
      <trkpt lat="45.17519" lon="-72.65814">
        <ele>132.8</ele>
      </trkpt>
      <trkpt lat="45.17507" lon="-72.65768">
        <ele>131.7</ele>
      </trkpt>
      <trkpt lat="45.17486" lon="-72.65726">
        <ele>131.1</ele>
      </trkpt>
      <trkpt lat="45.17457" lon="-72.65687">
        <ele>132.2</ele>
      </trkpt>
      <trkpt lat="45.17399" lon="-72.6562">
        <ele>139.5</ele>
      </trkpt>
      <trkpt lat="45.1737" lon="-72.65592">
        <ele>141.2</ele>
      </trkpt>
      <trkpt lat="45.17303" lon="-72.65523">
        <ele>144.5</ele>
      </trkpt>
      <trkpt lat="45.17258" lon="-72.65468">
        <ele>146.9</ele>
      </trkpt>
      <trkpt lat="45.17246" lon="-72.65451">
        <ele>148.1</ele>
      </trkpt>
      <trkpt lat="45.17231" lon="-72.65424">
        <ele>148.1</ele>
      </trkpt>
      <trkpt lat="45.17216" lon="-72.65392">
        <ele>149.5</ele>
      </trkpt>
      <trkpt lat="45.17181" lon="-72.65303">
        <ele>154.3</ele>
      </trkpt>
      <trkpt lat="45.17154" lon="-72.65223">
        <ele>158.9</ele>
      </trkpt>
      <trkpt lat="45.17144" lon="-72.65201">
        <ele>159.6</ele>
      </trkpt>
      <trkpt lat="45.1713" lon="-72.65177">
        <ele>160.7</ele>
      </trkpt>
      <trkpt lat="45.17105" lon="-72.65142">
        <ele>161.9</ele>
      </trkpt>
      <trkpt lat="45.17068" lon="-72.65101">
        <ele>162.8</ele>
      </trkpt>
      <trkpt lat="45.17014" lon="-72.65057">
        <ele>164</ele>
      </trkpt>
      <trkpt lat="45.16954" lon="-72.64999">
        <ele>169</ele>
      </trkpt>
      <trkpt lat="45.1692" lon="-72.64963">
        <ele>172</ele>
      </trkpt>
      <trkpt lat="45.16883" lon="-72.64917">
        <ele>173.3</ele>
      </trkpt>
      <trkpt lat="45.168928" lon="-72.647988">
        <ele>170.6</ele>
      </trkpt>
      <trkpt lat="45.169026" lon="-72.646806">
        <ele>170.3</ele>
      </trkpt>
      <trkpt lat="45.169124" lon="-72.645624">
        <ele>171.4</ele>
      </trkpt>
      <trkpt lat="45.169222" lon="-72.644442">
        <ele>173.4</ele>
      </trkpt>
      <trkpt lat="45.16932" lon="-72.64326">
        <ele>175.8</ele>
      </trkpt>
      <trkpt lat="45.16935" lon="-72.6426">
        <ele>176.8</ele>
      </trkpt>
      <trkpt lat="45.16934" lon="-72.64206">
        <ele>178.8</ele>
      </trkpt>
      <trkpt lat="45.169293" lon="-72.641149">
        <ele>183.1</ele>
      </trkpt>
      <trkpt lat="45.169246" lon="-72.640239">
        <ele>188.1</ele>
      </trkpt>
      <trkpt lat="45.1692" lon="-72.63933">
        <ele>191.7</ele>
      </trkpt>
      <trkpt lat="45.1692" lon="-72.63905">
        <ele>191.2</ele>
      </trkpt>
      <trkpt lat="45.16922" lon="-72.63884">
        <ele>190.8</ele>
      </trkpt>
      <trkpt lat="45.16935" lon="-72.63821">
        <ele>188.7</ele>
      </trkpt>
      <trkpt lat="45.169615" lon="-72.637138">
        <ele>184.2</ele>
      </trkpt>
      <trkpt lat="45.16988" lon="-72.636066">
        <ele>181.9</ele>
      </trkpt>
      <trkpt lat="45.170145" lon="-72.634995">
        <ele>179.3</ele>
      </trkpt>
      <trkpt lat="45.17041" lon="-72.633923">
        <ele>177.8</ele>
      </trkpt>
      <trkpt lat="45.170675" lon="-72.632851">
        <ele>171.8</ele>
      </trkpt>
      <trkpt lat="45.17094" lon="-72.63178">
        <ele>164.6</ele>
      </trkpt>
      <trkpt lat="45.17094" lon="-72.63179">
        <ele>164.7</ele>
      </trkpt>
      <trkpt lat="45.171206" lon="-72.63068">
        <ele>161.4</ele>
      </trkpt>
      <trkpt lat="45.171473" lon="-72.62957">
        <ele>160.6</ele>
      </trkpt>
      <trkpt lat="45.17174" lon="-72.62846">
        <ele>161.9</ele>
      </trkpt>
      <trkpt lat="45.17196" lon="-72.627715">
        <ele>164.7</ele>
      </trkpt>
      <trkpt lat="45.17218" lon="-72.62697">
        <ele>163.7</ele>
      </trkpt>
      <trkpt lat="45.172445" lon="-72.626205">
        <ele>158.6</ele>
      </trkpt>
      <trkpt lat="45.17271" lon="-72.62544">
        <ele>150.1</ele>
      </trkpt>
      <trkpt lat="45.173135" lon="-72.624445">
        <ele>149.2</ele>
      </trkpt>
      <trkpt lat="45.17356" lon="-72.62345">
        <ele>152.1</ele>
      </trkpt>
      <trkpt lat="45.17398" lon="-72.62262">
        <ele>153</ele>
      </trkpt>
      <trkpt lat="45.17455" lon="-72.62169">
        <ele>150.5</ele>
      </trkpt>
      <trkpt lat="45.17469" lon="-72.62133">
        <ele>149</ele>
      </trkpt>
      <trkpt lat="45.17469" lon="-72.62115">
        <ele>148.2</ele>
      </trkpt>
      <trkpt lat="45.17465" lon="-72.62093">
        <ele>147.8</ele>
      </trkpt>
      <trkpt lat="45.174396" lon="-72.620079">
        <ele>146.4</ele>
      </trkpt>
      <trkpt lat="45.174143" lon="-72.619229">
        <ele>146.9</ele>
      </trkpt>
      <trkpt lat="45.17389" lon="-72.61838">
        <ele>149.8</ele>
      </trkpt>
      <trkpt lat="45.17354" lon="-72.617469">
        <ele>149.8</ele>
      </trkpt>
      <trkpt lat="45.17319" lon="-72.616559">
        <ele>151.2</ele>
      </trkpt>
      <trkpt lat="45.17284" lon="-72.61565">
        <ele>150.4</ele>
      </trkpt>
      <trkpt lat="45.172525" lon="-72.614774">
        <ele>154.7</ele>
      </trkpt>
      <trkpt lat="45.17221" lon="-72.6139">
        <ele>156.8</ele>
      </trkpt>
      <trkpt lat="45.17186" lon="-72.61323">
        <ele>155.5</ele>
      </trkpt>
      <trkpt lat="45.17126" lon="-72.612799">
        <ele>156.8</ele>
      </trkpt>
      <trkpt lat="45.17066" lon="-72.61237">
        <ele>160.6</ele>
      </trkpt>
      <trkpt lat="45.17056" lon="-72.61233">
        <ele>160.5</ele>
      </trkpt>
      <trkpt lat="45.17024" lon="-72.61238">
        <ele>158.1</ele>
      </trkpt>
      <trkpt lat="45.17014" lon="-72.61243">
        <ele>157.7</ele>
      </trkpt>
      <trkpt lat="45.16974" lon="-72.61273">
        <ele>156.9</ele>
      </trkpt>
      <trkpt lat="45.1694" lon="-72.61287">
        <ele>158.3</ele>
      </trkpt>
      <trkpt lat="45.1693" lon="-72.61288">
        <ele>160.2</ele>
      </trkpt>
      <trkpt lat="45.16909" lon="-72.61286">
        <ele>161.3</ele>
      </trkpt>
      <trkpt lat="45.168615" lon="-72.612569">
        <ele>159.8</ele>
      </trkpt>
      <trkpt lat="45.16814" lon="-72.61228">
        <ele>155.6</ele>
      </trkpt>
      <trkpt lat="45.16765" lon="-72.61202">
        <ele>152.7</ele>
      </trkpt>
      <trkpt lat="45.16721" lon="-72.61175">
        <ele>152.2</ele>
      </trkpt>
      <trkpt lat="45.16671" lon="-72.61153">
        <ele>153.1</ele>
      </trkpt>
      <trkpt lat="45.16653" lon="-72.61139">
        <ele>154.2</ele>
      </trkpt>
      <trkpt lat="45.16633" lon="-72.61112">
        <ele>154.4</ele>
      </trkpt>
      <trkpt lat="45.16624" lon="-72.61108">
        <ele>154</ele>
      </trkpt>
      <trkpt lat="45.16614" lon="-72.61103">
        <ele>153.8</ele>
      </trkpt>
      <trkpt lat="45.16529" lon="-72.61094">
        <ele>155.2</ele>
      </trkpt>
      <trkpt lat="45.16491" lon="-72.61101">
        <ele>154.3</ele>
      </trkpt>
      <trkpt lat="45.1649" lon="-72.61101">
        <ele>154.3</ele>
      </trkpt>
      <trkpt lat="45.16413" lon="-72.61117">
        <ele>152.6</ele>
      </trkpt>
      <trkpt lat="45.16392" lon="-72.61117">
        <ele>152.4</ele>
      </trkpt>
      <trkpt lat="45.16383" lon="-72.61108">
        <ele>152.4</ele>
      </trkpt>
      <trkpt lat="45.1637" lon="-72.61094">
        <ele>152.4</ele>
      </trkpt>
      <trkpt lat="45.16351" lon="-72.61054">
        <ele>153.8</ele>
      </trkpt>
      <trkpt lat="45.163295" lon="-72.609939">
        <ele>155.3</ele>
      </trkpt>
      <trkpt lat="45.16308" lon="-72.60934">
        <ele>156.7</ele>
      </trkpt>
      <trkpt lat="45.162413" lon="-72.609973">
        <ele>156.7</ele>
      </trkpt>
      <trkpt lat="45.161746" lon="-72.610606">
        <ele>155.9</ele>
      </trkpt>
      <trkpt lat="45.16108" lon="-72.61124">
        <ele>156.9</ele>
      </trkpt>
      <trkpt lat="45.16099" lon="-72.61131">
        <ele>157</ele>
      </trkpt>
      <trkpt lat="45.16086" lon="-72.61138">
        <ele>157.1</ele>
      </trkpt>
      <trkpt lat="45.1607" lon="-72.61135">
        <ele>157</ele>
      </trkpt>
      <trkpt lat="45.16047" lon="-72.61126">
        <ele>157.2</ele>
      </trkpt>
      <trkpt lat="45.159975" lon="-72.611034">
        <ele>157.2</ele>
      </trkpt>
      <trkpt lat="45.15948" lon="-72.61081">
        <ele>157.7</ele>
      </trkpt>
      <trkpt lat="45.15902" lon="-72.6105">
        <ele>156.7</ele>
      </trkpt>
      <trkpt lat="45.15863" lon="-72.61014">
        <ele>156.4</ele>
      </trkpt>
      <trkpt lat="45.15824" lon="-72.60977">
        <ele>156.3</ele>
      </trkpt>
      <trkpt lat="45.15777" lon="-72.609194">
        <ele>156.7</ele>
      </trkpt>
      <trkpt lat="45.1573" lon="-72.60862">
        <ele>157.3</ele>
      </trkpt>
      <trkpt lat="45.15686" lon="-72.608">
        <ele>159</ele>
      </trkpt>
      <trkpt lat="45.15642" lon="-72.60745">
        <ele>159.1</ele>
      </trkpt>
      <trkpt lat="45.15595" lon="-72.60691">
        <ele>159.1</ele>
      </trkpt>
      <trkpt lat="45.155255" lon="-72.606239">
        <ele>159.2</ele>
      </trkpt>
      <trkpt lat="45.15456" lon="-72.60557">
        <ele>159.3</ele>
      </trkpt>
      <trkpt lat="45.15414" lon="-72.60514">
        <ele>159.5</ele>
      </trkpt>
      <trkpt lat="45.15367" lon="-72.60471">
        <ele>159.4</ele>
      </trkpt>
      <trkpt lat="45.15344" lon="-72.60454">
        <ele>159.8</ele>
      </trkpt>
      <trkpt lat="45.15331" lon="-72.6045">
        <ele>159.8</ele>
      </trkpt>
      <trkpt lat="45.15319" lon="-72.60449">
        <ele>160</ele>
      </trkpt>
      <trkpt lat="45.152346" lon="-72.604506">
        <ele>160.4</ele>
      </trkpt>
      <trkpt lat="45.151503" lon="-72.604523">
        <ele>160.8</ele>
      </trkpt>
      <trkpt lat="45.15066" lon="-72.60454">
        <ele>161.2</ele>
      </trkpt>
      <trkpt lat="45.15039" lon="-72.6045">
        <ele>161.4</ele>
      </trkpt>
      <trkpt lat="45.14973" lon="-72.604545">
        <ele>163.4</ele>
      </trkpt>
      <trkpt lat="45.14907" lon="-72.60459">
        <ele>163.7</ele>
      </trkpt>
      <trkpt lat="45.14845" lon="-72.60456">
        <ele>165.8</ele>
      </trkpt>
      <trkpt lat="45.147934" lon="-72.604544">
        <ele>170.8</ele>
      </trkpt>
      <trkpt lat="45.14742" lon="-72.60453">
        <ele>173.9</ele>
      </trkpt>
      <trkpt lat="45.14736" lon="-72.60455">
        <ele>173.9</ele>
      </trkpt>
      <trkpt lat="45.14726" lon="-72.60463">
        <ele>174.1</ele>
      </trkpt>
      <trkpt lat="45.14712" lon="-72.60489">
        <ele>174.2</ele>
      </trkpt>
      <trkpt lat="45.14716" lon="-72.60503">
        <ele>174</ele>
      </trkpt>
      <trkpt lat="45.14723" lon="-72.60535">
        <ele>172.7</ele>
      </trkpt>
      <trkpt lat="45.147264" lon="-72.606449">
        <ele>169.6</ele>
      </trkpt>
      <trkpt lat="45.147298" lon="-72.607549">
        <ele>165.9</ele>
      </trkpt>
      <trkpt lat="45.147332" lon="-72.608649">
        <ele>166.7</ele>
      </trkpt>
      <trkpt lat="45.147366" lon="-72.609749">
        <ele>175.5</ele>
      </trkpt>
      <trkpt lat="45.1474" lon="-72.61085">
        <ele>187.8</ele>
      </trkpt>
      <trkpt lat="45.1475" lon="-72.61192">
        <ele>196.9</ele>
      </trkpt>
      <trkpt lat="45.147525" lon="-72.612669">
        <ele>201.1</ele>
      </trkpt>
      <trkpt lat="45.14755" lon="-72.61342">
        <ele>203.2</ele>
      </trkpt>
      <trkpt lat="45.146867" lon="-72.613635">
        <ele>202.4</ele>
      </trkpt>
      <trkpt lat="45.146185" lon="-72.61385">
        <ele>198.7</ele>
      </trkpt>
      <trkpt lat="45.145502" lon="-72.614065">
        <ele>199.4</ele>
      </trkpt>
      <trkpt lat="45.14482" lon="-72.61428">
        <ele>198.9</ele>
      </trkpt>
      <trkpt lat="45.144" lon="-72.61456">
        <ele>200.9</ele>
      </trkpt>
      <trkpt lat="45.14399" lon="-72.61456">
        <ele>201</ele>
      </trkpt>
      <trkpt lat="45.14314" lon="-72.61484">
        <ele>201.8</ele>
      </trkpt>
      <trkpt lat="45.14295" lon="-72.61488">
        <ele>201.3</ele>
      </trkpt>
      <trkpt lat="45.1422" lon="-72.61493">
        <ele>196.2</ele>
      </trkpt>
      <trkpt lat="45.14134" lon="-72.61485">
        <ele>197.2</ele>
      </trkpt>
      <trkpt lat="45.14092" lon="-72.61484">
        <ele>200.1</ele>
      </trkpt>
      <trkpt lat="45.14034" lon="-72.61493">
        <ele>202.2</ele>
      </trkpt>
      <trkpt lat="45.13994" lon="-72.61506">
        <ele>202.1</ele>
      </trkpt>
      <trkpt lat="45.1396" lon="-72.6152">
        <ele>202.3</ele>
      </trkpt>
      <trkpt lat="45.13933" lon="-72.61542">
        <ele>203.6</ele>
      </trkpt>
      <trkpt lat="45.13907" lon="-72.61578">
        <ele>206.4</ele>
      </trkpt>
      <trkpt lat="45.13885" lon="-72.61618">
        <ele>208</ele>
      </trkpt>
      <trkpt lat="45.13871" lon="-72.61636">
        <ele>208.5</ele>
      </trkpt>
      <trkpt lat="45.13863" lon="-72.61644">
        <ele>208.5</ele>
      </trkpt>
      <trkpt lat="45.13844" lon="-72.6165">
        <ele>207.6</ele>
      </trkpt>
      <trkpt lat="45.13803" lon="-72.61654">
        <ele>204.1</ele>
      </trkpt>
      <trkpt lat="45.13757" lon="-72.6165">
        <ele>203.4</ele>
      </trkpt>
      <trkpt lat="45.13672" lon="-72.61654">
        <ele>202</ele>
      </trkpt>
      <trkpt lat="45.136185" lon="-72.616605">
        <ele>202.3</ele>
      </trkpt>
      <trkpt lat="45.13565" lon="-72.61667">
        <ele>207.1</ele>
      </trkpt>
      <trkpt lat="45.134858" lon="-72.616683">
        <ele>211.5</ele>
      </trkpt>
      <trkpt lat="45.134066" lon="-72.616696">
        <ele>214.7</ele>
      </trkpt>
      <trkpt lat="45.133274" lon="-72.61671">
        <ele>220.6</ele>
      </trkpt>
      <trkpt lat="45.132483" lon="-72.616723">
        <ele>226.7</ele>
      </trkpt>
      <trkpt lat="45.131691" lon="-72.616736">
        <ele>233.7</ele>
      </trkpt>
      <trkpt lat="45.1309" lon="-72.61675">
        <ele>235.6</ele>
      </trkpt>
      <trkpt lat="45.130329" lon="-72.6168">
        <ele>239.1</ele>
      </trkpt>
      <trkpt lat="45.12976" lon="-72.61685">
        <ele>245.4</ele>
      </trkpt>
      <trkpt lat="45.12914" lon="-72.61688">
        <ele>248.7</ele>
      </trkpt>
      <trkpt lat="45.12852" lon="-72.61691">
        <ele>249</ele>
      </trkpt>
      <trkpt lat="45.12789" lon="-72.61695">
        <ele>250.8</ele>
      </trkpt>
      <trkpt lat="45.12767" lon="-72.61699">
        <ele>251.4</ele>
      </trkpt>
      <trkpt lat="45.12751" lon="-72.61704">
        <ele>251.4</ele>
      </trkpt>
      <trkpt lat="45.12686" lon="-72.61733">
        <ele>251.3</ele>
      </trkpt>
      <trkpt lat="45.12621" lon="-72.61762">
        <ele>251.9</ele>
      </trkpt>
      <trkpt lat="45.12556" lon="-72.61791">
        <ele>253.3</ele>
      </trkpt>
      <trkpt lat="45.12491" lon="-72.6182">
        <ele>252.7</ele>
      </trkpt>
      <trkpt lat="45.124192" lon="-72.618502">
        <ele>249.9</ele>
      </trkpt>
      <trkpt lat="45.123474" lon="-72.618804">
        <ele>248.5</ele>
      </trkpt>
      <trkpt lat="45.122756" lon="-72.619106">
        <ele>248.2</ele>
      </trkpt>
      <trkpt lat="45.122038" lon="-72.619408">
        <ele>248.8</ele>
      </trkpt>
      <trkpt lat="45.12132" lon="-72.61971">
        <ele>252.2</ele>
      </trkpt>
      <trkpt lat="45.12131" lon="-72.61971">
        <ele>252.2</ele>
      </trkpt>
      <trkpt lat="45.1208" lon="-72.61991">
        <ele>252.8</ele>
      </trkpt>
      <trkpt lat="45.12029" lon="-72.62011">
        <ele>252.3</ele>
      </trkpt>
      <trkpt lat="45.11999" lon="-72.62026">
        <ele>250.7</ele>
      </trkpt>
      <trkpt lat="45.11963" lon="-72.62047">
        <ele>248.4</ele>
      </trkpt>
      <trkpt lat="45.1188" lon="-72.62088">
        <ele>240.2</ele>
      </trkpt>
      <trkpt lat="45.11861" lon="-72.62093">
        <ele>237.7</ele>
      </trkpt>
      <trkpt lat="45.117765" lon="-72.62104">
        <ele>226.1</ele>
      </trkpt>
      <trkpt lat="45.11692" lon="-72.62115">
        <ele>218</ele>
      </trkpt>
      <trkpt lat="45.116199" lon="-72.621295">
        <ele>214.7</ele>
      </trkpt>
      <trkpt lat="45.11548" lon="-72.62144">
        <ele>210.9</ele>
      </trkpt>
      <trkpt lat="45.11499" lon="-72.621495">
        <ele>208.4</ele>
      </trkpt>
      <trkpt lat="45.1145" lon="-72.62155">
        <ele>205.5</ele>
      </trkpt>
      <trkpt lat="45.11426" lon="-72.62155">
        <ele>203.4</ele>
      </trkpt>
      <trkpt lat="45.11358" lon="-72.62146">
        <ele>197.9</ele>
      </trkpt>
      <trkpt lat="45.11301" lon="-72.62133">
        <ele>194.7</ele>
      </trkpt>
      <trkpt lat="45.11284" lon="-72.62128">
        <ele>194.3</ele>
      </trkpt>
      <trkpt lat="45.1127" lon="-72.62116">
        <ele>193.4</ele>
      </trkpt>
      <trkpt lat="45.11243" lon="-72.62084">
        <ele>190.9</ele>
      </trkpt>
      <trkpt lat="45.111796" lon="-72.620003">
        <ele>186.7</ele>
      </trkpt>
      <trkpt lat="45.111163" lon="-72.619166">
        <ele>180.8</ele>
      </trkpt>
      <trkpt lat="45.11053" lon="-72.61833">
        <ele>177.4</ele>
      </trkpt>
      <trkpt lat="45.11014" lon="-72.617834">
        <ele>177.4</ele>
      </trkpt>
      <trkpt lat="45.10975" lon="-72.61734">
        <ele>177.6</ele>
      </trkpt>
      <trkpt lat="45.10961" lon="-72.61721">
        <ele>177.7</ele>
      </trkpt>
      <trkpt lat="45.10937" lon="-72.61704">
        <ele>178</ele>
      </trkpt>
      <trkpt lat="45.108766" lon="-72.616669">
        <ele>178.6</ele>
      </trkpt>
      <trkpt lat="45.108163" lon="-72.616299">
        <ele>179.8</ele>
      </trkpt>
      <trkpt lat="45.10756" lon="-72.61593">
        <ele>180.6</ele>
      </trkpt>
      <trkpt lat="45.10681" lon="-72.61548">
        <ele>181.4</ele>
      </trkpt>
      <trkpt lat="45.10639" lon="-72.61525">
        <ele>181.1</ele>
      </trkpt>
      <trkpt lat="45.10622" lon="-72.61516">
        <ele>180.9</ele>
      </trkpt>
      <trkpt lat="45.10592" lon="-72.61507">
        <ele>180</ele>
      </trkpt>
      <trkpt lat="45.10554" lon="-72.61507">
        <ele>179.2</ele>
      </trkpt>
      <trkpt lat="45.10531" lon="-72.6151">
        <ele>178.9</ele>
      </trkpt>
      <trkpt lat="45.10517" lon="-72.61516">
        <ele>178.5</ele>
      </trkpt>
      <trkpt lat="45.10485" lon="-72.61538">
        <ele>177.5</ele>
      </trkpt>
      <trkpt lat="45.1047" lon="-72.61556">
        <ele>177.3</ele>
      </trkpt>
      <trkpt lat="45.10435" lon="-72.616055">
        <ele>176.5</ele>
      </trkpt>
      <trkpt lat="45.104" lon="-72.61655">
        <ele>175.2</ele>
      </trkpt>
      <trkpt lat="45.103505" lon="-72.617297">
        <ele>173.8</ele>
      </trkpt>
      <trkpt lat="45.10301" lon="-72.618045">
        <ele>172.7</ele>
      </trkpt>
      <trkpt lat="45.102515" lon="-72.618792">
        <ele>171.2</ele>
      </trkpt>
      <trkpt lat="45.10202" lon="-72.61954">
        <ele>169.6</ele>
      </trkpt>
      <trkpt lat="45.10168" lon="-72.61995">
        <ele>169.2</ele>
      </trkpt>
      <trkpt lat="45.10148" lon="-72.62017">
        <ele>168.8</ele>
      </trkpt>
      <trkpt lat="45.101025" lon="-72.62057">
        <ele>168.5</ele>
      </trkpt>
      <trkpt lat="45.10057" lon="-72.62097">
        <ele>168.1</ele>
      </trkpt>
      <trkpt lat="45.099917" lon="-72.621505">
        <ele>167.2</ele>
      </trkpt>
      <trkpt lat="45.099265" lon="-72.62204">
        <ele>166.2</ele>
      </trkpt>
      <trkpt lat="45.098612" lon="-72.622575">
        <ele>166.6</ele>
      </trkpt>
      <trkpt lat="45.09796" lon="-72.62311">
        <ele>167.5</ele>
      </trkpt>
      <trkpt lat="45.097335" lon="-72.623545">
        <ele>167.1</ele>
      </trkpt>
      <trkpt lat="45.09671" lon="-72.62398">
        <ele>165.2</ele>
      </trkpt>
      <trkpt lat="45.095986" lon="-72.62444">
        <ele>164</ele>
      </trkpt>
      <trkpt lat="45.095263" lon="-72.6249">
        <ele>163.1</ele>
      </trkpt>
      <trkpt lat="45.09454" lon="-72.62536">
        <ele>162.6</ele>
      </trkpt>
      <trkpt lat="45.09405" lon="-72.62559">
        <ele>162.2</ele>
      </trkpt>
      <trkpt lat="45.09373" lon="-72.62568">
        <ele>162</ele>
      </trkpt>
      <trkpt lat="45.092865" lon="-72.62585">
        <ele>162.1</ele>
      </trkpt>
      <trkpt lat="45.092" lon="-72.62602">
        <ele>162.4</ele>
      </trkpt>
      <trkpt lat="45.09199" lon="-72.62602">
        <ele>162.4</ele>
      </trkpt>
      <trkpt lat="45.091355" lon="-72.626165">
        <ele>162.4</ele>
      </trkpt>
      <trkpt lat="45.09072" lon="-72.62631">
        <ele>162.5</ele>
      </trkpt>
      <trkpt lat="45.09065" lon="-72.62666">
        <ele>161.8</ele>
      </trkpt>
      <trkpt lat="45.09056" lon="-72.62732">
        <ele>160.9</ele>
      </trkpt>
      <trkpt lat="45.09047" lon="-72.62798">
        <ele>161.3</ele>
      </trkpt>
      <trkpt lat="45.090375" lon="-72.628615">
        <ele>162.1</ele>
      </trkpt>
      <trkpt lat="45.09028" lon="-72.62925">
        <ele>163.5</ele>
      </trkpt>
      <trkpt lat="45.09017" lon="-72.629885">
        <ele>164.5</ele>
      </trkpt>
      <trkpt lat="45.09006" lon="-72.63052">
        <ele>166.8</ele>
      </trkpt>
      <trkpt lat="45.09006" lon="-72.63053">
        <ele>166.8</ele>
      </trkpt>
      <trkpt lat="45.08993" lon="-72.631375">
        <ele>168.8</ele>
      </trkpt>
      <trkpt lat="45.0898" lon="-72.63222">
        <ele>169</ele>
      </trkpt>
      <trkpt lat="45.089715" lon="-72.632915">
        <ele>169.3</ele>
      </trkpt>
      <trkpt lat="45.08963" lon="-72.63361">
        <ele>170.4</ele>
      </trkpt>
      <trkpt lat="45.089555" lon="-72.634345">
        <ele>172.5</ele>
      </trkpt>
      <trkpt lat="45.08948" lon="-72.63508">
        <ele>176.4</ele>
      </trkpt>
      <trkpt lat="45.089415" lon="-72.636085">
        <ele>179.6</ele>
      </trkpt>
      <trkpt lat="45.08935" lon="-72.63709">
        <ele>181.3</ele>
      </trkpt>
      <trkpt lat="45.089335" lon="-72.63803">
        <ele>181.6</ele>
      </trkpt>
      <trkpt lat="45.08932" lon="-72.63897">
        <ele>179.6</ele>
      </trkpt>
      <trkpt lat="45.08927" lon="-72.64023">
        <ele>181.3</ele>
      </trkpt>
      <trkpt lat="45.08927" lon="-72.641339">
        <ele>183.6</ele>
      </trkpt>
      <trkpt lat="45.08927" lon="-72.642449">
        <ele>189</ele>
      </trkpt>
      <trkpt lat="45.08927" lon="-72.64356">
        <ele>196.1</ele>
      </trkpt>
      <trkpt lat="45.08927" lon="-72.64357">
        <ele>196.2</ele>
      </trkpt>
      <trkpt lat="45.08927" lon="-72.644444">
        <ele>200.3</ele>
      </trkpt>
      <trkpt lat="45.08927" lon="-72.64532">
        <ele>208.1</ele>
      </trkpt>
      <trkpt lat="45.0893" lon="-72.64568">
        <ele>209.4</ele>
      </trkpt>
      <trkpt lat="45.08942" lon="-72.64635">
        <ele>211.1</ele>
      </trkpt>
      <trkpt lat="45.089685" lon="-72.647224">
        <ele>208</ele>
      </trkpt>
      <trkpt lat="45.08995" lon="-72.6481">
        <ele>199.9</ele>
      </trkpt>
      <trkpt lat="45.09011" lon="-72.64874">
        <ele>199.3</ele>
      </trkpt>
      <trkpt lat="45.09014" lon="-72.64939">
        <ele>202.5</ele>
      </trkpt>
      <trkpt lat="45.09014" lon="-72.650635">
        <ele>203.3</ele>
      </trkpt>
      <trkpt lat="45.09014" lon="-72.65188">
        <ele>191.9</ele>
      </trkpt>
      <trkpt lat="45.09014" lon="-72.653125">
        <ele>176.6</ele>
      </trkpt>
      <trkpt lat="45.09014" lon="-72.65437">
        <ele>166.7</ele>
      </trkpt>
      <trkpt lat="45.09007" lon="-72.655">
        <ele>159.8</ele>
      </trkpt>
      <trkpt lat="45.08992" lon="-72.655785">
        <ele>155.4</ele>
      </trkpt>
      <trkpt lat="45.08977" lon="-72.65657">
        <ele>157</ele>
      </trkpt>
      <trkpt lat="45.08969" lon="-72.65716">
        <ele>160</ele>
      </trkpt>
      <trkpt lat="45.08958" lon="-72.6576">
        <ele>161.5</ele>
      </trkpt>
      <trkpt lat="45.0889" lon="-72.657419">
        <ele>161.3</ele>
      </trkpt>
      <trkpt lat="45.08822" lon="-72.65724">
        <ele>157.4</ele>
      </trkpt>
      <trkpt lat="45.0875" lon="-72.657094">
        <ele>155.8</ele>
      </trkpt>
      <trkpt lat="45.08678" lon="-72.656949">
        <ele>156.8</ele>
      </trkpt>
      <trkpt lat="45.08606" lon="-72.656804">
        <ele>162.9</ele>
      </trkpt>
      <trkpt lat="45.08534" lon="-72.65666">
        <ele>165.8</ele>
      </trkpt>
      <trkpt lat="45.08519" lon="-72.65661">
        <ele>165.7</ele>
      </trkpt>
      <trkpt lat="45.08504" lon="-72.65652">
        <ele>165.2</ele>
      </trkpt>
      <trkpt lat="45.08489" lon="-72.65638">
        <ele>165</ele>
      </trkpt>
      <trkpt lat="45.08443" lon="-72.65567">
        <ele>166.2</ele>
      </trkpt>
      <trkpt lat="45.08398" lon="-72.65486">
        <ele>168.7</ele>
      </trkpt>
      <trkpt lat="45.0836" lon="-72.654133">
        <ele>168</ele>
      </trkpt>
      <trkpt lat="45.08322" lon="-72.653406">
        <ele>165.1</ele>
      </trkpt>
      <trkpt lat="45.08284" lon="-72.65268">
        <ele>163.7</ele>
      </trkpt>
      <trkpt lat="45.08244" lon="-72.651934">
        <ele>164.8</ele>
      </trkpt>
      <trkpt lat="45.08204" lon="-72.65119">
        <ele>165</ele>
      </trkpt>
      <trkpt lat="45.08172" lon="-72.650519">
        <ele>165.5</ele>
      </trkpt>
      <trkpt lat="45.0814" lon="-72.64985">
        <ele>164.3</ele>
      </trkpt>
      <trkpt lat="45.08119" lon="-72.64954">
        <ele>164</ele>
      </trkpt>
      <trkpt lat="45.08102" lon="-72.64939">
        <ele>163.7</ele>
      </trkpt>
      <trkpt lat="45.08037" lon="-72.64881">
        <ele>160.7</ele>
      </trkpt>
      <trkpt lat="45.079783" lon="-72.648339">
        <ele>156.8</ele>
      </trkpt>
      <trkpt lat="45.079196" lon="-72.647869">
        <ele>156.6</ele>
      </trkpt>
      <trkpt lat="45.07861" lon="-72.6474">
        <ele>158.8</ele>
      </trkpt>
      <trkpt lat="45.07803" lon="-72.646969">
        <ele>155.9</ele>
      </trkpt>
      <trkpt lat="45.07745" lon="-72.64654">
        <ele>153.1</ele>
      </trkpt>
      <trkpt lat="45.07692" lon="-72.64622">
        <ele>152.8</ele>
      </trkpt>
      <trkpt lat="45.07651" lon="-72.646">
        <ele>155.4</ele>
      </trkpt>
      <trkpt lat="45.07619" lon="-72.64587">
        <ele>156.5</ele>
      </trkpt>
      <trkpt lat="45.07617" lon="-72.646">
        <ele>156.5</ele>
      </trkpt>
      <trkpt lat="45.07626" lon="-72.64658">
        <ele>156.6</ele>
      </trkpt>
      <trkpt lat="45.07625" lon="-72.6468">
        <ele>156.9</ele>
      </trkpt>
      <trkpt lat="45.07622" lon="-72.64694">
        <ele>157.4</ele>
      </trkpt>
      <trkpt lat="45.07616" lon="-72.64703">
        <ele>158</ele>
      </trkpt>
      <trkpt lat="45.07601" lon="-72.6472">
        <ele>159.7</ele>
      </trkpt>
      <trkpt lat="45.07531" lon="-72.647765">
        <ele>164.8</ele>
      </trkpt>
      <trkpt lat="45.07461" lon="-72.64833">
        <ele>172.9</ele>
      </trkpt>
      <trkpt lat="45.07436" lon="-72.64847">
        <ele>174.5</ele>
      </trkpt>
      <trkpt lat="45.07382" lon="-72.64873">
        <ele>180.1</ele>
      </trkpt>
      <trkpt lat="45.07305" lon="-72.64914">
        <ele>184.3</ele>
      </trkpt>
      <trkpt lat="45.07255" lon="-72.649425">
        <ele>187.2</ele>
      </trkpt>
      <trkpt lat="45.07205" lon="-72.64971">
        <ele>190.7</ele>
      </trkpt>
      <trkpt lat="45.07193" lon="-72.6498">
        <ele>191.4</ele>
      </trkpt>
      <trkpt lat="45.07188" lon="-72.64986">
        <ele>191.4</ele>
      </trkpt>
      <trkpt lat="45.0717" lon="-72.65021">
        <ele>192.5</ele>
      </trkpt>
      <trkpt lat="45.07145" lon="-72.65088">
        <ele>192.5</ele>
      </trkpt>
      <trkpt lat="45.07129" lon="-72.65152">
        <ele>190.8</ele>
      </trkpt>
      <trkpt lat="45.07129" lon="-72.65153">
        <ele>190.8</ele>
      </trkpt>
      <trkpt lat="45.071245" lon="-72.65275">
        <ele>190.5</ele>
      </trkpt>
      <trkpt lat="45.0712" lon="-72.65397">
        <ele>191.7</ele>
      </trkpt>
      <trkpt lat="45.071173" lon="-72.654823">
        <ele>195.7</ele>
      </trkpt>
      <trkpt lat="45.071146" lon="-72.655676">
        <ele>201.7</ele>
      </trkpt>
      <trkpt lat="45.07112" lon="-72.65653">
        <ele>204.9</ele>
      </trkpt>
      <trkpt lat="45.07113" lon="-72.657239">
        <ele>206.8</ele>
      </trkpt>
      <trkpt lat="45.07114" lon="-72.65795">
        <ele>209.9</ele>
      </trkpt>
      <trkpt lat="45.07122" lon="-72.65868">
        <ele>210.4</ele>
      </trkpt>
      <trkpt lat="45.071275" lon="-72.659614">
        <ele>212.3</ele>
      </trkpt>
      <trkpt lat="45.07133" lon="-72.66055">
        <ele>214.5</ele>
      </trkpt>
      <trkpt lat="45.0714" lon="-72.66108">
        <ele>215.9</ele>
      </trkpt>
      <trkpt lat="45.07145" lon="-72.66131">
        <ele>216.1</ele>
      </trkpt>
      <trkpt lat="45.07156" lon="-72.66167">
        <ele>217.1</ele>
      </trkpt>
      <trkpt lat="45.07184" lon="-72.662294">
        <ele>220.1</ele>
      </trkpt>
      <trkpt lat="45.07212" lon="-72.66292">
        <ele>225.2</ele>
      </trkpt>
      <trkpt lat="45.07262" lon="-72.663929">
        <ele>230.3</ele>
      </trkpt>
      <trkpt lat="45.07312" lon="-72.66494">
        <ele>236.1</ele>
      </trkpt>
      <trkpt lat="45.07321" lon="-72.66516">
        <ele>237</ele>
      </trkpt>
      <trkpt lat="45.0733" lon="-72.66547">
        <ele>238.4</ele>
      </trkpt>
      <trkpt lat="45.07351" lon="-72.66668">
        <ele>243.3</ele>
      </trkpt>
      <trkpt lat="45.07353" lon="-72.66691">
        <ele>244.1</ele>
      </trkpt>
      <trkpt lat="45.07355" lon="-72.668159">
        <ele>246.7</ele>
      </trkpt>
      <trkpt lat="45.07357" lon="-72.66941">
        <ele>247.8</ele>
      </trkpt>
      <trkpt lat="45.073573" lon="-72.670273">
        <ele>248.8</ele>
      </trkpt>
      <trkpt lat="45.073576" lon="-72.671136">
        <ele>250.1</ele>
      </trkpt>
      <trkpt lat="45.07358" lon="-72.672">
        <ele>252</ele>
      </trkpt>
      <trkpt lat="45.073545" lon="-72.67297">
        <ele>252</ele>
      </trkpt>
      <trkpt lat="45.07351" lon="-72.67394">
        <ele>252</ele>
      </trkpt>
      <trkpt lat="45.0735" lon="-72.67519">
        <ele>250.1</ele>
      </trkpt>
      <trkpt lat="45.0737" lon="-72.676399">
        <ele>242.7</ele>
      </trkpt>
      <trkpt lat="45.0739" lon="-72.67761">
        <ele>241.5</ele>
      </trkpt>
      <trkpt lat="45.07405" lon="-72.678679">
        <ele>242.7</ele>
      </trkpt>
      <trkpt lat="45.0742" lon="-72.67975">
        <ele>244.2</ele>
      </trkpt>
      <trkpt lat="45.074357" lon="-72.680792">
        <ele>248.5</ele>
      </trkpt>
      <trkpt lat="45.074515" lon="-72.681834">
        <ele>255.6</ele>
      </trkpt>
      <trkpt lat="45.074672" lon="-72.682877">
        <ele>263.5</ele>
      </trkpt>
      <trkpt lat="45.07483" lon="-72.68392">
        <ele>265.7</ele>
      </trkpt>
      <trkpt lat="45.074943" lon="-72.684963">
        <ele>260.6</ele>
      </trkpt>
      <trkpt lat="45.075056" lon="-72.686006">
        <ele>258</ele>
      </trkpt>
      <trkpt lat="45.07517" lon="-72.68705">
        <ele>255.7</ele>
      </trkpt>
      <trkpt lat="45.075285" lon="-72.688014">
        <ele>254.2</ele>
      </trkpt>
      <trkpt lat="45.0754" lon="-72.68898">
        <ele>253</ele>
      </trkpt>
      <trkpt lat="45.075504" lon="-72.689991">
        <ele>253.2</ele>
      </trkpt>
      <trkpt lat="45.075608" lon="-72.691003">
        <ele>252</ele>
      </trkpt>
      <trkpt lat="45.075712" lon="-72.692015">
        <ele>250.2</ele>
      </trkpt>
      <trkpt lat="45.075816" lon="-72.693027">
        <ele>246.5</ele>
      </trkpt>
      <trkpt lat="45.07592" lon="-72.69404">
        <ele>244.4</ele>
      </trkpt>
      <trkpt lat="45.07593" lon="-72.69449">
        <ele>243.8</ele>
      </trkpt>
      <trkpt lat="45.075087" lon="-72.694498">
        <ele>240.1</ele>
      </trkpt>
      <trkpt lat="45.074244" lon="-72.694507">
        <ele>239.9</ele>
      </trkpt>
      <trkpt lat="45.073401" lon="-72.694515">
        <ele>238.5</ele>
      </trkpt>
      <trkpt lat="45.072558" lon="-72.694524">
        <ele>238.1</ele>
      </trkpt>
      <trkpt lat="45.071715" lon="-72.694532">
        <ele>238.3</ele>
      </trkpt>
      <trkpt lat="45.070872" lon="-72.694541">
        <ele>239.1</ele>
      </trkpt>
      <trkpt lat="45.07003" lon="-72.69455">
        <ele>240.5</ele>
      </trkpt>
      <trkpt lat="45.07002" lon="-72.69455">
        <ele>240.5</ele>
      </trkpt>
      <trkpt lat="45.069133" lon="-72.69457">
        <ele>243.2</ele>
      </trkpt>
      <trkpt lat="45.068246" lon="-72.69459">
        <ele>241.4</ele>
      </trkpt>
      <trkpt lat="45.06736" lon="-72.69461">
        <ele>234.1</ele>
      </trkpt>
      <trkpt lat="45.066624" lon="-72.694569">
        <ele>229.5</ele>
      </trkpt>
      <trkpt lat="45.06589" lon="-72.69453">
        <ele>224.5</ele>
      </trkpt>
      <trkpt lat="45.065113" lon="-72.69453">
        <ele>222.1</ele>
      </trkpt>
      <trkpt lat="45.064336" lon="-72.69453">
        <ele>221.9</ele>
      </trkpt>
      <trkpt lat="45.06356" lon="-72.69453">
        <ele>222.1</ele>
      </trkpt>
      <trkpt lat="45.062673" lon="-72.69455">
        <ele>218.6</ele>
      </trkpt>
      <trkpt lat="45.061786" lon="-72.69457">
        <ele>217.1</ele>
      </trkpt>
      <trkpt lat="45.0609" lon="-72.69459">
        <ele>218.3</ele>
      </trkpt>
      <trkpt lat="45.06061" lon="-72.69499">
        <ele>215.8</ele>
      </trkpt>
      <trkpt lat="45.06042" lon="-72.69546">
        <ele>214.5</ele>
      </trkpt>
      <trkpt lat="45.06035" lon="-72.69575">
        <ele>214.5</ele>
      </trkpt>
      <trkpt lat="45.06034" lon="-72.6962">
        <ele>214.9</ele>
      </trkpt>
      <trkpt lat="45.06035" lon="-72.69677">
        <ele>215.8</ele>
      </trkpt>
      <trkpt lat="45.0604" lon="-72.69714">
        <ele>217.5</ele>
      </trkpt>
      <trkpt lat="45.06053" lon="-72.697824">
        <ele>221.2</ele>
      </trkpt>
      <trkpt lat="45.06066" lon="-72.69851">
        <ele>225.3</ele>
      </trkpt>
      <trkpt lat="45.06071" lon="-72.69902">
        <ele>230.9</ele>
      </trkpt>
      <trkpt lat="45.0607" lon="-72.6995">
        <ele>235.3</ele>
      </trkpt>
      <trkpt lat="45.06063" lon="-72.70014">
        <ele>238.7</ele>
      </trkpt>
      <trkpt lat="45.06049" lon="-72.70098">
        <ele>241</ele>
      </trkpt>
      <trkpt lat="45.06037" lon="-72.70136">
        <ele>241.9</ele>
      </trkpt>
      <trkpt lat="45.06023" lon="-72.70102">
        <ele>242.5</ele>
      </trkpt>
      <trkpt lat="45.05993" lon="-72.70053">
        <ele>243.8</ele>
      </trkpt>
      <trkpt lat="45.05975" lon="-72.70031">
        <ele>244.5</ele>
      </trkpt>
      <trkpt lat="45.05929" lon="-72.69995">
        <ele>244.9</ele>
      </trkpt>
      <trkpt lat="45.05857" lon="-72.69928">
        <ele>242.5</ele>
      </trkpt>
      <trkpt lat="45.057955" lon="-72.698899">
        <ele>241.4</ele>
      </trkpt>
      <trkpt lat="45.05734" lon="-72.69852">
        <ele>242.5</ele>
      </trkpt>
      <trkpt lat="45.05716" lon="-72.69838">
        <ele>243.8</ele>
      </trkpt>
      <trkpt lat="45.05699" lon="-72.69816">
        <ele>244.9</ele>
      </trkpt>
      <trkpt lat="45.05686" lon="-72.69793">
        <ele>245.5</ele>
      </trkpt>
      <trkpt lat="45.05656" lon="-72.69727">
        <ele>245.1</ele>
      </trkpt>
      <trkpt lat="45.0564" lon="-72.69667">
        <ele>244.5</ele>
      </trkpt>
      <trkpt lat="45.05622" lon="-72.695554">
        <ele>243.4</ele>
      </trkpt>
      <trkpt lat="45.05604" lon="-72.69444">
        <ele>240.5</ele>
      </trkpt>
      <trkpt lat="45.05601" lon="-72.69431">
        <ele>240.2</ele>
      </trkpt>
      <trkpt lat="45.05591" lon="-72.69412">
        <ele>239.9</ele>
      </trkpt>
      <trkpt lat="45.05575" lon="-72.6939">
        <ele>240.3</ele>
      </trkpt>
      <trkpt lat="45.05516" lon="-72.693346">
        <ele>242.6</ele>
      </trkpt>
      <trkpt lat="45.05457" lon="-72.692793">
        <ele>244.2</ele>
      </trkpt>
      <trkpt lat="45.05398" lon="-72.69224">
        <ele>245</ele>
      </trkpt>
      <trkpt lat="45.053373" lon="-72.691706">
        <ele>244.8</ele>
      </trkpt>
      <trkpt lat="45.052766" lon="-72.691173">
        <ele>244.6</ele>
      </trkpt>
      <trkpt lat="45.05216" lon="-72.69064">
        <ele>245.3</ele>
      </trkpt>
      <trkpt lat="45.0516" lon="-72.69009">
        <ele>245.8</ele>
      </trkpt>
      <trkpt lat="45.05139" lon="-72.68978">
        <ele>245.9</ele>
      </trkpt>
      <trkpt lat="45.05134" lon="-72.68966">
        <ele>245.8</ele>
      </trkpt>
      <trkpt lat="45.05125" lon="-72.68933">
        <ele>245.2</ele>
      </trkpt>
      <trkpt lat="45.05119" lon="-72.6889">
        <ele>245</ele>
      </trkpt>
      <trkpt lat="45.051116" lon="-72.687989">
        <ele>243.4</ele>
      </trkpt>
      <trkpt lat="45.051043" lon="-72.687079">
        <ele>241.9</ele>
      </trkpt>
      <trkpt lat="45.05097" lon="-72.68617">
        <ele>239.5</ele>
      </trkpt>
      <trkpt lat="45.05087" lon="-72.68549">
        <ele>237.3</ele>
      </trkpt>
      <trkpt lat="45.05082" lon="-72.68529">
        <ele>237</ele>
      </trkpt>
      <trkpt lat="45.050613" lon="-72.684419">
        <ele>233.6</ele>
      </trkpt>
      <trkpt lat="45.050406" lon="-72.683549">
        <ele>229.9</ele>
      </trkpt>
      <trkpt lat="45.0502" lon="-72.68268">
        <ele>227.9</ele>
      </trkpt>
      <trkpt lat="45.04992" lon="-72.68168">
        <ele>224.4</ele>
      </trkpt>
      <trkpt lat="45.04959" lon="-72.68058">
        <ele>219.6</ele>
      </trkpt>
      <trkpt lat="45.04934" lon="-72.679769">
        <ele>214.2</ele>
      </trkpt>
      <trkpt lat="45.04909" lon="-72.67896">
        <ele>210.8</ele>
      </trkpt>
      <trkpt lat="45.0488" lon="-72.67829">
        <ele>209.7</ele>
      </trkpt>
      <trkpt lat="45.04869" lon="-72.67811">
        <ele>209.6</ele>
      </trkpt>
      <trkpt lat="45.04862" lon="-72.67805">
        <ele>209.7</ele>
      </trkpt>
      <trkpt lat="45.04848" lon="-72.67798">
        <ele>210</ele>
      </trkpt>
      <trkpt lat="45.04781" lon="-72.67782">
        <ele>211.1</ele>
      </trkpt>
      <trkpt lat="45.0476" lon="-72.6777">
        <ele>211.2</ele>
      </trkpt>
      <trkpt lat="45.04744" lon="-72.67761">
        <ele>210.8</ele>
      </trkpt>
      <trkpt lat="45.04719" lon="-72.67733">
        <ele>209.7</ele>
      </trkpt>
      <trkpt lat="45.046718" lon="-72.676489">
        <ele>206.4</ele>
      </trkpt>
      <trkpt lat="45.046246" lon="-72.675649">
        <ele>201.5</ele>
      </trkpt>
      <trkpt lat="45.045774" lon="-72.674809">
        <ele>196.5</ele>
      </trkpt>
      <trkpt lat="45.045302" lon="-72.673969">
        <ele>191.6</ele>
      </trkpt>
      <trkpt lat="45.04483" lon="-72.67313">
        <ele>187</ele>
      </trkpt>
      <trkpt lat="45.044336" lon="-72.672269">
        <ele>183.9</ele>
      </trkpt>
      <trkpt lat="45.043842" lon="-72.671409">
        <ele>179.9</ele>
      </trkpt>
      <trkpt lat="45.043348" lon="-72.670549">
        <ele>177.4</ele>
      </trkpt>
      <trkpt lat="45.042854" lon="-72.669689">
        <ele>174.8</ele>
      </trkpt>
      <trkpt lat="45.04236" lon="-72.66883">
        <ele>172.5</ele>
      </trkpt>
      <trkpt lat="45.04217" lon="-72.66856">
        <ele>170.7</ele>
      </trkpt>
      <trkpt lat="45.04193" lon="-72.66829">
        <ele>169.4</ele>
      </trkpt>
      <trkpt lat="45.0415" lon="-72.66789">
        <ele>167.4</ele>
      </trkpt>
      <trkpt lat="45.0414" lon="-72.66783">
        <ele>167</ele>
      </trkpt>
      <trkpt lat="45.04071" lon="-72.66745">
        <ele>165.6</ele>
      </trkpt>
      <trkpt lat="45.03992" lon="-72.667249">
        <ele>163.2</ele>
      </trkpt>
      <trkpt lat="45.03913" lon="-72.66705">
        <ele>161.4</ele>
      </trkpt>
      <trkpt lat="45.03869" lon="-72.667">
        <ele>160.4</ele>
      </trkpt>
      <trkpt lat="45.03837" lon="-72.666059">
        <ele>156.1</ele>
      </trkpt>
      <trkpt lat="45.03805" lon="-72.66512">
        <ele>156.8</ele>
      </trkpt>
      <trkpt lat="45.037643" lon="-72.664096">
        <ele>158.6</ele>
      </trkpt>
      <trkpt lat="45.037236" lon="-72.663073">
        <ele>157.3</ele>
      </trkpt>
      <trkpt lat="45.03683" lon="-72.66205">
        <ele>155.1</ele>
      </trkpt>
      <trkpt lat="45.03641" lon="-72.66108">
        <ele>153.9</ele>
      </trkpt>
      <trkpt lat="45.03594" lon="-72.66144">
        <ele>153.1</ele>
      </trkpt>
      <trkpt lat="45.03564" lon="-72.66163">
        <ele>152.2</ele>
      </trkpt>
      <trkpt lat="45.03495" lon="-72.662007">
        <ele>149</ele>
      </trkpt>
      <trkpt lat="45.03426" lon="-72.662385">
        <ele>144.5</ele>
      </trkpt>
      <trkpt lat="45.03357" lon="-72.662762">
        <ele>141.3</ele>
      </trkpt>
      <trkpt lat="45.03288" lon="-72.66314">
        <ele>139.9</ele>
      </trkpt>
      <trkpt lat="45.03281" lon="-72.6635">
        <ele>139</ele>
      </trkpt>
      <trkpt lat="45.03265" lon="-72.6639">
        <ele>138.6</ele>
      </trkpt>
      <trkpt lat="45.03242" lon="-72.66426">
        <ele>138.1</ele>
      </trkpt>
      <trkpt lat="45.03223" lon="-72.6645">
        <ele>137.9</ele>
      </trkpt>
      <trkpt lat="45.03177" lon="-72.66494">
        <ele>137.2</ele>
      </trkpt>
      <trkpt lat="45.031345" lon="-72.665275">
        <ele>137.4</ele>
      </trkpt>
      <trkpt lat="45.03092" lon="-72.66561">
        <ele>137.4</ele>
      </trkpt>
      <trkpt lat="45.03079" lon="-72.66574">
        <ele>137.3</ele>
      </trkpt>
      <trkpt lat="45.03023" lon="-72.6661">
        <ele>137</ele>
      </trkpt>
      <trkpt lat="45.03001" lon="-72.66629">
        <ele>136.6</ele>
      </trkpt>
      <trkpt lat="45.02947" lon="-72.66704">
        <ele>137.5</ele>
      </trkpt>
      <trkpt lat="45.02934" lon="-72.66713">
        <ele>137.5</ele>
      </trkpt>
      <trkpt lat="45.02914" lon="-72.66722">
        <ele>137.1</ele>
      </trkpt>
      <trkpt lat="45.02868" lon="-72.66751">
        <ele>137.5</ele>
      </trkpt>
      <trkpt lat="45.02867" lon="-72.66751">
        <ele>137.5</ele>
      </trkpt>
      <trkpt lat="45.02804" lon="-72.667995">
        <ele>140</ele>
      </trkpt>
      <trkpt lat="45.02741" lon="-72.66848">
        <ele>143.4</ele>
      </trkpt>
      <trkpt lat="45.02686" lon="-72.6691">
        <ele>142.2</ele>
      </trkpt>
      <trkpt lat="45.02631" lon="-72.66972">
        <ele>138.9</ele>
      </trkpt>
      <trkpt lat="45.02573" lon="-72.67026">
        <ele>137.6</ele>
      </trkpt>
      <trkpt lat="45.02548" lon="-72.67044">
        <ele>138.4</ele>
      </trkpt>
      <trkpt lat="45.02534" lon="-72.67049">
        <ele>139.1</ele>
      </trkpt>
      <trkpt lat="45.02512" lon="-72.67053">
        <ele>140.7</ele>
      </trkpt>
      <trkpt lat="45.02431" lon="-72.67022">
        <ele>145.5</ele>
      </trkpt>
      <trkpt lat="45.02405" lon="-72.67022">
        <ele>146.8</ele>
      </trkpt>
      <trkpt lat="45.02397" lon="-72.67022">
        <ele>147</ele>
      </trkpt>
      <trkpt lat="45.0239" lon="-72.67026">
        <ele>147.3</ele>
      </trkpt>
      <trkpt lat="45.02375" lon="-72.6704">
        <ele>147.8</ele>
      </trkpt>
      <trkpt lat="45.023365" lon="-72.67089">
        <ele>148.9</ele>
      </trkpt>
      <trkpt lat="45.02298" lon="-72.67138">
        <ele>150.4</ele>
      </trkpt>
      <trkpt lat="45.022585" lon="-72.67192">
        <ele>152.6</ele>
      </trkpt>
      <trkpt lat="45.02219" lon="-72.67246">
        <ele>154.1</ele>
      </trkpt>
      <trkpt lat="45.021805" lon="-72.67295">
        <ele>153.5</ele>
      </trkpt>
      <trkpt lat="45.02142" lon="-72.67344">
        <ele>150.5</ele>
      </trkpt>
      <trkpt lat="45.021065" lon="-72.673915">
        <ele>146.7</ele>
      </trkpt>
      <trkpt lat="45.02071" lon="-72.67439">
        <ele>144.2</ele>
      </trkpt>
      <trkpt lat="45.02024" lon="-72.67501">
        <ele>144.6</ele>
      </trkpt>
      <trkpt lat="45.01977" lon="-72.67563">
        <ele>148.5</ele>
      </trkpt>
      <trkpt lat="45.01961" lon="-72.67591">
        <ele>149.2</ele>
      </trkpt>
      <trkpt lat="45.019315" lon="-72.676555">
        <ele>149.1</ele>
      </trkpt>
      <trkpt lat="45.01902" lon="-72.6772">
        <ele>151.1</ele>
      </trkpt>
      <trkpt lat="45.01887" lon="-72.67779">
        <ele>155.3</ele>
      </trkpt>
      <trkpt lat="45.018773" lon="-72.67866">
        <ele>160.7</ele>
      </trkpt>
      <trkpt lat="45.018676" lon="-72.67953">
        <ele>163.1</ele>
      </trkpt>
      <trkpt lat="45.01858" lon="-72.6804">
        <ele>167</ele>
      </trkpt>
      <trkpt lat="45.018485" lon="-72.68158">
        <ele>174</ele>
      </trkpt>
      <trkpt lat="45.01839" lon="-72.68276">
        <ele>176.6</ele>
      </trkpt>
      <trkpt lat="45.018305" lon="-72.68363">
        <ele>177.5</ele>
      </trkpt>
      <trkpt lat="45.01822" lon="-72.6845">
        <ele>179.1</ele>
      </trkpt>
      <trkpt lat="45.01817" lon="-72.68473">
        <ele>179.4</ele>
      </trkpt>
      <trkpt lat="45.017857" lon="-72.68558">
        <ele>180.1</ele>
      </trkpt>
      <trkpt lat="45.017545" lon="-72.68643">
        <ele>180.5</ele>
      </trkpt>
      <trkpt lat="45.017232" lon="-72.68728">
        <ele>180.4</ele>
      </trkpt>
      <trkpt lat="45.01692" lon="-72.68813">
        <ele>179.1</ele>
      </trkpt>
      <trkpt lat="45.01692" lon="-72.68814">
        <ele>179.1</ele>
      </trkpt>
      <trkpt lat="45.016513" lon="-72.68921">
        <ele>180.3</ele>
      </trkpt>
      <trkpt lat="45.016106" lon="-72.69028">
        <ele>184.3</ele>
      </trkpt>
      <trkpt lat="45.0157" lon="-72.69135">
        <ele>192.2</ele>
      </trkpt>
      <trkpt lat="45.01559" lon="-72.69168">
        <ele>194.8</ele>
      </trkpt>
      <trkpt lat="45.01557" lon="-72.69198">
        <ele>197.4</ele>
      </trkpt>
      <trkpt lat="45.015588" lon="-72.693059">
        <ele>209.9</ele>
      </trkpt>
      <trkpt lat="45.015606" lon="-72.694139">
        <ele>216.3</ele>
      </trkpt>
      <trkpt lat="45.015625" lon="-72.695219">
        <ele>214.4</ele>
      </trkpt>
      <trkpt lat="45.015643" lon="-72.696299">
        <ele>204</ele>
      </trkpt>
      <trkpt lat="45.015661" lon="-72.697379">
        <ele>198.8</ele>
      </trkpt>
      <trkpt lat="45.01568" lon="-72.69846">
        <ele>203.3</ele>
      </trkpt>
      <trkpt lat="45.01573" lon="-72.69883">
        <ele>207.5</ele>
      </trkpt>
      <trkpt lat="45.01582" lon="-72.69914">
        <ele>210.9</ele>
      </trkpt>
      <trkpt lat="45.01613" lon="-72.69981">
        <ele>219.3</ele>
      </trkpt>
      <trkpt lat="45.01616" lon="-72.70009">
        <ele>222.4</ele>
      </trkpt>
      <trkpt lat="45.01612" lon="-72.70042">
        <ele>224.9</ele>
      </trkpt>
      <trkpt lat="45.01662" lon="-72.70099">
        <ele>228.7</ele>
      </trkpt>
      <trkpt lat="45.01676" lon="-72.70124">
        <ele>229.7</ele>
      </trkpt>
      <trkpt lat="45.01698" lon="-72.70166">
        <ele>232.1</ele>
      </trkpt>
      <trkpt lat="45.01719" lon="-72.70227">
        <ele>235.5</ele>
      </trkpt>
      <trkpt lat="45.01727" lon="-72.70263">
        <ele>236.8</ele>
      </trkpt>
      <trkpt lat="45.01744" lon="-72.70384">
        <ele>241.6</ele>
      </trkpt>
      <trkpt lat="45.01765" lon="-72.70465">
        <ele>243.9</ele>
      </trkpt>
      <trkpt lat="45.017946" lon="-72.705587">
        <ele>245.1</ele>
      </trkpt>
      <trkpt lat="45.018242" lon="-72.706525">
        <ele>247</ele>
      </trkpt>
      <trkpt lat="45.018538" lon="-72.707463">
        <ele>248.2</ele>
      </trkpt>
      <trkpt lat="45.018834" lon="-72.708401">
        <ele>249.3</ele>
      </trkpt>
      <trkpt lat="45.01913" lon="-72.70934">
        <ele>249.8</ele>
      </trkpt>
      <trkpt lat="45.01928" lon="-72.70985">
        <ele>250</ele>
      </trkpt>
      <trkpt lat="45.01946" lon="-72.7106">
        <ele>250.5</ele>
      </trkpt>
      <trkpt lat="45.01952" lon="-72.71099">
        <ele>250.7</ele>
      </trkpt>
      <trkpt lat="45.01961" lon="-72.71158">
        <ele>251.6</ele>
      </trkpt>
      <trkpt lat="45.01975" lon="-72.712789">
        <ele>252.2</ele>
      </trkpt>
      <trkpt lat="45.019891" lon="-72.713998">
        <ele>252.7</ele>
      </trkpt>
      <trkpt lat="45.020032" lon="-72.715207">
        <ele>254.4</ele>
      </trkpt>
      <trkpt lat="45.020173" lon="-72.716416">
        <ele>257.2</ele>
      </trkpt>
      <trkpt lat="45.020314" lon="-72.717625">
        <ele>258.9</ele>
      </trkpt>
      <trkpt lat="45.020455" lon="-72.718834">
        <ele>261.9</ele>
      </trkpt>
      <trkpt lat="45.020596" lon="-72.720044">
        <ele>266.6</ele>
      </trkpt>
      <trkpt lat="45.020736" lon="-72.721253">
        <ele>270.5</ele>
      </trkpt>
      <trkpt lat="45.020877" lon="-72.722462">
        <ele>274.2</ele>
      </trkpt>
      <trkpt lat="45.021018" lon="-72.723671">
        <ele>276.1</ele>
      </trkpt>
      <trkpt lat="45.021159" lon="-72.72488">
        <ele>276.7</ele>
      </trkpt>
      <trkpt lat="45.0213" lon="-72.72609">
        <ele>277.5</ele>
      </trkpt>
      <trkpt lat="45.02137" lon="-72.72655">
        <ele>277.7</ele>
      </trkpt>
      <trkpt lat="45.02154" lon="-72.72726">
        <ele>278.2</ele>
      </trkpt>
      <trkpt lat="45.02164" lon="-72.72758">
        <ele>278.3</ele>
      </trkpt>
      <trkpt lat="45.022026" lon="-72.728509">
        <ele>277.8</ele>
      </trkpt>
      <trkpt lat="45.022412" lon="-72.729439">
        <ele>276.9</ele>
      </trkpt>
      <trkpt lat="45.022798" lon="-72.730369">
        <ele>275.9</ele>
      </trkpt>
      <trkpt lat="45.023184" lon="-72.731299">
        <ele>274.4</ele>
      </trkpt>
      <trkpt lat="45.02357" lon="-72.73223">
        <ele>273.2</ele>
      </trkpt>
      <trkpt lat="45.024007" lon="-72.733312">
        <ele>272.3</ele>
      </trkpt>
      <trkpt lat="45.024445" lon="-72.734394">
        <ele>272.3</ele>
      </trkpt>
      <trkpt lat="45.024882" lon="-72.735477">
        <ele>273</ele>
      </trkpt>
      <trkpt lat="45.02532" lon="-72.73656">
        <ele>273.5</ele>
      </trkpt>
      <trkpt lat="45.02576" lon="-72.73764">
        <ele>273.7</ele>
      </trkpt>
      <trkpt lat="45.026055" lon="-72.738269">
        <ele>273.4</ele>
      </trkpt>
      <trkpt lat="45.02635" lon="-72.7389">
        <ele>272.9</ele>
      </trkpt>
      <trkpt lat="45.02654" lon="-72.73944">
        <ele>272.2</ele>
      </trkpt>
      <trkpt lat="45.02659" lon="-72.73971">
        <ele>272.1</ele>
      </trkpt>
      <trkpt lat="45.02666" lon="-72.74052">
        <ele>271.6</ele>
      </trkpt>
      <trkpt lat="45.026656" lon="-72.741543">
        <ele>270.4</ele>
      </trkpt>
      <trkpt lat="45.026653" lon="-72.742566">
        <ele>269.6</ele>
      </trkpt>
      <trkpt lat="45.02665" lon="-72.74359">
        <ele>268.2</ele>
      </trkpt>
      <trkpt lat="45.026673" lon="-72.744858">
        <ele>265.1</ele>
      </trkpt>
      <trkpt lat="45.026696" lon="-72.746126">
        <ele>260</ele>
      </trkpt>
      <trkpt lat="45.02672" lon="-72.747394">
        <ele>257.9</ele>
      </trkpt>
      <trkpt lat="45.026743" lon="-72.748663">
        <ele>259</ele>
      </trkpt>
      <trkpt lat="45.026766" lon="-72.749931">
        <ele>259.6</ele>
      </trkpt>
      <trkpt lat="45.02679" lon="-72.7512">
        <ele>258.1</ele>
      </trkpt>
      <trkpt lat="45.0268" lon="-72.752293">
        <ele>259</ele>
      </trkpt>
      <trkpt lat="45.02681" lon="-72.753386">
        <ele>261.3</ele>
      </trkpt>
      <trkpt lat="45.02682" lon="-72.75448">
        <ele>259.9</ele>
      </trkpt>
      <trkpt lat="45.026845" lon="-72.755654">
        <ele>259.1</ele>
      </trkpt>
      <trkpt lat="45.02687" lon="-72.756829">
        <ele>261.4</ele>
      </trkpt>
      <trkpt lat="45.026895" lon="-72.758004">
        <ele>265.4</ele>
      </trkpt>
      <trkpt lat="45.02692" lon="-72.75918">
        <ele>265.6</ele>
      </trkpt>
      <trkpt lat="45.026968" lon="-72.760343">
        <ele>262</ele>
      </trkpt>
      <trkpt lat="45.027016" lon="-72.761507">
        <ele>257.5</ele>
      </trkpt>
      <trkpt lat="45.027064" lon="-72.762671">
        <ele>250.3</ele>
      </trkpt>
      <trkpt lat="45.027112" lon="-72.763835">
        <ele>243.4</ele>
      </trkpt>
      <trkpt lat="45.02716" lon="-72.765">
        <ele>237.7</ele>
      </trkpt>
      <trkpt lat="45.02719" lon="-72.765889">
        <ele>237</ele>
      </trkpt>
      <trkpt lat="45.02722" lon="-72.766779">
        <ele>238.8</ele>
      </trkpt>
      <trkpt lat="45.02725" lon="-72.76767">
        <ele>240.9</ele>
      </trkpt>
      <trkpt lat="45.027282" lon="-72.768789">
        <ele>241</ele>
      </trkpt>
      <trkpt lat="45.027315" lon="-72.769909">
        <ele>240</ele>
      </trkpt>
      <trkpt lat="45.027348" lon="-72.771029">
        <ele>238.5</ele>
      </trkpt>
      <trkpt lat="45.027381" lon="-72.772149">
        <ele>236.7</ele>
      </trkpt>
      <trkpt lat="45.027414" lon="-72.773269">
        <ele>238.6</ele>
      </trkpt>
      <trkpt lat="45.027447" lon="-72.774389">
        <ele>244.2</ele>
      </trkpt>
      <trkpt lat="45.02748" lon="-72.77551">
        <ele>248.3</ele>
      </trkpt>
      <trkpt lat="45.027505" lon="-72.776769">
        <ele>250.9</ele>
      </trkpt>
      <trkpt lat="45.02753" lon="-72.778029">
        <ele>254.5</ele>
      </trkpt>
      <trkpt lat="45.027555" lon="-72.779289">
        <ele>257.7</ele>
      </trkpt>
      <trkpt lat="45.02758" lon="-72.78055">
        <ele>259.3</ele>
      </trkpt>
      <trkpt lat="45.027595" lon="-72.781389">
        <ele>259.9</ele>
      </trkpt>
      <trkpt lat="45.02761" lon="-72.78223">
        <ele>260.6</ele>
      </trkpt>
      <trkpt lat="45.027615" lon="-72.783219">
        <ele>259.8</ele>
      </trkpt>
      <trkpt lat="45.02762" lon="-72.78421">
        <ele>258.4</ele>
      </trkpt>
      <trkpt lat="45.02762" lon="-72.785327">
        <ele>256</ele>
      </trkpt>
      <trkpt lat="45.02762" lon="-72.786445">
        <ele>255.3</ele>
      </trkpt>
      <trkpt lat="45.02762" lon="-72.787562">
        <ele>255.2</ele>
      </trkpt>
      <trkpt lat="45.02762" lon="-72.78868">
        <ele>254.2</ele>
      </trkpt>
      <trkpt lat="45.02764" lon="-72.78895">
        <ele>253</ele>
      </trkpt>
      <trkpt lat="45.02768" lon="-72.78913">
        <ele>252.3</ele>
      </trkpt>
      <trkpt lat="45.02774" lon="-72.78927">
        <ele>251.8</ele>
      </trkpt>
      <trkpt lat="45.02686" lon="-72.78927">
        <ele>244.8</ele>
      </trkpt>
      <trkpt lat="45.02662" lon="-72.78931">
        <ele>242.3</ele>
      </trkpt>
      <trkpt lat="45.02638" lon="-72.78944">
        <ele>238.1</ele>
      </trkpt>
      <trkpt lat="45.02625" lon="-72.78953">
        <ele>234.9</ele>
      </trkpt>
      <trkpt lat="45.02552" lon="-72.79025">
        <ele>224.2</ele>
      </trkpt>
      <trkpt lat="45.02479" lon="-72.79097">
        <ele>215.1</ele>
      </trkpt>
      <trkpt lat="45.0243" lon="-72.79159">
        <ele>212</ele>
      </trkpt>
      <trkpt lat="45.02414" lon="-72.79191">
        <ele>211.5</ele>
      </trkpt>
      <trkpt lat="45.02381" lon="-72.79287">
        <ele>211.8</ele>
      </trkpt>
      <trkpt lat="45.02348" lon="-72.79383">
        <ele>212.9</ele>
      </trkpt>
      <trkpt lat="45.023167" lon="-72.794692">
        <ele>215.1</ele>
      </trkpt>
      <trkpt lat="45.022855" lon="-72.795555">
        <ele>220.6</ele>
      </trkpt>
      <trkpt lat="45.022542" lon="-72.796417">
        <ele>228.3</ele>
      </trkpt>
      <trkpt lat="45.02223" lon="-72.79728">
        <ele>234.2</ele>
      </trkpt>
      <trkpt lat="45.022035" lon="-72.79795">
        <ele>236</ele>
      </trkpt>
      <trkpt lat="45.02184" lon="-72.79862">
        <ele>240.5</ele>
      </trkpt>
      <trkpt lat="45.02182" lon="-72.79871">
        <ele>240.5</ele>
      </trkpt>
      <trkpt lat="45.02182" lon="-72.79872">
        <ele>240.6</ele>
      </trkpt>
      <trkpt lat="45.02175" lon="-72.79925">
        <ele>241.8</ele>
      </trkpt>
      <trkpt lat="45.021716" lon="-72.80028">
        <ele>243.9</ele>
      </trkpt>
      <trkpt lat="45.021683" lon="-72.80131">
        <ele>244.4</ele>
      </trkpt>
      <trkpt lat="45.02165" lon="-72.80234">
        <ele>244.4</ele>
      </trkpt>
      <trkpt lat="45.02171" lon="-72.80252">
        <ele>242.4</ele>
      </trkpt>
      <trkpt lat="45.02179" lon="-72.80263">
        <ele>242.4</ele>
      </trkpt>
      <trkpt lat="45.02231" lon="-72.80274">
        <ele>238.3</ele>
      </trkpt>
      <trkpt lat="45.02289" lon="-72.80283">
        <ele>234.1</ele>
      </trkpt>
      <trkpt lat="45.023635" lon="-72.802879">
        <ele>230.2</ele>
      </trkpt>
      <trkpt lat="45.02438" lon="-72.80293">
        <ele>227.7</ele>
      </trkpt>
      <trkpt lat="45.02511" lon="-72.802953">
        <ele>225</ele>
      </trkpt>
      <trkpt lat="45.02584" lon="-72.802976">
        <ele>221.4</ele>
      </trkpt>
      <trkpt lat="45.02657" lon="-72.803">
        <ele>217.3</ele>
      </trkpt>
      <trkpt lat="45.02712" lon="-72.80296">
        <ele>214.2</ele>
      </trkpt>
      <trkpt lat="45.02737" lon="-72.80283">
        <ele>212.8</ele>
      </trkpt>
      <trkpt lat="45.02758" lon="-72.80261">
        <ele>210.7</ele>
      </trkpt>
      <trkpt lat="45.02791" lon="-72.80243">
        <ele>207</ele>
      </trkpt>
      <trkpt lat="45.02803" lon="-72.80238">
        <ele>205.7</ele>
      </trkpt>
      <trkpt lat="45.02862" lon="-72.80229">
        <ele>204.2</ele>
      </trkpt>
      <trkpt lat="45.02886" lon="-72.80229">
        <ele>205.1</ele>
      </trkpt>
      <trkpt lat="45.02902" lon="-72.80233">
        <ele>205.9</ele>
      </trkpt>
      <trkpt lat="45.02969" lon="-72.80253">
        <ele>209.1</ele>
      </trkpt>
      <trkpt lat="45.02993" lon="-72.80265">
        <ele>210.4</ele>
      </trkpt>
      <trkpt lat="45.0303" lon="-72.80288">
        <ele>211</ele>
      </trkpt>
      <trkpt lat="45.03078" lon="-72.803324">
        <ele>210.7</ele>
      </trkpt>
      <trkpt lat="45.03126" lon="-72.80377">
        <ele>209.6</ele>
      </trkpt>
      <trkpt lat="45.03179" lon="-72.804299">
        <ele>208</ele>
      </trkpt>
      <trkpt lat="45.03232" lon="-72.804829">
        <ele>206.5</ele>
      </trkpt>
      <trkpt lat="45.03285" lon="-72.80536">
        <ele>203.8</ele>
      </trkpt>
      <trkpt lat="45.03334" lon="-72.805859">
        <ele>201.6</ele>
      </trkpt>
      <trkpt lat="45.03383" lon="-72.80636">
        <ele>196.3</ele>
      </trkpt>
      <trkpt lat="45.03432" lon="-72.8069">
        <ele>193.4</ele>
      </trkpt>
      <trkpt lat="45.03448" lon="-72.80703">
        <ele>191.9</ele>
      </trkpt>
      <trkpt lat="45.03464" lon="-72.8072">
        <ele>191.4</ele>
      </trkpt>
      <trkpt lat="45.035245" lon="-72.807794">
        <ele>187</ele>
      </trkpt>
      <trkpt lat="45.03585" lon="-72.80839">
        <ele>181.9</ele>
      </trkpt>
      <trkpt lat="45.036565" lon="-72.809049">
        <ele>175.6</ele>
      </trkpt>
      <trkpt lat="45.03728" lon="-72.80971">
        <ele>172.3</ele>
      </trkpt>
      <trkpt lat="45.03753" lon="-72.8099">
        <ele>170.8</ele>
      </trkpt>
      <trkpt lat="45.03767" lon="-72.80999">
        <ele>169.2</ele>
      </trkpt>
      <trkpt lat="45.03796" lon="-72.81008">
        <ele>168.2</ele>
      </trkpt>
      <trkpt lat="45.03829" lon="-72.81023">
        <ele>166.2</ele>
      </trkpt>
      <trkpt lat="45.03861" lon="-72.81053">
        <ele>162.2</ele>
      </trkpt>
      <trkpt lat="45.0393" lon="-72.81125">
        <ele>151.2</ele>
      </trkpt>
      <trkpt lat="45.03966" lon="-72.81156">
        <ele>147.7</ele>
      </trkpt>
      <trkpt lat="45.03982" lon="-72.81165">
        <ele>146.6</ele>
      </trkpt>
      <trkpt lat="45.0404" lon="-72.81187">
        <ele>144.6</ele>
      </trkpt>
      <trkpt lat="45.04078" lon="-72.812">
        <ele>144.3</ele>
      </trkpt>
      <trkpt lat="45.04138" lon="-72.812249">
        <ele>145.1</ele>
      </trkpt>
      <trkpt lat="45.04198" lon="-72.8125">
        <ele>147</ele>
      </trkpt>
      <trkpt lat="45.042643" lon="-72.812829">
        <ele>146.8</ele>
      </trkpt>
      <trkpt lat="45.043306" lon="-72.813159">
        <ele>146</ele>
      </trkpt>
      <trkpt lat="45.04397" lon="-72.81349">
        <ele>145.5</ele>
      </trkpt>
      <trkpt lat="45.044484" lon="-72.813599">
        <ele>144.7</ele>
      </trkpt>
      <trkpt lat="45.045" lon="-72.81371">
        <ele>143.2</ele>
      </trkpt>
      <trkpt lat="45.04566" lon="-72.81375">
        <ele>142.6</ele>
      </trkpt>
      <trkpt lat="45.045845" lon="-72.814839">
        <ele>135.1</ele>
      </trkpt>
      <trkpt lat="45.04603" lon="-72.815929">
        <ele>130.2</ele>
      </trkpt>
      <trkpt lat="45.046215" lon="-72.817019">
        <ele>126.4</ele>
      </trkpt>
      <trkpt lat="45.0464" lon="-72.81811">
        <ele>125</ele>
      </trkpt>
      <trkpt lat="45.04655" lon="-72.81877">
        <ele>123.5</ele>
      </trkpt>
      <trkpt lat="45.0466" lon="-72.81896">
        <ele>122.5</ele>
      </trkpt>
      <trkpt lat="45.04684" lon="-72.8197">
        <ele>118</ele>
      </trkpt>
      <trkpt lat="45.04717" lon="-72.820613">
        <ele>116.5</ele>
      </trkpt>
      <trkpt lat="45.0475" lon="-72.821526">
        <ele>118</ele>
      </trkpt>
      <trkpt lat="45.04783" lon="-72.82244">
        <ele>114.2</ele>
      </trkpt>
      <trkpt lat="45.04817" lon="-72.82311">
        <ele>112.5</ele>
      </trkpt>
      <trkpt lat="45.0485" lon="-72.823674">
        <ele>112.1</ele>
      </trkpt>
      <trkpt lat="45.04883" lon="-72.82424">
        <ele>111.7</ele>
      </trkpt>
      <trkpt lat="45.04898" lon="-72.82459">
        <ele>111.4</ele>
      </trkpt>
      <trkpt lat="45.04912" lon="-72.82499">
        <ele>110.9</ele>
      </trkpt>
      <trkpt lat="45.04928" lon="-72.8258">
        <ele>110</ele>
      </trkpt>
      <trkpt lat="45.04934" lon="-72.82618">
        <ele>109.6</ele>
      </trkpt>
      <trkpt lat="45.049456" lon="-72.827066">
        <ele>108.6</ele>
      </trkpt>
      <trkpt lat="45.049573" lon="-72.827953">
        <ele>107.4</ele>
      </trkpt>
      <trkpt lat="45.04969" lon="-72.82884">
        <ele>107.2</ele>
      </trkpt>
      <trkpt lat="45.04983" lon="-72.82978">
        <ele>106.6</ele>
      </trkpt>
      <trkpt lat="45.05056" lon="-72.83033">
        <ele>105.8</ele>
      </trkpt>
      <trkpt lat="45.05081" lon="-72.83059">
        <ele>105.4</ele>
      </trkpt>
      <trkpt lat="45.05103" lon="-72.83096">
        <ele>105.4</ele>
      </trkpt>
      <trkpt lat="45.05127" lon="-72.83148">
        <ele>105.3</ele>
      </trkpt>
      <trkpt lat="45.05138" lon="-72.83179">
        <ele>105.1</ele>
      </trkpt>
      <trkpt lat="45.05146" lon="-72.83216">
        <ele>105.1</ele>
      </trkpt>
      <trkpt lat="45.05157" lon="-72.833046">
        <ele>105.1</ele>
      </trkpt>
      <trkpt lat="45.05168" lon="-72.833933">
        <ele>105.7</ele>
      </trkpt>
      <trkpt lat="45.05179" lon="-72.83482">
        <ele>106.3</ele>
      </trkpt>
      <trkpt lat="45.051885" lon="-72.835654">
        <ele>107.2</ele>
      </trkpt>
      <trkpt lat="45.05198" lon="-72.83649">
        <ele>108</ele>
      </trkpt>
      <trkpt lat="45.05212" lon="-72.837509">
        <ele>109.3</ele>
      </trkpt>
      <trkpt lat="45.05226" lon="-72.83853">
        <ele>111.6</ele>
      </trkpt>
      <trkpt lat="45.05297" lon="-72.838716">
        <ele>109.2</ele>
      </trkpt>
      <trkpt lat="45.05368" lon="-72.838903">
        <ele>108.1</ele>
      </trkpt>
      <trkpt lat="45.05439" lon="-72.83909">
        <ele>105.4</ele>
      </trkpt>
      <trkpt lat="45.05445" lon="-72.83887">
        <ele>105.1</ele>
      </trkpt>
      <trkpt lat="45.05459" lon="-72.83847">
        <ele>105.1</ele>
      </trkpt>
      <trkpt lat="45.0547" lon="-72.83829">
        <ele>105</ele>
      </trkpt>
      <trkpt lat="45.05485" lon="-72.83812">
        <ele>104.9</ele>
      </trkpt>
      <trkpt lat="45.05516" lon="-72.83781">
        <ele>105.6</ele>
      </trkpt>
      <trkpt lat="45.05556" lon="-72.83745">
        <ele>107</ele>
      </trkpt>
      <trkpt lat="45.05544" lon="-72.83702">
        <ele>107.7</ele>
      </trkpt>
    </trkseg>
  </trk>
</gpx>