<?xml version='1.0' encoding='utf-8'?>
<gpx xmlns="http://www.topografix.com/GPX/1/1" xmlns:xsi="http://www.w3.org/2001/XMLSchema-instance" version="1.1" creator="Gravelle Estrie" xsi:schemaLocation="http://www.topografix.com/GPX/1/1 http://www.topografix.com/GPX/1/1/gpx.xsd">
  <metadata>
    <name>Homeland (Classique) 64km / 892MD+</name>
  </metadata>
  <trk>
    <name>Homeland (Classique) 64km / 892MD+</name>
    <trkseg>
      <trkpt lat="45.34317" lon="-72.64871">
        <ele>133</ele>
      </trkpt>
      <trkpt lat="45.343" lon="-72.64755">
        <ele>133.42</ele>
      </trkpt>
      <trkpt lat="45.34283" lon="-72.64639">
        <ele>133.23</ele>
      </trkpt>
      <trkpt lat="45.34266" lon="-72.64523">
        <ele>133.47</ele>
      </trkpt>
      <trkpt lat="45.34249" lon="-72.64407">
        <ele>134.19</ele>
      </trkpt>
      <trkpt lat="45.34214" lon="-72.64295">
        <ele>135.15</ele>
      </trkpt>
      <trkpt lat="45.34169" lon="-72.64192">
        <ele>135.97</ele>
      </trkpt>
      <trkpt lat="45.341186" lon="-72.640956">
        <ele>136.76</ele>
      </trkpt>
      <trkpt lat="45.340682" lon="-72.6399919">
        <ele>137.81</ele>
      </trkpt>
      <trkpt lat="45.340178" lon="-72.6390279">
        <ele>138.91</ele>
      </trkpt>
      <trkpt lat="45.339674" lon="-72.638064">
        <ele>140.48</ele>
      </trkpt>
      <trkpt lat="45.33917" lon="-72.6371">
        <ele>141.09</ele>
      </trkpt>
      <trkpt lat="45.33878" lon="-72.63624">
        <ele>141.87</ele>
      </trkpt>
      <trkpt lat="45.33861" lon="-72.6357">
        <ele>142.41</ele>
      </trkpt>
      <trkpt lat="45.338455" lon="-72.634875">
        <ele>143.31</ele>
      </trkpt>
      <trkpt lat="45.3383" lon="-72.63405">
        <ele>143.3</ele>
      </trkpt>
      <trkpt lat="45.33816" lon="-72.63284">
        <ele>143.56</ele>
      </trkpt>
      <trkpt lat="45.33802" lon="-72.63163">
        <ele>143.74</ele>
      </trkpt>
      <trkpt lat="45.33784" lon="-72.63094">
        <ele>143.86</ele>
      </trkpt>
      <trkpt lat="45.33766" lon="-72.63025">
        <ele>144.05</ele>
      </trkpt>
      <trkpt lat="45.33742" lon="-72.62968">
        <ele>144.05</ele>
      </trkpt>
      <trkpt lat="45.33718" lon="-72.62911">
        <ele>144.84</ele>
      </trkpt>
      <trkpt lat="45.3367088" lon="-72.6281812">
        <ele>145.88</ele>
      </trkpt>
      <trkpt lat="45.3362375" lon="-72.6272524">
        <ele>147.09</ele>
      </trkpt>
      <trkpt lat="45.3357663" lon="-72.6263236">
        <ele>147.56</ele>
      </trkpt>
      <trkpt lat="45.3352951" lon="-72.6253949">
        <ele>147.98</ele>
      </trkpt>
      <trkpt lat="45.3348238" lon="-72.6244661">
        <ele>148.12</ele>
      </trkpt>
      <trkpt lat="45.3343525" lon="-72.6235374">
        <ele>148.26</ele>
      </trkpt>
      <trkpt lat="45.3338813" lon="-72.6226087">
        <ele>148.62</ele>
      </trkpt>
      <trkpt lat="45.33341" lon="-72.62168">
        <ele>150.77</ele>
      </trkpt>
      <trkpt lat="45.333105" lon="-72.62101">
        <ele>151.13</ele>
      </trkpt>
      <trkpt lat="45.3328" lon="-72.62034">
        <ele>151.14</ele>
      </trkpt>
      <trkpt lat="45.33246" lon="-72.61922">
        <ele>151.69</ele>
      </trkpt>
      <trkpt lat="45.33222" lon="-72.61806">
        <ele>151.76</ele>
      </trkpt>
      <trkpt lat="45.3320375" lon="-72.6168425">
        <ele>152.36</ele>
      </trkpt>
      <trkpt lat="45.331855" lon="-72.615625">
        <ele>153.11</ele>
      </trkpt>
      <trkpt lat="45.3316725" lon="-72.6144075">
        <ele>153.73</ele>
      </trkpt>
      <trkpt lat="45.33149" lon="-72.61319">
        <ele>154.04</ele>
      </trkpt>
      <trkpt lat="45.33128" lon="-72.61229">
        <ele>154.44</ele>
      </trkpt>
      <trkpt lat="45.33098" lon="-72.61143">
        <ele>155.45</ele>
      </trkpt>
      <trkpt lat="45.33063" lon="-72.61067">
        <ele>156.55</ele>
      </trkpt>
      <trkpt lat="45.3303" lon="-72.61009">
        <ele>157.87</ele>
      </trkpt>
      <trkpt lat="45.32995" lon="-72.60956">
        <ele>158.77</ele>
      </trkpt>
      <trkpt lat="45.3294467" lon="-72.6088433">
        <ele>158.77</ele>
      </trkpt>
      <trkpt lat="45.3289433" lon="-72.6081267">
        <ele>159.62</ele>
      </trkpt>
      <trkpt lat="45.32844" lon="-72.60741">
        <ele>160.81</ele>
      </trkpt>
      <trkpt lat="45.32801" lon="-72.6066">
        <ele>161.28</ele>
      </trkpt>
      <trkpt lat="45.32758" lon="-72.60548">
        <ele>162.53</ele>
      </trkpt>
      <trkpt lat="45.3272217" lon="-72.6044283">
        <ele>163.75</ele>
      </trkpt>
      <trkpt lat="45.3268634" lon="-72.6033766">
        <ele>165.12</ele>
      </trkpt>
      <trkpt lat="45.326505" lon="-72.6023249">
        <ele>166.61</ele>
      </trkpt>
      <trkpt lat="45.3261467" lon="-72.6012733">
        <ele>167.69</ele>
      </trkpt>
      <trkpt lat="45.3257884" lon="-72.6002216">
        <ele>168.42</ele>
      </trkpt>
      <trkpt lat="45.32543" lon="-72.59917">
        <ele>169.61</ele>
      </trkpt>
      <trkpt lat="45.32507" lon="-72.5981233">
        <ele>170.5</ele>
      </trkpt>
      <trkpt lat="45.32471" lon="-72.5970767">
        <ele>171.56</ele>
      </trkpt>
      <trkpt lat="45.32435" lon="-72.59603">
        <ele>172.59</ele>
      </trkpt>
      <trkpt lat="45.32403" lon="-72.59492">
        <ele>174.14</ele>
      </trkpt>
      <trkpt lat="45.32391" lon="-72.5943">
        <ele>174.83</ele>
      </trkpt>
      <trkpt lat="45.32379" lon="-72.59334">
        <ele>176.24</ele>
      </trkpt>
      <trkpt lat="45.322906" lon="-72.593288">
        <ele>175.08</ele>
      </trkpt>
      <trkpt lat="45.322022" lon="-72.593236">
        <ele>172.08</ele>
      </trkpt>
      <trkpt lat="45.321138" lon="-72.593184">
        <ele>170.56</ele>
      </trkpt>
      <trkpt lat="45.320254" lon="-72.593132">
        <ele>167.18</ele>
      </trkpt>
      <trkpt lat="45.31937" lon="-72.59308">
        <ele>162.15</ele>
      </trkpt>
      <trkpt lat="45.31905" lon="-72.59308">
        <ele>161.84</ele>
      </trkpt>
      <trkpt lat="45.31875" lon="-72.5932">
        <ele>161.87</ele>
      </trkpt>
      <trkpt lat="45.31854" lon="-72.59339">
        <ele>161.95</ele>
      </trkpt>
      <trkpt lat="45.31843" lon="-72.59353">
        <ele>161.93</ele>
      </trkpt>
      <trkpt lat="45.31806" lon="-72.59411">
        <ele>161.37</ele>
      </trkpt>
      <trkpt lat="45.31769" lon="-72.59469">
        <ele>160.38</ele>
      </trkpt>
      <trkpt lat="45.31753" lon="-72.59488">
        <ele>160.05</ele>
      </trkpt>
      <trkpt lat="45.31735" lon="-72.59505">
        <ele>159.86</ele>
      </trkpt>
      <trkpt lat="45.31716" lon="-72.59509">
        <ele>159.7</ele>
      </trkpt>
      <trkpt lat="45.31704" lon="-72.5951">
        <ele>159.55</ele>
      </trkpt>
      <trkpt lat="45.316335" lon="-72.59512">
        <ele>160.72</ele>
      </trkpt>
      <trkpt lat="45.31563" lon="-72.59514">
        <ele>161.33</ele>
      </trkpt>
      <trkpt lat="45.31482" lon="-72.59518">
        <ele>159.8</ele>
      </trkpt>
      <trkpt lat="45.31401" lon="-72.59522">
        <ele>161.33</ele>
      </trkpt>
      <trkpt lat="45.3131767" lon="-72.59525">
        <ele>162.22</ele>
      </trkpt>
      <trkpt lat="45.3123433" lon="-72.59528">
        <ele>159.39</ele>
      </trkpt>
      <trkpt lat="45.31151" lon="-72.59531">
        <ele>157.67</ele>
      </trkpt>
      <trkpt lat="45.3115" lon="-72.59531">
        <ele>157.66</ele>
      </trkpt>
      <trkpt lat="45.310656" lon="-72.595348">
        <ele>156.54</ele>
      </trkpt>
      <trkpt lat="45.309812" lon="-72.595386">
        <ele>155.86</ele>
      </trkpt>
      <trkpt lat="45.308968" lon="-72.595424">
        <ele>155.91</ele>
      </trkpt>
      <trkpt lat="45.308124" lon="-72.595462">
        <ele>153.88</ele>
      </trkpt>
      <trkpt lat="45.30728" lon="-72.5955">
        <ele>155.33</ele>
      </trkpt>
      <trkpt lat="45.3072817" lon="-72.5942483">
        <ele>157.32</ele>
      </trkpt>
      <trkpt lat="45.3072834" lon="-72.5929967">
        <ele>158.62</ele>
      </trkpt>
      <trkpt lat="45.3072851" lon="-72.591745">
        <ele>158.69</ele>
      </trkpt>
      <trkpt lat="45.3072867" lon="-72.5904933">
        <ele>162.75</ele>
      </trkpt>
      <trkpt lat="45.3072884" lon="-72.5892417">
        <ele>165.43</ele>
      </trkpt>
      <trkpt lat="45.30729" lon="-72.58799">
        <ele>169.99</ele>
      </trkpt>
      <trkpt lat="45.307275" lon="-72.58718">
        <ele>172.19</ele>
      </trkpt>
      <trkpt lat="45.30726" lon="-72.58637">
        <ele>173.03</ele>
      </trkpt>
      <trkpt lat="45.3072567" lon="-72.5851017">
        <ele>171.86</ele>
      </trkpt>
      <trkpt lat="45.3072534" lon="-72.5838333">
        <ele>165.95</ele>
      </trkpt>
      <trkpt lat="45.3072501" lon="-72.582565">
        <ele>163.22</ele>
      </trkpt>
      <trkpt lat="45.3072467" lon="-72.5812967">
        <ele>165.9</ele>
      </trkpt>
      <trkpt lat="45.3072434" lon="-72.5800283">
        <ele>168.73</ele>
      </trkpt>
      <trkpt lat="45.30724" lon="-72.57876">
        <ele>167.98</ele>
      </trkpt>
      <trkpt lat="45.307246" lon="-72.577712">
        <ele>168.45</ele>
      </trkpt>
      <trkpt lat="45.307252" lon="-72.576664">
        <ele>169.34</ele>
      </trkpt>
      <trkpt lat="45.307258" lon="-72.575616">
        <ele>172.23</ele>
      </trkpt>
      <trkpt lat="45.307264" lon="-72.574568">
        <ele>177.47</ele>
      </trkpt>
      <trkpt lat="45.30727" lon="-72.57352">
        <ele>183.24</ele>
      </trkpt>
      <trkpt lat="45.30727" lon="-72.57352">
        <ele>183.24</ele>
      </trkpt>
      <trkpt lat="45.3072833" lon="-72.5725467">
        <ele>186.84</ele>
      </trkpt>
      <trkpt lat="45.3072967" lon="-72.5715733">
        <ele>192.94</ele>
      </trkpt>
      <trkpt lat="45.30731" lon="-72.5706">
        <ele>192.78</ele>
      </trkpt>
      <trkpt lat="45.30734" lon="-72.57015">
        <ele>192.96</ele>
      </trkpt>
      <trkpt lat="45.30742" lon="-72.56963">
        <ele>194.3</ele>
      </trkpt>
      <trkpt lat="45.30756" lon="-72.56896">
        <ele>197.79</ele>
      </trkpt>
      <trkpt lat="45.3076" lon="-72.56855">
        <ele>201.06</ele>
      </trkpt>
      <trkpt lat="45.30758" lon="-72.56814">
        <ele>205.35</ele>
      </trkpt>
      <trkpt lat="45.30744" lon="-72.566975">
        <ele>207.16</ele>
      </trkpt>
      <trkpt lat="45.3073" lon="-72.56581">
        <ele>207.56</ele>
      </trkpt>
      <trkpt lat="45.30727" lon="-72.56505">
        <ele>208.05</ele>
      </trkpt>
      <trkpt lat="45.3072675" lon="-72.56409">
        <ele>209.81</ele>
      </trkpt>
      <trkpt lat="45.307265" lon="-72.56313">
        <ele>212.2</ele>
      </trkpt>
      <trkpt lat="45.3072625" lon="-72.56217">
        <ele>217.47</ele>
      </trkpt>
      <trkpt lat="45.30726" lon="-72.56121">
        <ele>220.94</ele>
      </trkpt>
      <trkpt lat="45.307268" lon="-72.560186">
        <ele>223.29</ele>
      </trkpt>
      <trkpt lat="45.307276" lon="-72.559162">
        <ele>225.69</ele>
      </trkpt>
      <trkpt lat="45.307284" lon="-72.558138">
        <ele>226.31</ele>
      </trkpt>
      <trkpt lat="45.307292" lon="-72.557114">
        <ele>225.55</ele>
      </trkpt>
      <trkpt lat="45.3073" lon="-72.55609">
        <ele>225.34</ele>
      </trkpt>
      <trkpt lat="45.3073" lon="-72.55522">
        <ele>225.27</ele>
      </trkpt>
      <trkpt lat="45.3073" lon="-72.55435">
        <ele>225.14</ele>
      </trkpt>
      <trkpt lat="45.3073" lon="-72.55348">
        <ele>225.6</ele>
      </trkpt>
      <trkpt lat="45.307325" lon="-72.55229">
        <ele>226.33</ele>
      </trkpt>
      <trkpt lat="45.30735" lon="-72.5511">
        <ele>227.04</ele>
      </trkpt>
      <trkpt lat="45.307355" lon="-72.5498233">
        <ele>226.98</ele>
      </trkpt>
      <trkpt lat="45.3073601" lon="-72.5485467">
        <ele>228.44</ele>
      </trkpt>
      <trkpt lat="45.3073651" lon="-72.54727">
        <ele>228.49</ele>
      </trkpt>
      <trkpt lat="45.3073701" lon="-72.5459933">
        <ele>228.87</ele>
      </trkpt>
      <trkpt lat="45.307375" lon="-72.5447167">
        <ele>228.63</ele>
      </trkpt>
      <trkpt lat="45.30738" lon="-72.54344">
        <ele>229.81</ele>
      </trkpt>
      <trkpt lat="45.3073886" lon="-72.5422557">
        <ele>229.94</ele>
      </trkpt>
      <trkpt lat="45.3073972" lon="-72.5410714">
        <ele>230.81</ele>
      </trkpt>
      <trkpt lat="45.3074058" lon="-72.5398871">
        <ele>230.5</ele>
      </trkpt>
      <trkpt lat="45.3074144" lon="-72.5387029">
        <ele>227.68</ele>
      </trkpt>
      <trkpt lat="45.3074229" lon="-72.5375186">
        <ele>225.5</ele>
      </trkpt>
      <trkpt lat="45.3074315" lon="-72.5363343">
        <ele>226.65</ele>
      </trkpt>
      <trkpt lat="45.30744" lon="-72.53515">
        <ele>229.81</ele>
      </trkpt>
      <trkpt lat="45.3074429" lon="-72.53405">
        <ele>227.23</ele>
      </trkpt>
      <trkpt lat="45.3074458" lon="-72.53295">
        <ele>226.18</ele>
      </trkpt>
      <trkpt lat="45.3074486" lon="-72.53185">
        <ele>226.54</ele>
      </trkpt>
      <trkpt lat="45.3074515" lon="-72.53075">
        <ele>225.86</ele>
      </trkpt>
      <trkpt lat="45.3074543" lon="-72.52965">
        <ele>223.59</ele>
      </trkpt>
      <trkpt lat="45.3074572" lon="-72.52855">
        <ele>224.57</ele>
      </trkpt>
      <trkpt lat="45.30746" lon="-72.52745">
        <ele>223.01</ele>
      </trkpt>
      <trkpt lat="45.30749" lon="-72.527">
        <ele>220.89</ele>
      </trkpt>
      <trkpt lat="45.30758" lon="-72.52656">
        <ele>217.04</ele>
      </trkpt>
      <trkpt lat="45.307785" lon="-72.525755">
        <ele>209.71</ele>
      </trkpt>
      <trkpt lat="45.30799" lon="-72.52495">
        <ele>206.45</ele>
      </trkpt>
      <trkpt lat="45.308095" lon="-72.524165">
        <ele>209.19</ele>
      </trkpt>
      <trkpt lat="45.3082" lon="-72.52338">
        <ele>212.44</ele>
      </trkpt>
      <trkpt lat="45.3083" lon="-72.52284">
        <ele>213.83</ele>
      </trkpt>
      <trkpt lat="45.30853" lon="-72.5217975">
        <ele>216.84</ele>
      </trkpt>
      <trkpt lat="45.30876" lon="-72.520755">
        <ele>220.58</ele>
      </trkpt>
      <trkpt lat="45.30899" lon="-72.5197125">
        <ele>223.02</ele>
      </trkpt>
      <trkpt lat="45.30922" lon="-72.51867">
        <ele>225.5</ele>
      </trkpt>
      <trkpt lat="45.3094" lon="-72.51742">
        <ele>226.05</ele>
      </trkpt>
      <trkpt lat="45.309465" lon="-72.516715">
        <ele>227</ele>
      </trkpt>
      <trkpt lat="45.30953" lon="-72.51601">
        <ele>228.49</ele>
      </trkpt>
      <trkpt lat="45.30959" lon="-72.51501">
        <ele>229.61</ele>
      </trkpt>
      <trkpt lat="45.30965" lon="-72.51401">
        <ele>230.2</ele>
      </trkpt>
      <trkpt lat="45.30962" lon="-72.513165">
        <ele>226.35</ele>
      </trkpt>
      <trkpt lat="45.30959" lon="-72.51232">
        <ele>224.78</ele>
      </trkpt>
      <trkpt lat="45.30954" lon="-72.51191">
        <ele>225.43</ele>
      </trkpt>
      <trkpt lat="45.30951" lon="-72.51172">
        <ele>226.18</ele>
      </trkpt>
      <trkpt lat="45.30924" lon="-72.51075">
        <ele>231.07</ele>
      </trkpt>
      <trkpt lat="45.30903" lon="-72.51025">
        <ele>226.96</ele>
      </trkpt>
      <trkpt lat="45.30863" lon="-72.50937">
        <ele>222.5</ele>
      </trkpt>
      <trkpt lat="45.30823" lon="-72.50849">
        <ele>222.36</ele>
      </trkpt>
      <trkpt lat="45.30783" lon="-72.50761">
        <ele>226</ele>
      </trkpt>
      <trkpt lat="45.3077" lon="-72.50722">
        <ele>226.6</ele>
      </trkpt>
      <trkpt lat="45.30757" lon="-72.50663">
        <ele>225.77</ele>
      </trkpt>
      <trkpt lat="45.30752" lon="-72.50596">
        <ele>223.56</ele>
      </trkpt>
      <trkpt lat="45.30753" lon="-72.50517">
        <ele>222.38</ele>
      </trkpt>
      <trkpt lat="45.30754" lon="-72.50438">
        <ele>222.34</ele>
      </trkpt>
      <trkpt lat="45.30754" lon="-72.50439">
        <ele>222.34</ele>
      </trkpt>
      <trkpt lat="45.30757" lon="-72.50355">
        <ele>223.4</ele>
      </trkpt>
      <trkpt lat="45.3075675" lon="-72.502495">
        <ele>223.4</ele>
      </trkpt>
      <trkpt lat="45.307565" lon="-72.50144">
        <ele>223.42</ele>
      </trkpt>
      <trkpt lat="45.3075625" lon="-72.500385">
        <ele>220.15</ele>
      </trkpt>
      <trkpt lat="45.30756" lon="-72.49933">
        <ele>220.31</ele>
      </trkpt>
      <trkpt lat="45.30757" lon="-72.49915">
        <ele>220.5</ele>
      </trkpt>
      <trkpt lat="45.30822" lon="-72.49932">
        <ele>221.79</ele>
      </trkpt>
      <trkpt lat="45.3085" lon="-72.49933">
        <ele>222.62</ele>
      </trkpt>
      <trkpt lat="45.30884" lon="-72.4993">
        <ele>223.82</ele>
      </trkpt>
      <trkpt lat="45.3088" lon="-72.4992">
        <ele>223.82</ele>
      </trkpt>
      <trkpt lat="45.30867" lon="-72.49866">
        <ele>224.51</ele>
      </trkpt>
      <trkpt lat="45.30834" lon="-72.4975233">
        <ele>225.56</ele>
      </trkpt>
      <trkpt lat="45.30801" lon="-72.4963867">
        <ele>229.09</ele>
      </trkpt>
      <trkpt lat="45.30768" lon="-72.49525">
        <ele>235.14</ele>
      </trkpt>
      <trkpt lat="45.30758" lon="-72.49463">
        <ele>241.3</ele>
      </trkpt>
      <trkpt lat="45.30756" lon="-72.49392">
        <ele>244.29</ele>
      </trkpt>
      <trkpt lat="45.307555" lon="-72.493245">
        <ele>247.86</ele>
      </trkpt>
      <trkpt lat="45.30755" lon="-72.49257">
        <ele>249.87</ele>
      </trkpt>
      <trkpt lat="45.30755" lon="-72.49257">
        <ele>249.83</ele>
      </trkpt>
      <trkpt lat="45.307545" lon="-72.49147">
        <ele>253.26</ele>
      </trkpt>
      <trkpt lat="45.30754" lon="-72.49037">
        <ele>257.26</ele>
      </trkpt>
      <trkpt lat="45.30752" lon="-72.48957">
        <ele>261.98</ele>
      </trkpt>
      <trkpt lat="45.30745" lon="-72.48905">
        <ele>263.61</ele>
      </trkpt>
      <trkpt lat="45.30741" lon="-72.48882">
        <ele>263.89</ele>
      </trkpt>
      <trkpt lat="45.307195" lon="-72.48799">
        <ele>266.52</ele>
      </trkpt>
      <trkpt lat="45.30698" lon="-72.48716">
        <ele>267.61</ele>
      </trkpt>
      <trkpt lat="45.30689" lon="-72.48707">
        <ele>267.91</ele>
      </trkpt>
      <trkpt lat="45.30678" lon="-72.48706">
        <ele>267.98</ele>
      </trkpt>
      <trkpt lat="45.30646" lon="-72.48719">
        <ele>267.55</ele>
      </trkpt>
      <trkpt lat="45.305785" lon="-72.48748">
        <ele>265.17</ele>
      </trkpt>
      <trkpt lat="45.30511" lon="-72.48777">
        <ele>261.61</ele>
      </trkpt>
      <trkpt lat="45.30465" lon="-72.487935">
        <ele>260.3</ele>
      </trkpt>
      <trkpt lat="45.30419" lon="-72.4881">
        <ele>258.95</ele>
      </trkpt>
      <trkpt lat="45.30375" lon="-72.4883">
        <ele>256.38</ele>
      </trkpt>
      <trkpt lat="45.30321" lon="-72.4885">
        <ele>253.34</ele>
      </trkpt>
      <trkpt lat="45.30307" lon="-72.48858">
        <ele>252.06</ele>
      </trkpt>
      <trkpt lat="45.3028" lon="-72.4888">
        <ele>251.05</ele>
      </trkpt>
      <trkpt lat="45.3022225" lon="-72.4893725">
        <ele>248.39</ele>
      </trkpt>
      <trkpt lat="45.301645" lon="-72.489945">
        <ele>246.48</ele>
      </trkpt>
      <trkpt lat="45.3010675" lon="-72.4905175">
        <ele>244.3</ele>
      </trkpt>
      <trkpt lat="45.30049" lon="-72.49109">
        <ele>241.79</ele>
      </trkpt>
      <trkpt lat="45.30049" lon="-72.4911">
        <ele>241.76</ele>
      </trkpt>
      <trkpt lat="45.299885" lon="-72.491675">
        <ele>237.02</ele>
      </trkpt>
      <trkpt lat="45.29928" lon="-72.49225">
        <ele>234.55</ele>
      </trkpt>
      <trkpt lat="45.298915" lon="-72.492655">
        <ele>232.97</ele>
      </trkpt>
      <trkpt lat="45.29855" lon="-72.49306">
        <ele>230.05</ele>
      </trkpt>
      <trkpt lat="45.2981" lon="-72.49351">
        <ele>228.98</ele>
      </trkpt>
      <trkpt lat="45.297715" lon="-72.49393">
        <ele>226.84</ele>
      </trkpt>
      <trkpt lat="45.29733" lon="-72.49435">
        <ele>223.92</ele>
      </trkpt>
      <trkpt lat="45.29706" lon="-72.49455">
        <ele>224.31</ele>
      </trkpt>
      <trkpt lat="45.29703" lon="-72.49444">
        <ele>224.31</ele>
      </trkpt>
      <trkpt lat="45.29698" lon="-72.493775">
        <ele>226.13</ele>
      </trkpt>
      <trkpt lat="45.29693" lon="-72.49311">
        <ele>229.85</ele>
      </trkpt>
      <trkpt lat="45.29691" lon="-72.49262">
        <ele>231.51</ele>
      </trkpt>
      <trkpt lat="45.2969138" lon="-72.491475">
        <ele>234.76</ele>
      </trkpt>
      <trkpt lat="45.2969176" lon="-72.49033">
        <ele>238.86</ele>
      </trkpt>
      <trkpt lat="45.2969213" lon="-72.489185">
        <ele>243.56</ele>
      </trkpt>
      <trkpt lat="45.2969251" lon="-72.48804">
        <ele>243.59</ele>
      </trkpt>
      <trkpt lat="45.2969288" lon="-72.486895">
        <ele>244.25</ele>
      </trkpt>
      <trkpt lat="45.2969326" lon="-72.48575">
        <ele>244.54</ele>
      </trkpt>
      <trkpt lat="45.2969363" lon="-72.484605">
        <ele>244.83</ele>
      </trkpt>
      <trkpt lat="45.29694" lon="-72.48346">
        <ele>244.52</ele>
      </trkpt>
      <trkpt lat="45.29694" lon="-72.48346">
        <ele>244.52</ele>
      </trkpt>
      <trkpt lat="45.2969425" lon="-72.482255">
        <ele>246.3</ele>
      </trkpt>
      <trkpt lat="45.296945" lon="-72.48105">
        <ele>247.98</ele>
      </trkpt>
      <trkpt lat="45.2969475" lon="-72.479845">
        <ele>248.83</ele>
      </trkpt>
      <trkpt lat="45.29695" lon="-72.47864">
        <ele>247.38</ele>
      </trkpt>
      <trkpt lat="45.29696" lon="-72.47835">
        <ele>247.57</ele>
      </trkpt>
      <trkpt lat="45.2972233" lon="-72.4773333">
        <ele>248.29</ele>
      </trkpt>
      <trkpt lat="45.2974867" lon="-72.4763167">
        <ele>248.07</ele>
      </trkpt>
      <trkpt lat="45.29775" lon="-72.4753">
        <ele>248.5</ele>
      </trkpt>
      <trkpt lat="45.2980133" lon="-72.47435">
        <ele>251.59</ele>
      </trkpt>
      <trkpt lat="45.2982767" lon="-72.4734">
        <ele>253.61</ele>
      </trkpt>
      <trkpt lat="45.29854" lon="-72.47245">
        <ele>255.15</ele>
      </trkpt>
      <trkpt lat="45.297955" lon="-72.471855">
        <ele>254.29</ele>
      </trkpt>
      <trkpt lat="45.29737" lon="-72.47126">
        <ele>253.84</ele>
      </trkpt>
      <trkpt lat="45.296785" lon="-72.47063">
        <ele>252.4</ele>
      </trkpt>
      <trkpt lat="45.2962" lon="-72.47">
        <ele>250.97</ele>
      </trkpt>
      <trkpt lat="45.2955033" lon="-72.4693033">
        <ele>250.4</ele>
      </trkpt>
      <trkpt lat="45.2948067" lon="-72.4686066">
        <ele>248.95</ele>
      </trkpt>
      <trkpt lat="45.29411" lon="-72.4679099">
        <ele>248.09</ele>
      </trkpt>
      <trkpt lat="45.2934134" lon="-72.4672133">
        <ele>245.74</ele>
      </trkpt>
      <trkpt lat="45.2927167" lon="-72.4665166">
        <ele>242.27</ele>
      </trkpt>
      <trkpt lat="45.29202" lon="-72.46582">
        <ele>238.3</ele>
      </trkpt>
      <trkpt lat="45.29202" lon="-72.46581">
        <ele>238.29</ele>
      </trkpt>
      <trkpt lat="45.2913" lon="-72.46509">
        <ele>236.04</ele>
      </trkpt>
      <trkpt lat="45.29062" lon="-72.46448">
        <ele>233.39</ele>
      </trkpt>
      <trkpt lat="45.28994" lon="-72.46387">
        <ele>230.83</ele>
      </trkpt>
      <trkpt lat="45.28933" lon="-72.46335">
        <ele>227.37</ele>
      </trkpt>
      <trkpt lat="45.28872" lon="-72.46283">
        <ele>224.48</ele>
      </trkpt>
      <trkpt lat="45.28811" lon="-72.46231">
        <ele>222.58</ele>
      </trkpt>
      <trkpt lat="45.28746" lon="-72.461765">
        <ele>217.32</ele>
      </trkpt>
      <trkpt lat="45.28681" lon="-72.46122">
        <ele>216.57</ele>
      </trkpt>
      <trkpt lat="45.28616" lon="-72.460675">
        <ele>217.12</ele>
      </trkpt>
      <trkpt lat="45.28551" lon="-72.46013">
        <ele>214.75</ele>
      </trkpt>
      <trkpt lat="45.28487" lon="-72.45965">
        <ele>214.53</ele>
      </trkpt>
      <trkpt lat="45.2840867" lon="-72.45908">
        <ele>214.33</ele>
      </trkpt>
      <trkpt lat="45.2833033" lon="-72.45851">
        <ele>214.08</ele>
      </trkpt>
      <trkpt lat="45.28252" lon="-72.45794">
        <ele>215.73</ele>
      </trkpt>
      <trkpt lat="45.28221" lon="-72.45769">
        <ele>217.07</ele>
      </trkpt>
      <trkpt lat="45.28152" lon="-72.45704">
        <ele>221.39</ele>
      </trkpt>
      <trkpt lat="45.28083" lon="-72.45639">
        <ele>224</ele>
      </trkpt>
      <trkpt lat="45.2802333" lon="-72.4558667">
        <ele>232.46</ele>
      </trkpt>
      <trkpt lat="45.2796367" lon="-72.4553433">
        <ele>239.32</ele>
      </trkpt>
      <trkpt lat="45.27904" lon="-72.45482">
        <ele>243.7</ele>
      </trkpt>
      <trkpt lat="45.27879" lon="-72.45456">
        <ele>247.02</ele>
      </trkpt>
      <trkpt lat="45.27851" lon="-72.45422">
        <ele>249.39</ele>
      </trkpt>
      <trkpt lat="45.27816" lon="-72.45384">
        <ele>250.72</ele>
      </trkpt>
      <trkpt lat="45.27782" lon="-72.45339">
        <ele>252.95</ele>
      </trkpt>
      <trkpt lat="45.277325" lon="-72.452675">
        <ele>257.54</ele>
      </trkpt>
      <trkpt lat="45.27683" lon="-72.45196">
        <ele>264.03</ele>
      </trkpt>
      <trkpt lat="45.27648" lon="-72.45147">
        <ele>267.01</ele>
      </trkpt>
      <trkpt lat="45.27602" lon="-72.4509">
        <ele>271.86</ele>
      </trkpt>
      <trkpt lat="45.27588" lon="-72.45076">
        <ele>272.9</ele>
      </trkpt>
      <trkpt lat="45.27558" lon="-72.45053">
        <ele>274.47</ele>
      </trkpt>
      <trkpt lat="45.27485" lon="-72.45016">
        <ele>276.25</ele>
      </trkpt>
      <trkpt lat="45.274152" lon="-72.449848">
        <ele>276.89</ele>
      </trkpt>
      <trkpt lat="45.273454" lon="-72.449536">
        <ele>277.84</ele>
      </trkpt>
      <trkpt lat="45.272756" lon="-72.449224">
        <ele>279.15</ele>
      </trkpt>
      <trkpt lat="45.272058" lon="-72.448912">
        <ele>279.84</ele>
      </trkpt>
      <trkpt lat="45.27136" lon="-72.4486">
        <ele>281.41</ele>
      </trkpt>
      <trkpt lat="45.27099" lon="-72.44839">
        <ele>282.28</ele>
      </trkpt>
      <trkpt lat="45.27065" lon="-72.44813">
        <ele>283.05</ele>
      </trkpt>
      <trkpt lat="45.2703" lon="-72.44779">
        <ele>283.1</ele>
      </trkpt>
      <trkpt lat="45.26979" lon="-72.44718">
        <ele>281.34</ele>
      </trkpt>
      <trkpt lat="45.26928" lon="-72.44657">
        <ele>278.4</ele>
      </trkpt>
      <trkpt lat="45.26877" lon="-72.44596">
        <ele>275.63</ele>
      </trkpt>
      <trkpt lat="45.26816" lon="-72.44526">
        <ele>273.9</ele>
      </trkpt>
      <trkpt lat="45.26762" lon="-72.44475">
        <ele>274.39</ele>
      </trkpt>
      <trkpt lat="45.2670067" lon="-72.4442">
        <ele>275.64</ele>
      </trkpt>
      <trkpt lat="45.2663933" lon="-72.44365">
        <ele>276.48</ele>
      </trkpt>
      <trkpt lat="45.26578" lon="-72.4431">
        <ele>278.64</ele>
      </trkpt>
      <trkpt lat="45.2653" lon="-72.44261">
        <ele>280.95</ele>
      </trkpt>
      <trkpt lat="45.2653" lon="-72.44261">
        <ele>280.96</ele>
      </trkpt>
      <trkpt lat="45.26489" lon="-72.44215">
        <ele>282.51</ele>
      </trkpt>
      <trkpt lat="45.26449" lon="-72.44158">
        <ele>284.13</ele>
      </trkpt>
      <trkpt lat="45.26427" lon="-72.44122">
        <ele>285.99</ele>
      </trkpt>
      <trkpt lat="45.26398" lon="-72.44057">
        <ele>288</ele>
      </trkpt>
      <trkpt lat="45.263745" lon="-72.439955">
        <ele>290.15</ele>
      </trkpt>
      <trkpt lat="45.26351" lon="-72.43934">
        <ele>293.05</ele>
      </trkpt>
      <trkpt lat="45.26343" lon="-72.43917">
        <ele>293.96</ele>
      </trkpt>
      <trkpt lat="45.26328" lon="-72.439">
        <ele>294.44</ele>
      </trkpt>
      <trkpt lat="45.26314" lon="-72.43893">
        <ele>294.47</ele>
      </trkpt>
      <trkpt lat="45.26255" lon="-72.43891">
        <ele>293.84</ele>
      </trkpt>
      <trkpt lat="45.26185" lon="-72.43895">
        <ele>291.94</ele>
      </trkpt>
      <trkpt lat="45.26115" lon="-72.43899">
        <ele>287.7</ele>
      </trkpt>
      <trkpt lat="45.260595" lon="-72.439005">
        <ele>288.98</ele>
      </trkpt>
      <trkpt lat="45.26004" lon="-72.43902">
        <ele>291.69</ele>
      </trkpt>
      <trkpt lat="45.25968" lon="-72.43911">
        <ele>291.79</ele>
      </trkpt>
      <trkpt lat="45.2595" lon="-72.43918">
        <ele>291.71</ele>
      </trkpt>
      <trkpt lat="45.25922" lon="-72.43934">
        <ele>291.09</ele>
      </trkpt>
      <trkpt lat="45.2584567" lon="-72.4398">
        <ele>288.09</ele>
      </trkpt>
      <trkpt lat="45.2576933" lon="-72.44026">
        <ele>286.48</ele>
      </trkpt>
      <trkpt lat="45.25693" lon="-72.44072">
        <ele>284.21</ele>
      </trkpt>
      <trkpt lat="45.256325" lon="-72.441215">
        <ele>289.27</ele>
      </trkpt>
      <trkpt lat="45.25572" lon="-72.44171">
        <ele>292.08</ele>
      </trkpt>
      <trkpt lat="45.25532" lon="-72.44218">
        <ele>292.55</ele>
      </trkpt>
      <trkpt lat="45.25492" lon="-72.44265">
        <ele>292.45</ele>
      </trkpt>
      <trkpt lat="45.2543833" lon="-72.44338">
        <ele>291.13</ele>
      </trkpt>
      <trkpt lat="45.2538467" lon="-72.44411">
        <ele>289.62</ele>
      </trkpt>
      <trkpt lat="45.25331" lon="-72.44484">
        <ele>287.91</ele>
      </trkpt>
      <trkpt lat="45.2527033" lon="-72.4454833">
        <ele>285.45</ele>
      </trkpt>
      <trkpt lat="45.2520967" lon="-72.4461267">
        <ele>286.13</ele>
      </trkpt>
      <trkpt lat="45.25149" lon="-72.44677">
        <ele>285.35</ele>
      </trkpt>
      <trkpt lat="45.25077" lon="-72.44751">
        <ele>281.94</ele>
      </trkpt>
      <trkpt lat="45.25005" lon="-72.44825">
        <ele>279.19</ele>
      </trkpt>
      <trkpt lat="45.249675" lon="-72.44868">
        <ele>276.7</ele>
      </trkpt>
      <trkpt lat="45.2493" lon="-72.44911">
        <ele>275.25</ele>
      </trkpt>
      <trkpt lat="45.24877" lon="-72.4498">
        <ele>274.11</ele>
      </trkpt>
      <trkpt lat="45.24824" lon="-72.45049">
        <ele>273.45</ele>
      </trkpt>
      <trkpt lat="45.24772" lon="-72.45102">
        <ele>270.51</ele>
      </trkpt>
      <trkpt lat="45.24742" lon="-72.45125">
        <ele>269.12</ele>
      </trkpt>
      <trkpt lat="45.24687" lon="-72.45156">
        <ele>267.31</ele>
      </trkpt>
      <trkpt lat="45.24654" lon="-72.45183">
        <ele>265.47</ele>
      </trkpt>
      <trkpt lat="45.24635" lon="-72.45201">
        <ele>265.47</ele>
      </trkpt>
      <trkpt lat="45.24604" lon="-72.45237">
        <ele>264.02</ele>
      </trkpt>
      <trkpt lat="45.24548" lon="-72.45283">
        <ele>260.61</ele>
      </trkpt>
      <trkpt lat="45.24548" lon="-72.45283">
        <ele>260.61</ele>
      </trkpt>
      <trkpt lat="45.24505" lon="-72.4532">
        <ele>258.35</ele>
      </trkpt>
      <trkpt lat="45.24462" lon="-72.45357">
        <ele>257.01</ele>
      </trkpt>
      <trkpt lat="45.24413" lon="-72.45407">
        <ele>256.99</ele>
      </trkpt>
      <trkpt lat="45.2435" lon="-72.45472">
        <ele>258.76</ele>
      </trkpt>
      <trkpt lat="45.2431" lon="-72.455195">
        <ele>260.28</ele>
      </trkpt>
      <trkpt lat="45.2427" lon="-72.45567">
        <ele>260.89</ele>
      </trkpt>
      <trkpt lat="45.24233" lon="-72.45599">
        <ele>261.62</ele>
      </trkpt>
      <trkpt lat="45.24163" lon="-72.45644">
        <ele>262.37</ele>
      </trkpt>
      <trkpt lat="45.2414" lon="-72.45662">
        <ele>261.34</ele>
      </trkpt>
      <trkpt lat="45.24099" lon="-72.45704">
        <ele>261.05</ele>
      </trkpt>
      <trkpt lat="45.24081" lon="-72.4572">
        <ele>261.35</ele>
      </trkpt>
      <trkpt lat="45.24038" lon="-72.4577">
        <ele>264.57</ele>
      </trkpt>
      <trkpt lat="45.24012" lon="-72.45792">
        <ele>268.43</ele>
      </trkpt>
      <trkpt lat="45.23956" lon="-72.458185">
        <ele>271.07</ele>
      </trkpt>
      <trkpt lat="45.239" lon="-72.45845">
        <ele>270.92</ele>
      </trkpt>
      <trkpt lat="45.23858" lon="-72.4585">
        <ele>272.47</ele>
      </trkpt>
      <trkpt lat="45.23781" lon="-72.45851">
        <ele>271.83</ele>
      </trkpt>
      <trkpt lat="45.23731" lon="-72.45846">
        <ele>269.07</ele>
      </trkpt>
      <trkpt lat="45.23681" lon="-72.45841">
        <ele>266.71</ele>
      </trkpt>
      <trkpt lat="45.23618" lon="-72.45841">
        <ele>265.16</ele>
      </trkpt>
      <trkpt lat="45.23593" lon="-72.45845">
        <ele>265.16</ele>
      </trkpt>
      <trkpt lat="45.23522" lon="-72.45862">
        <ele>266.46</ele>
      </trkpt>
      <trkpt lat="45.234655" lon="-72.458785">
        <ele>268.96</ele>
      </trkpt>
      <trkpt lat="45.23409" lon="-72.45895">
        <ele>268.67</ele>
      </trkpt>
      <trkpt lat="45.23377" lon="-72.45908">
        <ele>266.56</ele>
      </trkpt>
      <trkpt lat="45.23358" lon="-72.45922">
        <ele>265.47</ele>
      </trkpt>
      <trkpt lat="45.23313" lon="-72.45966">
        <ele>264.48</ele>
      </trkpt>
      <trkpt lat="45.232655" lon="-72.460155">
        <ele>264.7</ele>
      </trkpt>
      <trkpt lat="45.23218" lon="-72.46065">
        <ele>266.95</ele>
      </trkpt>
      <trkpt lat="45.23173" lon="-72.461075">
        <ele>269.19</ele>
      </trkpt>
      <trkpt lat="45.23128" lon="-72.4615">
        <ele>273.45</ele>
      </trkpt>
      <trkpt lat="45.23092" lon="-72.4619">
        <ele>277.6</ele>
      </trkpt>
      <trkpt lat="45.23077" lon="-72.46204">
        <ele>278.42</ele>
      </trkpt>
      <trkpt lat="45.23002" lon="-72.46245">
        <ele>276.5</ele>
      </trkpt>
      <trkpt lat="45.2299" lon="-72.46254">
        <ele>276.6</ele>
      </trkpt>
      <trkpt lat="45.22911" lon="-72.46293">
        <ele>277.3</ele>
      </trkpt>
      <trkpt lat="45.2285" lon="-72.463375">
        <ele>275.18</ele>
      </trkpt>
      <trkpt lat="45.22789" lon="-72.46382">
        <ele>273.6</ele>
      </trkpt>
      <trkpt lat="45.22752" lon="-72.46415">
        <ele>272.28</ele>
      </trkpt>
      <trkpt lat="45.22749" lon="-72.46454">
        <ele>270.37</ele>
      </trkpt>
      <trkpt lat="45.227485" lon="-72.465345">
        <ele>267.93</ele>
      </trkpt>
      <trkpt lat="45.22748" lon="-72.46615">
        <ele>265.48</ele>
      </trkpt>
      <trkpt lat="45.22752" lon="-72.467396">
        <ele>259.22</ele>
      </trkpt>
      <trkpt lat="45.22756" lon="-72.468642">
        <ele>257.03</ele>
      </trkpt>
      <trkpt lat="45.2276" lon="-72.469888">
        <ele>256.67</ele>
      </trkpt>
      <trkpt lat="45.22764" lon="-72.471134">
        <ele>254.83</ele>
      </trkpt>
      <trkpt lat="45.22768" lon="-72.47238">
        <ele>252.33</ele>
      </trkpt>
      <trkpt lat="45.227775" lon="-72.473475">
        <ele>254.28</ele>
      </trkpt>
      <trkpt lat="45.22787" lon="-72.47457">
        <ele>260.04</ele>
      </trkpt>
      <trkpt lat="45.22786" lon="-72.47506">
        <ele>260.78</ele>
      </trkpt>
      <trkpt lat="45.22781" lon="-72.476">
        <ele>261.9</ele>
      </trkpt>
      <trkpt lat="45.22776" lon="-72.4765">
        <ele>262.08</ele>
      </trkpt>
      <trkpt lat="45.22751" lon="-72.47735">
        <ele>260.59</ele>
      </trkpt>
      <trkpt lat="45.22743" lon="-72.47749">
        <ele>260.19</ele>
      </trkpt>
      <trkpt lat="45.22717" lon="-72.47788">
        <ele>257.72</ele>
      </trkpt>
      <trkpt lat="45.22674" lon="-72.47838">
        <ele>253.85</ele>
      </trkpt>
      <trkpt lat="45.22651" lon="-72.4787">
        <ele>249.92</ele>
      </trkpt>
      <trkpt lat="45.22609" lon="-72.47923">
        <ele>245.49</ele>
      </trkpt>
      <trkpt lat="45.22567" lon="-72.47976">
        <ele>242.02</ele>
      </trkpt>
      <trkpt lat="45.22567" lon="-72.47975">
        <ele>242.06</ele>
      </trkpt>
      <trkpt lat="45.22516" lon="-72.480395">
        <ele>240.46</ele>
      </trkpt>
      <trkpt lat="45.22465" lon="-72.48104">
        <ele>240.46</ele>
      </trkpt>
      <trkpt lat="45.22414" lon="-72.481685">
        <ele>242.99</ele>
      </trkpt>
      <trkpt lat="45.22363" lon="-72.48233">
        <ele>242.56</ele>
      </trkpt>
      <trkpt lat="45.22339" lon="-72.48271">
        <ele>239.6</ele>
      </trkpt>
      <trkpt lat="45.22321" lon="-72.48304">
        <ele>238.44</ele>
      </trkpt>
      <trkpt lat="45.22315" lon="-72.48321">
        <ele>237.89</ele>
      </trkpt>
      <trkpt lat="45.22304" lon="-72.48375">
        <ele>237.31</ele>
      </trkpt>
      <trkpt lat="45.22295" lon="-72.48464">
        <ele>237.54</ele>
      </trkpt>
      <trkpt lat="45.2229367" lon="-72.48591">
        <ele>240.9</ele>
      </trkpt>
      <trkpt lat="45.2229233" lon="-72.48718">
        <ele>245.04</ele>
      </trkpt>
      <trkpt lat="45.22291" lon="-72.48845">
        <ele>245.22</ele>
      </trkpt>
      <trkpt lat="45.22291" lon="-72.48873">
        <ele>244.95</ele>
      </trkpt>
      <trkpt lat="45.22282" lon="-72.4893">
        <ele>243.96</ele>
      </trkpt>
      <trkpt lat="45.2227" lon="-72.48961">
        <ele>242.83</ele>
      </trkpt>
      <trkpt lat="45.22254" lon="-72.48986">
        <ele>242.64</ele>
      </trkpt>
      <trkpt lat="45.22185" lon="-72.4906">
        <ele>243.78</ele>
      </trkpt>
      <trkpt lat="45.22164" lon="-72.49086">
        <ele>244.91</ele>
      </trkpt>
      <trkpt lat="45.22125" lon="-72.49176">
        <ele>245.68</ele>
      </trkpt>
      <trkpt lat="45.22098" lon="-72.492535">
        <ele>245.07</ele>
      </trkpt>
      <trkpt lat="45.22071" lon="-72.49331">
        <ele>244.38</ele>
      </trkpt>
      <trkpt lat="45.22061" lon="-72.49383">
        <ele>242.08</ele>
      </trkpt>
      <trkpt lat="45.22059" lon="-72.49401">
        <ele>241.38</ele>
      </trkpt>
      <trkpt lat="45.22063" lon="-72.49445">
        <ele>238</ele>
      </trkpt>
      <trkpt lat="45.22072" lon="-72.49483">
        <ele>235.67</ele>
      </trkpt>
      <trkpt lat="45.22087" lon="-72.49526">
        <ele>234.21</ele>
      </trkpt>
      <trkpt lat="45.2213" lon="-72.49633">
        <ele>227.41</ele>
      </trkpt>
      <trkpt lat="45.22135" lon="-72.49651">
        <ele>226.14</ele>
      </trkpt>
      <trkpt lat="45.22137" lon="-72.49672">
        <ele>225.38</ele>
      </trkpt>
      <trkpt lat="45.22139" lon="-72.49733">
        <ele>224.3</ele>
      </trkpt>
      <trkpt lat="45.2214" lon="-72.49844">
        <ele>221.02</ele>
      </trkpt>
      <trkpt lat="45.22139" lon="-72.499225">
        <ele>218.91</ele>
      </trkpt>
      <trkpt lat="45.22138" lon="-72.50001">
        <ele>220.18</ele>
      </trkpt>
      <trkpt lat="45.221385" lon="-72.500705">
        <ele>223.49</ele>
      </trkpt>
      <trkpt lat="45.22139" lon="-72.5014">
        <ele>224.71</ele>
      </trkpt>
      <trkpt lat="45.22151" lon="-72.50211">
        <ele>222.55</ele>
      </trkpt>
      <trkpt lat="45.22153" lon="-72.5025">
        <ele>221.79</ele>
      </trkpt>
      <trkpt lat="45.22149" lon="-72.50269">
        <ele>221.63</ele>
      </trkpt>
      <trkpt lat="45.22117" lon="-72.50364">
        <ele>222.84</ele>
      </trkpt>
      <trkpt lat="45.2208" lon="-72.50464">
        <ele>223.73</ele>
      </trkpt>
      <trkpt lat="45.22043" lon="-72.50564">
        <ele>223.79</ele>
      </trkpt>
      <trkpt lat="45.22026" lon="-72.50596">
        <ele>223.13</ele>
      </trkpt>
      <trkpt lat="45.21984" lon="-72.506695">
        <ele>223.03</ele>
      </trkpt>
      <trkpt lat="45.21942" lon="-72.50743">
        <ele>221.62</ele>
      </trkpt>
      <trkpt lat="45.21886" lon="-72.50835">
        <ele>219.9</ele>
      </trkpt>
      <trkpt lat="45.21898" lon="-72.5091">
        <ele>217.45</ele>
      </trkpt>
      <trkpt lat="45.21913" lon="-72.50986">
        <ele>215.7</ele>
      </trkpt>
      <trkpt lat="45.21933" lon="-72.51052">
        <ele>214.61</ele>
      </trkpt>
      <trkpt lat="45.219625" lon="-72.51123">
        <ele>212.38</ele>
      </trkpt>
      <trkpt lat="45.21992" lon="-72.51194">
        <ele>211.84</ele>
      </trkpt>
      <trkpt lat="45.2202" lon="-72.51254">
        <ele>212.58</ele>
      </trkpt>
      <trkpt lat="45.22048" lon="-72.51314">
        <ele>212.19</ele>
      </trkpt>
      <trkpt lat="45.2208567" lon="-72.5139967">
        <ele>209.79</ele>
      </trkpt>
      <trkpt lat="45.2212333" lon="-72.5148533">
        <ele>209.94</ele>
      </trkpt>
      <trkpt lat="45.22161" lon="-72.51571">
        <ele>209.28</ele>
      </trkpt>
      <trkpt lat="45.22181" lon="-72.51627">
        <ele>208.9</ele>
      </trkpt>
      <trkpt lat="45.22188" lon="-72.51695">
        <ele>208.92</ele>
      </trkpt>
      <trkpt lat="45.22192" lon="-72.51783">
        <ele>209.18</ele>
      </trkpt>
      <trkpt lat="45.22196" lon="-72.51871">
        <ele>209.73</ele>
      </trkpt>
      <trkpt lat="45.22201" lon="-72.51898">
        <ele>209.62</ele>
      </trkpt>
      <trkpt lat="45.2221" lon="-72.51929">
        <ele>209.15</ele>
      </trkpt>
      <trkpt lat="45.2224" lon="-72.52006">
        <ele>208.26</ele>
      </trkpt>
      <trkpt lat="45.22249" lon="-72.52033">
        <ele>208.18</ele>
      </trkpt>
      <trkpt lat="45.22266" lon="-72.52095">
        <ele>207.83</ele>
      </trkpt>
      <trkpt lat="45.22275" lon="-72.5214">
        <ele>207.5</ele>
      </trkpt>
      <trkpt lat="45.22279" lon="-72.52211">
        <ele>206.59</ele>
      </trkpt>
      <trkpt lat="45.22279" lon="-72.52248">
        <ele>206.46</ele>
      </trkpt>
      <trkpt lat="45.22277" lon="-72.52283">
        <ele>205.99</ele>
      </trkpt>
      <trkpt lat="45.22272" lon="-72.52306">
        <ele>205.46</ele>
      </trkpt>
      <trkpt lat="45.22259" lon="-72.52337">
        <ele>204.48</ele>
      </trkpt>
      <trkpt lat="45.22192" lon="-72.52412">
        <ele>201.65</ele>
      </trkpt>
      <trkpt lat="45.221425" lon="-72.524615">
        <ele>201.75</ele>
      </trkpt>
      <trkpt lat="45.22093" lon="-72.52511">
        <ele>202.67</ele>
      </trkpt>
      <trkpt lat="45.22121" lon="-72.5261175">
        <ele>202.03</ele>
      </trkpt>
      <trkpt lat="45.22149" lon="-72.527125">
        <ele>201.74</ele>
      </trkpt>
      <trkpt lat="45.22177" lon="-72.5281325">
        <ele>202.07</ele>
      </trkpt>
      <trkpt lat="45.22205" lon="-72.52914">
        <ele>202.45</ele>
      </trkpt>
      <trkpt lat="45.22218" lon="-72.52972">
        <ele>202.8</ele>
      </trkpt>
      <trkpt lat="45.22227" lon="-72.53042">
        <ele>202.68</ele>
      </trkpt>
      <trkpt lat="45.2222967" lon="-72.53128">
        <ele>202.53</ele>
      </trkpt>
      <trkpt lat="45.2223233" lon="-72.53214">
        <ele>202.18</ele>
      </trkpt>
      <trkpt lat="45.22235" lon="-72.533">
        <ele>202.06</ele>
      </trkpt>
      <trkpt lat="45.22231" lon="-72.53398">
        <ele>200.13</ele>
      </trkpt>
      <trkpt lat="45.222325" lon="-72.53497">
        <ele>199.44</ele>
      </trkpt>
      <trkpt lat="45.22234" lon="-72.53596">
        <ele>200.51</ele>
      </trkpt>
      <trkpt lat="45.22238" lon="-72.5368233">
        <ele>207.12</ele>
      </trkpt>
      <trkpt lat="45.22242" lon="-72.5376867">
        <ele>211.79</ele>
      </trkpt>
      <trkpt lat="45.22246" lon="-72.53855">
        <ele>212.95</ele>
      </trkpt>
      <trkpt lat="45.22263" lon="-72.53954">
        <ele>219.16</ele>
      </trkpt>
      <trkpt lat="45.22259" lon="-72.53977">
        <ele>220.62</ele>
      </trkpt>
      <trkpt lat="45.22248" lon="-72.54007">
        <ele>223.13</ele>
      </trkpt>
      <trkpt lat="45.22232" lon="-72.54042">
        <ele>223.99</ele>
      </trkpt>
      <trkpt lat="45.22203" lon="-72.54096">
        <ele>229.58</ele>
      </trkpt>
      <trkpt lat="45.22193" lon="-72.5411">
        <ele>231.51</ele>
      </trkpt>
      <trkpt lat="45.22159" lon="-72.54145">
        <ele>237.11</ele>
      </trkpt>
      <trkpt lat="45.22148" lon="-72.54159">
        <ele>237.11</ele>
      </trkpt>
      <trkpt lat="45.22141" lon="-72.54174">
        <ele>239.02</ele>
      </trkpt>
      <trkpt lat="45.22136" lon="-72.54209">
        <ele>241.62</ele>
      </trkpt>
      <trkpt lat="45.22139" lon="-72.5424">
        <ele>243.06</ele>
      </trkpt>
      <trkpt lat="45.22154" lon="-72.5428">
        <ele>244.67</ele>
      </trkpt>
      <trkpt lat="45.22198" lon="-72.54353">
        <ele>248.82</ele>
      </trkpt>
      <trkpt lat="45.22242" lon="-72.54426">
        <ele>253.17</ele>
      </trkpt>
      <trkpt lat="45.22258" lon="-72.54459">
        <ele>255.22</ele>
      </trkpt>
      <trkpt lat="45.2226" lon="-72.54465">
        <ele>255.22</ele>
      </trkpt>
      <trkpt lat="45.222635" lon="-72.5459">
        <ele>255.99</ele>
      </trkpt>
      <trkpt lat="45.22267" lon="-72.54715">
        <ele>252.95</ele>
      </trkpt>
      <trkpt lat="45.22267" lon="-72.54717">
        <ele>252.96</ele>
      </trkpt>
      <trkpt lat="45.2226833" lon="-72.54827">
        <ele>254.99</ele>
      </trkpt>
      <trkpt lat="45.2226967" lon="-72.54937">
        <ele>258.58</ele>
      </trkpt>
      <trkpt lat="45.22271" lon="-72.55047">
        <ele>264.22</ele>
      </trkpt>
      <trkpt lat="45.222755" lon="-72.551115">
        <ele>268.3</ele>
      </trkpt>
      <trkpt lat="45.2228" lon="-72.55176">
        <ele>273.89</ele>
      </trkpt>
      <trkpt lat="45.222816" lon="-72.552798">
        <ele>275.78</ele>
      </trkpt>
      <trkpt lat="45.222832" lon="-72.553836">
        <ele>276.59</ele>
      </trkpt>
      <trkpt lat="45.222848" lon="-72.554874">
        <ele>274.75</ele>
      </trkpt>
      <trkpt lat="45.222864" lon="-72.555912">
        <ele>270.12</ele>
      </trkpt>
      <trkpt lat="45.22288" lon="-72.55695">
        <ele>267.68</ele>
      </trkpt>
      <trkpt lat="45.22287" lon="-72.55762">
        <ele>265.26</ele>
      </trkpt>
      <trkpt lat="45.22282" lon="-72.55816">
        <ele>262.64</ele>
      </trkpt>
      <trkpt lat="45.22283" lon="-72.559055">
        <ele>255.19</ele>
      </trkpt>
      <trkpt lat="45.22284" lon="-72.55995">
        <ele>253.55</ele>
      </trkpt>
      <trkpt lat="45.2228167" lon="-72.561115">
        <ele>257.63</ele>
      </trkpt>
      <trkpt lat="45.2227934" lon="-72.56228">
        <ele>263.48</ele>
      </trkpt>
      <trkpt lat="45.2227701" lon="-72.563445">
        <ele>268.41</ele>
      </trkpt>
      <trkpt lat="45.2227467" lon="-72.56461">
        <ele>273.6</ele>
      </trkpt>
      <trkpt lat="45.2227234" lon="-72.565775">
        <ele>282.61</ele>
      </trkpt>
      <trkpt lat="45.2227" lon="-72.56694">
        <ele>286.26</ele>
      </trkpt>
      <trkpt lat="45.2226863" lon="-72.5680588">
        <ele>286.04</ele>
      </trkpt>
      <trkpt lat="45.2226726" lon="-72.5691775">
        <ele>282.24</ele>
      </trkpt>
      <trkpt lat="45.2226588" lon="-72.5702963">
        <ele>278.37</ele>
      </trkpt>
      <trkpt lat="45.2226451" lon="-72.571415">
        <ele>272.55</ele>
      </trkpt>
      <trkpt lat="45.2226313" lon="-72.5725338">
        <ele>266.29</ele>
      </trkpt>
      <trkpt lat="45.2226176" lon="-72.5736525">
        <ele>259.75</ele>
      </trkpt>
      <trkpt lat="45.2226038" lon="-72.5747713">
        <ele>252.21</ele>
      </trkpt>
      <trkpt lat="45.22259" lon="-72.57589">
        <ele>245.4</ele>
      </trkpt>
      <trkpt lat="45.222595" lon="-72.57667">
        <ele>238.66</ele>
      </trkpt>
      <trkpt lat="45.2226" lon="-72.57745">
        <ele>233</ele>
      </trkpt>
      <trkpt lat="45.2226401" lon="-72.5786544">
        <ele>227.8</ele>
      </trkpt>
      <trkpt lat="45.2226802" lon="-72.5798589">
        <ele>221.52</ele>
      </trkpt>
      <trkpt lat="45.2227203" lon="-72.5810633">
        <ele>217.36</ele>
      </trkpt>
      <trkpt lat="45.2227604" lon="-72.5822677">
        <ele>214.62</ele>
      </trkpt>
      <trkpt lat="45.2228004" lon="-72.5834722">
        <ele>207.91</ele>
      </trkpt>
      <trkpt lat="45.2228405" lon="-72.5846766">
        <ele>205.06</ele>
      </trkpt>
      <trkpt lat="45.2228805" lon="-72.585881">
        <ele>202.19</ele>
      </trkpt>
      <trkpt lat="45.2229205" lon="-72.5870855">
        <ele>200.4</ele>
      </trkpt>
      <trkpt lat="45.2229605" lon="-72.5882899">
        <ele>201.07</ele>
      </trkpt>
      <trkpt lat="45.2230005" lon="-72.5894944">
        <ele>204.67</ele>
      </trkpt>
      <trkpt lat="45.2230405" lon="-72.5906988">
        <ele>209</ele>
      </trkpt>
      <trkpt lat="45.2230805" lon="-72.5919033">
        <ele>211.54</ele>
      </trkpt>
      <trkpt lat="45.2231204" lon="-72.5931077">
        <ele>214.11</ele>
      </trkpt>
      <trkpt lat="45.2231604" lon="-72.5943122">
        <ele>215.9</ele>
      </trkpt>
      <trkpt lat="45.2232003" lon="-72.5955166">
        <ele>218.94</ele>
      </trkpt>
      <trkpt lat="45.2232402" lon="-72.5967211">
        <ele>219.39</ele>
      </trkpt>
      <trkpt lat="45.2232801" lon="-72.5979255">
        <ele>221.03</ele>
      </trkpt>
      <trkpt lat="45.22332" lon="-72.59913">
        <ele>220.92</ele>
      </trkpt>
      <trkpt lat="45.2233772" lon="-72.6002514">
        <ele>218.19</ele>
      </trkpt>
      <trkpt lat="45.2234343" lon="-72.6013728">
        <ele>213.51</ele>
      </trkpt>
      <trkpt lat="45.2234915" lon="-72.6024943">
        <ele>210</ele>
      </trkpt>
      <trkpt lat="45.2235486" lon="-72.6036157">
        <ele>210.26</ele>
      </trkpt>
      <trkpt lat="45.2236058" lon="-72.6047371">
        <ele>213.95</ele>
      </trkpt>
      <trkpt lat="45.2236629" lon="-72.6058586">
        <ele>216.16</ele>
      </trkpt>
      <trkpt lat="45.22372" lon="-72.60698">
        <ele>214.51</ele>
      </trkpt>
      <trkpt lat="45.2237734" lon="-72.6082108">
        <ele>210.99</ele>
      </trkpt>
      <trkpt lat="45.2238268" lon="-72.6094416">
        <ele>209.33</ele>
      </trkpt>
      <trkpt lat="45.2238802" lon="-72.6106725">
        <ele>209.95</ele>
      </trkpt>
      <trkpt lat="45.2239335" lon="-72.6119033">
        <ele>211.84</ele>
      </trkpt>
      <trkpt lat="45.2239869" lon="-72.6131341">
        <ele>214.59</ele>
      </trkpt>
      <trkpt lat="45.2240402" lon="-72.614365">
        <ele>214.84</ele>
      </trkpt>
      <trkpt lat="45.2240936" lon="-72.6155958">
        <ele>217.26</ele>
      </trkpt>
      <trkpt lat="45.2241469" lon="-72.6168266">
        <ele>215.88</ele>
      </trkpt>
      <trkpt lat="45.2242002" lon="-72.6180575">
        <ele>213.77</ele>
      </trkpt>
      <trkpt lat="45.2242535" lon="-72.6192883">
        <ele>214.54</ele>
      </trkpt>
      <trkpt lat="45.2243067" lon="-72.6205192">
        <ele>217.65</ele>
      </trkpt>
      <trkpt lat="45.22436" lon="-72.62175">
        <ele>217.51</ele>
      </trkpt>
      <trkpt lat="45.22513" lon="-72.6217425">
        <ele>218.95</ele>
      </trkpt>
      <trkpt lat="45.2259" lon="-72.621735">
        <ele>222.7</ele>
      </trkpt>
      <trkpt lat="45.22667" lon="-72.6217275">
        <ele>226.27</ele>
      </trkpt>
      <trkpt lat="45.22744" lon="-72.62172">
        <ele>230.46</ele>
      </trkpt>
      <trkpt lat="45.22743" lon="-72.62172">
        <ele>230.44</ele>
      </trkpt>
      <trkpt lat="45.228155" lon="-72.62171">
        <ele>232.22</ele>
      </trkpt>
      <trkpt lat="45.22888" lon="-72.6217">
        <ele>234.16</ele>
      </trkpt>
      <trkpt lat="45.229605" lon="-72.62169">
        <ele>234.25</ele>
      </trkpt>
      <trkpt lat="45.23033" lon="-72.62168">
        <ele>234.53</ele>
      </trkpt>
      <trkpt lat="45.231065" lon="-72.62164">
        <ele>237.62</ele>
      </trkpt>
      <trkpt lat="45.2318" lon="-72.6216">
        <ele>243.03</ele>
      </trkpt>
      <trkpt lat="45.2324667" lon="-72.6216">
        <ele>243.23</ele>
      </trkpt>
      <trkpt lat="45.2331333" lon="-72.6216">
        <ele>243.79</ele>
      </trkpt>
      <trkpt lat="45.2338" lon="-72.6216">
        <ele>245.49</ele>
      </trkpt>
      <trkpt lat="45.2344433" lon="-72.6215667">
        <ele>247.38</ele>
      </trkpt>
      <trkpt lat="45.2350867" lon="-72.6215333">
        <ele>249.49</ele>
      </trkpt>
      <trkpt lat="45.23573" lon="-72.6215">
        <ele>252.96</ele>
      </trkpt>
      <trkpt lat="45.236425" lon="-72.621445">
        <ele>257.93</ele>
      </trkpt>
      <trkpt lat="45.23712" lon="-72.62139">
        <ele>261.31</ele>
      </trkpt>
      <trkpt lat="45.237815" lon="-72.621335">
        <ele>262.46</ele>
      </trkpt>
      <trkpt lat="45.23851" lon="-72.62128">
        <ele>263.99</ele>
      </trkpt>
      <trkpt lat="45.23926" lon="-72.62117">
        <ele>260.35</ele>
      </trkpt>
      <trkpt lat="45.24003" lon="-72.62111">
        <ele>256.27</ele>
      </trkpt>
      <trkpt lat="45.2407" lon="-72.62115">
        <ele>253.93</ele>
      </trkpt>
      <trkpt lat="45.24137" lon="-72.62129">
        <ele>253.22</ele>
      </trkpt>
      <trkpt lat="45.24208" lon="-72.62151">
        <ele>250.72</ele>
      </trkpt>
      <trkpt lat="45.24285" lon="-72.62183">
        <ele>249.27</ele>
      </trkpt>
      <trkpt lat="45.2431" lon="-72.62214">
        <ele>249.14</ele>
      </trkpt>
      <trkpt lat="45.24339" lon="-72.62272">
        <ele>247.99</ele>
      </trkpt>
      <trkpt lat="45.24357" lon="-72.623345">
        <ele>245.47</ele>
      </trkpt>
      <trkpt lat="45.24375" lon="-72.62397">
        <ele>243.81</ele>
      </trkpt>
      <trkpt lat="45.24386" lon="-72.62415">
        <ele>242.68</ele>
      </trkpt>
      <trkpt lat="45.2443633" lon="-72.6247933">
        <ele>235.82</ele>
      </trkpt>
      <trkpt lat="45.2448667" lon="-72.6254367">
        <ele>232.79</ele>
      </trkpt>
      <trkpt lat="45.24537" lon="-72.62608">
        <ele>230.37</ele>
      </trkpt>
      <trkpt lat="45.24588" lon="-72.62679">
        <ele>231.11</ele>
      </trkpt>
      <trkpt lat="45.24641" lon="-72.62743">
        <ele>234.23</ele>
      </trkpt>
      <trkpt lat="45.24669" lon="-72.62768">
        <ele>233.67</ele>
      </trkpt>
      <trkpt lat="45.24714" lon="-72.62792">
        <ele>228.85</ele>
      </trkpt>
      <trkpt lat="45.24734" lon="-72.628">
        <ele>228.85</ele>
      </trkpt>
      <trkpt lat="45.24758" lon="-72.62801">
        <ele>226.85</ele>
      </trkpt>
      <trkpt lat="45.24795" lon="-72.628">
        <ele>224.64</ele>
      </trkpt>
      <trkpt lat="45.24791" lon="-72.62872">
        <ele>227.72</ele>
      </trkpt>
      <trkpt lat="45.24787" lon="-72.62944">
        <ele>230.72</ele>
      </trkpt>
      <trkpt lat="45.24776" lon="-72.63051">
        <ele>232.67</ele>
      </trkpt>
      <trkpt lat="45.247645" lon="-72.631135">
        <ele>233.97</ele>
      </trkpt>
      <trkpt lat="45.24753" lon="-72.63176">
        <ele>236.1</ele>
      </trkpt>
      <trkpt lat="45.24717" lon="-72.63274">
        <ele>237.19</ele>
      </trkpt>
      <trkpt lat="45.24694" lon="-72.63361">
        <ele>237.66</ele>
      </trkpt>
      <trkpt lat="45.24678" lon="-72.6345">
        <ele>234.12</ele>
      </trkpt>
      <trkpt lat="45.246615" lon="-72.63515">
        <ele>233.47</ele>
      </trkpt>
      <trkpt lat="45.24645" lon="-72.6358">
        <ele>234.19</ele>
      </trkpt>
      <trkpt lat="45.24624" lon="-72.63643">
        <ele>234.68</ele>
      </trkpt>
      <trkpt lat="45.24613" lon="-72.63693">
        <ele>233.7</ele>
      </trkpt>
      <trkpt lat="45.24613" lon="-72.63695">
        <ele>233.65</ele>
      </trkpt>
      <trkpt lat="45.24604" lon="-72.63741">
        <ele>232.14</ele>
      </trkpt>
      <trkpt lat="45.24591" lon="-72.63775">
        <ele>231.73</ele>
      </trkpt>
      <trkpt lat="45.24545" lon="-72.638535">
        <ele>230.11</ele>
      </trkpt>
      <trkpt lat="45.24499" lon="-72.63932">
        <ele>228.63</ele>
      </trkpt>
      <trkpt lat="45.24459" lon="-72.63995">
        <ele>228.66</ele>
      </trkpt>
      <trkpt lat="45.24445" lon="-72.64026">
        <ele>228.43</ele>
      </trkpt>
      <trkpt lat="45.24418" lon="-72.64107">
        <ele>226.2</ele>
      </trkpt>
      <trkpt lat="45.24396" lon="-72.641905">
        <ele>224.34</ele>
      </trkpt>
      <trkpt lat="45.24374" lon="-72.64274">
        <ele>221.1</ele>
      </trkpt>
      <trkpt lat="45.24358" lon="-72.64363">
        <ele>219.61</ele>
      </trkpt>
      <trkpt lat="45.24327" lon="-72.6447">
        <ele>215.94</ele>
      </trkpt>
      <trkpt lat="45.24306" lon="-72.6456">
        <ele>213.29</ele>
      </trkpt>
      <trkpt lat="45.24305" lon="-72.64571">
        <ele>212.17</ele>
      </trkpt>
      <trkpt lat="45.2429" lon="-72.64636">
        <ele>209.53</ele>
      </trkpt>
      <trkpt lat="45.24264" lon="-72.6473">
        <ele>206.31</ele>
      </trkpt>
      <trkpt lat="45.24233" lon="-72.64833">
        <ele>203.37</ele>
      </trkpt>
      <trkpt lat="45.24201" lon="-72.6495">
        <ele>199.3</ele>
      </trkpt>
      <trkpt lat="45.24167" lon="-72.65039">
        <ele>195.45</ele>
      </trkpt>
      <trkpt lat="45.24123" lon="-72.65111">
        <ele>193.44</ele>
      </trkpt>
      <trkpt lat="45.2409" lon="-72.65177">
        <ele>196.7</ele>
      </trkpt>
      <trkpt lat="45.24047" lon="-72.65232">
        <ele>196.08</ele>
      </trkpt>
      <trkpt lat="45.24012" lon="-72.65285">
        <ele>194.76</ele>
      </trkpt>
      <trkpt lat="45.23998" lon="-72.65312">
        <ele>194.75</ele>
      </trkpt>
      <trkpt lat="45.23973" lon="-72.6537">
        <ele>194.58</ele>
      </trkpt>
      <trkpt lat="45.23941" lon="-72.6546">
        <ele>192.39</ele>
      </trkpt>
      <trkpt lat="45.23898" lon="-72.655565">
        <ele>188.15</ele>
      </trkpt>
      <trkpt lat="45.23855" lon="-72.65653">
        <ele>184.54</ele>
      </trkpt>
      <trkpt lat="45.2381" lon="-72.65745">
        <ele>184.66</ele>
      </trkpt>
      <trkpt lat="45.23897" lon="-72.6574075">
        <ele>182.23</ele>
      </trkpt>
      <trkpt lat="45.23984" lon="-72.657365">
        <ele>177.91</ele>
      </trkpt>
      <trkpt lat="45.24071" lon="-72.6573225">
        <ele>173.06</ele>
      </trkpt>
      <trkpt lat="45.24158" lon="-72.65728">
        <ele>167.75</ele>
      </trkpt>
      <trkpt lat="45.24157" lon="-72.65728">
        <ele>167.8</ele>
      </trkpt>
      <trkpt lat="45.2422967" lon="-72.65722">
        <ele>164.39</ele>
      </trkpt>
      <trkpt lat="45.2430233" lon="-72.65716">
        <ele>165.45</ele>
      </trkpt>
      <trkpt lat="45.24375" lon="-72.6571">
        <ele>172.39</ele>
      </trkpt>
      <trkpt lat="45.24423" lon="-72.65708">
        <ele>177.46</ele>
      </trkpt>
      <trkpt lat="45.24471" lon="-72.65706">
        <ele>181.41</ele>
      </trkpt>
      <trkpt lat="45.2453867" lon="-72.65699">
        <ele>184.37</ele>
      </trkpt>
      <trkpt lat="45.2460633" lon="-72.65692">
        <ele>185.11</ele>
      </trkpt>
      <trkpt lat="45.24674" lon="-72.65685">
        <ele>187.18</ele>
      </trkpt>
      <trkpt lat="45.24762" lon="-72.65672">
        <ele>190.78</ele>
      </trkpt>
      <trkpt lat="45.24801" lon="-72.6567">
        <ele>192.59</ele>
      </trkpt>
      <trkpt lat="45.2487733" lon="-72.6567167">
        <ele>191.06</ele>
      </trkpt>
      <trkpt lat="45.2495367" lon="-72.6567333">
        <ele>189.35</ele>
      </trkpt>
      <trkpt lat="45.2503" lon="-72.65675">
        <ele>188.12</ele>
      </trkpt>
      <trkpt lat="45.25116" lon="-72.65679">
        <ele>187.14</ele>
      </trkpt>
      <trkpt lat="45.25201" lon="-72.65679">
        <ele>185.91</ele>
      </trkpt>
      <trkpt lat="45.25277" lon="-72.656755">
        <ele>178.02</ele>
      </trkpt>
      <trkpt lat="45.25353" lon="-72.65672">
        <ele>173.16</ele>
      </trkpt>
      <trkpt lat="45.25429" lon="-72.656685">
        <ele>171.73</ele>
      </trkpt>
      <trkpt lat="45.25505" lon="-72.65665">
        <ele>163.8</ele>
      </trkpt>
      <trkpt lat="45.25591" lon="-72.6566333">
        <ele>153.34</ele>
      </trkpt>
      <trkpt lat="45.25677" lon="-72.6566167">
        <ele>152.38</ele>
      </trkpt>
      <trkpt lat="45.25763" lon="-72.6566">
        <ele>155.65</ele>
      </trkpt>
      <trkpt lat="45.25787" lon="-72.65662">
        <ele>155.66</ele>
      </trkpt>
      <trkpt lat="45.25864" lon="-72.65665">
        <ele>151.3</ele>
      </trkpt>
      <trkpt lat="45.25941" lon="-72.65668">
        <ele>149.29</ele>
      </trkpt>
      <trkpt lat="45.260095" lon="-72.656685">
        <ele>152.1</ele>
      </trkpt>
      <trkpt lat="45.26078" lon="-72.65669">
        <ele>155.07</ele>
      </trkpt>
      <trkpt lat="45.26124" lon="-72.65664">
        <ele>157.12</ele>
      </trkpt>
      <trkpt lat="45.26119" lon="-72.657425">
        <ele>154.1</ele>
      </trkpt>
      <trkpt lat="45.26114" lon="-72.65821">
        <ele>152.24</ele>
      </trkpt>
      <trkpt lat="45.260944" lon="-72.659204">
        <ele>153.59</ele>
      </trkpt>
      <trkpt lat="45.260748" lon="-72.660198">
        <ele>152.95</ele>
      </trkpt>
      <trkpt lat="45.260552" lon="-72.661192">
        <ele>150.9</ele>
      </trkpt>
      <trkpt lat="45.260356" lon="-72.662186">
        <ele>150.01</ele>
      </trkpt>
      <trkpt lat="45.26016" lon="-72.66318">
        <ele>150.09</ele>
      </trkpt>
      <trkpt lat="45.25992" lon="-72.66428">
        <ele>152.72</ele>
      </trkpt>
      <trkpt lat="45.25992" lon="-72.66429">
        <ele>152.74</ele>
      </trkpt>
      <trkpt lat="45.2599" lon="-72.6644">
        <ele>153.07</ele>
      </trkpt>
      <trkpt lat="45.25966" lon="-72.665095">
        <ele>153.09</ele>
      </trkpt>
      <trkpt lat="45.25942" lon="-72.66579">
        <ele>145.44</ele>
      </trkpt>
      <trkpt lat="45.25902" lon="-72.66681">
        <ele>141.17</ele>
      </trkpt>
      <trkpt lat="45.25894" lon="-72.66708">
        <ele>141.16</ele>
      </trkpt>
      <trkpt lat="45.25889" lon="-72.66741">
        <ele>141.07</ele>
      </trkpt>
      <trkpt lat="45.25888" lon="-72.6678">
        <ele>141.19</ele>
      </trkpt>
      <trkpt lat="45.2589125" lon="-72.669075">
        <ele>144.29</ele>
      </trkpt>
      <trkpt lat="45.258945" lon="-72.67035">
        <ele>144.62</ele>
      </trkpt>
      <trkpt lat="45.2589775" lon="-72.671625">
        <ele>143.05</ele>
      </trkpt>
      <trkpt lat="45.25901" lon="-72.6729">
        <ele>146.28</ele>
      </trkpt>
      <trkpt lat="45.25909" lon="-72.67322">
        <ele>146.28</ele>
      </trkpt>
      <trkpt lat="45.25927" lon="-72.67351">
        <ele>148.29</ele>
      </trkpt>
      <trkpt lat="45.25984" lon="-72.6742">
        <ele>150.51</ele>
      </trkpt>
      <trkpt lat="45.2602" lon="-72.67479">
        <ele>152</ele>
      </trkpt>
      <trkpt lat="45.26065" lon="-72.67582">
        <ele>153.48</ele>
      </trkpt>
      <trkpt lat="45.26074" lon="-72.67622">
        <ele>155.08</ele>
      </trkpt>
      <trkpt lat="45.26075" lon="-72.6765">
        <ele>156.53</ele>
      </trkpt>
      <trkpt lat="45.26068" lon="-72.67689">
        <ele>160.04</ele>
      </trkpt>
      <trkpt lat="45.26051" lon="-72.6773">
        <ele>162.7</ele>
      </trkpt>
      <trkpt lat="45.26041" lon="-72.67762">
        <ele>162.14</ele>
      </trkpt>
      <trkpt lat="45.2604" lon="-72.67787">
        <ele>160.07</ele>
      </trkpt>
      <trkpt lat="45.26043" lon="-72.6781">
        <ele>158.73</ele>
      </trkpt>
      <trkpt lat="45.26049" lon="-72.67829">
        <ele>155.18</ele>
      </trkpt>
      <trkpt lat="45.26093" lon="-72.67929">
        <ele>150.98</ele>
      </trkpt>
      <trkpt lat="45.26137" lon="-72.68029">
        <ele>153.7</ele>
      </trkpt>
      <trkpt lat="45.26187" lon="-72.6811">
        <ele>150.26</ele>
      </trkpt>
      <trkpt lat="45.26231" lon="-72.68164">
        <ele>144.97</ele>
      </trkpt>
      <trkpt lat="45.262815" lon="-72.68213">
        <ele>141.03</ele>
      </trkpt>
      <trkpt lat="45.26332" lon="-72.68262">
        <ele>140.54</ele>
      </trkpt>
      <trkpt lat="45.26358" lon="-72.68293">
        <ele>140.19</ele>
      </trkpt>
      <trkpt lat="45.26391" lon="-72.68348">
        <ele>137.58</ele>
      </trkpt>
      <trkpt lat="45.26424" lon="-72.68403">
        <ele>136.51</ele>
      </trkpt>
      <trkpt lat="45.264205" lon="-72.684725">
        <ele>137.15</ele>
      </trkpt>
      <trkpt lat="45.26417" lon="-72.68542">
        <ele>138.57</ele>
      </trkpt>
      <trkpt lat="45.26411" lon="-72.686105">
        <ele>139.47</ele>
      </trkpt>
      <trkpt lat="45.26405" lon="-72.68679">
        <ele>139.1</ele>
      </trkpt>
      <trkpt lat="45.26399" lon="-72.68716">
        <ele>138.75</ele>
      </trkpt>
      <trkpt lat="45.26399" lon="-72.68717">
        <ele>138.74</ele>
      </trkpt>
      <trkpt lat="45.26389" lon="-72.68781">
        <ele>137.54</ele>
      </trkpt>
      <trkpt lat="45.26374" lon="-72.68858">
        <ele>135.42</ele>
      </trkpt>
      <trkpt lat="45.26349" lon="-72.6895">
        <ele>135.44</ele>
      </trkpt>
      <trkpt lat="45.26421" lon="-72.68983">
        <ele>149.23</ele>
      </trkpt>
      <trkpt lat="45.26433" lon="-72.68987">
        <ele>149.23</ele>
      </trkpt>
      <trkpt lat="45.26448" lon="-72.68987">
        <ele>156.82</ele>
      </trkpt>
      <trkpt lat="45.26465" lon="-72.68979">
        <ele>156.82</ele>
      </trkpt>
      <trkpt lat="45.26505" lon="-72.68952">
        <ele>165.68</ele>
      </trkpt>
      <trkpt lat="45.26516" lon="-72.68938">
        <ele>165.68</ele>
      </trkpt>
      <trkpt lat="45.26536" lon="-72.68898">
        <ele>170.64</ele>
      </trkpt>
      <trkpt lat="45.26545" lon="-72.68884">
        <ele>172.93</ele>
      </trkpt>
      <trkpt lat="45.26556" lon="-72.68875">
        <ele>174.02</ele>
      </trkpt>
      <trkpt lat="45.26593" lon="-72.68857">
        <ele>178.17</ele>
      </trkpt>
      <trkpt lat="45.26668" lon="-72.6882767">
        <ele>183.33</ele>
      </trkpt>
      <trkpt lat="45.26743" lon="-72.6879833">
        <ele>183.78</ele>
      </trkpt>
      <trkpt lat="45.26818" lon="-72.68769">
        <ele>185.22</ele>
      </trkpt>
      <trkpt lat="45.268735" lon="-72.687395">
        <ele>187.01</ele>
      </trkpt>
      <trkpt lat="45.26929" lon="-72.6871">
        <ele>190.27</ele>
      </trkpt>
      <trkpt lat="45.26964" lon="-72.68697">
        <ele>192.21</ele>
      </trkpt>
      <trkpt lat="45.27009" lon="-72.68696">
        <ele>195.91</ele>
      </trkpt>
      <trkpt lat="45.27061" lon="-72.68708">
        <ele>199.1</ele>
      </trkpt>
      <trkpt lat="45.27113" lon="-72.6872">
        <ele>199.88</ele>
      </trkpt>
      <trkpt lat="45.27175" lon="-72.68728">
        <ele>201.96</ele>
      </trkpt>
      <trkpt lat="45.27235" lon="-72.68731">
        <ele>205.2</ele>
      </trkpt>
      <trkpt lat="45.27306" lon="-72.68729">
        <ele>208.03</ele>
      </trkpt>
      <trkpt lat="45.27336" lon="-72.68723">
        <ele>207.67</ele>
      </trkpt>
      <trkpt lat="45.27408" lon="-72.68711">
        <ele>210.89</ele>
      </trkpt>
      <trkpt lat="45.274645" lon="-72.68695">
        <ele>215.83</ele>
      </trkpt>
      <trkpt lat="45.27521" lon="-72.68679">
        <ele>218.67</ele>
      </trkpt>
      <trkpt lat="45.2760733" lon="-72.6864767">
        <ele>223.33</ele>
      </trkpt>
      <trkpt lat="45.2769367" lon="-72.6861633">
        <ele>227.86</ele>
      </trkpt>
      <trkpt lat="45.2778" lon="-72.68585">
        <ele>230.54</ele>
      </trkpt>
      <trkpt lat="45.2778" lon="-72.68586">
        <ele>230.53</ele>
      </trkpt>
      <trkpt lat="45.278385" lon="-72.68565">
        <ele>231.46</ele>
      </trkpt>
      <trkpt lat="45.27897" lon="-72.68544">
        <ele>232.45</ele>
      </trkpt>
      <trkpt lat="45.279545" lon="-72.6852">
        <ele>233.31</ele>
      </trkpt>
      <trkpt lat="45.28012" lon="-72.68496">
        <ele>234.44</ele>
      </trkpt>
      <trkpt lat="45.28058" lon="-72.684715">
        <ele>230.83</ele>
      </trkpt>
      <trkpt lat="45.28104" lon="-72.68447">
        <ele>227.81</ele>
      </trkpt>
      <trkpt lat="45.28181" lon="-72.6841">
        <ele>224.62</ele>
      </trkpt>
      <trkpt lat="45.28209" lon="-72.68396">
        <ele>224.58</ele>
      </trkpt>
      <trkpt lat="45.28236" lon="-72.68374">
        <ele>224.85</ele>
      </trkpt>
      <trkpt lat="45.28305" lon="-72.68298">
        <ele>222.46</ele>
      </trkpt>
      <trkpt lat="45.2832" lon="-72.68288">
        <ele>222.46</ele>
      </trkpt>
      <trkpt lat="45.28342" lon="-72.6828">
        <ele>221.44</ele>
      </trkpt>
      <trkpt lat="45.28399" lon="-72.6828">
        <ele>217.44</ele>
      </trkpt>
      <trkpt lat="45.28459" lon="-72.6828167">
        <ele>217.15</ele>
      </trkpt>
      <trkpt lat="45.28519" lon="-72.6828333">
        <ele>222.12</ele>
      </trkpt>
      <trkpt lat="45.28579" lon="-72.68285">
        <ele>222.55</ele>
      </trkpt>
      <trkpt lat="45.286255" lon="-72.68287">
        <ele>222.41</ele>
      </trkpt>
      <trkpt lat="45.28672" lon="-72.68289">
        <ele>222.3</ele>
      </trkpt>
      <trkpt lat="45.28756" lon="-72.68288">
        <ele>223.15</ele>
      </trkpt>
      <trkpt lat="45.28773" lon="-72.68281">
        <ele>223.43</ele>
      </trkpt>
      <trkpt lat="45.28783" lon="-72.68276">
        <ele>223.43</ele>
      </trkpt>
      <trkpt lat="45.28788" lon="-72.68267">
        <ele>223.8</ele>
      </trkpt>
      <trkpt lat="45.28791" lon="-72.68254">
        <ele>223.8</ele>
      </trkpt>
      <trkpt lat="45.28797" lon="-72.68163">
        <ele>223</ele>
      </trkpt>
      <trkpt lat="45.2879967" lon="-72.6807067">
        <ele>220.43</ele>
      </trkpt>
      <trkpt lat="45.2880233" lon="-72.6797833">
        <ele>216.02</ele>
      </trkpt>
      <trkpt lat="45.28805" lon="-72.67886">
        <ele>212.2</ele>
      </trkpt>
      <trkpt lat="45.288" lon="-72.6786">
        <ele>211.36</ele>
      </trkpt>
      <trkpt lat="45.28792" lon="-72.67832">
        <ele>210.97</ele>
      </trkpt>
      <trkpt lat="45.28761" lon="-72.67743">
        <ele>209.96</ele>
      </trkpt>
      <trkpt lat="45.2873" lon="-72.676605">
        <ele>206.54</ele>
      </trkpt>
      <trkpt lat="45.28699" lon="-72.67578">
        <ele>200.44</ele>
      </trkpt>
      <trkpt lat="45.28681" lon="-72.67541">
        <ele>197.78</ele>
      </trkpt>
      <trkpt lat="45.28641" lon="-72.67474">
        <ele>193.36</ele>
      </trkpt>
      <trkpt lat="45.28618" lon="-72.67447">
        <ele>191.97</ele>
      </trkpt>
      <trkpt lat="45.28578" lon="-72.67407">
        <ele>192.65</ele>
      </trkpt>
      <trkpt lat="45.28571" lon="-72.67392">
        <ele>193.52</ele>
      </trkpt>
      <trkpt lat="45.28567" lon="-72.6738">
        <ele>193.51</ele>
      </trkpt>
      <trkpt lat="45.28562" lon="-72.672795">
        <ele>193.51</ele>
      </trkpt>
      <trkpt lat="45.28557" lon="-72.67179">
        <ele>200.87</ele>
      </trkpt>
      <trkpt lat="45.28553" lon="-72.67163">
        <ele>201.74</ele>
      </trkpt>
      <trkpt lat="45.286276" lon="-72.670988">
        <ele>207.67</ele>
      </trkpt>
      <trkpt lat="45.287022" lon="-72.6703461">
        <ele>209.37</ele>
      </trkpt>
      <trkpt lat="45.287768" lon="-72.6697041">
        <ele>208.77</ele>
      </trkpt>
      <trkpt lat="45.288514" lon="-72.669062">
        <ele>205.36</ele>
      </trkpt>
      <trkpt lat="45.28926" lon="-72.66842">
        <ele>201.39</ele>
      </trkpt>
      <trkpt lat="45.289922" lon="-72.667778">
        <ele>198.65</ele>
      </trkpt>
      <trkpt lat="45.290584" lon="-72.667136">
        <ele>198.47</ele>
      </trkpt>
      <trkpt lat="45.291246" lon="-72.666494">
        <ele>198.44</ele>
      </trkpt>
      <trkpt lat="45.291908" lon="-72.665852">
        <ele>198.32</ele>
      </trkpt>
      <trkpt lat="45.29257" lon="-72.66521">
        <ele>197.67</ele>
      </trkpt>
      <trkpt lat="45.29291" lon="-72.66485">
        <ele>196.19</ele>
      </trkpt>
      <trkpt lat="45.29344" lon="-72.66414">
        <ele>192.14</ele>
      </trkpt>
      <trkpt lat="45.293975" lon="-72.663375">
        <ele>185.5</ele>
      </trkpt>
      <trkpt lat="45.29451" lon="-72.66261">
        <ele>184.63</ele>
      </trkpt>
      <trkpt lat="45.29466" lon="-72.66243">
        <ele>184.24</ele>
      </trkpt>
      <trkpt lat="45.29502" lon="-72.66207">
        <ele>183.71</ele>
      </trkpt>
      <trkpt lat="45.2955" lon="-72.66172">
        <ele>182.61</ele>
      </trkpt>
      <trkpt lat="45.29573" lon="-72.66163">
        <ele>182.61</ele>
      </trkpt>
      <trkpt lat="45.2964425" lon="-72.6614275">
        <ele>180.94</ele>
      </trkpt>
      <trkpt lat="45.297155" lon="-72.661225">
        <ele>176.93</ele>
      </trkpt>
      <trkpt lat="45.2978675" lon="-72.6610225">
        <ele>171.54</ele>
      </trkpt>
      <trkpt lat="45.29858" lon="-72.66082">
        <ele>165.51</ele>
      </trkpt>
      <trkpt lat="45.29858" lon="-72.66083">
        <ele>165.6</ele>
      </trkpt>
      <trkpt lat="45.29938" lon="-72.660605">
        <ele>160.95</ele>
      </trkpt>
      <trkpt lat="45.30018" lon="-72.66038">
        <ele>159.44</ele>
      </trkpt>
      <trkpt lat="45.30095" lon="-72.6601467">
        <ele>157.62</ele>
      </trkpt>
      <trkpt lat="45.30172" lon="-72.6599133">
        <ele>152.35</ele>
      </trkpt>
      <trkpt lat="45.30249" lon="-72.65968">
        <ele>149.1</ele>
      </trkpt>
      <trkpt lat="45.30334" lon="-72.659436">
        <ele>142.91</ele>
      </trkpt>
      <trkpt lat="45.30419" lon="-72.659192">
        <ele>139.12</ele>
      </trkpt>
      <trkpt lat="45.30504" lon="-72.658948">
        <ele>136.74</ele>
      </trkpt>
      <trkpt lat="45.30589" lon="-72.658704">
        <ele>138.95</ele>
      </trkpt>
      <trkpt lat="45.30674" lon="-72.65846">
        <ele>142.56</ele>
      </trkpt>
      <trkpt lat="45.30702" lon="-72.65837">
        <ele>143.17</ele>
      </trkpt>
      <trkpt lat="45.30759" lon="-72.65812">
        <ele>145.28</ele>
      </trkpt>
      <trkpt lat="45.30816" lon="-72.65787">
        <ele>146.76</ele>
      </trkpt>
      <trkpt lat="45.30899" lon="-72.65759">
        <ele>147.14</ele>
      </trkpt>
      <trkpt lat="45.30906" lon="-72.65768">
        <ele>147.14</ele>
      </trkpt>
      <trkpt lat="45.30913" lon="-72.65768">
        <ele>146.85</ele>
      </trkpt>
      <trkpt lat="45.30962" lon="-72.65759">
        <ele>146.59</ele>
      </trkpt>
      <trkpt lat="45.30994" lon="-72.65755">
        <ele>146.42</ele>
      </trkpt>
      <trkpt lat="45.31065" lon="-72.657495">
        <ele>146.04</ele>
      </trkpt>
      <trkpt lat="45.31136" lon="-72.65744">
        <ele>144.03</ele>
      </trkpt>
      <trkpt lat="45.3121" lon="-72.65739">
        <ele>141.37</ele>
      </trkpt>
      <trkpt lat="45.31284" lon="-72.65734">
        <ele>138.62</ele>
      </trkpt>
      <trkpt lat="45.31358" lon="-72.65729">
        <ele>135.79</ele>
      </trkpt>
      <trkpt lat="45.31357" lon="-72.65729">
        <ele>135.81</ele>
      </trkpt>
      <trkpt lat="45.31438" lon="-72.65724">
        <ele>133.07</ele>
      </trkpt>
      <trkpt lat="45.31449" lon="-72.6572">
        <ele>133.07</ele>
      </trkpt>
      <trkpt lat="45.31462" lon="-72.65723">
        <ele>132.58</ele>
      </trkpt>
      <trkpt lat="45.31471" lon="-72.65719">
        <ele>132.28</ele>
      </trkpt>
      <trkpt lat="45.31487" lon="-72.65719">
        <ele>131.66</ele>
      </trkpt>
      <trkpt lat="45.3156375" lon="-72.6571525">
        <ele>128.16</ele>
      </trkpt>
      <trkpt lat="45.316405" lon="-72.657115">
        <ele>125.97</ele>
      </trkpt>
      <trkpt lat="45.3171725" lon="-72.6570775">
        <ele>126.42</ele>
      </trkpt>
      <trkpt lat="45.31794" lon="-72.65704">
        <ele>127.72</ele>
      </trkpt>
      <trkpt lat="45.318222" lon="-72.655924">
        <ele>128.19</ele>
      </trkpt>
      <trkpt lat="45.318504" lon="-72.654808">
        <ele>128.46</ele>
      </trkpt>
      <trkpt lat="45.318786" lon="-72.653692">
        <ele>129.03</ele>
      </trkpt>
      <trkpt lat="45.319068" lon="-72.652576">
        <ele>129.61</ele>
      </trkpt>
      <trkpt lat="45.31935" lon="-72.65146">
        <ele>130.23</ele>
      </trkpt>
      <trkpt lat="45.31943" lon="-72.65149">
        <ele>130.19</ele>
      </trkpt>
      <trkpt lat="45.31946" lon="-72.65134">
        <ele>130.2</ele>
      </trkpt>
      <trkpt lat="45.319705" lon="-72.65044">
        <ele>129.57</ele>
      </trkpt>
      <trkpt lat="45.31995" lon="-72.64954">
        <ele>126.61</ele>
      </trkpt>
      <trkpt lat="45.32013" lon="-72.64904">
        <ele>122.16</ele>
      </trkpt>
      <trkpt lat="45.32053" lon="-72.6482">
        <ele>120.36</ele>
      </trkpt>
      <trkpt lat="45.32073" lon="-72.64785">
        <ele>120.09</ele>
      </trkpt>
      <trkpt lat="45.32083" lon="-72.64781">
        <ele>120.09</ele>
      </trkpt>
      <trkpt lat="45.32091" lon="-72.64788">
        <ele>119.79</ele>
      </trkpt>
      <trkpt lat="45.32138" lon="-72.64807">
        <ele>119.17</ele>
      </trkpt>
      <trkpt lat="45.32156" lon="-72.64824">
        <ele>119.25</ele>
      </trkpt>
      <trkpt lat="45.322" lon="-72.64837">
        <ele>120.21</ele>
      </trkpt>
      <trkpt lat="45.32226" lon="-72.64851">
        <ele>121.73</ele>
      </trkpt>
      <trkpt lat="45.32285" lon="-72.64867">
        <ele>124.73</ele>
      </trkpt>
      <trkpt lat="45.32302" lon="-72.64901">
        <ele>124.32</ele>
      </trkpt>
      <trkpt lat="45.32311" lon="-72.6491">
        <ele>124.32</ele>
      </trkpt>
      <trkpt lat="45.32361" lon="-72.6494">
        <ele>123.83</ele>
      </trkpt>
      <trkpt lat="45.32369" lon="-72.64944">
        <ele>123.34</ele>
      </trkpt>
      <trkpt lat="45.32402" lon="-72.64945">
        <ele>123.14</ele>
      </trkpt>
      <trkpt lat="45.32408" lon="-72.64949">
        <ele>123.14</ele>
      </trkpt>
      <trkpt lat="45.32414" lon="-72.64957">
        <ele>123.1</ele>
      </trkpt>
      <trkpt lat="45.32422" lon="-72.6498">
        <ele>122.57</ele>
      </trkpt>
      <trkpt lat="45.32432" lon="-72.64985">
        <ele>122.03</ele>
      </trkpt>
      <trkpt lat="45.32439" lon="-72.64981">
        <ele>122.03</ele>
      </trkpt>
      <trkpt lat="45.3245" lon="-72.64963">
        <ele>120.34</ele>
      </trkpt>
      <trkpt lat="45.32454" lon="-72.64944">
        <ele>119.64</ele>
      </trkpt>
      <trkpt lat="45.32455" lon="-72.64909">
        <ele>118.95</ele>
      </trkpt>
      <trkpt lat="45.32457" lon="-72.649">
        <ele>118.81</ele>
      </trkpt>
      <trkpt lat="45.32465" lon="-72.64892">
        <ele>118.75</ele>
      </trkpt>
      <trkpt lat="45.32482" lon="-72.64891">
        <ele>118.76</ele>
      </trkpt>
      <trkpt lat="45.32502" lon="-72.6491">
        <ele>118.89</ele>
      </trkpt>
      <trkpt lat="45.32522" lon="-72.64923">
        <ele>119.11</ele>
      </trkpt>
      <trkpt lat="45.32551" lon="-72.64949">
        <ele>120.17</ele>
      </trkpt>
      <trkpt lat="45.32564" lon="-72.64963">
        <ele>120.09</ele>
      </trkpt>
      <trkpt lat="45.32579" lon="-72.64994">
        <ele>119.83</ele>
      </trkpt>
      <trkpt lat="45.32613" lon="-72.65025">
        <ele>118.61</ele>
      </trkpt>
      <trkpt lat="45.32623" lon="-72.65039">
        <ele>118.01</ele>
      </trkpt>
      <trkpt lat="45.32643" lon="-72.65088">
        <ele>116.48</ele>
      </trkpt>
      <trkpt lat="45.32654" lon="-72.65106">
        <ele>117.16</ele>
      </trkpt>
      <trkpt lat="45.3268" lon="-72.65136">
        <ele>117.63</ele>
      </trkpt>
      <trkpt lat="45.32684" lon="-72.65137">
        <ele>117.63</ele>
      </trkpt>
      <trkpt lat="45.3269" lon="-72.65137">
        <ele>117.48</ele>
      </trkpt>
      <trkpt lat="45.32695" lon="-72.6513">
        <ele>117.48</ele>
      </trkpt>
      <trkpt lat="45.32695" lon="-72.65131">
        <ele>117.48</ele>
      </trkpt>
      <trkpt lat="45.32721" lon="-72.65098">
        <ele>117.13</ele>
      </trkpt>
      <trkpt lat="45.32743" lon="-72.65083">
        <ele>117.1</ele>
      </trkpt>
      <trkpt lat="45.32784" lon="-72.65065">
        <ele>116.76</ele>
      </trkpt>
      <trkpt lat="45.32809" lon="-72.65065">
        <ele>116.2</ele>
      </trkpt>
      <trkpt lat="45.32817" lon="-72.65057">
        <ele>116</ele>
      </trkpt>
      <trkpt lat="45.32859" lon="-72.65004">
        <ele>115.8</ele>
      </trkpt>
      <trkpt lat="45.3288" lon="-72.64989">
        <ele>115.85</ele>
      </trkpt>
      <trkpt lat="45.32902" lon="-72.64958">
        <ele>115.76</ele>
      </trkpt>
      <trkpt lat="45.32921" lon="-72.64949">
        <ele>115.76</ele>
      </trkpt>
      <trkpt lat="45.32935" lon="-72.64931">
        <ele>116.06</ele>
      </trkpt>
      <trkpt lat="45.32939" lon="-72.64928">
        <ele>116.06</ele>
      </trkpt>
      <trkpt lat="45.3295" lon="-72.64929">
        <ele>116.12</ele>
      </trkpt>
      <trkpt lat="45.32958" lon="-72.64931">
        <ele>116</ele>
      </trkpt>
      <trkpt lat="45.32977" lon="-72.6495">
        <ele>116.06</ele>
      </trkpt>
      <trkpt lat="45.32987" lon="-72.64954">
        <ele>116.17</ele>
      </trkpt>
      <trkpt lat="45.33006" lon="-72.64949">
        <ele>116.78</ele>
      </trkpt>
      <trkpt lat="45.33034" lon="-72.64958">
        <ele>116.77</ele>
      </trkpt>
      <trkpt lat="45.33039" lon="-72.64957">
        <ele>116.57</ele>
      </trkpt>
      <trkpt lat="45.33054" lon="-72.6494">
        <ele>116.34</ele>
      </trkpt>
      <trkpt lat="45.33067" lon="-72.64932">
        <ele>116.05</ele>
      </trkpt>
      <trkpt lat="45.3311" lon="-72.64936">
        <ele>114.21</ele>
      </trkpt>
      <trkpt lat="45.33136" lon="-72.6494">
        <ele>113.45</ele>
      </trkpt>
      <trkpt lat="45.33197" lon="-72.64944">
        <ele>113.34</ele>
      </trkpt>
      <trkpt lat="45.33209" lon="-72.64945">
        <ele>113.64</ele>
      </trkpt>
      <trkpt lat="45.33221" lon="-72.64954">
        <ele>114.06</ele>
      </trkpt>
      <trkpt lat="45.33243" lon="-72.64954">
        <ele>114.85</ele>
      </trkpt>
      <trkpt lat="45.3325" lon="-72.64959">
        <ele>115.14</ele>
      </trkpt>
      <trkpt lat="45.33255" lon="-72.64972">
        <ele>115.3</ele>
      </trkpt>
      <trkpt lat="45.33265" lon="-72.65083">
        <ele>115</ele>
      </trkpt>
      <trkpt lat="45.33275" lon="-72.65097">
        <ele>114.65</ele>
      </trkpt>
      <trkpt lat="45.33279" lon="-72.65101">
        <ele>114.65</ele>
      </trkpt>
      <trkpt lat="45.33287" lon="-72.65101">
        <ele>114.58</ele>
      </trkpt>
      <trkpt lat="45.33303" lon="-72.65088">
        <ele>114.66</ele>
      </trkpt>
      <trkpt lat="45.33316" lon="-72.65083">
        <ele>114.93</ele>
      </trkpt>
      <trkpt lat="45.33348" lon="-72.65105">
        <ele>115.52</ele>
      </trkpt>
      <trkpt lat="45.33353" lon="-72.65106">
        <ele>115.52</ele>
      </trkpt>
      <trkpt lat="45.33362" lon="-72.65101">
        <ele>115.52</ele>
      </trkpt>
      <trkpt lat="45.33369" lon="-72.65101">
        <ele>115.63</ele>
      </trkpt>
      <trkpt lat="45.33375" lon="-72.65102">
        <ele>115.68</ele>
      </trkpt>
      <trkpt lat="45.3338" lon="-72.65107">
        <ele>115.68</ele>
      </trkpt>
      <trkpt lat="45.33388" lon="-72.6512">
        <ele>115.72</ele>
      </trkpt>
      <trkpt lat="45.33424" lon="-72.65155">
        <ele>116.67</ele>
      </trkpt>
      <trkpt lat="45.33431" lon="-72.65164">
        <ele>116.67</ele>
      </trkpt>
      <trkpt lat="45.33438" lon="-72.65182">
        <ele>117.04</ele>
      </trkpt>
      <trkpt lat="45.33447" lon="-72.65191">
        <ele>117.04</ele>
      </trkpt>
      <trkpt lat="45.33506" lon="-72.65178">
        <ele>119.74</ele>
      </trkpt>
      <trkpt lat="45.33506" lon="-72.65172">
        <ele>119.74</ele>
      </trkpt>
      <trkpt lat="45.3351" lon="-72.65168">
        <ele>119.74</ele>
      </trkpt>
      <trkpt lat="45.3357" lon="-72.65156">
        <ele>121.87</ele>
      </trkpt>
      <trkpt lat="45.33603" lon="-72.65137">
        <ele>122.25</ele>
      </trkpt>
      <trkpt lat="45.33641" lon="-72.65128">
        <ele>122.57</ele>
      </trkpt>
      <trkpt lat="45.33649" lon="-72.6512">
        <ele>122.64</ele>
      </trkpt>
      <trkpt lat="45.3365" lon="-72.65115">
        <ele>122.64</ele>
      </trkpt>
      <trkpt lat="45.33639" lon="-72.65065">
        <ele>124.07</ele>
      </trkpt>
      <trkpt lat="45.33641" lon="-72.65061">
        <ele>124.08</ele>
      </trkpt>
      <trkpt lat="45.33665" lon="-72.65049">
        <ele>124.16</ele>
      </trkpt>
      <trkpt lat="45.33671" lon="-72.65043">
        <ele>124.95</ele>
      </trkpt>
      <trkpt lat="45.33672" lon="-72.65034">
        <ele>124.95</ele>
      </trkpt>
      <trkpt lat="45.33656" lon="-72.649715">
        <ele>127.53</ele>
      </trkpt>
      <trkpt lat="45.3364" lon="-72.64909">
        <ele>130.66</ele>
      </trkpt>
      <trkpt lat="45.33641" lon="-72.649">
        <ele>130.91</ele>
      </trkpt>
      <trkpt lat="45.33649" lon="-72.64897">
        <ele>131.33</ele>
      </trkpt>
      <trkpt lat="45.3371" lon="-72.64885">
        <ele>131.35</ele>
      </trkpt>
      <trkpt lat="45.33724" lon="-72.64886">
        <ele>130.93</ele>
      </trkpt>
      <trkpt lat="45.33765" lon="-72.64882">
        <ele>130.02</ele>
      </trkpt>
      <trkpt lat="45.33782" lon="-72.64882">
        <ele>129.85</ele>
      </trkpt>
      <trkpt lat="45.33789" lon="-72.64886">
        <ele>129.92</ele>
      </trkpt>
      <trkpt lat="45.33798" lon="-72.649">
        <ele>130.1</ele>
      </trkpt>
      <trkpt lat="45.33803" lon="-72.64901">
        <ele>130.06</ele>
      </trkpt>
      <trkpt lat="45.33811" lon="-72.64899">
        <ele>130.02</ele>
      </trkpt>
      <trkpt lat="45.33819" lon="-72.64901">
        <ele>129.97</ele>
      </trkpt>
      <trkpt lat="45.33817" lon="-72.64926">
        <ele>129.35</ele>
      </trkpt>
      <trkpt lat="45.33818" lon="-72.64931">
        <ele>128.94</ele>
      </trkpt>
      <trkpt lat="45.33825" lon="-72.64928">
        <ele>128.76</ele>
      </trkpt>
      <trkpt lat="45.33833" lon="-72.64918">
        <ele>128.56</ele>
      </trkpt>
      <trkpt lat="45.33839" lon="-72.64913">
        <ele>128.64</ele>
      </trkpt>
      <trkpt lat="45.33849" lon="-72.64913">
        <ele>128.97</ele>
      </trkpt>
      <trkpt lat="45.33862" lon="-72.64922">
        <ele>130.51</ele>
      </trkpt>
      <trkpt lat="45.33867" lon="-72.64922">
        <ele>130.51</ele>
      </trkpt>
      <trkpt lat="45.33878" lon="-72.64918">
        <ele>131.08</ele>
      </trkpt>
      <trkpt lat="45.33893" lon="-72.64909">
        <ele>131.73</ele>
      </trkpt>
      <trkpt lat="45.33898" lon="-72.64908">
        <ele>132.81</ele>
      </trkpt>
      <trkpt lat="45.33925" lon="-72.64927">
        <ele>134.44</ele>
      </trkpt>
      <trkpt lat="45.33942" lon="-72.64931">
        <ele>135.64</ele>
      </trkpt>
      <trkpt lat="45.33963" lon="-72.64931">
        <ele>135.93</ele>
      </trkpt>
      <trkpt lat="45.33976" lon="-72.64936">
        <ele>135.79</ele>
      </trkpt>
      <trkpt lat="45.33986" lon="-72.64931">
        <ele>135.78</ele>
      </trkpt>
      <trkpt lat="45.34012" lon="-72.64922">
        <ele>135.77</ele>
      </trkpt>
      <trkpt lat="45.34022" lon="-72.64923">
        <ele>135.77</ele>
      </trkpt>
      <trkpt lat="45.34041" lon="-72.64935">
        <ele>135.89</ele>
      </trkpt>
      <trkpt lat="45.3405" lon="-72.64936">
        <ele>136.37</ele>
      </trkpt>
      <trkpt lat="45.34063" lon="-72.64927">
        <ele>136.37</ele>
      </trkpt>
      <trkpt lat="45.34097" lon="-72.64901">
        <ele>136.88</ele>
      </trkpt>
      <trkpt lat="45.34115" lon="-72.64905">
        <ele>136.14</ele>
      </trkpt>
      <trkpt lat="45.34124" lon="-72.64904">
        <ele>136.03</ele>
      </trkpt>
      <trkpt lat="45.34139" lon="-72.64913">
        <ele>135.94</ele>
      </trkpt>
      <trkpt lat="45.34171" lon="-72.64909">
        <ele>136.8</ele>
      </trkpt>
      <trkpt lat="45.34177" lon="-72.64904">
        <ele>136.8</ele>
      </trkpt>
      <trkpt lat="45.3418" lon="-72.64899">
        <ele>136.8</ele>
      </trkpt>
      <trkpt lat="45.34182" lon="-72.6486">
        <ele>136.62</ele>
      </trkpt>
      <trkpt lat="45.34187" lon="-72.64855">
        <ele>136.62</ele>
      </trkpt>
      <trkpt lat="45.34205" lon="-72.64845">
        <ele>136.56</ele>
      </trkpt>
      <trkpt lat="45.34216" lon="-72.64842">
        <ele>136.86</ele>
      </trkpt>
      <trkpt lat="45.34231" lon="-72.64842">
        <ele>137.58</ele>
      </trkpt>
      <trkpt lat="45.34247" lon="-72.64846">
        <ele>137.29</ele>
      </trkpt>
      <trkpt lat="45.34269" lon="-72.64842">
        <ele>134.85</ele>
      </trkpt>
      <trkpt lat="45.34285" lon="-72.64851">
        <ele>133.85</ele>
      </trkpt>
      <trkpt lat="45.34295" lon="-72.64855">
        <ele>133.47</ele>
      </trkpt>
      <trkpt lat="45.34306" lon="-72.64855">
        <ele>133.29</ele>
      </trkpt>
      <trkpt lat="45.34313" lon="-72.64852">
        <ele>133.2</ele>
      </trkpt>
      <trkpt lat="45.34317" lon="-72.64871">
        <ele>133</ele>
      </trkpt>
    </trkseg>
  </trk>
</gpx>