<?xml version='1.0' encoding='utf-8'?>
<gpx xmlns="http://www.topografix.com/GPX/1/1" xmlns:xsi="http://www.w3.org/2001/XMLSchema-instance" version="1.1" creator="Gravelle Estrie" xsi:schemaLocation="http://www.topografix.com/GPX/1/1 http://www.topografix.com/GPX/1/1/gpx.xsd">
  <metadata>
    <name>La Classique 59KM/826MD+</name>
  </metadata>
  <trk>
    <name>La Classique 59KM/826MD+</name>
    <trkseg>
      <trkpt lat="45.31762" lon="-72.65243">
        <ele>125.62</ele>
      </trkpt>
      <trkpt lat="45.31771" lon="-72.65245">
        <ele>126.01</ele>
      </trkpt>
      <trkpt lat="45.31776" lon="-72.6524">
        <ele>126.01</ele>
      </trkpt>
      <trkpt lat="45.317905" lon="-72.651685">
        <ele>126.77</ele>
      </trkpt>
      <trkpt lat="45.31805" lon="-72.65097">
        <ele>126.78</ele>
      </trkpt>
      <trkpt lat="45.31807" lon="-72.65094">
        <ele>126.78</ele>
      </trkpt>
      <trkpt lat="45.31806" lon="-72.65094">
        <ele>126.75</ele>
      </trkpt>
      <trkpt lat="45.31815" lon="-72.65088">
        <ele>126.88</ele>
      </trkpt>
      <trkpt lat="45.31855" lon="-72.65106">
        <ele>128.97</ele>
      </trkpt>
      <trkpt lat="45.31891" lon="-72.65124">
        <ele>130.25</ele>
      </trkpt>
      <trkpt lat="45.319" lon="-72.65132">
        <ele>130.25</ele>
      </trkpt>
      <trkpt lat="45.31924" lon="-72.65145">
        <ele>130.52</ele>
      </trkpt>
      <trkpt lat="45.31935" lon="-72.65146">
        <ele>130.53</ele>
      </trkpt>
      <trkpt lat="45.31958" lon="-72.65055">
        <ele>130.11</ele>
      </trkpt>
      <trkpt lat="45.31958" lon="-72.65056">
        <ele>130.11</ele>
      </trkpt>
      <trkpt lat="45.31973" lon="-72.64995">
        <ele>129.1</ele>
      </trkpt>
      <trkpt lat="45.31992" lon="-72.64933">
        <ele>125.27</ele>
      </trkpt>
      <trkpt lat="45.32007" lon="-72.64913">
        <ele>123.6</ele>
      </trkpt>
      <trkpt lat="45.32021" lon="-72.64877">
        <ele>121.83</ele>
      </trkpt>
      <trkpt lat="45.320475" lon="-72.648245">
        <ele>120.83</ele>
      </trkpt>
      <trkpt lat="45.32074" lon="-72.64772">
        <ele>120.58</ele>
      </trkpt>
      <trkpt lat="45.32085" lon="-72.64775">
        <ele>120.55</ele>
      </trkpt>
      <trkpt lat="45.32088" lon="-72.64756">
        <ele>120.66</ele>
      </trkpt>
      <trkpt lat="45.32105" lon="-72.64743">
        <ele>120.68</ele>
      </trkpt>
      <trkpt lat="45.32117" lon="-72.64738">
        <ele>120.78</ele>
      </trkpt>
      <trkpt lat="45.32122" lon="-72.6473">
        <ele>121.02</ele>
      </trkpt>
      <trkpt lat="45.32131" lon="-72.64681">
        <ele>122.23</ele>
      </trkpt>
      <trkpt lat="45.32161" lon="-72.64621">
        <ele>125.04</ele>
      </trkpt>
      <trkpt lat="45.32161" lon="-72.64622">
        <ele>124.97</ele>
      </trkpt>
      <trkpt lat="45.321895" lon="-72.645635">
        <ele>127.09</ele>
      </trkpt>
      <trkpt lat="45.32218" lon="-72.64505">
        <ele>128.14</ele>
      </trkpt>
      <trkpt lat="45.32236" lon="-72.64457">
        <ele>129.44</ele>
      </trkpt>
      <trkpt lat="45.32258" lon="-72.64381">
        <ele>130.78</ele>
      </trkpt>
      <trkpt lat="45.32266" lon="-72.64362">
        <ele>130.78</ele>
      </trkpt>
      <trkpt lat="45.32265" lon="-72.64362">
        <ele>130.78</ele>
      </trkpt>
      <trkpt lat="45.32284" lon="-72.6433">
        <ele>131.15</ele>
      </trkpt>
      <trkpt lat="45.3229" lon="-72.64269">
        <ele>131.82</ele>
      </trkpt>
      <trkpt lat="45.32297" lon="-72.64233">
        <ele>132.98</ele>
      </trkpt>
      <trkpt lat="45.32307" lon="-72.64227">
        <ele>133.28</ele>
      </trkpt>
      <trkpt lat="45.32306" lon="-72.64215">
        <ele>133.59</ele>
      </trkpt>
      <trkpt lat="45.32317" lon="-72.64174">
        <ele>134.59</ele>
      </trkpt>
      <trkpt lat="45.32323" lon="-72.64161">
        <ele>134.59</ele>
      </trkpt>
      <trkpt lat="45.32326" lon="-72.64142">
        <ele>135.5</ele>
      </trkpt>
      <trkpt lat="45.32306" lon="-72.64136">
        <ele>135.88</ele>
      </trkpt>
      <trkpt lat="45.323205" lon="-72.640725">
        <ele>136.93</ele>
      </trkpt>
      <trkpt lat="45.32335" lon="-72.64009">
        <ele>137.64</ele>
      </trkpt>
      <trkpt lat="45.32364" lon="-72.6388967">
        <ele>139.48</ele>
      </trkpt>
      <trkpt lat="45.32393" lon="-72.6377033">
        <ele>140.69</ele>
      </trkpt>
      <trkpt lat="45.32422" lon="-72.63651">
        <ele>142.5</ele>
      </trkpt>
      <trkpt lat="45.32422" lon="-72.63652">
        <ele>142.5</ele>
      </trkpt>
      <trkpt lat="45.324385" lon="-72.635775">
        <ele>144.27</ele>
      </trkpt>
      <trkpt lat="45.32455" lon="-72.63503">
        <ele>146.3</ele>
      </trkpt>
      <trkpt lat="45.324765" lon="-72.634135">
        <ele>147.8</ele>
      </trkpt>
      <trkpt lat="45.32498" lon="-72.63324">
        <ele>149.16</ele>
      </trkpt>
      <trkpt lat="45.32514" lon="-72.63275">
        <ele>149.33</ele>
      </trkpt>
      <trkpt lat="45.32523" lon="-72.63253">
        <ele>149.57</ele>
      </trkpt>
      <trkpt lat="45.3254" lon="-72.63224">
        <ele>149.64</ele>
      </trkpt>
      <trkpt lat="45.32507" lon="-72.63211">
        <ele>150.2</ele>
      </trkpt>
      <trkpt lat="45.32498" lon="-72.63208">
        <ele>150.41</ele>
      </trkpt>
      <trkpt lat="45.32416" lon="-72.63221">
        <ele>154.05</ele>
      </trkpt>
      <trkpt lat="45.32415" lon="-72.63221">
        <ele>154.07</ele>
      </trkpt>
      <trkpt lat="45.32407" lon="-72.63221">
        <ele>154.2</ele>
      </trkpt>
      <trkpt lat="45.32384" lon="-72.63212">
        <ele>154.15</ele>
      </trkpt>
      <trkpt lat="45.3230367" lon="-72.63157">
        <ele>150.94</ele>
      </trkpt>
      <trkpt lat="45.3222333" lon="-72.63102">
        <ele>147.46</ele>
      </trkpt>
      <trkpt lat="45.32143" lon="-72.63047">
        <ele>146.01</ele>
      </trkpt>
      <trkpt lat="45.32069" lon="-72.62993">
        <ele>144.45</ele>
      </trkpt>
      <trkpt lat="45.31995" lon="-72.62939">
        <ele>143.71</ele>
      </trkpt>
      <trkpt lat="45.31919" lon="-72.6287783">
        <ele>142.06</ele>
      </trkpt>
      <trkpt lat="45.31843" lon="-72.6281666">
        <ele>142.5</ele>
      </trkpt>
      <trkpt lat="45.31767" lon="-72.6275549">
        <ele>143</ele>
      </trkpt>
      <trkpt lat="45.31691" lon="-72.6269433">
        <ele>141.05</ele>
      </trkpt>
      <trkpt lat="45.31615" lon="-72.6263316">
        <ele>136.63</ele>
      </trkpt>
      <trkpt lat="45.31539" lon="-72.62572">
        <ele>138.02</ele>
      </trkpt>
      <trkpt lat="45.3148" lon="-72.62527">
        <ele>137.57</ele>
      </trkpt>
      <trkpt lat="45.31449" lon="-72.62508">
        <ele>138.61</ele>
      </trkpt>
      <trkpt lat="45.31421" lon="-72.62496">
        <ele>139.37</ele>
      </trkpt>
      <trkpt lat="45.31408" lon="-72.62489">
        <ele>139.62</ele>
      </trkpt>
      <trkpt lat="45.31394" lon="-72.62473">
        <ele>139.98</ele>
      </trkpt>
      <trkpt lat="45.31382" lon="-72.62438">
        <ele>140.29</ele>
      </trkpt>
      <trkpt lat="45.313595" lon="-72.62346">
        <ele>139.1</ele>
      </trkpt>
      <trkpt lat="45.31337" lon="-72.62254">
        <ele>138.16</ele>
      </trkpt>
      <trkpt lat="45.31315" lon="-72.62187">
        <ele>136.84</ele>
      </trkpt>
      <trkpt lat="45.31288" lon="-72.62117">
        <ele>136.2</ele>
      </trkpt>
      <trkpt lat="45.31288" lon="-72.62117">
        <ele>136.2</ele>
      </trkpt>
      <trkpt lat="45.31276" lon="-72.62084">
        <ele>136.63</ele>
      </trkpt>
      <trkpt lat="45.31261" lon="-72.62029">
        <ele>137.89</ele>
      </trkpt>
      <trkpt lat="45.312465" lon="-72.619535">
        <ele>140.1</ele>
      </trkpt>
      <trkpt lat="45.31232" lon="-72.61878">
        <ele>141.8</ele>
      </trkpt>
      <trkpt lat="45.31222" lon="-72.61765">
        <ele>143.39</ele>
      </trkpt>
      <trkpt lat="45.3122467" lon="-72.6164867">
        <ele>145.1</ele>
      </trkpt>
      <trkpt lat="45.3122733" lon="-72.6153233">
        <ele>146.89</ele>
      </trkpt>
      <trkpt lat="45.3123" lon="-72.61416">
        <ele>151.42</ele>
      </trkpt>
      <trkpt lat="45.31229" lon="-72.61394">
        <ele>151.71</ele>
      </trkpt>
      <trkpt lat="45.31224" lon="-72.6135">
        <ele>152.14</ele>
      </trkpt>
      <trkpt lat="45.31219" lon="-72.61323">
        <ele>152.09</ele>
      </trkpt>
      <trkpt lat="45.31209" lon="-72.61287">
        <ele>151.79</ele>
      </trkpt>
      <trkpt lat="45.31172" lon="-72.61193">
        <ele>148.21</ele>
      </trkpt>
      <trkpt lat="45.31144" lon="-72.61129">
        <ele>145.04</ele>
      </trkpt>
      <trkpt lat="45.31136" lon="-72.61113">
        <ele>145.04</ele>
      </trkpt>
      <trkpt lat="45.31126" lon="-72.61099">
        <ele>143.93</ele>
      </trkpt>
      <trkpt lat="45.31106" lon="-72.6108">
        <ele>143.4</ele>
      </trkpt>
      <trkpt lat="45.3104" lon="-72.61028">
        <ele>144.66</ele>
      </trkpt>
      <trkpt lat="45.31012" lon="-72.61004">
        <ele>146.92</ele>
      </trkpt>
      <trkpt lat="45.30986" lon="-72.60965">
        <ele>148.6</ele>
      </trkpt>
      <trkpt lat="45.30973" lon="-72.60937">
        <ele>148.9</ele>
      </trkpt>
      <trkpt lat="45.3096" lon="-72.60886">
        <ele>149.12</ele>
      </trkpt>
      <trkpt lat="45.30951" lon="-72.60836">
        <ele>149.14</ele>
      </trkpt>
      <trkpt lat="45.30933" lon="-72.6072933">
        <ele>149.05</ele>
      </trkpt>
      <trkpt lat="45.30915" lon="-72.6062267">
        <ele>150.33</ele>
      </trkpt>
      <trkpt lat="45.30897" lon="-72.60516">
        <ele>150.9</ele>
      </trkpt>
      <trkpt lat="45.3087967" lon="-72.6041933">
        <ele>150.97</ele>
      </trkpt>
      <trkpt lat="45.3086233" lon="-72.6032267">
        <ele>151.98</ele>
      </trkpt>
      <trkpt lat="45.30845" lon="-72.60226">
        <ele>151.5</ele>
      </trkpt>
      <trkpt lat="45.3082667" lon="-72.6011533">
        <ele>148.77</ele>
      </trkpt>
      <trkpt lat="45.3080833" lon="-72.6000467">
        <ele>148.9</ele>
      </trkpt>
      <trkpt lat="45.3079" lon="-72.59894">
        <ele>149.21</ele>
      </trkpt>
      <trkpt lat="45.30778" lon="-72.598125">
        <ele>152.21</ele>
      </trkpt>
      <trkpt lat="45.30766" lon="-72.59731">
        <ele>153.9</ele>
      </trkpt>
      <trkpt lat="45.30732" lon="-72.59616">
        <ele>154.49</ele>
      </trkpt>
      <trkpt lat="45.30728" lon="-72.59572">
        <ele>155.65</ele>
      </trkpt>
      <trkpt lat="45.3072815" lon="-72.5946157">
        <ele>157.49</ele>
      </trkpt>
      <trkpt lat="45.3072829" lon="-72.5935114">
        <ele>159.2</ele>
      </trkpt>
      <trkpt lat="45.3072843" lon="-72.5924071">
        <ele>159.05</ele>
      </trkpt>
      <trkpt lat="45.3072858" lon="-72.5913029">
        <ele>160.13</ele>
      </trkpt>
      <trkpt lat="45.3072872" lon="-72.5901986">
        <ele>164.66</ele>
      </trkpt>
      <trkpt lat="45.3072886" lon="-72.5890943">
        <ele>168.83</ele>
      </trkpt>
      <trkpt lat="45.30729" lon="-72.58799">
        <ele>170.79</ele>
      </trkpt>
      <trkpt lat="45.307275" lon="-72.58718">
        <ele>172.9</ele>
      </trkpt>
      <trkpt lat="45.30726" lon="-72.58637">
        <ele>173.53</ele>
      </trkpt>
      <trkpt lat="45.307258" lon="-72.585274">
        <ele>172.58</ele>
      </trkpt>
      <trkpt lat="45.307256" lon="-72.584178">
        <ele>167.58</ele>
      </trkpt>
      <trkpt lat="45.307254" lon="-72.583082">
        <ele>163.94</ele>
      </trkpt>
      <trkpt lat="45.307252" lon="-72.581986">
        <ele>165.55</ele>
      </trkpt>
      <trkpt lat="45.30725" lon="-72.58089">
        <ele>167.98</ele>
      </trkpt>
      <trkpt lat="45.30725" lon="-72.58089">
        <ele>167.95</ele>
      </trkpt>
      <trkpt lat="45.3072467" lon="-72.5797">
        <ele>169.06</ele>
      </trkpt>
      <trkpt lat="45.3072433" lon="-72.57851">
        <ele>168.49</ele>
      </trkpt>
      <trkpt lat="45.30724" lon="-72.57732">
        <ele>169.6</ele>
      </trkpt>
      <trkpt lat="45.3072517" lon="-72.5762">
        <ele>171.02</ele>
      </trkpt>
      <trkpt lat="45.3072634" lon="-72.57508">
        <ele>174.75</ele>
      </trkpt>
      <trkpt lat="45.307275" lon="-72.57396">
        <ele>181.83</ele>
      </trkpt>
      <trkpt lat="45.3072867" lon="-72.57284">
        <ele>186</ele>
      </trkpt>
      <trkpt lat="45.3072984" lon="-72.57172">
        <ele>192.85</ele>
      </trkpt>
      <trkpt lat="45.30731" lon="-72.5706">
        <ele>192.87</ele>
      </trkpt>
      <trkpt lat="45.30734" lon="-72.57015">
        <ele>193.02</ele>
      </trkpt>
      <trkpt lat="45.30742" lon="-72.56963">
        <ele>194.92</ele>
      </trkpt>
      <trkpt lat="45.30756" lon="-72.56896">
        <ele>198.31</ele>
      </trkpt>
      <trkpt lat="45.3076" lon="-72.56855">
        <ele>201.69</ele>
      </trkpt>
      <trkpt lat="45.30758" lon="-72.56814">
        <ele>205.94</ele>
      </trkpt>
      <trkpt lat="45.30744" lon="-72.566975">
        <ele>207.41</ele>
      </trkpt>
      <trkpt lat="45.3073" lon="-72.56581">
        <ele>207.83</ele>
      </trkpt>
      <trkpt lat="45.30727" lon="-72.56505">
        <ele>208.62</ele>
      </trkpt>
      <trkpt lat="45.3072675" lon="-72.56409">
        <ele>210.2</ele>
      </trkpt>
      <trkpt lat="45.307265" lon="-72.56313">
        <ele>213.16</ele>
      </trkpt>
      <trkpt lat="45.3072625" lon="-72.56217">
        <ele>217.05</ele>
      </trkpt>
      <trkpt lat="45.30726" lon="-72.56121">
        <ele>221.3</ele>
      </trkpt>
      <trkpt lat="45.3072667" lon="-72.5601367">
        <ele>223.52</ele>
      </trkpt>
      <trkpt lat="45.3072734" lon="-72.5590633">
        <ele>226.42</ele>
      </trkpt>
      <trkpt lat="45.30728" lon="-72.55799">
        <ele>226.52</ele>
      </trkpt>
      <trkpt lat="45.3072867" lon="-72.5569167">
        <ele>225.85</ele>
      </trkpt>
      <trkpt lat="45.3072934" lon="-72.5558433">
        <ele>225.81</ele>
      </trkpt>
      <trkpt lat="45.3073" lon="-72.55477">
        <ele>225.64</ele>
      </trkpt>
      <trkpt lat="45.3073167" lon="-72.5535467">
        <ele>225.97</ele>
      </trkpt>
      <trkpt lat="45.3073333" lon="-72.5523233">
        <ele>226.86</ele>
      </trkpt>
      <trkpt lat="45.30735" lon="-72.5511">
        <ele>227.43</ele>
      </trkpt>
      <trkpt lat="45.3073558" lon="-72.5498486">
        <ele>227.36</ele>
      </trkpt>
      <trkpt lat="45.3073615" lon="-72.5485971">
        <ele>228.96</ele>
      </trkpt>
      <trkpt lat="45.3073672" lon="-72.5473457">
        <ele>228.96</ele>
      </trkpt>
      <trkpt lat="45.3073729" lon="-72.5460943">
        <ele>229.09</ele>
      </trkpt>
      <trkpt lat="45.3073786" lon="-72.5448429">
        <ele>229.08</ele>
      </trkpt>
      <trkpt lat="45.3073843" lon="-72.5435914">
        <ele>230.2</ele>
      </trkpt>
      <trkpt lat="45.30739" lon="-72.54234">
        <ele>230.49</ele>
      </trkpt>
      <trkpt lat="45.30739" lon="-72.54235">
        <ele>230.49</ele>
      </trkpt>
      <trkpt lat="45.3073984" lon="-72.54115">
        <ele>231.16</ele>
      </trkpt>
      <trkpt lat="45.3074067" lon="-72.53995">
        <ele>230.82</ele>
      </trkpt>
      <trkpt lat="45.3074151" lon="-72.53875">
        <ele>228.44</ele>
      </trkpt>
      <trkpt lat="45.3074234" lon="-72.53755">
        <ele>226.18</ele>
      </trkpt>
      <trkpt lat="45.3074317" lon="-72.53635">
        <ele>227.23</ele>
      </trkpt>
      <trkpt lat="45.30744" lon="-72.53515">
        <ele>229.96</ele>
      </trkpt>
      <trkpt lat="45.3074429" lon="-72.53405">
        <ele>227.8</ele>
      </trkpt>
      <trkpt lat="45.3074458" lon="-72.53295">
        <ele>226.6</ele>
      </trkpt>
      <trkpt lat="45.3074486" lon="-72.53185">
        <ele>227.01</ele>
      </trkpt>
      <trkpt lat="45.3074515" lon="-72.53075">
        <ele>225.75</ele>
      </trkpt>
      <trkpt lat="45.3074543" lon="-72.52965">
        <ele>223.96</ele>
      </trkpt>
      <trkpt lat="45.3074572" lon="-72.52855">
        <ele>224.79</ele>
      </trkpt>
      <trkpt lat="45.30746" lon="-72.52745">
        <ele>223.09</ele>
      </trkpt>
      <trkpt lat="45.30749" lon="-72.527">
        <ele>221.46</ele>
      </trkpt>
      <trkpt lat="45.30758" lon="-72.52656">
        <ele>217.1</ele>
      </trkpt>
      <trkpt lat="45.307785" lon="-72.525755">
        <ele>210.49</ele>
      </trkpt>
      <trkpt lat="45.30799" lon="-72.52495">
        <ele>207.06</ele>
      </trkpt>
      <trkpt lat="45.308095" lon="-72.524165">
        <ele>209.38</ele>
      </trkpt>
      <trkpt lat="45.3082" lon="-72.52338">
        <ele>212.86</ele>
      </trkpt>
      <trkpt lat="45.3083" lon="-72.52284">
        <ele>214.07</ele>
      </trkpt>
      <trkpt lat="45.30853" lon="-72.5217975">
        <ele>217.28</ele>
      </trkpt>
      <trkpt lat="45.30876" lon="-72.520755">
        <ele>220.38</ele>
      </trkpt>
      <trkpt lat="45.30899" lon="-72.5197125">
        <ele>223.18</ele>
      </trkpt>
      <trkpt lat="45.30922" lon="-72.51867">
        <ele>225.61</ele>
      </trkpt>
      <trkpt lat="45.3094" lon="-72.51742">
        <ele>226.39</ele>
      </trkpt>
      <trkpt lat="45.309465" lon="-72.516715">
        <ele>227.81</ele>
      </trkpt>
      <trkpt lat="45.30953" lon="-72.51601">
        <ele>228.75</ele>
      </trkpt>
      <trkpt lat="45.30959" lon="-72.51501">
        <ele>229.8</ele>
      </trkpt>
      <trkpt lat="45.30965" lon="-72.51401">
        <ele>230.32</ele>
      </trkpt>
      <trkpt lat="45.30962" lon="-72.513165">
        <ele>227.49</ele>
      </trkpt>
      <trkpt lat="45.30959" lon="-72.51232">
        <ele>225.53</ele>
      </trkpt>
      <trkpt lat="45.30954" lon="-72.51191">
        <ele>226.09</ele>
      </trkpt>
      <trkpt lat="45.30951" lon="-72.51172">
        <ele>226.78</ele>
      </trkpt>
      <trkpt lat="45.30924" lon="-72.51075">
        <ele>231.11</ele>
      </trkpt>
      <trkpt lat="45.30903" lon="-72.51025">
        <ele>227.36</ele>
      </trkpt>
      <trkpt lat="45.30863" lon="-72.50937">
        <ele>223.38</ele>
      </trkpt>
      <trkpt lat="45.30823" lon="-72.50849">
        <ele>222.7</ele>
      </trkpt>
      <trkpt lat="45.30783" lon="-72.50761">
        <ele>226.4</ele>
      </trkpt>
      <trkpt lat="45.3077" lon="-72.50722">
        <ele>227.07</ele>
      </trkpt>
      <trkpt lat="45.30757" lon="-72.50663">
        <ele>226.41</ele>
      </trkpt>
      <trkpt lat="45.30752" lon="-72.50596">
        <ele>223.96</ele>
      </trkpt>
      <trkpt lat="45.307545" lon="-72.504755">
        <ele>222.64</ele>
      </trkpt>
      <trkpt lat="45.30757" lon="-72.50355">
        <ele>223.59</ele>
      </trkpt>
      <trkpt lat="45.30757" lon="-72.5023367">
        <ele>223.56</ele>
      </trkpt>
      <trkpt lat="45.30757" lon="-72.5011233">
        <ele>222.89</ele>
      </trkpt>
      <trkpt lat="45.30757" lon="-72.49991">
        <ele>219.83</ele>
      </trkpt>
      <trkpt lat="45.30757" lon="-72.49992">
        <ele>219.85</ele>
      </trkpt>
      <trkpt lat="45.30757" lon="-72.49914">
        <ele>220.76</ele>
      </trkpt>
      <trkpt lat="45.3082" lon="-72.49932">
        <ele>222.47</ele>
      </trkpt>
      <trkpt lat="45.30848" lon="-72.49933">
        <ele>222.81</ele>
      </trkpt>
      <trkpt lat="45.30883" lon="-72.4993">
        <ele>223.8</ele>
      </trkpt>
      <trkpt lat="45.30877" lon="-72.49904">
        <ele>224.09</ele>
      </trkpt>
      <trkpt lat="45.30828" lon="-72.49906">
        <ele>223.42</ele>
      </trkpt>
      <trkpt lat="45.30806" lon="-72.49902">
        <ele>223</ele>
      </trkpt>
      <trkpt lat="45.3076" lon="-72.49888">
        <ele>222.73</ele>
      </trkpt>
      <trkpt lat="45.306784" lon="-72.49855">
        <ele>221.78</ele>
      </trkpt>
      <trkpt lat="45.305968" lon="-72.49822">
        <ele>221.15</ele>
      </trkpt>
      <trkpt lat="45.305152" lon="-72.49789">
        <ele>220.81</ele>
      </trkpt>
      <trkpt lat="45.304336" lon="-72.49756">
        <ele>219.72</ele>
      </trkpt>
      <trkpt lat="45.30352" lon="-72.49723">
        <ele>218.85</ele>
      </trkpt>
      <trkpt lat="45.3029" lon="-72.49701">
        <ele>218.21</ele>
      </trkpt>
      <trkpt lat="45.30231" lon="-72.49691">
        <ele>217.63</ele>
      </trkpt>
      <trkpt lat="45.30201" lon="-72.49691">
        <ele>217.3</ele>
      </trkpt>
      <trkpt lat="45.30131" lon="-72.49698">
        <ele>216.37</ele>
      </trkpt>
      <trkpt lat="45.3013" lon="-72.49698">
        <ele>216.36</ele>
      </trkpt>
      <trkpt lat="45.300705" lon="-72.497025">
        <ele>215.82</ele>
      </trkpt>
      <trkpt lat="45.30011" lon="-72.49707">
        <ele>215.73</ele>
      </trkpt>
      <trkpt lat="45.299405" lon="-72.497145">
        <ele>215.02</ele>
      </trkpt>
      <trkpt lat="45.2987" lon="-72.49722">
        <ele>214.63</ele>
      </trkpt>
      <trkpt lat="45.297995" lon="-72.497295">
        <ele>214.39</ele>
      </trkpt>
      <trkpt lat="45.29729" lon="-72.49737">
        <ele>213.88</ele>
      </trkpt>
      <trkpt lat="45.2965175" lon="-72.497435">
        <ele>214.04</ele>
      </trkpt>
      <trkpt lat="45.295745" lon="-72.4975">
        <ele>212.94</ele>
      </trkpt>
      <trkpt lat="45.2949725" lon="-72.497565">
        <ele>212.57</ele>
      </trkpt>
      <trkpt lat="45.2942" lon="-72.49763">
        <ele>212.41</ele>
      </trkpt>
      <trkpt lat="45.29393" lon="-72.49764">
        <ele>212.29</ele>
      </trkpt>
      <trkpt lat="45.2936" lon="-72.49763">
        <ele>212.47</ele>
      </trkpt>
      <trkpt lat="45.29332" lon="-72.49758">
        <ele>213.52</ele>
      </trkpt>
      <trkpt lat="45.29322" lon="-72.49753">
        <ele>213.52</ele>
      </trkpt>
      <trkpt lat="45.29306" lon="-72.49749">
        <ele>213.51</ele>
      </trkpt>
      <trkpt lat="45.29258" lon="-72.49727">
        <ele>212.98</ele>
      </trkpt>
      <trkpt lat="45.29219" lon="-72.49701">
        <ele>213.05</ele>
      </trkpt>
      <trkpt lat="45.2914575" lon="-72.496375">
        <ele>212.81</ele>
      </trkpt>
      <trkpt lat="45.290725" lon="-72.49574">
        <ele>213.43</ele>
      </trkpt>
      <trkpt lat="45.2899925" lon="-72.495105">
        <ele>213.21</ele>
      </trkpt>
      <trkpt lat="45.28926" lon="-72.49447">
        <ele>213.59</ele>
      </trkpt>
      <trkpt lat="45.28858" lon="-72.49391">
        <ele>213.58</ele>
      </trkpt>
      <trkpt lat="45.28809" lon="-72.49346">
        <ele>213.97</ele>
      </trkpt>
      <trkpt lat="45.287655" lon="-72.493015">
        <ele>214.71</ele>
      </trkpt>
      <trkpt lat="45.28722" lon="-72.49257">
        <ele>214.36</ele>
      </trkpt>
      <trkpt lat="45.28719" lon="-72.49251">
        <ele>214.36</ele>
      </trkpt>
      <trkpt lat="45.2871" lon="-72.49248">
        <ele>214.4</ele>
      </trkpt>
      <trkpt lat="45.28693" lon="-72.49235">
        <ele>214.55</ele>
      </trkpt>
      <trkpt lat="45.28651" lon="-72.49188">
        <ele>214.72</ele>
      </trkpt>
      <trkpt lat="45.2865133" lon="-72.4909933">
        <ele>216.16</ele>
      </trkpt>
      <trkpt lat="45.2865167" lon="-72.4901067">
        <ele>216.32</ele>
      </trkpt>
      <trkpt lat="45.28652" lon="-72.48922">
        <ele>217.19</ele>
      </trkpt>
      <trkpt lat="45.28652" lon="-72.48922">
        <ele>217.17</ele>
      </trkpt>
      <trkpt lat="45.2865289" lon="-72.4880011">
        <ele>221.17</ele>
      </trkpt>
      <trkpt lat="45.2865379" lon="-72.4867822">
        <ele>224.91</ele>
      </trkpt>
      <trkpt lat="45.2865468" lon="-72.4855633">
        <ele>226.75</ele>
      </trkpt>
      <trkpt lat="45.2865557" lon="-72.4843444">
        <ele>227.14</ele>
      </trkpt>
      <trkpt lat="45.2865646" lon="-72.4831256">
        <ele>226.72</ele>
      </trkpt>
      <trkpt lat="45.2865735" lon="-72.4819067">
        <ele>225.93</ele>
      </trkpt>
      <trkpt lat="45.2865823" lon="-72.4806878">
        <ele>226.55</ele>
      </trkpt>
      <trkpt lat="45.2865912" lon="-72.4794689">
        <ele>229.26</ele>
      </trkpt>
      <trkpt lat="45.2866" lon="-72.47825">
        <ele>227.2</ele>
      </trkpt>
      <trkpt lat="45.286628" lon="-72.477148">
        <ele>226.56</ele>
      </trkpt>
      <trkpt lat="45.286656" lon="-72.476046">
        <ele>224.92</ele>
      </trkpt>
      <trkpt lat="45.286684" lon="-72.474944">
        <ele>224.99</ele>
      </trkpt>
      <trkpt lat="45.286712" lon="-72.473842">
        <ele>223.86</ele>
      </trkpt>
      <trkpt lat="45.28674" lon="-72.47274">
        <ele>220.65</ele>
      </trkpt>
      <trkpt lat="45.28674" lon="-72.47275">
        <ele>220.66</ele>
      </trkpt>
      <trkpt lat="45.2867767" lon="-72.47157">
        <ele>221.25</ele>
      </trkpt>
      <trkpt lat="45.2868133" lon="-72.47039">
        <ele>221.59</ele>
      </trkpt>
      <trkpt lat="45.28685" lon="-72.46921">
        <ele>222.72</ele>
      </trkpt>
      <trkpt lat="45.28687" lon="-72.46808">
        <ele>221.05</ele>
      </trkpt>
      <trkpt lat="45.28689" lon="-72.46772">
        <ele>220.82</ele>
      </trkpt>
      <trkpt lat="45.28696" lon="-72.46736">
        <ele>220.82</ele>
      </trkpt>
      <trkpt lat="45.287175" lon="-72.46656">
        <ele>221.33</ele>
      </trkpt>
      <trkpt lat="45.28739" lon="-72.46576">
        <ele>222.24</ele>
      </trkpt>
      <trkpt lat="45.28775" lon="-72.46472">
        <ele>223.22</ele>
      </trkpt>
      <trkpt lat="45.28796" lon="-72.46424">
        <ele>224.51</ele>
      </trkpt>
      <trkpt lat="45.28828" lon="-72.46373">
        <ele>225.55</ele>
      </trkpt>
      <trkpt lat="45.28882" lon="-72.46291">
        <ele>225.3</ele>
      </trkpt>
      <trkpt lat="45.288158" lon="-72.462354">
        <ele>222.66</ele>
      </trkpt>
      <trkpt lat="45.287496" lon="-72.461798">
        <ele>217.9</ele>
      </trkpt>
      <trkpt lat="45.286834" lon="-72.461242">
        <ele>217.41</ele>
      </trkpt>
      <trkpt lat="45.286172" lon="-72.460686">
        <ele>217.57</ele>
      </trkpt>
      <trkpt lat="45.28551" lon="-72.46013">
        <ele>215.22</ele>
      </trkpt>
      <trkpt lat="45.28487" lon="-72.45965">
        <ele>215.15</ele>
      </trkpt>
      <trkpt lat="45.28441" lon="-72.459315">
        <ele>215.17</ele>
      </trkpt>
      <trkpt lat="45.28395" lon="-72.45898">
        <ele>214.84</ele>
      </trkpt>
      <trkpt lat="45.28395" lon="-72.45898">
        <ele>214.84</ele>
      </trkpt>
      <trkpt lat="45.283235" lon="-72.45846">
        <ele>214.93</ele>
      </trkpt>
      <trkpt lat="45.28252" lon="-72.45794">
        <ele>216.21</ele>
      </trkpt>
      <trkpt lat="45.28221" lon="-72.45769">
        <ele>217.46</ele>
      </trkpt>
      <trkpt lat="45.28152" lon="-72.45704">
        <ele>221.51</ele>
      </trkpt>
      <trkpt lat="45.28083" lon="-72.45639">
        <ele>223.74</ele>
      </trkpt>
      <trkpt lat="45.2802333" lon="-72.4558667">
        <ele>231.1</ele>
      </trkpt>
      <trkpt lat="45.2796367" lon="-72.4553433">
        <ele>239.63</ele>
      </trkpt>
      <trkpt lat="45.27904" lon="-72.45482">
        <ele>244.18</ele>
      </trkpt>
      <trkpt lat="45.27879" lon="-72.45456">
        <ele>247.45</ele>
      </trkpt>
      <trkpt lat="45.27851" lon="-72.45422">
        <ele>249.55</ele>
      </trkpt>
      <trkpt lat="45.27816" lon="-72.45384">
        <ele>250.96</ele>
      </trkpt>
      <trkpt lat="45.27782" lon="-72.45339">
        <ele>253.37</ele>
      </trkpt>
      <trkpt lat="45.277325" lon="-72.452675">
        <ele>258.84</ele>
      </trkpt>
      <trkpt lat="45.27683" lon="-72.45196">
        <ele>264.57</ele>
      </trkpt>
      <trkpt lat="45.27648" lon="-72.45147">
        <ele>269.55</ele>
      </trkpt>
      <trkpt lat="45.27602" lon="-72.4509">
        <ele>272.67</ele>
      </trkpt>
      <trkpt lat="45.27588" lon="-72.45076">
        <ele>273.69</ele>
      </trkpt>
      <trkpt lat="45.27558" lon="-72.45053">
        <ele>275.02</ele>
      </trkpt>
      <trkpt lat="45.27485" lon="-72.45016">
        <ele>276.91</ele>
      </trkpt>
      <trkpt lat="45.274152" lon="-72.449848">
        <ele>277.4</ele>
      </trkpt>
      <trkpt lat="45.273454" lon="-72.449536">
        <ele>278.59</ele>
      </trkpt>
      <trkpt lat="45.272756" lon="-72.449224">
        <ele>279.69</ele>
      </trkpt>
      <trkpt lat="45.272058" lon="-72.448912">
        <ele>280.63</ele>
      </trkpt>
      <trkpt lat="45.27136" lon="-72.4486">
        <ele>282.32</ele>
      </trkpt>
      <trkpt lat="45.27099" lon="-72.44839">
        <ele>283.07</ele>
      </trkpt>
      <trkpt lat="45.27065" lon="-72.44813">
        <ele>283.62</ele>
      </trkpt>
      <trkpt lat="45.2703" lon="-72.44779">
        <ele>283.7</ele>
      </trkpt>
      <trkpt lat="45.26964" lon="-72.447">
        <ele>281.02</ele>
      </trkpt>
      <trkpt lat="45.26964" lon="-72.447">
        <ele>281.02</ele>
      </trkpt>
      <trkpt lat="45.2691467" lon="-72.44642">
        <ele>278.84</ele>
      </trkpt>
      <trkpt lat="45.2686533" lon="-72.44584">
        <ele>275.72</ele>
      </trkpt>
      <trkpt lat="45.26816" lon="-72.44526">
        <ele>274.47</ele>
      </trkpt>
      <trkpt lat="45.26762" lon="-72.44475">
        <ele>275.06</ele>
      </trkpt>
      <trkpt lat="45.2670067" lon="-72.4442">
        <ele>276.35</ele>
      </trkpt>
      <trkpt lat="45.2663933" lon="-72.44365">
        <ele>277.59</ele>
      </trkpt>
      <trkpt lat="45.26578" lon="-72.4431">
        <ele>279.79</ele>
      </trkpt>
      <trkpt lat="45.26524" lon="-72.44255">
        <ele>282.17</ele>
      </trkpt>
      <trkpt lat="45.26489" lon="-72.44215">
        <ele>283.05</ele>
      </trkpt>
      <trkpt lat="45.26449" lon="-72.44158">
        <ele>285.53</ele>
      </trkpt>
      <trkpt lat="45.26427" lon="-72.44122">
        <ele>286.05</ele>
      </trkpt>
      <trkpt lat="45.26398" lon="-72.44057">
        <ele>289.77</ele>
      </trkpt>
      <trkpt lat="45.263745" lon="-72.439955">
        <ele>290.43</ele>
      </trkpt>
      <trkpt lat="45.26351" lon="-72.43934">
        <ele>294.72</ele>
      </trkpt>
      <trkpt lat="45.26343" lon="-72.43917">
        <ele>294.72</ele>
      </trkpt>
      <trkpt lat="45.26328" lon="-72.439">
        <ele>294.91</ele>
      </trkpt>
      <trkpt lat="45.26314" lon="-72.43893">
        <ele>294.96</ele>
      </trkpt>
      <trkpt lat="45.26255" lon="-72.43891">
        <ele>294.23</ele>
      </trkpt>
      <trkpt lat="45.26185" lon="-72.43895">
        <ele>291.96</ele>
      </trkpt>
      <trkpt lat="45.26115" lon="-72.43899">
        <ele>288.32</ele>
      </trkpt>
      <trkpt lat="45.260595" lon="-72.439005">
        <ele>289.47</ele>
      </trkpt>
      <trkpt lat="45.26004" lon="-72.43902">
        <ele>292.27</ele>
      </trkpt>
      <trkpt lat="45.25977" lon="-72.43898">
        <ele>292.51</ele>
      </trkpt>
      <trkpt lat="45.25951" lon="-72.43886">
        <ele>292.78</ele>
      </trkpt>
      <trkpt lat="45.25874" lon="-72.43827">
        <ele>297.42</ele>
      </trkpt>
      <trkpt lat="45.25805" lon="-72.43764">
        <ele>304.26</ele>
      </trkpt>
      <trkpt lat="45.25754" lon="-72.4371">
        <ele>309.6</ele>
      </trkpt>
      <trkpt lat="45.25718" lon="-72.43678">
        <ele>310.11</ele>
      </trkpt>
      <trkpt lat="45.25683" lon="-72.43656">
        <ele>309.7</ele>
      </trkpt>
      <trkpt lat="45.25683" lon="-72.43655">
        <ele>309.7</ele>
      </trkpt>
      <trkpt lat="45.25603" lon="-72.43602">
        <ele>309.28</ele>
      </trkpt>
      <trkpt lat="45.25523" lon="-72.43549">
        <ele>308.78</ele>
      </trkpt>
      <trkpt lat="45.254585" lon="-72.435225">
        <ele>312.98</ele>
      </trkpt>
      <trkpt lat="45.25394" lon="-72.43496">
        <ele>318.27</ele>
      </trkpt>
      <trkpt lat="45.25332" lon="-72.43486">
        <ele>323.49</ele>
      </trkpt>
      <trkpt lat="45.2528" lon="-72.43486">
        <ele>325.51</ele>
      </trkpt>
      <trkpt lat="45.25228" lon="-72.43486">
        <ele>327.6</ele>
      </trkpt>
      <trkpt lat="45.25152" lon="-72.43488">
        <ele>332.42</ele>
      </trkpt>
      <trkpt lat="45.25076" lon="-72.43492">
        <ele>337.63</ele>
      </trkpt>
      <trkpt lat="45.25" lon="-72.43496">
        <ele>344.35</ele>
      </trkpt>
      <trkpt lat="45.249395" lon="-72.435045">
        <ele>347.56</ele>
      </trkpt>
      <trkpt lat="45.24879" lon="-72.43513">
        <ele>347.58</ele>
      </trkpt>
      <trkpt lat="45.24845" lon="-72.43514">
        <ele>348.37</ele>
      </trkpt>
      <trkpt lat="45.24761" lon="-72.43513">
        <ele>350.81</ele>
      </trkpt>
      <trkpt lat="45.24707" lon="-72.43506">
        <ele>351.87</ele>
      </trkpt>
      <trkpt lat="45.24659" lon="-72.43504">
        <ele>352.96</ele>
      </trkpt>
      <trkpt lat="45.24624" lon="-72.43499">
        <ele>353.72</ele>
      </trkpt>
      <trkpt lat="45.24607" lon="-72.43497">
        <ele>353.72</ele>
      </trkpt>
      <trkpt lat="45.24582" lon="-72.43499">
        <ele>354.83</ele>
      </trkpt>
      <trkpt lat="45.245335" lon="-72.43508">
        <ele>356.03</ele>
      </trkpt>
      <trkpt lat="45.24485" lon="-72.43517">
        <ele>356.93</ele>
      </trkpt>
      <trkpt lat="45.24431" lon="-72.43529">
        <ele>357.63</ele>
      </trkpt>
      <trkpt lat="45.243555" lon="-72.435525">
        <ele>358.79</ele>
      </trkpt>
      <trkpt lat="45.2428" lon="-72.43576">
        <ele>359.34</ele>
      </trkpt>
      <trkpt lat="45.24211" lon="-72.43593">
        <ele>359.05</ele>
      </trkpt>
      <trkpt lat="45.24188" lon="-72.43602">
        <ele>359.04</ele>
      </trkpt>
      <trkpt lat="45.24123" lon="-72.43634">
        <ele>359.29</ele>
      </trkpt>
      <trkpt lat="45.24089" lon="-72.43655">
        <ele>357.93</ele>
      </trkpt>
      <trkpt lat="45.240435" lon="-72.43691">
        <ele>355.26</ele>
      </trkpt>
      <trkpt lat="45.23998" lon="-72.43727">
        <ele>354.56</ele>
      </trkpt>
      <trkpt lat="45.23934" lon="-72.43786">
        <ele>353.49</ele>
      </trkpt>
      <trkpt lat="45.2387" lon="-72.43845">
        <ele>351.05</ele>
      </trkpt>
      <trkpt lat="45.23869" lon="-72.43845">
        <ele>351.02</ele>
      </trkpt>
      <trkpt lat="45.23856" lon="-72.43858">
        <ele>350.17</ele>
      </trkpt>
      <trkpt lat="45.23822" lon="-72.43884">
        <ele>347.58</ele>
      </trkpt>
      <trkpt lat="45.23777" lon="-72.43925">
        <ele>345.14</ele>
      </trkpt>
      <trkpt lat="45.23753" lon="-72.43942">
        <ele>345.71</ele>
      </trkpt>
      <trkpt lat="45.23731" lon="-72.43951">
        <ele>346.84</ele>
      </trkpt>
      <trkpt lat="45.23699" lon="-72.43956">
        <ele>347.55</ele>
      </trkpt>
      <trkpt lat="45.23613" lon="-72.439595">
        <ele>348.98</ele>
      </trkpt>
      <trkpt lat="45.23527" lon="-72.43963">
        <ele>353.42</ele>
      </trkpt>
      <trkpt lat="45.23477" lon="-72.43966">
        <ele>354.63</ele>
      </trkpt>
      <trkpt lat="45.234185" lon="-72.43968">
        <ele>356.65</ele>
      </trkpt>
      <trkpt lat="45.2336" lon="-72.4397">
        <ele>358.94</ele>
      </trkpt>
      <trkpt lat="45.23336" lon="-72.43973">
        <ele>359.92</ele>
      </trkpt>
      <trkpt lat="45.23292" lon="-72.43973">
        <ele>363.85</ele>
      </trkpt>
      <trkpt lat="45.23292" lon="-72.440935">
        <ele>352.92</ele>
      </trkpt>
      <trkpt lat="45.23292" lon="-72.44214">
        <ele>344.3</ele>
      </trkpt>
      <trkpt lat="45.2329067" lon="-72.44307">
        <ele>338.04</ele>
      </trkpt>
      <trkpt lat="45.2328933" lon="-72.444">
        <ele>332.46</ele>
      </trkpt>
      <trkpt lat="45.23288" lon="-72.44493">
        <ele>328.98</ele>
      </trkpt>
      <trkpt lat="45.23286" lon="-72.44525">
        <ele>328.21</ele>
      </trkpt>
      <trkpt lat="45.2328" lon="-72.44574">
        <ele>326.75</ele>
      </trkpt>
      <trkpt lat="45.23268" lon="-72.44602">
        <ele>325.69</ele>
      </trkpt>
      <trkpt lat="45.23254" lon="-72.44628">
        <ele>324.55</ele>
      </trkpt>
      <trkpt lat="45.232175" lon="-72.44706">
        <ele>323.05</ele>
      </trkpt>
      <trkpt lat="45.23181" lon="-72.44784">
        <ele>323.67</ele>
      </trkpt>
      <trkpt lat="45.23158" lon="-72.448465">
        <ele>321.73</ele>
      </trkpt>
      <trkpt lat="45.23135" lon="-72.44909">
        <ele>318.4</ele>
      </trkpt>
      <trkpt lat="45.23116" lon="-72.44968">
        <ele>313.95</ele>
      </trkpt>
      <trkpt lat="45.23094" lon="-72.45013">
        <ele>308.89</ele>
      </trkpt>
      <trkpt lat="45.230695" lon="-72.450955">
        <ele>304.1</ele>
      </trkpt>
      <trkpt lat="45.23045" lon="-72.45178">
        <ele>300.1</ele>
      </trkpt>
      <trkpt lat="45.23018" lon="-72.4525">
        <ele>297.67</ele>
      </trkpt>
      <trkpt lat="45.23009" lon="-72.45295">
        <ele>294.41</ele>
      </trkpt>
      <trkpt lat="45.22991" lon="-72.45351">
        <ele>292.33</ele>
      </trkpt>
      <trkpt lat="45.22967" lon="-72.45424">
        <ele>295.18</ele>
      </trkpt>
      <trkpt lat="45.22965" lon="-72.45458">
        <ele>298.39</ele>
      </trkpt>
      <trkpt lat="45.22965" lon="-72.45459">
        <ele>298.38</ele>
      </trkpt>
      <trkpt lat="45.2296" lon="-72.45487">
        <ele>299</ele>
      </trkpt>
      <trkpt lat="45.22933" lon="-72.45536">
        <ele>298.08</ele>
      </trkpt>
      <trkpt lat="45.22921" lon="-72.45564">
        <ele>296.82</ele>
      </trkpt>
      <trkpt lat="45.22908" lon="-72.45679">
        <ele>298.65</ele>
      </trkpt>
      <trkpt lat="45.2291" lon="-72.45743">
        <ele>297.86</ele>
      </trkpt>
      <trkpt lat="45.22908" lon="-72.45797">
        <ele>295.88</ele>
      </trkpt>
      <trkpt lat="45.229" lon="-72.45823">
        <ele>295.52</ele>
      </trkpt>
      <trkpt lat="45.22892" lon="-72.45836">
        <ele>295.5</ele>
      </trkpt>
      <trkpt lat="45.22871" lon="-72.45854">
        <ele>295.53</ele>
      </trkpt>
      <trkpt lat="45.22841" lon="-72.45868">
        <ele>296.26</ele>
      </trkpt>
      <trkpt lat="45.22824" lon="-72.45881">
        <ele>296.93</ele>
      </trkpt>
      <trkpt lat="45.22803" lon="-72.459">
        <ele>297.55</ele>
      </trkpt>
      <trkpt lat="45.22785" lon="-72.45934">
        <ele>297.48</ele>
      </trkpt>
      <trkpt lat="45.22766" lon="-72.45989">
        <ele>296.55</ele>
      </trkpt>
      <trkpt lat="45.22761" lon="-72.4602">
        <ele>296.55</ele>
      </trkpt>
      <trkpt lat="45.22762" lon="-72.46051">
        <ele>295.66</ele>
      </trkpt>
      <trkpt lat="45.22768" lon="-72.46074">
        <ele>295.48</ele>
      </trkpt>
      <trkpt lat="45.22788" lon="-72.46105">
        <ele>294.97</ele>
      </trkpt>
      <trkpt lat="45.22806" lon="-72.46127">
        <ele>294.33</ele>
      </trkpt>
      <trkpt lat="45.22825" lon="-72.46158">
        <ele>293.63</ele>
      </trkpt>
      <trkpt lat="45.2283" lon="-72.46178">
        <ele>293.12</ele>
      </trkpt>
      <trkpt lat="45.22829" lon="-72.46204">
        <ele>291.96</ele>
      </trkpt>
      <trkpt lat="45.22815" lon="-72.46257">
        <ele>287.79</ele>
      </trkpt>
      <trkpt lat="45.22797" lon="-72.46312">
        <ele>281.66</ele>
      </trkpt>
      <trkpt lat="45.22774" lon="-72.46369">
        <ele>276.25</ele>
      </trkpt>
      <trkpt lat="45.2276" lon="-72.46392">
        <ele>274.34</ele>
      </trkpt>
      <trkpt lat="45.22752" lon="-72.46415">
        <ele>273.07</ele>
      </trkpt>
      <trkpt lat="45.22749" lon="-72.46454">
        <ele>270.88</ele>
      </trkpt>
      <trkpt lat="45.227485" lon="-72.465345">
        <ele>268.21</ele>
      </trkpt>
      <trkpt lat="45.22748" lon="-72.46615">
        <ele>266</ele>
      </trkpt>
      <trkpt lat="45.22752" lon="-72.467396">
        <ele>259.25</ele>
      </trkpt>
      <trkpt lat="45.22756" lon="-72.468642">
        <ele>256.85</ele>
      </trkpt>
      <trkpt lat="45.2276" lon="-72.469888">
        <ele>256.84</ele>
      </trkpt>
      <trkpt lat="45.22764" lon="-72.471134">
        <ele>255.35</ele>
      </trkpt>
      <trkpt lat="45.22768" lon="-72.47238">
        <ele>252.55</ele>
      </trkpt>
      <trkpt lat="45.22774" lon="-72.473075">
        <ele>253.78</ele>
      </trkpt>
      <trkpt lat="45.2278" lon="-72.47377">
        <ele>255.71</ele>
      </trkpt>
      <trkpt lat="45.2278" lon="-72.47377">
        <ele>255.74</ele>
      </trkpt>
      <trkpt lat="45.22787" lon="-72.47457">
        <ele>259.77</ele>
      </trkpt>
      <trkpt lat="45.22786" lon="-72.47506">
        <ele>260.48</ele>
      </trkpt>
      <trkpt lat="45.22781" lon="-72.476">
        <ele>261.54</ele>
      </trkpt>
      <trkpt lat="45.22776" lon="-72.4765">
        <ele>261.97</ele>
      </trkpt>
      <trkpt lat="45.22751" lon="-72.47735">
        <ele>260.65</ele>
      </trkpt>
      <trkpt lat="45.22743" lon="-72.47749">
        <ele>260.14</ele>
      </trkpt>
      <trkpt lat="45.22717" lon="-72.47788">
        <ele>257.93</ele>
      </trkpt>
      <trkpt lat="45.22674" lon="-72.47838">
        <ele>254.13</ele>
      </trkpt>
      <trkpt lat="45.22651" lon="-72.4787">
        <ele>251.14</ele>
      </trkpt>
      <trkpt lat="45.225934" lon="-72.479426">
        <ele>244.36</ele>
      </trkpt>
      <trkpt lat="45.225358" lon="-72.480152">
        <ele>240.98</ele>
      </trkpt>
      <trkpt lat="45.224782" lon="-72.480878">
        <ele>240.49</ele>
      </trkpt>
      <trkpt lat="45.224206" lon="-72.481604">
        <ele>242.37</ele>
      </trkpt>
      <trkpt lat="45.22363" lon="-72.48233">
        <ele>242.44</ele>
      </trkpt>
      <trkpt lat="45.22339" lon="-72.48271">
        <ele>239.97</ele>
      </trkpt>
      <trkpt lat="45.22321" lon="-72.48304">
        <ele>238.19</ele>
      </trkpt>
      <trkpt lat="45.22315" lon="-72.48321">
        <ele>237.9</ele>
      </trkpt>
      <trkpt lat="45.22304" lon="-72.48375">
        <ele>237.09</ele>
      </trkpt>
      <trkpt lat="45.22295" lon="-72.48464">
        <ele>237.28</ele>
      </trkpt>
      <trkpt lat="45.22294" lon="-72.485815">
        <ele>240.64</ele>
      </trkpt>
      <trkpt lat="45.22293" lon="-72.48699">
        <ele>243.77</ele>
      </trkpt>
      <trkpt lat="45.22293" lon="-72.48699">
        <ele>243.82</ele>
      </trkpt>
      <trkpt lat="45.22292" lon="-72.48786">
        <ele>246.09</ele>
      </trkpt>
      <trkpt lat="45.22291" lon="-72.48873">
        <ele>245.15</ele>
      </trkpt>
      <trkpt lat="45.22282" lon="-72.4893">
        <ele>244.28</ele>
      </trkpt>
      <trkpt lat="45.2227" lon="-72.48961">
        <ele>243.4</ele>
      </trkpt>
      <trkpt lat="45.22254" lon="-72.48986">
        <ele>242.86</ele>
      </trkpt>
      <trkpt lat="45.22185" lon="-72.4906">
        <ele>244.54</ele>
      </trkpt>
      <trkpt lat="45.22164" lon="-72.49086">
        <ele>244.88</ele>
      </trkpt>
      <trkpt lat="45.22125" lon="-72.49176">
        <ele>245.67</ele>
      </trkpt>
      <trkpt lat="45.22098" lon="-72.492535">
        <ele>245.28</ele>
      </trkpt>
      <trkpt lat="45.22071" lon="-72.49331">
        <ele>244.53</ele>
      </trkpt>
      <trkpt lat="45.22061" lon="-72.49383">
        <ele>242.16</ele>
      </trkpt>
      <trkpt lat="45.22059" lon="-72.49401">
        <ele>241.43</ele>
      </trkpt>
      <trkpt lat="45.22063" lon="-72.49445">
        <ele>238.01</ele>
      </trkpt>
      <trkpt lat="45.22072" lon="-72.49483">
        <ele>235.78</ele>
      </trkpt>
      <trkpt lat="45.22087" lon="-72.49526">
        <ele>232.76</ele>
      </trkpt>
      <trkpt lat="45.2213" lon="-72.49633">
        <ele>227.13</ele>
      </trkpt>
      <trkpt lat="45.22135" lon="-72.49651">
        <ele>226.54</ele>
      </trkpt>
      <trkpt lat="45.22137" lon="-72.49672">
        <ele>225.76</ele>
      </trkpt>
      <trkpt lat="45.22139" lon="-72.49733">
        <ele>224.43</ele>
      </trkpt>
      <trkpt lat="45.2214" lon="-72.49844">
        <ele>221.16</ele>
      </trkpt>
      <trkpt lat="45.22139" lon="-72.499225">
        <ele>218.9</ele>
      </trkpt>
      <trkpt lat="45.22138" lon="-72.50001">
        <ele>219.82</ele>
      </trkpt>
      <trkpt lat="45.221385" lon="-72.500705">
        <ele>223.46</ele>
      </trkpt>
      <trkpt lat="45.22139" lon="-72.5014">
        <ele>224.55</ele>
      </trkpt>
      <trkpt lat="45.22151" lon="-72.50211">
        <ele>222.33</ele>
      </trkpt>
      <trkpt lat="45.22153" lon="-72.5025">
        <ele>221.66</ele>
      </trkpt>
      <trkpt lat="45.22149" lon="-72.50269">
        <ele>221.56</ele>
      </trkpt>
      <trkpt lat="45.22117" lon="-72.50364">
        <ele>222.6</ele>
      </trkpt>
      <trkpt lat="45.2208" lon="-72.50464">
        <ele>224.01</ele>
      </trkpt>
      <trkpt lat="45.22043" lon="-72.50564">
        <ele>224.17</ele>
      </trkpt>
      <trkpt lat="45.22026" lon="-72.50596">
        <ele>223.38</ele>
      </trkpt>
      <trkpt lat="45.21984" lon="-72.506695">
        <ele>223.34</ele>
      </trkpt>
      <trkpt lat="45.21942" lon="-72.50743">
        <ele>221.94</ele>
      </trkpt>
      <trkpt lat="45.21888" lon="-72.50831">
        <ele>220.25</ele>
      </trkpt>
      <trkpt lat="45.21898" lon="-72.5091">
        <ele>217.57</ele>
      </trkpt>
      <trkpt lat="45.21913" lon="-72.50986">
        <ele>216.2</ele>
      </trkpt>
      <trkpt lat="45.21933" lon="-72.51052">
        <ele>215.06</ele>
      </trkpt>
      <trkpt lat="45.219625" lon="-72.51123">
        <ele>212.66</ele>
      </trkpt>
      <trkpt lat="45.21992" lon="-72.51194">
        <ele>212.16</ele>
      </trkpt>
      <trkpt lat="45.22022" lon="-72.51259">
        <ele>212.73</ele>
      </trkpt>
      <trkpt lat="45.22022" lon="-72.51259">
        <ele>212.74</ele>
      </trkpt>
      <trkpt lat="45.22048" lon="-72.51314">
        <ele>212.33</ele>
      </trkpt>
      <trkpt lat="45.2208567" lon="-72.5139967">
        <ele>210.38</ele>
      </trkpt>
      <trkpt lat="45.2212333" lon="-72.5148533">
        <ele>210.09</ele>
      </trkpt>
      <trkpt lat="45.22161" lon="-72.51571">
        <ele>209.52</ele>
      </trkpt>
      <trkpt lat="45.22181" lon="-72.51627">
        <ele>209.08</ele>
      </trkpt>
      <trkpt lat="45.22188" lon="-72.51695">
        <ele>209.17</ele>
      </trkpt>
      <trkpt lat="45.22192" lon="-72.51783">
        <ele>209.51</ele>
      </trkpt>
      <trkpt lat="45.22196" lon="-72.51871">
        <ele>209.91</ele>
      </trkpt>
      <trkpt lat="45.22201" lon="-72.51898">
        <ele>209.85</ele>
      </trkpt>
      <trkpt lat="45.2221" lon="-72.51929">
        <ele>209.61</ele>
      </trkpt>
      <trkpt lat="45.2224" lon="-72.52006">
        <ele>208.71</ele>
      </trkpt>
      <trkpt lat="45.22249" lon="-72.52033">
        <ele>208.63</ele>
      </trkpt>
      <trkpt lat="45.22266" lon="-72.52095">
        <ele>208.17</ele>
      </trkpt>
      <trkpt lat="45.22275" lon="-72.5214">
        <ele>207.88</ele>
      </trkpt>
      <trkpt lat="45.22279" lon="-72.52211">
        <ele>206.85</ele>
      </trkpt>
      <trkpt lat="45.22279" lon="-72.52248">
        <ele>206.85</ele>
      </trkpt>
      <trkpt lat="45.22277" lon="-72.52283">
        <ele>206.32</ele>
      </trkpt>
      <trkpt lat="45.22272" lon="-72.52306">
        <ele>205.86</ele>
      </trkpt>
      <trkpt lat="45.22259" lon="-72.52337">
        <ele>205.08</ele>
      </trkpt>
      <trkpt lat="45.22192" lon="-72.52412">
        <ele>201.94</ele>
      </trkpt>
      <trkpt lat="45.221425" lon="-72.524615">
        <ele>201.99</ele>
      </trkpt>
      <trkpt lat="45.22093" lon="-72.52511">
        <ele>202.92</ele>
      </trkpt>
      <trkpt lat="45.22121" lon="-72.5261175">
        <ele>202.61</ele>
      </trkpt>
      <trkpt lat="45.22149" lon="-72.527125">
        <ele>202.09</ele>
      </trkpt>
      <trkpt lat="45.22177" lon="-72.5281325">
        <ele>202.38</ele>
      </trkpt>
      <trkpt lat="45.22205" lon="-72.52914">
        <ele>202.66</ele>
      </trkpt>
      <trkpt lat="45.22219" lon="-72.52981">
        <ele>203.11</ele>
      </trkpt>
      <trkpt lat="45.22219" lon="-72.52981">
        <ele>203.11</ele>
      </trkpt>
      <trkpt lat="45.22227" lon="-72.53042">
        <ele>203.03</ele>
      </trkpt>
      <trkpt lat="45.2222967" lon="-72.53128">
        <ele>202.73</ele>
      </trkpt>
      <trkpt lat="45.2223233" lon="-72.53214">
        <ele>202.58</ele>
      </trkpt>
      <trkpt lat="45.22235" lon="-72.533">
        <ele>202.26</ele>
      </trkpt>
      <trkpt lat="45.22231" lon="-72.53398">
        <ele>200.82</ele>
      </trkpt>
      <trkpt lat="45.222325" lon="-72.53497">
        <ele>199.69</ele>
      </trkpt>
      <trkpt lat="45.22234" lon="-72.53596">
        <ele>200.19</ele>
      </trkpt>
      <trkpt lat="45.22238" lon="-72.5368233">
        <ele>204.65</ele>
      </trkpt>
      <trkpt lat="45.22242" lon="-72.5376867">
        <ele>211.36</ele>
      </trkpt>
      <trkpt lat="45.22246" lon="-72.53855">
        <ele>212.72</ele>
      </trkpt>
      <trkpt lat="45.22263" lon="-72.53954">
        <ele>218.65</ele>
      </trkpt>
      <trkpt lat="45.22259" lon="-72.53977">
        <ele>220.11</ele>
      </trkpt>
      <trkpt lat="45.22248" lon="-72.54007">
        <ele>223.02</ele>
      </trkpt>
      <trkpt lat="45.22232" lon="-72.54042">
        <ele>226.55</ele>
      </trkpt>
      <trkpt lat="45.22203" lon="-72.54096">
        <ele>228.66</ele>
      </trkpt>
      <trkpt lat="45.22193" lon="-72.5411">
        <ele>231.06</ele>
      </trkpt>
      <trkpt lat="45.22159" lon="-72.54145">
        <ele>234.69</ele>
      </trkpt>
      <trkpt lat="45.22148" lon="-72.54159">
        <ele>237.25</ele>
      </trkpt>
      <trkpt lat="45.22141" lon="-72.54174">
        <ele>238.73</ele>
      </trkpt>
      <trkpt lat="45.22136" lon="-72.54209">
        <ele>241.27</ele>
      </trkpt>
      <trkpt lat="45.22139" lon="-72.5424">
        <ele>242.71</ele>
      </trkpt>
      <trkpt lat="45.22154" lon="-72.5428">
        <ele>244.44</ele>
      </trkpt>
      <trkpt lat="45.22198" lon="-72.54353">
        <ele>248.34</ele>
      </trkpt>
      <trkpt lat="45.22242" lon="-72.54426">
        <ele>253.2</ele>
      </trkpt>
      <trkpt lat="45.22258" lon="-72.54459">
        <ele>254.68</ele>
      </trkpt>
      <trkpt lat="45.2226" lon="-72.54465">
        <ele>255.37</ele>
      </trkpt>
      <trkpt lat="45.222635" lon="-72.545895">
        <ele>255.63</ele>
      </trkpt>
      <trkpt lat="45.22267" lon="-72.54714">
        <ele>252.48</ele>
      </trkpt>
      <trkpt lat="45.22268" lon="-72.54805">
        <ele>254.06</ele>
      </trkpt>
      <trkpt lat="45.22268" lon="-72.54805">
        <ele>254.07</ele>
      </trkpt>
      <trkpt lat="45.222695" lon="-72.54926">
        <ele>257.82</ele>
      </trkpt>
      <trkpt lat="45.22271" lon="-72.55047">
        <ele>263.33</ele>
      </trkpt>
      <trkpt lat="45.222755" lon="-72.551115">
        <ele>267.63</ele>
      </trkpt>
      <trkpt lat="45.2228" lon="-72.55176">
        <ele>273.74</ele>
      </trkpt>
      <trkpt lat="45.222816" lon="-72.552798">
        <ele>276.13</ele>
      </trkpt>
      <trkpt lat="45.222832" lon="-72.553836">
        <ele>276.69</ele>
      </trkpt>
      <trkpt lat="45.222848" lon="-72.554874">
        <ele>275.03</ele>
      </trkpt>
      <trkpt lat="45.222864" lon="-72.555912">
        <ele>271.01</ele>
      </trkpt>
      <trkpt lat="45.22288" lon="-72.55695">
        <ele>268.27</ele>
      </trkpt>
      <trkpt lat="45.22287" lon="-72.55762">
        <ele>266.6</ele>
      </trkpt>
      <trkpt lat="45.22282" lon="-72.55816">
        <ele>261.54</ele>
      </trkpt>
      <trkpt lat="45.22283" lon="-72.559055">
        <ele>256.91</ele>
      </trkpt>
      <trkpt lat="45.22284" lon="-72.55995">
        <ele>254.95</ele>
      </trkpt>
      <trkpt lat="45.2228175" lon="-72.56104">
        <ele>257.96</ele>
      </trkpt>
      <trkpt lat="45.222795" lon="-72.56213">
        <ele>262.88</ele>
      </trkpt>
      <trkpt lat="45.2227725" lon="-72.56322">
        <ele>266.37</ele>
      </trkpt>
      <trkpt lat="45.22275" lon="-72.56431">
        <ele>271.96</ele>
      </trkpt>
      <trkpt lat="45.22275" lon="-72.56431">
        <ele>271.96</ele>
      </trkpt>
      <trkpt lat="45.2227333" lon="-72.5651867">
        <ele>278.25</ele>
      </trkpt>
      <trkpt lat="45.2227167" lon="-72.5660633">
        <ele>284.32</ele>
      </trkpt>
      <trkpt lat="45.2227" lon="-72.56694">
        <ele>286.16</ele>
      </trkpt>
      <trkpt lat="45.2226863" lon="-72.5680588">
        <ele>286.08</ele>
      </trkpt>
      <trkpt lat="45.2226726" lon="-72.5691775">
        <ele>282.49</ele>
      </trkpt>
      <trkpt lat="45.2226588" lon="-72.5702963">
        <ele>279.34</ele>
      </trkpt>
      <trkpt lat="45.2226451" lon="-72.571415">
        <ele>272.25</ele>
      </trkpt>
      <trkpt lat="45.2226313" lon="-72.5725338">
        <ele>266.31</ele>
      </trkpt>
      <trkpt lat="45.2226176" lon="-72.5736525">
        <ele>258.56</ele>
      </trkpt>
      <trkpt lat="45.2226038" lon="-72.5747713">
        <ele>252.29</ele>
      </trkpt>
      <trkpt lat="45.22259" lon="-72.57589">
        <ele>245.28</ele>
      </trkpt>
      <trkpt lat="45.222595" lon="-72.57667">
        <ele>238.62</ele>
      </trkpt>
      <trkpt lat="45.2226" lon="-72.57745">
        <ele>232.8</ele>
      </trkpt>
      <trkpt lat="45.2226387" lon="-72.5786393">
        <ele>227.5</ele>
      </trkpt>
      <trkpt lat="45.2226773" lon="-72.5798286">
        <ele>221.75</ele>
      </trkpt>
      <trkpt lat="45.2227159" lon="-72.5810178">
        <ele>218.23</ele>
      </trkpt>
      <trkpt lat="45.2227545" lon="-72.5822071">
        <ele>214.29</ele>
      </trkpt>
      <trkpt lat="45.2227931" lon="-72.5833964">
        <ele>209.05</ele>
      </trkpt>
      <trkpt lat="45.2228317" lon="-72.5845857">
        <ele>205.58</ele>
      </trkpt>
      <trkpt lat="45.2228703" lon="-72.585775">
        <ele>202.55</ele>
      </trkpt>
      <trkpt lat="45.2229089" lon="-72.5869642">
        <ele>200.31</ele>
      </trkpt>
      <trkpt lat="45.2229474" lon="-72.5881535">
        <ele>200.65</ele>
      </trkpt>
      <trkpt lat="45.222986" lon="-72.5893428">
        <ele>204.36</ele>
      </trkpt>
      <trkpt lat="45.2230245" lon="-72.5905321">
        <ele>208.41</ele>
      </trkpt>
      <trkpt lat="45.223063" lon="-72.5917214">
        <ele>211.37</ele>
      </trkpt>
      <trkpt lat="45.2231015" lon="-72.5929107">
        <ele>213.7</ele>
      </trkpt>
      <trkpt lat="45.22314" lon="-72.5941">
        <ele>216.18</ele>
      </trkpt>
      <trkpt lat="45.22314" lon="-72.5941">
        <ele>216.18</ele>
      </trkpt>
      <trkpt lat="45.223185" lon="-72.5953575">
        <ele>218.39</ele>
      </trkpt>
      <trkpt lat="45.22323" lon="-72.596615">
        <ele>219.65</ele>
      </trkpt>
      <trkpt lat="45.223275" lon="-72.5978725">
        <ele>221.46</ele>
      </trkpt>
      <trkpt lat="45.22332" lon="-72.59913">
        <ele>221.27</ele>
      </trkpt>
      <trkpt lat="45.2233772" lon="-72.6002514">
        <ele>218.34</ele>
      </trkpt>
      <trkpt lat="45.2234343" lon="-72.6013728">
        <ele>212.58</ele>
      </trkpt>
      <trkpt lat="45.2234915" lon="-72.6024943">
        <ele>210.06</ele>
      </trkpt>
      <trkpt lat="45.2235486" lon="-72.6036157">
        <ele>210.28</ele>
      </trkpt>
      <trkpt lat="45.2236058" lon="-72.6047371">
        <ele>213</ele>
      </trkpt>
      <trkpt lat="45.2236629" lon="-72.6058586">
        <ele>216.03</ele>
      </trkpt>
      <trkpt lat="45.22372" lon="-72.60698">
        <ele>214.04</ele>
      </trkpt>
      <trkpt lat="45.2237667" lon="-72.60808">
        <ele>210.92</ele>
      </trkpt>
      <trkpt lat="45.2238133" lon="-72.60918">
        <ele>209.05</ele>
      </trkpt>
      <trkpt lat="45.22386" lon="-72.61028">
        <ele>209.16</ele>
      </trkpt>
      <trkpt lat="45.22386" lon="-72.61028">
        <ele>209.16</ele>
      </trkpt>
      <trkpt lat="45.2239101" lon="-72.611427">
        <ele>210.25</ele>
      </trkpt>
      <trkpt lat="45.2239601" lon="-72.612574">
        <ele>213.55</ele>
      </trkpt>
      <trkpt lat="45.2240101" lon="-72.613721">
        <ele>214.99</ele>
      </trkpt>
      <trkpt lat="45.2240601" lon="-72.614868">
        <ele>215.03</ele>
      </trkpt>
      <trkpt lat="45.2241101" lon="-72.616015">
        <ele>218.43</ele>
      </trkpt>
      <trkpt lat="45.2241601" lon="-72.617162">
        <ele>215.09</ele>
      </trkpt>
      <trkpt lat="45.2242101" lon="-72.618309">
        <ele>213.86</ele>
      </trkpt>
      <trkpt lat="45.2242601" lon="-72.619456">
        <ele>214.95</ele>
      </trkpt>
      <trkpt lat="45.2243101" lon="-72.620603">
        <ele>217.74</ele>
      </trkpt>
      <trkpt lat="45.22436" lon="-72.62175">
        <ele>217.48</ele>
      </trkpt>
      <trkpt lat="45.225255" lon="-72.62174">
        <ele>219.6</ele>
      </trkpt>
      <trkpt lat="45.22615" lon="-72.62173">
        <ele>223.41</ele>
      </trkpt>
      <trkpt lat="45.227045" lon="-72.62172">
        <ele>228.56</ele>
      </trkpt>
      <trkpt lat="45.22794" lon="-72.62171">
        <ele>232.22</ele>
      </trkpt>
      <trkpt lat="45.22793" lon="-72.62171">
        <ele>232.21</ele>
      </trkpt>
      <trkpt lat="45.22873" lon="-72.6217">
        <ele>233.67</ele>
      </trkpt>
      <trkpt lat="45.22953" lon="-72.62169">
        <ele>234.2</ele>
      </trkpt>
      <trkpt lat="45.23033" lon="-72.62168">
        <ele>234.5</ele>
      </trkpt>
      <trkpt lat="45.231065" lon="-72.62164">
        <ele>237.69</ele>
      </trkpt>
      <trkpt lat="45.2318" lon="-72.6216">
        <ele>242.9</ele>
      </trkpt>
      <trkpt lat="45.2324667" lon="-72.6216">
        <ele>243.54</ele>
      </trkpt>
      <trkpt lat="45.2331333" lon="-72.6216">
        <ele>244.07</ele>
      </trkpt>
      <trkpt lat="45.2338" lon="-72.6216">
        <ele>245.74</ele>
      </trkpt>
      <trkpt lat="45.2344433" lon="-72.6215667">
        <ele>246.66</ele>
      </trkpt>
      <trkpt lat="45.2350867" lon="-72.6215333">
        <ele>249.44</ele>
      </trkpt>
      <trkpt lat="45.23573" lon="-72.6215">
        <ele>252.94</ele>
      </trkpt>
      <trkpt lat="45.236425" lon="-72.621445">
        <ele>258.17</ele>
      </trkpt>
      <trkpt lat="45.23712" lon="-72.62139">
        <ele>261.22</ele>
      </trkpt>
      <trkpt lat="45.237815" lon="-72.621335">
        <ele>262.29</ele>
      </trkpt>
      <trkpt lat="45.23851" lon="-72.62128">
        <ele>263.89</ele>
      </trkpt>
      <trkpt lat="45.23926" lon="-72.62117">
        <ele>260.47</ele>
      </trkpt>
      <trkpt lat="45.24003" lon="-72.62111">
        <ele>256.39</ele>
      </trkpt>
      <trkpt lat="45.2407" lon="-72.62115">
        <ele>254.5</ele>
      </trkpt>
      <trkpt lat="45.24137" lon="-72.62129">
        <ele>253.4</ele>
      </trkpt>
      <trkpt lat="45.24208" lon="-72.62151">
        <ele>250.89</ele>
      </trkpt>
      <trkpt lat="45.24285" lon="-72.62183">
        <ele>249.35</ele>
      </trkpt>
      <trkpt lat="45.2431" lon="-72.62214">
        <ele>249.21</ele>
      </trkpt>
      <trkpt lat="45.24339" lon="-72.62272">
        <ele>248.24</ele>
      </trkpt>
      <trkpt lat="45.24356" lon="-72.62333">
        <ele>246.24</ele>
      </trkpt>
      <trkpt lat="45.24356" lon="-72.62333">
        <ele>246.29</ele>
      </trkpt>
      <trkpt lat="45.24375" lon="-72.62397">
        <ele>243.64</ele>
      </trkpt>
      <trkpt lat="45.24386" lon="-72.62415">
        <ele>242.94</ele>
      </trkpt>
      <trkpt lat="45.2443633" lon="-72.6247933">
        <ele>238.25</ele>
      </trkpt>
      <trkpt lat="45.2448667" lon="-72.6254367">
        <ele>233.53</ele>
      </trkpt>
      <trkpt lat="45.24537" lon="-72.62608">
        <ele>230.61</ele>
      </trkpt>
      <trkpt lat="45.24588" lon="-72.62679">
        <ele>231.24</ele>
      </trkpt>
      <trkpt lat="45.24641" lon="-72.62743">
        <ele>234.31</ele>
      </trkpt>
      <trkpt lat="45.24669" lon="-72.62768">
        <ele>233.95</ele>
      </trkpt>
      <trkpt lat="45.24714" lon="-72.62792">
        <ele>228.54</ele>
      </trkpt>
      <trkpt lat="45.24734" lon="-72.628">
        <ele>228.54</ele>
      </trkpt>
      <trkpt lat="45.24758" lon="-72.62801">
        <ele>226.66</ele>
      </trkpt>
      <trkpt lat="45.24795" lon="-72.628">
        <ele>225.06</ele>
      </trkpt>
      <trkpt lat="45.24791" lon="-72.62872">
        <ele>227.71</ele>
      </trkpt>
      <trkpt lat="45.24787" lon="-72.62944">
        <ele>230.51</ele>
      </trkpt>
      <trkpt lat="45.24776" lon="-72.63051">
        <ele>232.51</ele>
      </trkpt>
      <trkpt lat="45.247645" lon="-72.631135">
        <ele>233.75</ele>
      </trkpt>
      <trkpt lat="45.24753" lon="-72.63176">
        <ele>236.13</ele>
      </trkpt>
      <trkpt lat="45.24717" lon="-72.63274">
        <ele>237.3</ele>
      </trkpt>
      <trkpt lat="45.24694" lon="-72.63361">
        <ele>237.52</ele>
      </trkpt>
      <trkpt lat="45.24678" lon="-72.6345">
        <ele>234.44</ele>
      </trkpt>
      <trkpt lat="45.246615" lon="-72.63515">
        <ele>233.51</ele>
      </trkpt>
      <trkpt lat="45.24645" lon="-72.6358">
        <ele>234.4</ele>
      </trkpt>
      <trkpt lat="45.24624" lon="-72.63643">
        <ele>234.61</ele>
      </trkpt>
      <trkpt lat="45.24604" lon="-72.63741">
        <ele>232.24</ele>
      </trkpt>
      <trkpt lat="45.24591" lon="-72.63775">
        <ele>231.98</ele>
      </trkpt>
      <trkpt lat="45.24545" lon="-72.638535">
        <ele>230.24</ele>
      </trkpt>
      <trkpt lat="45.24499" lon="-72.63932">
        <ele>228.81</ele>
      </trkpt>
      <trkpt lat="45.24459" lon="-72.63995">
        <ele>228.94</ele>
      </trkpt>
      <trkpt lat="45.24452" lon="-72.64009">
        <ele>228.9</ele>
      </trkpt>
      <trkpt lat="45.24452" lon="-72.6401">
        <ele>228.89</ele>
      </trkpt>
      <trkpt lat="45.24445" lon="-72.64026">
        <ele>228.77</ele>
      </trkpt>
      <trkpt lat="45.24418" lon="-72.64107">
        <ele>225.9</ele>
      </trkpt>
      <trkpt lat="45.24396" lon="-72.641905">
        <ele>224.22</ele>
      </trkpt>
      <trkpt lat="45.24374" lon="-72.64274">
        <ele>221.23</ele>
      </trkpt>
      <trkpt lat="45.24358" lon="-72.64363">
        <ele>219.71</ele>
      </trkpt>
      <trkpt lat="45.24327" lon="-72.6447">
        <ele>217.38</ele>
      </trkpt>
      <trkpt lat="45.24306" lon="-72.6456">
        <ele>213.17</ele>
      </trkpt>
      <trkpt lat="45.24305" lon="-72.64571">
        <ele>212.18</ele>
      </trkpt>
      <trkpt lat="45.2429" lon="-72.64636">
        <ele>209.59</ele>
      </trkpt>
      <trkpt lat="45.24264" lon="-72.6473">
        <ele>205.76</ele>
      </trkpt>
      <trkpt lat="45.24233" lon="-72.64833">
        <ele>202.98</ele>
      </trkpt>
      <trkpt lat="45.24201" lon="-72.6495">
        <ele>200.03</ele>
      </trkpt>
      <trkpt lat="45.24167" lon="-72.65039">
        <ele>195.93</ele>
      </trkpt>
      <trkpt lat="45.24123" lon="-72.65111">
        <ele>193.57</ele>
      </trkpt>
      <trkpt lat="45.2409" lon="-72.65177">
        <ele>196.06</ele>
      </trkpt>
      <trkpt lat="45.24047" lon="-72.65232">
        <ele>195.9</ele>
      </trkpt>
      <trkpt lat="45.24012" lon="-72.65285">
        <ele>194.77</ele>
      </trkpt>
      <trkpt lat="45.23998" lon="-72.65312">
        <ele>194.88</ele>
      </trkpt>
      <trkpt lat="45.23973" lon="-72.6537">
        <ele>194.57</ele>
      </trkpt>
      <trkpt lat="45.23941" lon="-72.6546">
        <ele>192.1</ele>
      </trkpt>
      <trkpt lat="45.23898" lon="-72.655565">
        <ele>188.15</ele>
      </trkpt>
      <trkpt lat="45.23855" lon="-72.65653">
        <ele>184.72</ele>
      </trkpt>
      <trkpt lat="45.2381" lon="-72.65745">
        <ele>184.35</ele>
      </trkpt>
      <trkpt lat="45.238848" lon="-72.657414">
        <ele>182.17</ele>
      </trkpt>
      <trkpt lat="45.239596" lon="-72.657378">
        <ele>178.7</ele>
      </trkpt>
      <trkpt lat="45.240344" lon="-72.657342">
        <ele>175.98</ele>
      </trkpt>
      <trkpt lat="45.241092" lon="-72.657306">
        <ele>170</ele>
      </trkpt>
      <trkpt lat="45.24184" lon="-72.65727">
        <ele>164.59</ele>
      </trkpt>
      <trkpt lat="45.2424667" lon="-72.6572167">
        <ele>162.26</ele>
      </trkpt>
      <trkpt lat="45.2430933" lon="-72.6571633">
        <ele>164.66</ele>
      </trkpt>
      <trkpt lat="45.24372" lon="-72.65711">
        <ele>171.38</ele>
      </trkpt>
      <trkpt lat="45.24371" lon="-72.65711">
        <ele>171.33</ele>
      </trkpt>
      <trkpt lat="45.24421" lon="-72.657085">
        <ele>176.69</ele>
      </trkpt>
      <trkpt lat="45.24471" lon="-72.65706">
        <ele>180.65</ele>
      </trkpt>
      <trkpt lat="45.2453867" lon="-72.65699">
        <ele>184.1</ele>
      </trkpt>
      <trkpt lat="45.2460633" lon="-72.65692">
        <ele>184.85</ele>
      </trkpt>
      <trkpt lat="45.24674" lon="-72.65685">
        <ele>187.26</ele>
      </trkpt>
      <trkpt lat="45.24762" lon="-72.65672">
        <ele>191.13</ele>
      </trkpt>
      <trkpt lat="45.24801" lon="-72.6567">
        <ele>192.82</ele>
      </trkpt>
      <trkpt lat="45.2487733" lon="-72.6567167">
        <ele>191.09</ele>
      </trkpt>
      <trkpt lat="45.2495367" lon="-72.6567333">
        <ele>189.44</ele>
      </trkpt>
      <trkpt lat="45.2503" lon="-72.65675">
        <ele>188.16</ele>
      </trkpt>
      <trkpt lat="45.25116" lon="-72.65679">
        <ele>187.12</ele>
      </trkpt>
      <trkpt lat="45.25201" lon="-72.65679">
        <ele>185.76</ele>
      </trkpt>
      <trkpt lat="45.25277" lon="-72.656755">
        <ele>178.2</ele>
      </trkpt>
      <trkpt lat="45.25353" lon="-72.65672">
        <ele>173.2</ele>
      </trkpt>
      <trkpt lat="45.25429" lon="-72.656685">
        <ele>171.7</ele>
      </trkpt>
      <trkpt lat="45.25505" lon="-72.65665">
        <ele>162.27</ele>
      </trkpt>
      <trkpt lat="45.25591" lon="-72.65663">
        <ele>153.87</ele>
      </trkpt>
      <trkpt lat="45.25677" lon="-72.65661">
        <ele>153.06</ele>
      </trkpt>
      <trkpt lat="45.25763" lon="-72.6566">
        <ele>155.73</ele>
      </trkpt>
      <trkpt lat="45.25787" lon="-72.65662">
        <ele>155.42</ele>
      </trkpt>
      <trkpt lat="45.25836" lon="-72.65664">
        <ele>153.47</ele>
      </trkpt>
      <trkpt lat="45.25885" lon="-72.65666">
        <ele>150.03</ele>
      </trkpt>
      <trkpt lat="45.25885" lon="-72.65666">
        <ele>150.07</ele>
      </trkpt>
      <trkpt lat="45.25941" lon="-72.65668">
        <ele>149.56</ele>
      </trkpt>
      <trkpt lat="45.260095" lon="-72.656685">
        <ele>151.77</ele>
      </trkpt>
      <trkpt lat="45.26078" lon="-72.65669">
        <ele>154.47</ele>
      </trkpt>
      <trkpt lat="45.26124" lon="-72.65664">
        <ele>157.06</ele>
      </trkpt>
      <trkpt lat="45.26119" lon="-72.657425">
        <ele>154.18</ele>
      </trkpt>
      <trkpt lat="45.26114" lon="-72.65821">
        <ele>152.24</ele>
      </trkpt>
      <trkpt lat="45.26091" lon="-72.659358">
        <ele>153.58</ele>
      </trkpt>
      <trkpt lat="45.26068" lon="-72.660506">
        <ele>152.09</ele>
      </trkpt>
      <trkpt lat="45.26045" lon="-72.661654">
        <ele>150.4</ele>
      </trkpt>
      <trkpt lat="45.26022" lon="-72.662802">
        <ele>150.03</ele>
      </trkpt>
      <trkpt lat="45.25999" lon="-72.66395">
        <ele>151.69</ele>
      </trkpt>
      <trkpt lat="45.25999" lon="-72.66396">
        <ele>151.71</ele>
      </trkpt>
      <trkpt lat="45.2599" lon="-72.6644">
        <ele>152.58</ele>
      </trkpt>
      <trkpt lat="45.25972" lon="-72.66493">
        <ele>153.41</ele>
      </trkpt>
      <trkpt lat="45.25942" lon="-72.66579">
        <ele>144.75</ele>
      </trkpt>
      <trkpt lat="45.25902" lon="-72.66681">
        <ele>141.28</ele>
      </trkpt>
      <trkpt lat="45.25894" lon="-72.66708">
        <ele>141.22</ele>
      </trkpt>
      <trkpt lat="45.25889" lon="-72.66741">
        <ele>141.21</ele>
      </trkpt>
      <trkpt lat="45.25888" lon="-72.6678">
        <ele>141.37</ele>
      </trkpt>
      <trkpt lat="45.2589125" lon="-72.669075">
        <ele>144.43</ele>
      </trkpt>
      <trkpt lat="45.258945" lon="-72.67035">
        <ele>144.28</ele>
      </trkpt>
      <trkpt lat="45.2589775" lon="-72.671625">
        <ele>142.81</ele>
      </trkpt>
      <trkpt lat="45.25901" lon="-72.6729">
        <ele>146.18</ele>
      </trkpt>
      <trkpt lat="45.25909" lon="-72.67322">
        <ele>147.01</ele>
      </trkpt>
      <trkpt lat="45.25929" lon="-72.67355">
        <ele>148.35</ele>
      </trkpt>
      <trkpt lat="45.25984" lon="-72.6742">
        <ele>150.4</ele>
      </trkpt>
      <trkpt lat="45.2602" lon="-72.67479">
        <ele>152.01</ele>
      </trkpt>
      <trkpt lat="45.26065" lon="-72.67582">
        <ele>152.96</ele>
      </trkpt>
      <trkpt lat="45.26074" lon="-72.67622">
        <ele>154.63</ele>
      </trkpt>
      <trkpt lat="45.26075" lon="-72.6765">
        <ele>156.55</ele>
      </trkpt>
      <trkpt lat="45.26068" lon="-72.67689">
        <ele>159.64</ele>
      </trkpt>
      <trkpt lat="45.26051" lon="-72.6773">
        <ele>162.41</ele>
      </trkpt>
      <trkpt lat="45.26041" lon="-72.67762">
        <ele>161.86</ele>
      </trkpt>
      <trkpt lat="45.2604" lon="-72.67787">
        <ele>159.91</ele>
      </trkpt>
      <trkpt lat="45.26043" lon="-72.6781">
        <ele>158.62</ele>
      </trkpt>
      <trkpt lat="45.26049" lon="-72.67829">
        <ele>155.83</ele>
      </trkpt>
      <trkpt lat="45.260735" lon="-72.67885">
        <ele>151.06</ele>
      </trkpt>
      <trkpt lat="45.26098" lon="-72.67941">
        <ele>150.71</ele>
      </trkpt>
      <trkpt lat="45.26098" lon="-72.67941">
        <ele>150.7</ele>
      </trkpt>
      <trkpt lat="45.26137" lon="-72.68029">
        <ele>153.19</ele>
      </trkpt>
      <trkpt lat="45.26187" lon="-72.6811">
        <ele>150.12</ele>
      </trkpt>
      <trkpt lat="45.26231" lon="-72.68164">
        <ele>144.51</ele>
      </trkpt>
      <trkpt lat="45.262815" lon="-72.68213">
        <ele>140.58</ele>
      </trkpt>
      <trkpt lat="45.26332" lon="-72.68262">
        <ele>139.72</ele>
      </trkpt>
      <trkpt lat="45.26358" lon="-72.68293">
        <ele>139.23</ele>
      </trkpt>
      <trkpt lat="45.26391" lon="-72.68348">
        <ele>137.13</ele>
      </trkpt>
      <trkpt lat="45.26424" lon="-72.68403">
        <ele>136.62</ele>
      </trkpt>
      <trkpt lat="45.26428" lon="-72.68337">
        <ele>137.87</ele>
      </trkpt>
      <trkpt lat="45.26432" lon="-72.68271">
        <ele>137.77</ele>
      </trkpt>
      <trkpt lat="45.26442" lon="-72.68199">
        <ele>136.22</ele>
      </trkpt>
      <trkpt lat="45.26461" lon="-72.681365">
        <ele>136.08</ele>
      </trkpt>
      <trkpt lat="45.2648" lon="-72.68074">
        <ele>136.55</ele>
      </trkpt>
      <trkpt lat="45.26498" lon="-72.679955">
        <ele>137.47</ele>
      </trkpt>
      <trkpt lat="45.26516" lon="-72.67917">
        <ele>137.12</ele>
      </trkpt>
      <trkpt lat="45.2656" lon="-72.67819">
        <ele>138.62</ele>
      </trkpt>
      <trkpt lat="45.26587" lon="-72.6777">
        <ele>137.93</ele>
      </trkpt>
      <trkpt lat="45.26597" lon="-72.67756">
        <ele>137.72</ele>
      </trkpt>
      <trkpt lat="45.26597" lon="-72.67757">
        <ele>137.74</ele>
      </trkpt>
      <trkpt lat="45.2662" lon="-72.67725">
        <ele>137.45</ele>
      </trkpt>
      <trkpt lat="45.26646" lon="-72.67702">
        <ele>136.83</ele>
      </trkpt>
      <trkpt lat="45.26723" lon="-72.67658">
        <ele>136.21</ele>
      </trkpt>
      <trkpt lat="45.26768" lon="-72.67617">
        <ele>136.73</ele>
      </trkpt>
      <trkpt lat="45.26797" lon="-72.67578">
        <ele>138.49</ele>
      </trkpt>
      <trkpt lat="45.26865" lon="-72.67523">
        <ele>145.91</ele>
      </trkpt>
      <trkpt lat="45.26921" lon="-72.67492">
        <ele>146.8</ele>
      </trkpt>
      <trkpt lat="45.27" lon="-72.67456">
        <ele>145.95</ele>
      </trkpt>
      <trkpt lat="45.27058" lon="-72.67443">
        <ele>144.24</ele>
      </trkpt>
      <trkpt lat="45.27116" lon="-72.6743">
        <ele>142.53</ele>
      </trkpt>
      <trkpt lat="45.27191" lon="-72.67403">
        <ele>143.2</ele>
      </trkpt>
      <trkpt lat="45.27191" lon="-72.67404">
        <ele>143.18</ele>
      </trkpt>
      <trkpt lat="45.27244" lon="-72.67384">
        <ele>143.98</ele>
      </trkpt>
      <trkpt lat="45.27327" lon="-72.67362">
        <ele>148.68</ele>
      </trkpt>
      <trkpt lat="45.27379" lon="-72.673575">
        <ele>152.3</ele>
      </trkpt>
      <trkpt lat="45.27431" lon="-72.67353">
        <ele>155.64</ele>
      </trkpt>
      <trkpt lat="45.27466" lon="-72.67354">
        <ele>159.99</ele>
      </trkpt>
      <trkpt lat="45.27497" lon="-72.67358">
        <ele>162.38</ele>
      </trkpt>
      <trkpt lat="45.27557" lon="-72.67376">
        <ele>166.64</ele>
      </trkpt>
      <trkpt lat="45.27639" lon="-72.67407">
        <ele>169.6</ele>
      </trkpt>
      <trkpt lat="45.2768" lon="-72.67429">
        <ele>170.08</ele>
      </trkpt>
      <trkpt lat="45.27716" lon="-72.67445">
        <ele>171</ele>
      </trkpt>
      <trkpt lat="45.27765" lon="-72.6747">
        <ele>171.69</ele>
      </trkpt>
      <trkpt lat="45.27806" lon="-72.67487">
        <ele>171.87</ele>
      </trkpt>
      <trkpt lat="45.27849" lon="-72.67496">
        <ele>171.98</ele>
      </trkpt>
      <trkpt lat="45.27882" lon="-72.67499">
        <ele>172.25</ele>
      </trkpt>
      <trkpt lat="45.27934" lon="-72.67501">
        <ele>172.23</ele>
      </trkpt>
      <trkpt lat="45.27996" lon="-72.67496">
        <ele>172.58</ele>
      </trkpt>
      <trkpt lat="45.28039" lon="-72.67482">
        <ele>172.57</ele>
      </trkpt>
      <trkpt lat="45.28098" lon="-72.67456">
        <ele>172.67</ele>
      </trkpt>
      <trkpt lat="45.281485" lon="-72.67431">
        <ele>173</ele>
      </trkpt>
      <trkpt lat="45.28199" lon="-72.67406">
        <ele>174.18</ele>
      </trkpt>
      <trkpt lat="45.28199" lon="-72.67407">
        <ele>174.17</ele>
      </trkpt>
      <trkpt lat="45.28224" lon="-72.67394">
        <ele>175.14</ele>
      </trkpt>
      <trkpt lat="45.282745" lon="-72.673645">
        <ele>176.95</ele>
      </trkpt>
      <trkpt lat="45.28325" lon="-72.67335">
        <ele>179.54</ele>
      </trkpt>
      <trkpt lat="45.283935" lon="-72.67288">
        <ele>184.59</ele>
      </trkpt>
      <trkpt lat="45.28462" lon="-72.67241">
        <ele>192.44</ele>
      </trkpt>
      <trkpt lat="45.2852829" lon="-72.67184">
        <ele>198.36</ele>
      </trkpt>
      <trkpt lat="45.2859457" lon="-72.6712701">
        <ele>205.7</ele>
      </trkpt>
      <trkpt lat="45.2866086" lon="-72.6707001">
        <ele>208.98</ele>
      </trkpt>
      <trkpt lat="45.2872714" lon="-72.6701301">
        <ele>209.7</ele>
      </trkpt>
      <trkpt lat="45.2879343" lon="-72.6695601">
        <ele>208.06</ele>
      </trkpt>
      <trkpt lat="45.2885972" lon="-72.66899">
        <ele>205.45</ele>
      </trkpt>
      <trkpt lat="45.28926" lon="-72.66842">
        <ele>200.89</ele>
      </trkpt>
      <trkpt lat="45.289855" lon="-72.66784">
        <ele>198.99</ele>
      </trkpt>
      <trkpt lat="45.29045" lon="-72.66726">
        <ele>198.99</ele>
      </trkpt>
      <trkpt lat="45.29045" lon="-72.66726">
        <ele>198.99</ele>
      </trkpt>
      <trkpt lat="45.29097" lon="-72.66676">
        <ele>198.95</ele>
      </trkpt>
      <trkpt lat="45.29149" lon="-72.66626">
        <ele>199.03</ele>
      </trkpt>
      <trkpt lat="45.29201" lon="-72.66576">
        <ele>198.63</ele>
      </trkpt>
      <trkpt lat="45.29257" lon="-72.66521">
        <ele>198.04</ele>
      </trkpt>
      <trkpt lat="45.29291" lon="-72.66485">
        <ele>196.58</ele>
      </trkpt>
      <trkpt lat="45.29344" lon="-72.66414">
        <ele>191.59</ele>
      </trkpt>
      <trkpt lat="45.293975" lon="-72.663375">
        <ele>185.98</ele>
      </trkpt>
      <trkpt lat="45.29451" lon="-72.66261">
        <ele>185.11</ele>
      </trkpt>
      <trkpt lat="45.29466" lon="-72.66243">
        <ele>184.69</ele>
      </trkpt>
      <trkpt lat="45.29502" lon="-72.66207">
        <ele>184.23</ele>
      </trkpt>
      <trkpt lat="45.2955" lon="-72.66172">
        <ele>183.61</ele>
      </trkpt>
      <trkpt lat="45.29573" lon="-72.66163">
        <ele>182.88</ele>
      </trkpt>
      <trkpt lat="45.2964717" lon="-72.6614217">
        <ele>181.54</ele>
      </trkpt>
      <trkpt lat="45.2972133" lon="-72.6612134">
        <ele>176.53</ele>
      </trkpt>
      <trkpt lat="45.297955" lon="-72.661005">
        <ele>173.72</ele>
      </trkpt>
      <trkpt lat="45.2986967" lon="-72.6607967">
        <ele>164.7</ele>
      </trkpt>
      <trkpt lat="45.2994383" lon="-72.6605883">
        <ele>161.05</ele>
      </trkpt>
      <trkpt lat="45.30018" lon="-72.66038">
        <ele>159.88</ele>
      </trkpt>
      <trkpt lat="45.30095" lon="-72.6601467">
        <ele>157.65</ele>
      </trkpt>
      <trkpt lat="45.30172" lon="-72.6599133">
        <ele>151.51</ele>
      </trkpt>
      <trkpt lat="45.30249" lon="-72.65968">
        <ele>148.53</ele>
      </trkpt>
      <trkpt lat="45.30337" lon="-72.6594275">
        <ele>142.6</ele>
      </trkpt>
      <trkpt lat="45.30425" lon="-72.659175">
        <ele>138.71</ele>
      </trkpt>
      <trkpt lat="45.30513" lon="-72.6589225">
        <ele>137.03</ele>
      </trkpt>
      <trkpt lat="45.30601" lon="-72.65867">
        <ele>139.49</ele>
      </trkpt>
      <trkpt lat="45.306" lon="-72.65867">
        <ele>139.44</ele>
      </trkpt>
      <trkpt lat="45.30651" lon="-72.65852">
        <ele>142.18</ele>
      </trkpt>
      <trkpt lat="45.30702" lon="-72.65837">
        <ele>143.55</ele>
      </trkpt>
      <trkpt lat="45.30759" lon="-72.65812">
        <ele>145.44</ele>
      </trkpt>
      <trkpt lat="45.30816" lon="-72.65787">
        <ele>146.99</ele>
      </trkpt>
      <trkpt lat="45.30899" lon="-72.65759">
        <ele>147.34</ele>
      </trkpt>
      <trkpt lat="45.30906" lon="-72.65768">
        <ele>147.34</ele>
      </trkpt>
      <trkpt lat="45.30913" lon="-72.65768">
        <ele>147.34</ele>
      </trkpt>
      <trkpt lat="45.30962" lon="-72.65759">
        <ele>146.61</ele>
      </trkpt>
      <trkpt lat="45.30994" lon="-72.65755">
        <ele>146.46</ele>
      </trkpt>
      <trkpt lat="45.31065" lon="-72.657495">
        <ele>146.07</ele>
      </trkpt>
      <trkpt lat="45.31136" lon="-72.65744">
        <ele>144.78</ele>
      </trkpt>
      <trkpt lat="45.312115" lon="-72.65739">
        <ele>140.9</ele>
      </trkpt>
      <trkpt lat="45.31287" lon="-72.65734">
        <ele>138.52</ele>
      </trkpt>
      <trkpt lat="45.313625" lon="-72.65729">
        <ele>135.82</ele>
      </trkpt>
      <trkpt lat="45.31438" lon="-72.65724">
        <ele>133.21</ele>
      </trkpt>
      <trkpt lat="45.31449" lon="-72.6572">
        <ele>132.82</ele>
      </trkpt>
      <trkpt lat="45.31462" lon="-72.65723">
        <ele>132.6</ele>
      </trkpt>
      <trkpt lat="45.31471" lon="-72.65719">
        <ele>132.3</ele>
      </trkpt>
      <trkpt lat="45.31487" lon="-72.65719">
        <ele>131.7</ele>
      </trkpt>
      <trkpt lat="45.3156375" lon="-72.6571525">
        <ele>128.08</ele>
      </trkpt>
      <trkpt lat="45.316405" lon="-72.657115">
        <ele>126.29</ele>
      </trkpt>
      <trkpt lat="45.3171725" lon="-72.6570775">
        <ele>126.71</ele>
      </trkpt>
      <trkpt lat="45.31794" lon="-72.65704">
        <ele>128.11</ele>
      </trkpt>
      <trkpt lat="45.31822" lon="-72.65593">
        <ele>128.6</ele>
      </trkpt>
      <trkpt lat="45.31822" lon="-72.65593">
        <ele>128.6</ele>
      </trkpt>
      <trkpt lat="45.3185025" lon="-72.6548125">
        <ele>129.11</ele>
      </trkpt>
      <trkpt lat="45.318785" lon="-72.653695">
        <ele>129.56</ele>
      </trkpt>
      <trkpt lat="45.3190675" lon="-72.6525775">
        <ele>129.91</ele>
      </trkpt>
      <trkpt lat="45.31935" lon="-72.65146">
        <ele>130.52</ele>
      </trkpt>
      <trkpt lat="45.31924" lon="-72.65145">
        <ele>130.5</ele>
      </trkpt>
      <trkpt lat="45.319" lon="-72.65132">
        <ele>130.25</ele>
      </trkpt>
      <trkpt lat="45.31891" lon="-72.65124">
        <ele>130.04</ele>
      </trkpt>
      <trkpt lat="45.31855" lon="-72.65106">
        <ele>128.97</ele>
      </trkpt>
      <trkpt lat="45.31815" lon="-72.65088">
        <ele>126.88</ele>
      </trkpt>
      <trkpt lat="45.31808" lon="-72.65092">
        <ele>126.88</ele>
      </trkpt>
      <trkpt lat="45.31805" lon="-72.65097">
        <ele>126.53</ele>
      </trkpt>
      <trkpt lat="45.317905" lon="-72.651685">
        <ele>126.77</ele>
      </trkpt>
      <trkpt lat="45.31776" lon="-72.6524">
        <ele>126.01</ele>
      </trkpt>
      <trkpt lat="45.31771" lon="-72.65245">
        <ele>126.01</ele>
      </trkpt>
      <trkpt lat="45.31762" lon="-72.65243">
        <ele>125.62</ele>
      </trkpt>
    </trkseg>
  </trk>
</gpx>