<?xml version='1.0' encoding='utf-8'?>
<gpx xmlns="http://www.topografix.com/GPX/1/1" xmlns:xsi="http://www.w3.org/2001/XMLSchema-instance" version="1.1" creator="Gravelle Estrie" xsi:schemaLocation="http://www.topografix.com/GPX/1/1 http://www.topografix.com/GPX/1/1/gpx.xsd">
  <metadata>
    <name>Laisse les bons temps rouler (Kain) 51KM</name>
  </metadata>
  <trk>
    <name>Laisse les bons temps rouler (Kain) 51KM</name>
    <trkseg>
      <trkpt lat="45.27014" lon="-72.67095">
        <ele>136.71</ele>
      </trkpt>
      <trkpt lat="45.27073" lon="-72.67157">
        <ele>137.09</ele>
      </trkpt>
      <trkpt lat="45.27145" lon="-72.67228">
        <ele>137.78</ele>
      </trkpt>
      <trkpt lat="45.27176" lon="-72.67264">
        <ele>139.09</ele>
      </trkpt>
      <trkpt lat="45.27226" lon="-72.67336">
        <ele>142.52</ele>
      </trkpt>
      <trkpt lat="45.27244" lon="-72.67384">
        <ele>143.86</ele>
      </trkpt>
      <trkpt lat="45.2718" lon="-72.67407">
        <ele>142.94</ele>
      </trkpt>
      <trkpt lat="45.27116" lon="-72.6743">
        <ele>142.48</ele>
      </trkpt>
      <trkpt lat="45.27058" lon="-72.67443">
        <ele>143.73</ele>
      </trkpt>
      <trkpt lat="45.27" lon="-72.67456">
        <ele>145.94</ele>
      </trkpt>
      <trkpt lat="45.26921" lon="-72.67492">
        <ele>146.4</ele>
      </trkpt>
      <trkpt lat="45.26865" lon="-72.67523">
        <ele>145.52</ele>
      </trkpt>
      <trkpt lat="45.26797" lon="-72.67578">
        <ele>138.75</ele>
      </trkpt>
      <trkpt lat="45.26768" lon="-72.67617">
        <ele>136.68</ele>
      </trkpt>
      <trkpt lat="45.26723" lon="-72.67658">
        <ele>135.99</ele>
      </trkpt>
      <trkpt lat="45.26646" lon="-72.67702">
        <ele>136.6</ele>
      </trkpt>
      <trkpt lat="45.2662" lon="-72.67725">
        <ele>137</ele>
      </trkpt>
      <trkpt lat="45.2661" lon="-72.67739">
        <ele>137.17</ele>
      </trkpt>
      <trkpt lat="45.26609" lon="-72.67739">
        <ele>137.17</ele>
      </trkpt>
      <trkpt lat="45.26587" lon="-72.6777">
        <ele>137.58</ele>
      </trkpt>
      <trkpt lat="45.2656" lon="-72.67819">
        <ele>138.22</ele>
      </trkpt>
      <trkpt lat="45.26516" lon="-72.67917">
        <ele>136.96</ele>
      </trkpt>
      <trkpt lat="45.26498" lon="-72.679955">
        <ele>137.21</ele>
      </trkpt>
      <trkpt lat="45.2648" lon="-72.68074">
        <ele>136.23</ele>
      </trkpt>
      <trkpt lat="45.26461" lon="-72.681365">
        <ele>135.79</ele>
      </trkpt>
      <trkpt lat="45.26442" lon="-72.68199">
        <ele>135.89</ele>
      </trkpt>
      <trkpt lat="45.26432" lon="-72.68271">
        <ele>137.17</ele>
      </trkpt>
      <trkpt lat="45.26428" lon="-72.68337">
        <ele>137.44</ele>
      </trkpt>
      <trkpt lat="45.26424" lon="-72.68403">
        <ele>136.45</ele>
      </trkpt>
      <trkpt lat="45.26391" lon="-72.68348">
        <ele>136.97</ele>
      </trkpt>
      <trkpt lat="45.26358" lon="-72.68293">
        <ele>139.26</ele>
      </trkpt>
      <trkpt lat="45.26332" lon="-72.68262">
        <ele>139.92</ele>
      </trkpt>
      <trkpt lat="45.262815" lon="-72.68213">
        <ele>140.57</ele>
      </trkpt>
      <trkpt lat="45.26231" lon="-72.68164">
        <ele>144.61</ele>
      </trkpt>
      <trkpt lat="45.26187" lon="-72.6811">
        <ele>149.86</ele>
      </trkpt>
      <trkpt lat="45.2615" lon="-72.68044">
        <ele>153.03</ele>
      </trkpt>
      <trkpt lat="45.2611433" lon="-72.67966">
        <ele>152.08</ele>
      </trkpt>
      <trkpt lat="45.2607867" lon="-72.67888">
        <ele>151.23</ele>
      </trkpt>
      <trkpt lat="45.26043" lon="-72.6781">
        <ele>157.99</ele>
      </trkpt>
      <trkpt lat="45.26042" lon="-72.67806">
        <ele>157.99</ele>
      </trkpt>
      <trkpt lat="45.26042" lon="-72.67806">
        <ele>157.88</ele>
      </trkpt>
      <trkpt lat="45.2604" lon="-72.67787">
        <ele>160.13</ele>
      </trkpt>
      <trkpt lat="45.26041" lon="-72.67762">
        <ele>161.94</ele>
      </trkpt>
      <trkpt lat="45.26051" lon="-72.6773">
        <ele>162.33</ele>
      </trkpt>
      <trkpt lat="45.26068" lon="-72.67689">
        <ele>160.23</ele>
      </trkpt>
      <trkpt lat="45.26075" lon="-72.6765">
        <ele>156.85</ele>
      </trkpt>
      <trkpt lat="45.26074" lon="-72.67622">
        <ele>154.96</ele>
      </trkpt>
      <trkpt lat="45.26065" lon="-72.67582">
        <ele>153.53</ele>
      </trkpt>
      <trkpt lat="45.2602" lon="-72.67479">
        <ele>151.71</ele>
      </trkpt>
      <trkpt lat="45.25984" lon="-72.6742">
        <ele>149.96</ele>
      </trkpt>
      <trkpt lat="45.25929" lon="-72.67355">
        <ele>148.17</ele>
      </trkpt>
      <trkpt lat="45.25909" lon="-72.67322">
        <ele>146.55</ele>
      </trkpt>
      <trkpt lat="45.25901" lon="-72.6729">
        <ele>146.15</ele>
      </trkpt>
      <trkpt lat="45.2589775" lon="-72.671625">
        <ele>142.74</ele>
      </trkpt>
      <trkpt lat="45.258945" lon="-72.67035">
        <ele>143.8</ele>
      </trkpt>
      <trkpt lat="45.2589125" lon="-72.669075">
        <ele>144.26</ele>
      </trkpt>
      <trkpt lat="45.25888" lon="-72.6678">
        <ele>141.23</ele>
      </trkpt>
      <trkpt lat="45.25889" lon="-72.66741">
        <ele>141.15</ele>
      </trkpt>
      <trkpt lat="45.25894" lon="-72.66708">
        <ele>141.15</ele>
      </trkpt>
      <trkpt lat="45.25902" lon="-72.66681">
        <ele>141.1</ele>
      </trkpt>
      <trkpt lat="45.25942" lon="-72.66579">
        <ele>144.99</ele>
      </trkpt>
      <trkpt lat="45.25966" lon="-72.665095">
        <ele>152.66</ele>
      </trkpt>
      <trkpt lat="45.2599" lon="-72.6644">
        <ele>153.11</ele>
      </trkpt>
      <trkpt lat="45.26016" lon="-72.66318">
        <ele>150.16</ele>
      </trkpt>
      <trkpt lat="45.260356" lon="-72.662186">
        <ele>150.15</ele>
      </trkpt>
      <trkpt lat="45.260552" lon="-72.661192">
        <ele>150.76</ele>
      </trkpt>
      <trkpt lat="45.260748" lon="-72.660198">
        <ele>153.03</ele>
      </trkpt>
      <trkpt lat="45.260944" lon="-72.659204">
        <ele>153.16</ele>
      </trkpt>
      <trkpt lat="45.26114" lon="-72.65821">
        <ele>152.25</ele>
      </trkpt>
      <trkpt lat="45.26119" lon="-72.657425">
        <ele>154.32</ele>
      </trkpt>
      <trkpt lat="45.26124" lon="-72.65664">
        <ele>156.92</ele>
      </trkpt>
      <trkpt lat="45.26078" lon="-72.65669">
        <ele>154.68</ele>
      </trkpt>
      <trkpt lat="45.260095" lon="-72.656685">
        <ele>152.2</ele>
      </trkpt>
      <trkpt lat="45.25941" lon="-72.65668">
        <ele>149.74</ele>
      </trkpt>
      <trkpt lat="45.25888" lon="-72.65666">
        <ele>150.23</ele>
      </trkpt>
      <trkpt lat="45.25835" lon="-72.65664">
        <ele>153.81</ele>
      </trkpt>
      <trkpt lat="45.25835" lon="-72.65664">
        <ele>153.87</ele>
      </trkpt>
      <trkpt lat="45.25763" lon="-72.6566">
        <ele>155.62</ele>
      </trkpt>
      <trkpt lat="45.25677" lon="-72.6566167">
        <ele>152.65</ele>
      </trkpt>
      <trkpt lat="45.25591" lon="-72.6566333">
        <ele>154.31</ele>
      </trkpt>
      <trkpt lat="45.25505" lon="-72.65665">
        <ele>164.99</ele>
      </trkpt>
      <trkpt lat="45.25429" lon="-72.656685">
        <ele>172.17</ele>
      </trkpt>
      <trkpt lat="45.25353" lon="-72.65672">
        <ele>173.51</ele>
      </trkpt>
      <trkpt lat="45.25277" lon="-72.656755">
        <ele>177.85</ele>
      </trkpt>
      <trkpt lat="45.25201" lon="-72.65679">
        <ele>186.12</ele>
      </trkpt>
      <trkpt lat="45.25116" lon="-72.65679">
        <ele>187.41</ele>
      </trkpt>
      <trkpt lat="45.2503" lon="-72.65675">
        <ele>188.32</ele>
      </trkpt>
      <trkpt lat="45.2495367" lon="-72.6567333">
        <ele>190.12</ele>
      </trkpt>
      <trkpt lat="45.2487733" lon="-72.6567167">
        <ele>191.43</ele>
      </trkpt>
      <trkpt lat="45.24801" lon="-72.6567">
        <ele>192.83</ele>
      </trkpt>
      <trkpt lat="45.24762" lon="-72.65672">
        <ele>191.21</ele>
      </trkpt>
      <trkpt lat="45.24674" lon="-72.65685">
        <ele>187.39</ele>
      </trkpt>
      <trkpt lat="45.2460633" lon="-72.65692">
        <ele>184.98</ele>
      </trkpt>
      <trkpt lat="45.2453867" lon="-72.65699">
        <ele>184.14</ele>
      </trkpt>
      <trkpt lat="45.24471" lon="-72.65706">
        <ele>181.29</ele>
      </trkpt>
      <trkpt lat="45.24382" lon="-72.6571">
        <ele>172.93</ele>
      </trkpt>
      <trkpt lat="45.24381" lon="-72.6571">
        <ele>172.86</ele>
      </trkpt>
      <trkpt lat="45.2431533" lon="-72.6571567">
        <ele>165.29</ele>
      </trkpt>
      <trkpt lat="45.2424967" lon="-72.6572133">
        <ele>162.38</ele>
      </trkpt>
      <trkpt lat="45.24184" lon="-72.65727">
        <ele>164.82</ele>
      </trkpt>
      <trkpt lat="45.241092" lon="-72.657306">
        <ele>170.04</ele>
      </trkpt>
      <trkpt lat="45.240344" lon="-72.657342">
        <ele>176.23</ele>
      </trkpt>
      <trkpt lat="45.239596" lon="-72.657378">
        <ele>178.91</ele>
      </trkpt>
      <trkpt lat="45.238848" lon="-72.657414">
        <ele>182.18</ele>
      </trkpt>
      <trkpt lat="45.2381" lon="-72.65745">
        <ele>184.36</ele>
      </trkpt>
      <trkpt lat="45.237695" lon="-72.658395">
        <ele>186.2</ele>
      </trkpt>
      <trkpt lat="45.23729" lon="-72.65934">
        <ele>187.54</ele>
      </trkpt>
      <trkpt lat="45.236925" lon="-72.6601">
        <ele>190.23</ele>
      </trkpt>
      <trkpt lat="45.23656" lon="-72.66086">
        <ele>188.39</ele>
      </trkpt>
      <trkpt lat="45.23617" lon="-72.66159">
        <ele>184.68</ele>
      </trkpt>
      <trkpt lat="45.235715" lon="-72.66253">
        <ele>182.41</ele>
      </trkpt>
      <trkpt lat="45.23526" lon="-72.66347">
        <ele>181.75</ele>
      </trkpt>
      <trkpt lat="45.23513" lon="-72.66379">
        <ele>182.54</ele>
      </trkpt>
      <trkpt lat="45.23503" lon="-72.66383">
        <ele>182.93</ele>
      </trkpt>
      <trkpt lat="45.23472" lon="-72.66431">
        <ele>182.35</ele>
      </trkpt>
      <trkpt lat="45.23431" lon="-72.66511">
        <ele>183.16</ele>
      </trkpt>
      <trkpt lat="45.23426" lon="-72.66529">
        <ele>183.82</ele>
      </trkpt>
      <trkpt lat="45.23407" lon="-72.66571">
        <ele>186</ele>
      </trkpt>
      <trkpt lat="45.23387" lon="-72.66627">
        <ele>188.2</ele>
      </trkpt>
      <trkpt lat="45.23387" lon="-72.66628">
        <ele>188.25</ele>
      </trkpt>
      <trkpt lat="45.2335" lon="-72.66686">
        <ele>192.82</ele>
      </trkpt>
      <trkpt lat="45.23318" lon="-72.66718">
        <ele>194.74</ele>
      </trkpt>
      <trkpt lat="45.23313" lon="-72.66727">
        <ele>195.64</ele>
      </trkpt>
      <trkpt lat="45.23307" lon="-72.66753">
        <ele>196.92</ele>
      </trkpt>
      <trkpt lat="45.23296" lon="-72.66776">
        <ele>200.61</ele>
      </trkpt>
      <trkpt lat="45.23269" lon="-72.66807">
        <ele>202.95</ele>
      </trkpt>
      <trkpt lat="45.23249" lon="-72.6682">
        <ele>206.55</ele>
      </trkpt>
      <trkpt lat="45.23226" lon="-72.66825">
        <ele>209.48</ele>
      </trkpt>
      <trkpt lat="45.23184" lon="-72.66826">
        <ele>211.75</ele>
      </trkpt>
      <trkpt lat="45.23156" lon="-72.6683">
        <ele>208.26</ele>
      </trkpt>
      <trkpt lat="45.23102" lon="-72.66852">
        <ele>202.53</ele>
      </trkpt>
      <trkpt lat="45.23087" lon="-72.66854">
        <ele>200.72</ele>
      </trkpt>
      <trkpt lat="45.23063" lon="-72.66759">
        <ele>200.42</ele>
      </trkpt>
      <trkpt lat="45.23058" lon="-72.6673">
        <ele>201.97</ele>
      </trkpt>
      <trkpt lat="45.23052" lon="-72.66641">
        <ele>203.81</ele>
      </trkpt>
      <trkpt lat="45.23053" lon="-72.66579">
        <ele>205.28</ele>
      </trkpt>
      <trkpt lat="45.23042" lon="-72.66476">
        <ele>211.59</ele>
      </trkpt>
      <trkpt lat="45.230315" lon="-72.66397">
        <ele>214.97</ele>
      </trkpt>
      <trkpt lat="45.23021" lon="-72.66318">
        <ele>219.3</ele>
      </trkpt>
      <trkpt lat="45.23013" lon="-72.66296">
        <ele>220.48</ele>
      </trkpt>
      <trkpt lat="45.23006" lon="-72.66288">
        <ele>221.39</ele>
      </trkpt>
      <trkpt lat="45.22986" lon="-72.66279">
        <ele>224.46</ele>
      </trkpt>
      <trkpt lat="45.22966" lon="-72.66266">
        <ele>226.4</ele>
      </trkpt>
      <trkpt lat="45.22966" lon="-72.66266">
        <ele>226.4</ele>
      </trkpt>
      <trkpt lat="45.22943" lon="-72.66247">
        <ele>228.19</ele>
      </trkpt>
      <trkpt lat="45.22936" lon="-72.66238">
        <ele>228.25</ele>
      </trkpt>
      <trkpt lat="45.2293" lon="-72.66226">
        <ele>228.12</ele>
      </trkpt>
      <trkpt lat="45.22917" lon="-72.66113">
        <ele>225.82</ele>
      </trkpt>
      <trkpt lat="45.22907" lon="-72.6598633">
        <ele>229.64</ele>
      </trkpt>
      <trkpt lat="45.22897" lon="-72.6585967">
        <ele>230.28</ele>
      </trkpt>
      <trkpt lat="45.22887" lon="-72.65733">
        <ele>230.12</ele>
      </trkpt>
      <trkpt lat="45.22888" lon="-72.6567">
        <ele>225.65</ele>
      </trkpt>
      <trkpt lat="45.22885" lon="-72.656005">
        <ele>221.62</ele>
      </trkpt>
      <trkpt lat="45.22882" lon="-72.65531">
        <ele>218.71</ele>
      </trkpt>
      <trkpt lat="45.22876" lon="-72.65426">
        <ele>217.78</ele>
      </trkpt>
      <trkpt lat="45.2287" lon="-72.65321">
        <ele>219.16</ele>
      </trkpt>
      <trkpt lat="45.22868" lon="-72.6521125">
        <ele>219.65</ele>
      </trkpt>
      <trkpt lat="45.22866" lon="-72.651015">
        <ele>221.44</ele>
      </trkpt>
      <trkpt lat="45.22864" lon="-72.6499175">
        <ele>224.16</ele>
      </trkpt>
      <trkpt lat="45.22862" lon="-72.64882">
        <ele>227.97</ele>
      </trkpt>
      <trkpt lat="45.228625" lon="-72.64815">
        <ele>233.32</ele>
      </trkpt>
      <trkpt lat="45.22863" lon="-72.64748">
        <ele>239.84</ele>
      </trkpt>
      <trkpt lat="45.22866" lon="-72.64713">
        <ele>241.2</ele>
      </trkpt>
      <trkpt lat="45.22882" lon="-72.646315">
        <ele>245.68</ele>
      </trkpt>
      <trkpt lat="45.22898" lon="-72.6455">
        <ele>252.28</ele>
      </trkpt>
      <trkpt lat="45.22906" lon="-72.64515">
        <ele>254.65</ele>
      </trkpt>
      <trkpt lat="45.22939" lon="-72.64403">
        <ele>266.12</ele>
      </trkpt>
      <trkpt lat="45.22954" lon="-72.643385">
        <ele>271.47</ele>
      </trkpt>
      <trkpt lat="45.22969" lon="-72.64274">
        <ele>276.15</ele>
      </trkpt>
      <trkpt lat="45.229915" lon="-72.64197">
        <ele>285.86</ele>
      </trkpt>
      <trkpt lat="45.23014" lon="-72.6412">
        <ele>292.8</ele>
      </trkpt>
      <trkpt lat="45.23032" lon="-72.64068">
        <ele>297.76</ele>
      </trkpt>
      <trkpt lat="45.23041" lon="-72.64054">
        <ele>298.56</ele>
      </trkpt>
      <trkpt lat="45.23052" lon="-72.64018">
        <ele>298.94</ele>
      </trkpt>
      <trkpt lat="45.23053" lon="-72.63973">
        <ele>298.47</ele>
      </trkpt>
      <trkpt lat="45.2305" lon="-72.638925">
        <ele>296.06</ele>
      </trkpt>
      <trkpt lat="45.23047" lon="-72.63812">
        <ele>292.13</ele>
      </trkpt>
      <trkpt lat="45.23043" lon="-72.63745">
        <ele>285.44</ele>
      </trkpt>
      <trkpt lat="45.23042" lon="-72.63619">
        <ele>283.79</ele>
      </trkpt>
      <trkpt lat="45.230395" lon="-72.635345">
        <ele>278.87</ele>
      </trkpt>
      <trkpt lat="45.23037" lon="-72.6345">
        <ele>270.94</ele>
      </trkpt>
      <trkpt lat="45.230375" lon="-72.63354">
        <ele>262.02</ele>
      </trkpt>
      <trkpt lat="45.23038" lon="-72.63258">
        <ele>255.91</ele>
      </trkpt>
      <trkpt lat="45.23036" lon="-72.63198">
        <ele>255.13</ele>
      </trkpt>
      <trkpt lat="45.23031" lon="-72.6318">
        <ele>254.78</ele>
      </trkpt>
      <trkpt lat="45.23027" lon="-72.63172">
        <ele>254.17</ele>
      </trkpt>
      <trkpt lat="45.23015" lon="-72.63167">
        <ele>253.32</ele>
      </trkpt>
      <trkpt lat="45.2293367" lon="-72.6316867">
        <ele>245.18</ele>
      </trkpt>
      <trkpt lat="45.2285233" lon="-72.6317033">
        <ele>236.71</ele>
      </trkpt>
      <trkpt lat="45.22771" lon="-72.63172">
        <ele>231.03</ele>
      </trkpt>
      <trkpt lat="45.22742" lon="-72.63176">
        <ele>228.93</ele>
      </trkpt>
      <trkpt lat="45.226605" lon="-72.631765">
        <ele>224.04</ele>
      </trkpt>
      <trkpt lat="45.22579" lon="-72.63177">
        <ele>222.07</ele>
      </trkpt>
      <trkpt lat="45.22578" lon="-72.63177">
        <ele>222.09</ele>
      </trkpt>
      <trkpt lat="45.225265" lon="-72.63177">
        <ele>221.54</ele>
      </trkpt>
      <trkpt lat="45.22475" lon="-72.63177">
        <ele>221.5</ele>
      </trkpt>
      <trkpt lat="45.22477" lon="-72.632415">
        <ele>222.66</ele>
      </trkpt>
      <trkpt lat="45.22479" lon="-72.63306">
        <ele>222.83</ele>
      </trkpt>
      <trkpt lat="45.224855" lon="-72.63427">
        <ele>223.6</ele>
      </trkpt>
      <trkpt lat="45.22492" lon="-72.63548">
        <ele>224.98</ele>
      </trkpt>
      <trkpt lat="45.22495" lon="-72.636235">
        <ele>225.33</ele>
      </trkpt>
      <trkpt lat="45.22498" lon="-72.63699">
        <ele>225.96</ele>
      </trkpt>
      <trkpt lat="45.22499" lon="-72.63767">
        <ele>227.05</ele>
      </trkpt>
      <trkpt lat="45.22497" lon="-72.63781">
        <ele>227.77</ele>
      </trkpt>
      <trkpt lat="45.22488" lon="-72.63812">
        <ele>228.4</ele>
      </trkpt>
      <trkpt lat="45.2248" lon="-72.63825">
        <ele>228.43</ele>
      </trkpt>
      <trkpt lat="45.22433" lon="-72.638885">
        <ele>227.46</ele>
      </trkpt>
      <trkpt lat="45.22386" lon="-72.63952">
        <ele>229.03</ele>
      </trkpt>
      <trkpt lat="45.22329" lon="-72.64041">
        <ele>225</ele>
      </trkpt>
      <trkpt lat="45.22315" lon="-72.64071">
        <ele>223.88</ele>
      </trkpt>
      <trkpt lat="45.22293" lon="-72.6413">
        <ele>218.64</ele>
      </trkpt>
      <trkpt lat="45.2228" lon="-72.6418">
        <ele>215.66</ele>
      </trkpt>
      <trkpt lat="45.22267" lon="-72.64242">
        <ele>213.96</ele>
      </trkpt>
      <trkpt lat="45.22248" lon="-72.64347">
        <ele>214.99</ele>
      </trkpt>
      <trkpt lat="45.2217733" lon="-72.64382">
        <ele>209.58</ele>
      </trkpt>
      <trkpt lat="45.2210667" lon="-72.64417">
        <ele>204.05</ele>
      </trkpt>
      <trkpt lat="45.22036" lon="-72.64452">
        <ele>198.89</ele>
      </trkpt>
      <trkpt lat="45.21966" lon="-72.64488">
        <ele>194.05</ele>
      </trkpt>
      <trkpt lat="45.21896" lon="-72.64524">
        <ele>192.89</ele>
      </trkpt>
      <trkpt lat="45.21826" lon="-72.6456">
        <ele>190.83</ele>
      </trkpt>
      <trkpt lat="45.2175667" lon="-72.64599">
        <ele>187.94</ele>
      </trkpt>
      <trkpt lat="45.2168733" lon="-72.64638">
        <ele>185.75</ele>
      </trkpt>
      <trkpt lat="45.21618" lon="-72.64677">
        <ele>182.08</ele>
      </trkpt>
      <trkpt lat="45.2155267" lon="-72.6471567">
        <ele>174.59</ele>
      </trkpt>
      <trkpt lat="45.2148733" lon="-72.6475433">
        <ele>169.77</ele>
      </trkpt>
      <trkpt lat="45.21422" lon="-72.64793">
        <ele>164.61</ele>
      </trkpt>
      <trkpt lat="45.21359" lon="-72.64829">
        <ele>164.4</ele>
      </trkpt>
      <trkpt lat="45.21358" lon="-72.64829">
        <ele>164.47</ele>
      </trkpt>
      <trkpt lat="45.2127733" lon="-72.6487633">
        <ele>172.07</ele>
      </trkpt>
      <trkpt lat="45.2119667" lon="-72.6492367">
        <ele>176.87</ele>
      </trkpt>
      <trkpt lat="45.21116" lon="-72.64971">
        <ele>179.34</ele>
      </trkpt>
      <trkpt lat="45.21098" lon="-72.64981">
        <ele>179.77</ele>
      </trkpt>
      <trkpt lat="45.21068" lon="-72.65007">
        <ele>180.95</ele>
      </trkpt>
      <trkpt lat="45.21061" lon="-72.65011">
        <ele>180.95</ele>
      </trkpt>
      <trkpt lat="45.21043" lon="-72.65016">
        <ele>181.92</ele>
      </trkpt>
      <trkpt lat="45.20958" lon="-72.650255">
        <ele>187.05</ele>
      </trkpt>
      <trkpt lat="45.20873" lon="-72.65035">
        <ele>189.66</ele>
      </trkpt>
      <trkpt lat="45.20858" lon="-72.65039">
        <ele>189.74</ele>
      </trkpt>
      <trkpt lat="45.20826" lon="-72.65042">
        <ele>189.44</ele>
      </trkpt>
      <trkpt lat="45.20804" lon="-72.65039">
        <ele>188.98</ele>
      </trkpt>
      <trkpt lat="45.20743" lon="-72.650405">
        <ele>186.18</ele>
      </trkpt>
      <trkpt lat="45.20682" lon="-72.65042">
        <ele>184.06</ele>
      </trkpt>
      <trkpt lat="45.20642" lon="-72.65039">
        <ele>183.68</ele>
      </trkpt>
      <trkpt lat="45.205575" lon="-72.650445">
        <ele>182.88</ele>
      </trkpt>
      <trkpt lat="45.20473" lon="-72.6505">
        <ele>184.7</ele>
      </trkpt>
      <trkpt lat="45.203885" lon="-72.650555">
        <ele>186.65</ele>
      </trkpt>
      <trkpt lat="45.20304" lon="-72.65061">
        <ele>188.31</ele>
      </trkpt>
      <trkpt lat="45.202295" lon="-72.650625">
        <ele>185.38</ele>
      </trkpt>
      <trkpt lat="45.20155" lon="-72.65064">
        <ele>183.94</ele>
      </trkpt>
      <trkpt lat="45.20154" lon="-72.65064">
        <ele>183.93</ele>
      </trkpt>
      <trkpt lat="45.20104" lon="-72.65065">
        <ele>183.18</ele>
      </trkpt>
      <trkpt lat="45.20054" lon="-72.65066">
        <ele>182.66</ele>
      </trkpt>
      <trkpt lat="45.19989" lon="-72.6507167">
        <ele>179.22</ele>
      </trkpt>
      <trkpt lat="45.19924" lon="-72.6507733">
        <ele>175.36</ele>
      </trkpt>
      <trkpt lat="45.19859" lon="-72.65083">
        <ele>173.72</ele>
      </trkpt>
      <trkpt lat="45.1978267" lon="-72.6508683">
        <ele>172.72</ele>
      </trkpt>
      <trkpt lat="45.1970633" lon="-72.6509067">
        <ele>171.67</ele>
      </trkpt>
      <trkpt lat="45.1963" lon="-72.650945">
        <ele>170.24</ele>
      </trkpt>
      <trkpt lat="45.1955367" lon="-72.6509833">
        <ele>168.19</ele>
      </trkpt>
      <trkpt lat="45.1947733" lon="-72.6510217">
        <ele>166.97</ele>
      </trkpt>
      <trkpt lat="45.19401" lon="-72.65106">
        <ele>166.8</ele>
      </trkpt>
      <trkpt lat="45.193775" lon="-72.650225">
        <ele>164.56</ele>
      </trkpt>
      <trkpt lat="45.19354" lon="-72.64939">
        <ele>163.31</ele>
      </trkpt>
      <trkpt lat="45.1934" lon="-72.648725">
        <ele>163.17</ele>
      </trkpt>
      <trkpt lat="45.19326" lon="-72.64806">
        <ele>163.38</ele>
      </trkpt>
      <trkpt lat="45.1929233" lon="-72.6468967">
        <ele>166.17</ele>
      </trkpt>
      <trkpt lat="45.1925867" lon="-72.6457333">
        <ele>164.36</ele>
      </trkpt>
      <trkpt lat="45.19225" lon="-72.64457">
        <ele>165.73</ele>
      </trkpt>
      <trkpt lat="45.192" lon="-72.64354">
        <ele>164.48</ele>
      </trkpt>
      <trkpt lat="45.192" lon="-72.64354">
        <ele>164.47</ele>
      </trkpt>
      <trkpt lat="45.19186" lon="-72.6426">
        <ele>164.62</ele>
      </trkpt>
      <trkpt lat="45.191695" lon="-72.641705">
        <ele>168.24</ele>
      </trkpt>
      <trkpt lat="45.19153" lon="-72.64081">
        <ele>169.41</ele>
      </trkpt>
      <trkpt lat="45.19138" lon="-72.63957">
        <ele>171.21</ele>
      </trkpt>
      <trkpt lat="45.19131" lon="-72.63869">
        <ele>172.74</ele>
      </trkpt>
      <trkpt lat="45.19128" lon="-72.63794">
        <ele>174.21</ele>
      </trkpt>
      <trkpt lat="45.19126" lon="-72.63682">
        <ele>177.59</ele>
      </trkpt>
      <trkpt lat="45.19124" lon="-72.6357">
        <ele>180.84</ele>
      </trkpt>
      <trkpt lat="45.19122" lon="-72.63552">
        <ele>182.25</ele>
      </trkpt>
      <trkpt lat="45.19106" lon="-72.6349">
        <ele>185.11</ele>
      </trkpt>
      <trkpt lat="45.19084" lon="-72.63378">
        <ele>185.01</ele>
      </trkpt>
      <trkpt lat="45.19075" lon="-72.63346">
        <ele>186.55</ele>
      </trkpt>
      <trkpt lat="45.19035" lon="-72.63252">
        <ele>192.95</ele>
      </trkpt>
      <trkpt lat="45.19011" lon="-72.63181">
        <ele>197.35</ele>
      </trkpt>
      <trkpt lat="45.1899" lon="-72.631">
        <ele>194.52</ele>
      </trkpt>
      <trkpt lat="45.18982" lon="-72.63083">
        <ele>190.14</ele>
      </trkpt>
      <trkpt lat="45.18953" lon="-72.63055">
        <ele>186.6</ele>
      </trkpt>
      <trkpt lat="45.18911" lon="-72.63019">
        <ele>186.5</ele>
      </trkpt>
      <trkpt lat="45.188645" lon="-72.629855">
        <ele>189</ele>
      </trkpt>
      <trkpt lat="45.18818" lon="-72.62952">
        <ele>186.62</ele>
      </trkpt>
      <trkpt lat="45.18807" lon="-72.62938">
        <ele>186.62</ele>
      </trkpt>
      <trkpt lat="45.18794" lon="-72.62916">
        <ele>186</ele>
      </trkpt>
      <trkpt lat="45.1874767" lon="-72.6282333">
        <ele>185.74</ele>
      </trkpt>
      <trkpt lat="45.1870133" lon="-72.6273067">
        <ele>186.14</ele>
      </trkpt>
      <trkpt lat="45.18655" lon="-72.62638">
        <ele>185.6</ele>
      </trkpt>
      <trkpt lat="45.18613" lon="-72.6256067">
        <ele>185.07</ele>
      </trkpt>
      <trkpt lat="45.18571" lon="-72.6248333">
        <ele>181.06</ele>
      </trkpt>
      <trkpt lat="45.18529" lon="-72.62406">
        <ele>177.23</ele>
      </trkpt>
      <trkpt lat="45.18519" lon="-72.6239">
        <ele>175.76</ele>
      </trkpt>
      <trkpt lat="45.18519" lon="-72.6239">
        <ele>175.76</ele>
      </trkpt>
      <trkpt lat="45.18477" lon="-72.62325">
        <ele>170.77</ele>
      </trkpt>
      <trkpt lat="45.18463" lon="-72.62299">
        <ele>169.43</ele>
      </trkpt>
      <trkpt lat="45.18453" lon="-72.62273">
        <ele>168.65</ele>
      </trkpt>
      <trkpt lat="45.18438" lon="-72.622075">
        <ele>167.32</ele>
      </trkpt>
      <trkpt lat="45.18423" lon="-72.62142">
        <ele>166.39</ele>
      </trkpt>
      <trkpt lat="45.18407" lon="-72.6208">
        <ele>164.55</ele>
      </trkpt>
      <trkpt lat="45.18391" lon="-72.62018">
        <ele>162.14</ele>
      </trkpt>
      <trkpt lat="45.1836233" lon="-72.6189833">
        <ele>159.79</ele>
      </trkpt>
      <trkpt lat="45.1833367" lon="-72.6177867">
        <ele>158.11</ele>
      </trkpt>
      <trkpt lat="45.18305" lon="-72.61659">
        <ele>156.42</ele>
      </trkpt>
      <trkpt lat="45.1828175" lon="-72.61558">
        <ele>161.78</ele>
      </trkpt>
      <trkpt lat="45.182585" lon="-72.61457">
        <ele>164.84</ele>
      </trkpt>
      <trkpt lat="45.1823525" lon="-72.61356">
        <ele>167.29</ele>
      </trkpt>
      <trkpt lat="45.18212" lon="-72.61255">
        <ele>173.85</ele>
      </trkpt>
      <trkpt lat="45.18202" lon="-72.61161">
        <ele>183.41</ele>
      </trkpt>
      <trkpt lat="45.181975" lon="-72.610915">
        <ele>188.81</ele>
      </trkpt>
      <trkpt lat="45.18193" lon="-72.61022">
        <ele>193.48</ele>
      </trkpt>
      <trkpt lat="45.181895" lon="-72.60948">
        <ele>195.31</ele>
      </trkpt>
      <trkpt lat="45.18186" lon="-72.60874">
        <ele>195.49</ele>
      </trkpt>
      <trkpt lat="45.18182" lon="-72.6083">
        <ele>195.37</ele>
      </trkpt>
      <trkpt lat="45.181665" lon="-72.60718">
        <ele>193.82</ele>
      </trkpt>
      <trkpt lat="45.18151" lon="-72.60606">
        <ele>196.82</ele>
      </trkpt>
      <trkpt lat="45.18141" lon="-72.60557">
        <ele>197.97</ele>
      </trkpt>
      <trkpt lat="45.18133" lon="-72.60526">
        <ele>198.28</ele>
      </trkpt>
      <trkpt lat="45.18121" lon="-72.60499">
        <ele>198.38</ele>
      </trkpt>
      <trkpt lat="45.18075" lon="-72.60415">
        <ele>198.74</ele>
      </trkpt>
      <trkpt lat="45.180445" lon="-72.6035">
        <ele>198.12</ele>
      </trkpt>
      <trkpt lat="45.18014" lon="-72.60285">
        <ele>197.6</ele>
      </trkpt>
      <trkpt lat="45.17991" lon="-72.60217">
        <ele>196.09</ele>
      </trkpt>
      <trkpt lat="45.17981" lon="-72.60194">
        <ele>194.64</ele>
      </trkpt>
      <trkpt lat="45.17953" lon="-72.60145">
        <ele>192.9</ele>
      </trkpt>
      <trkpt lat="45.1794" lon="-72.60115">
        <ele>192.57</ele>
      </trkpt>
      <trkpt lat="45.17924" lon="-72.60047">
        <ele>192.23</ele>
      </trkpt>
      <trkpt lat="45.17908" lon="-72.59999">
        <ele>192.17</ele>
      </trkpt>
      <trkpt lat="45.17892" lon="-72.59962">
        <ele>191.99</ele>
      </trkpt>
      <trkpt lat="45.17887" lon="-72.59937">
        <ele>191.77</ele>
      </trkpt>
      <trkpt lat="45.17885" lon="-72.59908">
        <ele>191.57</ele>
      </trkpt>
      <trkpt lat="45.17895" lon="-72.59832">
        <ele>195.47</ele>
      </trkpt>
      <trkpt lat="45.17895" lon="-72.598">
        <ele>196.56</ele>
      </trkpt>
      <trkpt lat="45.17888" lon="-72.59743">
        <ele>197.55</ele>
      </trkpt>
      <trkpt lat="45.17867" lon="-72.596595">
        <ele>200.83</ele>
      </trkpt>
      <trkpt lat="45.17846" lon="-72.59576">
        <ele>202.84</ele>
      </trkpt>
      <trkpt lat="45.1784" lon="-72.59541">
        <ele>203.48</ele>
      </trkpt>
      <trkpt lat="45.17837" lon="-72.59492">
        <ele>204.25</ele>
      </trkpt>
      <trkpt lat="45.17837" lon="-72.59447">
        <ele>205.24</ele>
      </trkpt>
      <trkpt lat="45.17845" lon="-72.59375">
        <ele>208.66</ele>
      </trkpt>
      <trkpt lat="45.17857" lon="-72.59331">
        <ele>212.55</ele>
      </trkpt>
      <trkpt lat="45.17893" lon="-72.59218">
        <ele>218.58</ele>
      </trkpt>
      <trkpt lat="45.17924" lon="-72.5915">
        <ele>220.87</ele>
      </trkpt>
      <trkpt lat="45.179495" lon="-72.590835">
        <ele>223.05</ele>
      </trkpt>
      <trkpt lat="45.17975" lon="-72.59017">
        <ele>224.46</ele>
      </trkpt>
      <trkpt lat="45.17997" lon="-72.58968">
        <ele>225.26</ele>
      </trkpt>
      <trkpt lat="45.18023" lon="-72.58927">
        <ele>226.46</ele>
      </trkpt>
      <trkpt lat="45.180695" lon="-72.58865">
        <ele>229.06</ele>
      </trkpt>
      <trkpt lat="45.18116" lon="-72.58803">
        <ele>234.07</ele>
      </trkpt>
      <trkpt lat="45.18131" lon="-72.58789">
        <ele>234.94</ele>
      </trkpt>
      <trkpt lat="45.18191" lon="-72.58739">
        <ele>236.59</ele>
      </trkpt>
      <trkpt lat="45.182575" lon="-72.58697">
        <ele>238.51</ele>
      </trkpt>
      <trkpt lat="45.18324" lon="-72.58655">
        <ele>237.83</ele>
      </trkpt>
      <trkpt lat="45.183645" lon="-72.586255">
        <ele>237.64</ele>
      </trkpt>
      <trkpt lat="45.18405" lon="-72.58596">
        <ele>238.37</ele>
      </trkpt>
      <trkpt lat="45.18466" lon="-72.58545">
        <ele>241.04</ele>
      </trkpt>
      <trkpt lat="45.18465" lon="-72.58545">
        <ele>241.02</ele>
      </trkpt>
      <trkpt lat="45.18491" lon="-72.58524">
        <ele>241.86</ele>
      </trkpt>
      <trkpt lat="45.18554" lon="-72.58466">
        <ele>240.54</ele>
      </trkpt>
      <trkpt lat="45.18623" lon="-72.58396">
        <ele>238.94</ele>
      </trkpt>
      <trkpt lat="45.18692" lon="-72.5832601">
        <ele>238.65</ele>
      </trkpt>
      <trkpt lat="45.18761" lon="-72.5825601">
        <ele>238.69</ele>
      </trkpt>
      <trkpt lat="45.1883" lon="-72.5818601">
        <ele>235.87</ele>
      </trkpt>
      <trkpt lat="45.18899" lon="-72.58116">
        <ele>231.65</ele>
      </trkpt>
      <trkpt lat="45.18968" lon="-72.58046">
        <ele>227.12</ele>
      </trkpt>
      <trkpt lat="45.18996" lon="-72.58014">
        <ele>222.81</ele>
      </trkpt>
      <trkpt lat="45.19048" lon="-72.5793767">
        <ele>218.57</ele>
      </trkpt>
      <trkpt lat="45.191" lon="-72.5786133">
        <ele>216.42</ele>
      </trkpt>
      <trkpt lat="45.19152" lon="-72.57785">
        <ele>215.54</ele>
      </trkpt>
      <trkpt lat="45.1921" lon="-72.5770333">
        <ele>213</ele>
      </trkpt>
      <trkpt lat="45.19268" lon="-72.5762167">
        <ele>211.18</ele>
      </trkpt>
      <trkpt lat="45.19326" lon="-72.5754">
        <ele>212.49</ele>
      </trkpt>
      <trkpt lat="45.19348" lon="-72.57503">
        <ele>212.77</ele>
      </trkpt>
      <trkpt lat="45.19381" lon="-72.57437">
        <ele>212.89</ele>
      </trkpt>
      <trkpt lat="45.19399" lon="-72.57388">
        <ele>211.1</ele>
      </trkpt>
      <trkpt lat="45.19402" lon="-72.57364">
        <ele>210.73</ele>
      </trkpt>
      <trkpt lat="45.19402" lon="-72.57289">
        <ele>206.06</ele>
      </trkpt>
      <trkpt lat="45.194" lon="-72.5727">
        <ele>205.97</ele>
      </trkpt>
      <trkpt lat="45.19392" lon="-72.57244">
        <ele>206.16</ele>
      </trkpt>
      <trkpt lat="45.19396" lon="-72.5724">
        <ele>206.16</ele>
      </trkpt>
      <trkpt lat="45.19399" lon="-72.57234">
        <ele>206.1</ele>
      </trkpt>
      <trkpt lat="45.19405" lon="-72.57181">
        <ele>206.42</ele>
      </trkpt>
      <trkpt lat="45.19412" lon="-72.57173">
        <ele>206.48</ele>
      </trkpt>
      <trkpt lat="45.19379" lon="-72.57101">
        <ele>208.11</ele>
      </trkpt>
      <trkpt lat="45.19362" lon="-72.57072">
        <ele>208.25</ele>
      </trkpt>
      <trkpt lat="45.19366" lon="-72.57078">
        <ele>208.2</ele>
      </trkpt>
      <trkpt lat="45.19317" lon="-72.56998">
        <ele>207.92</ele>
      </trkpt>
      <trkpt lat="45.19302" lon="-72.56979">
        <ele>206.4</ele>
      </trkpt>
      <trkpt lat="45.19261" lon="-72.56935">
        <ele>204.79</ele>
      </trkpt>
      <trkpt lat="45.19234" lon="-72.56902">
        <ele>204.6</ele>
      </trkpt>
      <trkpt lat="45.19199" lon="-72.5685">
        <ele>204.76</ele>
      </trkpt>
      <trkpt lat="45.19175" lon="-72.56805">
        <ele>205.43</ele>
      </trkpt>
      <trkpt lat="45.1913433" lon="-72.5671233">
        <ele>204.46</ele>
      </trkpt>
      <trkpt lat="45.1909367" lon="-72.5661967">
        <ele>205.35</ele>
      </trkpt>
      <trkpt lat="45.19053" lon="-72.56527">
        <ele>205.86</ele>
      </trkpt>
      <trkpt lat="45.19053" lon="-72.56527">
        <ele>205.86</ele>
      </trkpt>
      <trkpt lat="45.190055" lon="-72.564205">
        <ele>206.63</ele>
      </trkpt>
      <trkpt lat="45.18958" lon="-72.56314">
        <ele>207.59</ele>
      </trkpt>
      <trkpt lat="45.190025" lon="-72.56267">
        <ele>207.47</ele>
      </trkpt>
      <trkpt lat="45.19047" lon="-72.5622">
        <ele>206.89</ele>
      </trkpt>
      <trkpt lat="45.19046" lon="-72.5622">
        <ele>206.9</ele>
      </trkpt>
      <trkpt lat="45.191145" lon="-72.56148">
        <ele>206</ele>
      </trkpt>
      <trkpt lat="45.19183" lon="-72.56076">
        <ele>205.23</ele>
      </trkpt>
      <trkpt lat="45.19202" lon="-72.56014">
        <ele>204.81</ele>
      </trkpt>
      <trkpt lat="45.1926367" lon="-72.5593767">
        <ele>203.48</ele>
      </trkpt>
      <trkpt lat="45.1932533" lon="-72.5586133">
        <ele>202.91</ele>
      </trkpt>
      <trkpt lat="45.19387" lon="-72.55785">
        <ele>202.8</ele>
      </trkpt>
      <trkpt lat="45.19387" lon="-72.55786">
        <ele>202.8</ele>
      </trkpt>
      <trkpt lat="45.194438" lon="-72.557158">
        <ele>202.67</ele>
      </trkpt>
      <trkpt lat="45.195006" lon="-72.556456">
        <ele>202.73</ele>
      </trkpt>
      <trkpt lat="45.195574" lon="-72.555754">
        <ele>202.92</ele>
      </trkpt>
      <trkpt lat="45.196142" lon="-72.555052">
        <ele>203.47</ele>
      </trkpt>
      <trkpt lat="45.19671" lon="-72.55435">
        <ele>204.36</ele>
      </trkpt>
      <trkpt lat="45.19732" lon="-72.5535838">
        <ele>204.78</ele>
      </trkpt>
      <trkpt lat="45.19793" lon="-72.5528176">
        <ele>206.61</ele>
      </trkpt>
      <trkpt lat="45.19854" lon="-72.5520514">
        <ele>207.71</ele>
      </trkpt>
      <trkpt lat="45.19915" lon="-72.5512851">
        <ele>208.73</ele>
      </trkpt>
      <trkpt lat="45.19976" lon="-72.5505189">
        <ele>210.55</ele>
      </trkpt>
      <trkpt lat="45.20037" lon="-72.5497526">
        <ele>210.65</ele>
      </trkpt>
      <trkpt lat="45.20098" lon="-72.5489863">
        <ele>210.8</ele>
      </trkpt>
      <trkpt lat="45.20159" lon="-72.54822">
        <ele>211.13</ele>
      </trkpt>
      <trkpt lat="45.20158" lon="-72.54822">
        <ele>211.12</ele>
      </trkpt>
      <trkpt lat="45.202" lon="-72.54768">
        <ele>211.32</ele>
      </trkpt>
      <trkpt lat="45.20242" lon="-72.54714">
        <ele>212.07</ele>
      </trkpt>
      <trkpt lat="45.20302" lon="-72.54665">
        <ele>211.91</ele>
      </trkpt>
      <trkpt lat="45.20383" lon="-72.54615">
        <ele>212.08</ele>
      </trkpt>
      <trkpt lat="45.20457" lon="-72.54557">
        <ele>213.08</ele>
      </trkpt>
      <trkpt lat="45.20496" lon="-72.54513">
        <ele>212.81</ele>
      </trkpt>
      <trkpt lat="45.20542" lon="-72.54442">
        <ele>213.12</ele>
      </trkpt>
      <trkpt lat="45.20562" lon="-72.54406">
        <ele>212.94</ele>
      </trkpt>
      <trkpt lat="45.20588" lon="-72.54342">
        <ele>212.81</ele>
      </trkpt>
      <trkpt lat="45.20625" lon="-72.5423234">
        <ele>213.38</ele>
      </trkpt>
      <trkpt lat="45.20662" lon="-72.5412267">
        <ele>214.75</ele>
      </trkpt>
      <trkpt lat="45.20699" lon="-72.5401301">
        <ele>216.02</ele>
      </trkpt>
      <trkpt lat="45.20736" lon="-72.5390334">
        <ele>215.86</ele>
      </trkpt>
      <trkpt lat="45.20773" lon="-72.5379367">
        <ele>215.66</ele>
      </trkpt>
      <trkpt lat="45.2081" lon="-72.53684">
        <ele>215.69</ele>
      </trkpt>
      <trkpt lat="45.2081" lon="-72.53685">
        <ele>215.69</ele>
      </trkpt>
      <trkpt lat="45.20843" lon="-72.53589">
        <ele>216.27</ele>
      </trkpt>
      <trkpt lat="45.209275" lon="-72.535895">
        <ele>216.47</ele>
      </trkpt>
      <trkpt lat="45.21012" lon="-72.5359">
        <ele>211.09</ele>
      </trkpt>
      <trkpt lat="45.210835" lon="-72.535925">
        <ele>207.5</ele>
      </trkpt>
      <trkpt lat="45.21155" lon="-72.53595">
        <ele>206.74</ele>
      </trkpt>
      <trkpt lat="45.21172" lon="-72.534945">
        <ele>205.74</ele>
      </trkpt>
      <trkpt lat="45.21189" lon="-72.53394">
        <ele>204.86</ele>
      </trkpt>
      <trkpt lat="45.21189" lon="-72.53395">
        <ele>204.86</ele>
      </trkpt>
      <trkpt lat="45.21196" lon="-72.53354">
        <ele>204.62</ele>
      </trkpt>
      <trkpt lat="45.212645" lon="-72.533785">
        <ele>202.55</ele>
      </trkpt>
      <trkpt lat="45.21333" lon="-72.53403">
        <ele>205.52</ele>
      </trkpt>
      <trkpt lat="45.21345" lon="-72.53408">
        <ele>205.34</ele>
      </trkpt>
      <trkpt lat="45.21349" lon="-72.53408">
        <ele>205.24</ele>
      </trkpt>
      <trkpt lat="45.21357" lon="-72.53404">
        <ele>204.95</ele>
      </trkpt>
      <trkpt lat="45.21417" lon="-72.533305">
        <ele>202.06</ele>
      </trkpt>
      <trkpt lat="45.21477" lon="-72.53257">
        <ele>201.95</ele>
      </trkpt>
      <trkpt lat="45.21476" lon="-72.53257">
        <ele>201.96</ele>
      </trkpt>
      <trkpt lat="45.2152925" lon="-72.53192">
        <ele>201.27</ele>
      </trkpt>
      <trkpt lat="45.215825" lon="-72.53127">
        <ele>200.49</ele>
      </trkpt>
      <trkpt lat="45.2163575" lon="-72.53062">
        <ele>200.68</ele>
      </trkpt>
      <trkpt lat="45.21689" lon="-72.52997">
        <ele>202.82</ele>
      </trkpt>
      <trkpt lat="45.21725" lon="-72.53058">
        <ele>201.72</ele>
      </trkpt>
      <trkpt lat="45.21737" lon="-72.53067">
        <ele>201.74</ele>
      </trkpt>
      <trkpt lat="45.217805" lon="-72.530925">
        <ele>202.4</ele>
      </trkpt>
      <trkpt lat="45.21824" lon="-72.53118">
        <ele>202.34</ele>
      </trkpt>
      <trkpt lat="45.21824" lon="-72.53118">
        <ele>202.34</ele>
      </trkpt>
      <trkpt lat="45.218685" lon="-72.53144">
        <ele>202.69</ele>
      </trkpt>
      <trkpt lat="45.21913" lon="-72.5317">
        <ele>202.41</ele>
      </trkpt>
      <trkpt lat="45.21952" lon="-72.53187">
        <ele>202.51</ele>
      </trkpt>
      <trkpt lat="45.21973" lon="-72.53192">
        <ele>202.61</ele>
      </trkpt>
      <trkpt lat="45.21979" lon="-72.53192">
        <ele>202.61</ele>
      </trkpt>
      <trkpt lat="45.21978" lon="-72.53192">
        <ele>202.61</ele>
      </trkpt>
      <trkpt lat="45.2204667" lon="-72.5318733">
        <ele>202.6</ele>
      </trkpt>
      <trkpt lat="45.2211533" lon="-72.5318267">
        <ele>202.38</ele>
      </trkpt>
      <trkpt lat="45.22184" lon="-72.53178">
        <ele>202.34</ele>
      </trkpt>
      <trkpt lat="45.22183" lon="-72.53178">
        <ele>202.34</ele>
      </trkpt>
      <trkpt lat="45.2223" lon="-72.53175">
        <ele>202.46</ele>
      </trkpt>
      <trkpt lat="45.22235" lon="-72.533">
        <ele>201.79</ele>
      </trkpt>
      <trkpt lat="45.22231" lon="-72.53398">
        <ele>200.37</ele>
      </trkpt>
      <trkpt lat="45.22232" lon="-72.53502">
        <ele>199.61</ele>
      </trkpt>
      <trkpt lat="45.222345" lon="-72.53585">
        <ele>200.11</ele>
      </trkpt>
      <trkpt lat="45.22237" lon="-72.53668">
        <ele>204.38</ele>
      </trkpt>
      <trkpt lat="45.22237" lon="-72.53668">
        <ele>204.43</ele>
      </trkpt>
      <trkpt lat="45.222415" lon="-72.537615">
        <ele>211.12</ele>
      </trkpt>
      <trkpt lat="45.22246" lon="-72.53855">
        <ele>212.46</ele>
      </trkpt>
      <trkpt lat="45.22263" lon="-72.53954">
        <ele>218.74</ele>
      </trkpt>
      <trkpt lat="45.22259" lon="-72.53977">
        <ele>219.68</ele>
      </trkpt>
      <trkpt lat="45.22248" lon="-72.54007">
        <ele>221.79</ele>
      </trkpt>
      <trkpt lat="45.22232" lon="-72.54042">
        <ele>223.97</ele>
      </trkpt>
      <trkpt lat="45.22203" lon="-72.54096">
        <ele>228.76</ele>
      </trkpt>
      <trkpt lat="45.22193" lon="-72.5411">
        <ele>230.65</ele>
      </trkpt>
      <trkpt lat="45.22159" lon="-72.54145">
        <ele>234.18</ele>
      </trkpt>
      <trkpt lat="45.22148" lon="-72.54159">
        <ele>237.24</ele>
      </trkpt>
      <trkpt lat="45.22141" lon="-72.54174">
        <ele>237.24</ele>
      </trkpt>
      <trkpt lat="45.22136" lon="-72.54209">
        <ele>240.9</ele>
      </trkpt>
      <trkpt lat="45.22139" lon="-72.5424">
        <ele>242.76</ele>
      </trkpt>
      <trkpt lat="45.22154" lon="-72.5428">
        <ele>244.39</ele>
      </trkpt>
      <trkpt lat="45.22198" lon="-72.54353">
        <ele>248.13</ele>
      </trkpt>
      <trkpt lat="45.22242" lon="-72.54426">
        <ele>252.81</ele>
      </trkpt>
      <trkpt lat="45.22258" lon="-72.54459">
        <ele>254.07</ele>
      </trkpt>
      <trkpt lat="45.2226" lon="-72.54465">
        <ele>254.98</ele>
      </trkpt>
      <trkpt lat="45.222635" lon="-72.545895">
        <ele>255.56</ele>
      </trkpt>
      <trkpt lat="45.22267" lon="-72.54714">
        <ele>252.74</ele>
      </trkpt>
      <trkpt lat="45.2226833" lon="-72.54825">
        <ele>255.03</ele>
      </trkpt>
      <trkpt lat="45.2226967" lon="-72.54936">
        <ele>258.37</ele>
      </trkpt>
      <trkpt lat="45.22271" lon="-72.55047">
        <ele>263.03</ele>
      </trkpt>
      <trkpt lat="45.222755" lon="-72.551115">
        <ele>267.84</ele>
      </trkpt>
      <trkpt lat="45.2228" lon="-72.55176">
        <ele>273.48</ele>
      </trkpt>
      <trkpt lat="45.222816" lon="-72.552798">
        <ele>276.15</ele>
      </trkpt>
      <trkpt lat="45.222832" lon="-72.553836">
        <ele>276.52</ele>
      </trkpt>
      <trkpt lat="45.222848" lon="-72.554874">
        <ele>274.79</ele>
      </trkpt>
      <trkpt lat="45.222864" lon="-72.555912">
        <ele>270.94</ele>
      </trkpt>
      <trkpt lat="45.22288" lon="-72.55695">
        <ele>268.3</ele>
      </trkpt>
      <trkpt lat="45.22287" lon="-72.55762">
        <ele>266.52</ele>
      </trkpt>
      <trkpt lat="45.22282" lon="-72.55816">
        <ele>261.76</ele>
      </trkpt>
      <trkpt lat="45.22283" lon="-72.559055">
        <ele>257.02</ele>
      </trkpt>
      <trkpt lat="45.22284" lon="-72.55995">
        <ele>255.37</ele>
      </trkpt>
      <trkpt lat="45.222816" lon="-72.561208">
        <ele>258.39</ele>
      </trkpt>
      <trkpt lat="45.222792" lon="-72.562466">
        <ele>263.17</ele>
      </trkpt>
      <trkpt lat="45.222768" lon="-72.563724">
        <ele>269.72</ele>
      </trkpt>
      <trkpt lat="45.222744" lon="-72.564982">
        <ele>276.89</ele>
      </trkpt>
      <trkpt lat="45.22272" lon="-72.56624">
        <ele>285.66</ele>
      </trkpt>
      <trkpt lat="45.2227033" lon="-72.5672833">
        <ele>285.96</ele>
      </trkpt>
      <trkpt lat="45.2226867" lon="-72.5683267">
        <ele>285.26</ele>
      </trkpt>
      <trkpt lat="45.22267" lon="-72.56937">
        <ele>281.96</ele>
      </trkpt>
      <trkpt lat="45.22267" lon="-72.56938">
        <ele>281.95</ele>
      </trkpt>
      <trkpt lat="45.2226567" lon="-72.570465">
        <ele>277.05</ele>
      </trkpt>
      <trkpt lat="45.2226434" lon="-72.57155">
        <ele>271.98</ele>
      </trkpt>
      <trkpt lat="45.22263" lon="-72.572635">
        <ele>265.81</ele>
      </trkpt>
      <trkpt lat="45.2226167" lon="-72.57372">
        <ele>258.44</ele>
      </trkpt>
      <trkpt lat="45.2226034" lon="-72.574805">
        <ele>252.2</ele>
      </trkpt>
      <trkpt lat="45.22259" lon="-72.57589">
        <ele>245.29</ele>
      </trkpt>
      <trkpt lat="45.222595" lon="-72.57667">
        <ele>238.05</ele>
      </trkpt>
      <trkpt lat="45.2226" lon="-72.57745">
        <ele>233.17</ele>
      </trkpt>
      <trkpt lat="45.2226401" lon="-72.5786544">
        <ele>227.3</ele>
      </trkpt>
      <trkpt lat="45.2226802" lon="-72.5798589">
        <ele>222</ele>
      </trkpt>
      <trkpt lat="45.2227203" lon="-72.5810633">
        <ele>217.85</ele>
      </trkpt>
      <trkpt lat="45.2227604" lon="-72.5822677">
        <ele>214.4</ele>
      </trkpt>
      <trkpt lat="45.2228004" lon="-72.5834722">
        <ele>208.72</ele>
      </trkpt>
      <trkpt lat="45.2228405" lon="-72.5846766">
        <ele>205.27</ele>
      </trkpt>
      <trkpt lat="45.2228805" lon="-72.585881">
        <ele>201.88</ele>
      </trkpt>
      <trkpt lat="45.2229205" lon="-72.5870855">
        <ele>200.31</ele>
      </trkpt>
      <trkpt lat="45.2229605" lon="-72.5882899">
        <ele>201.1</ele>
      </trkpt>
      <trkpt lat="45.2230005" lon="-72.5894944">
        <ele>205.14</ele>
      </trkpt>
      <trkpt lat="45.2230405" lon="-72.5906988">
        <ele>208.87</ele>
      </trkpt>
      <trkpt lat="45.2230805" lon="-72.5919033">
        <ele>211.09</ele>
      </trkpt>
      <trkpt lat="45.2231204" lon="-72.5931077">
        <ele>213.77</ele>
      </trkpt>
      <trkpt lat="45.2231604" lon="-72.5943122">
        <ele>216.56</ele>
      </trkpt>
      <trkpt lat="45.2232003" lon="-72.5955166">
        <ele>218.88</ele>
      </trkpt>
      <trkpt lat="45.2232402" lon="-72.5967211">
        <ele>219.85</ele>
      </trkpt>
      <trkpt lat="45.2232801" lon="-72.5979255">
        <ele>221.38</ele>
      </trkpt>
      <trkpt lat="45.22332" lon="-72.59913">
        <ele>220.92</ele>
      </trkpt>
      <trkpt lat="45.2233772" lon="-72.6002514">
        <ele>217.71</ele>
      </trkpt>
      <trkpt lat="45.2234343" lon="-72.6013728">
        <ele>212.53</ele>
      </trkpt>
      <trkpt lat="45.2234915" lon="-72.6024943">
        <ele>210.47</ele>
      </trkpt>
      <trkpt lat="45.2235486" lon="-72.6036157">
        <ele>210.88</ele>
      </trkpt>
      <trkpt lat="45.2236058" lon="-72.6047371">
        <ele>214.07</ele>
      </trkpt>
      <trkpt lat="45.2236629" lon="-72.6058586">
        <ele>215.87</ele>
      </trkpt>
      <trkpt lat="45.22372" lon="-72.60698">
        <ele>213.78</ele>
      </trkpt>
      <trkpt lat="45.2237734" lon="-72.6082108">
        <ele>210.57</ele>
      </trkpt>
      <trkpt lat="45.2238268" lon="-72.6094416">
        <ele>209.02</ele>
      </trkpt>
      <trkpt lat="45.2238802" lon="-72.6106725">
        <ele>209.62</ele>
      </trkpt>
      <trkpt lat="45.2239335" lon="-72.6119033">
        <ele>211.05</ele>
      </trkpt>
      <trkpt lat="45.2239869" lon="-72.6131341">
        <ele>214.31</ele>
      </trkpt>
      <trkpt lat="45.2240402" lon="-72.614365">
        <ele>214.62</ele>
      </trkpt>
      <trkpt lat="45.2240936" lon="-72.6155958">
        <ele>216.15</ele>
      </trkpt>
      <trkpt lat="45.2241469" lon="-72.6168266">
        <ele>216.02</ele>
      </trkpt>
      <trkpt lat="45.2242002" lon="-72.6180575">
        <ele>214</ele>
      </trkpt>
      <trkpt lat="45.2242535" lon="-72.6192883">
        <ele>214.79</ele>
      </trkpt>
      <trkpt lat="45.2243067" lon="-72.6205192">
        <ele>217.5</ele>
      </trkpt>
      <trkpt lat="45.22436" lon="-72.62175">
        <ele>217.18</ele>
      </trkpt>
      <trkpt lat="45.224955" lon="-72.621745">
        <ele>218.25</ele>
      </trkpt>
      <trkpt lat="45.22555" lon="-72.62174">
        <ele>220.6</ele>
      </trkpt>
      <trkpt lat="45.22554" lon="-72.62174">
        <ele>220.56</ele>
      </trkpt>
      <trkpt lat="45.2263383" lon="-72.62173">
        <ele>224.32</ele>
      </trkpt>
      <trkpt lat="45.2271367" lon="-72.62172">
        <ele>228.67</ele>
      </trkpt>
      <trkpt lat="45.227935" lon="-72.62171">
        <ele>231.97</ele>
      </trkpt>
      <trkpt lat="45.2287333" lon="-72.6217">
        <ele>233.58</ele>
      </trkpt>
      <trkpt lat="45.2295317" lon="-72.62169">
        <ele>234</ele>
      </trkpt>
      <trkpt lat="45.23033" lon="-72.62168">
        <ele>234.51</ele>
      </trkpt>
      <trkpt lat="45.231065" lon="-72.62164">
        <ele>237.97</ele>
      </trkpt>
      <trkpt lat="45.2318" lon="-72.6216">
        <ele>242.68</ele>
      </trkpt>
      <trkpt lat="45.2324667" lon="-72.6216">
        <ele>243.35</ele>
      </trkpt>
      <trkpt lat="45.2331333" lon="-72.6216">
        <ele>243.72</ele>
      </trkpt>
      <trkpt lat="45.2338" lon="-72.6216">
        <ele>245.62</ele>
      </trkpt>
      <trkpt lat="45.2344433" lon="-72.6215667">
        <ele>247.25</ele>
      </trkpt>
      <trkpt lat="45.2350867" lon="-72.6215333">
        <ele>249.24</ele>
      </trkpt>
      <trkpt lat="45.23573" lon="-72.6215">
        <ele>252.67</ele>
      </trkpt>
      <trkpt lat="45.236425" lon="-72.621445">
        <ele>257.55</ele>
      </trkpt>
      <trkpt lat="45.23712" lon="-72.62139">
        <ele>260.69</ele>
      </trkpt>
      <trkpt lat="45.237815" lon="-72.621335">
        <ele>262.01</ele>
      </trkpt>
      <trkpt lat="45.23851" lon="-72.62128">
        <ele>263.44</ele>
      </trkpt>
      <trkpt lat="45.23926" lon="-72.62117">
        <ele>260.37</ele>
      </trkpt>
      <trkpt lat="45.24003" lon="-72.62111">
        <ele>256.15</ele>
      </trkpt>
      <trkpt lat="45.2407" lon="-72.62115">
        <ele>254.62</ele>
      </trkpt>
      <trkpt lat="45.24137" lon="-72.62129">
        <ele>253.29</ele>
      </trkpt>
      <trkpt lat="45.24208" lon="-72.62151">
        <ele>250.69</ele>
      </trkpt>
      <trkpt lat="45.24285" lon="-72.62183">
        <ele>249.23</ele>
      </trkpt>
      <trkpt lat="45.2431" lon="-72.62214">
        <ele>248.99</ele>
      </trkpt>
      <trkpt lat="45.24339" lon="-72.62272">
        <ele>248.11</ele>
      </trkpt>
      <trkpt lat="45.24357" lon="-72.623345">
        <ele>246.12</ele>
      </trkpt>
      <trkpt lat="45.24375" lon="-72.62397">
        <ele>243.84</ele>
      </trkpt>
      <trkpt lat="45.24386" lon="-72.62415">
        <ele>243.11</ele>
      </trkpt>
      <trkpt lat="45.2443633" lon="-72.6247933">
        <ele>238.11</ele>
      </trkpt>
      <trkpt lat="45.2448667" lon="-72.6254367">
        <ele>232.95</ele>
      </trkpt>
      <trkpt lat="45.24537" lon="-72.62608">
        <ele>230.57</ele>
      </trkpt>
      <trkpt lat="45.24588" lon="-72.62679">
        <ele>231.22</ele>
      </trkpt>
      <trkpt lat="45.24641" lon="-72.62743">
        <ele>234.26</ele>
      </trkpt>
      <trkpt lat="45.2467" lon="-72.62768">
        <ele>233.69</ele>
      </trkpt>
      <trkpt lat="45.2467" lon="-72.62768">
        <ele>233.71</ele>
      </trkpt>
      <trkpt lat="45.24714" lon="-72.62792">
        <ele>231.87</ele>
      </trkpt>
      <trkpt lat="45.24734" lon="-72.628">
        <ele>228.71</ele>
      </trkpt>
      <trkpt lat="45.24758" lon="-72.62801">
        <ele>226.57</ele>
      </trkpt>
      <trkpt lat="45.24795" lon="-72.628">
        <ele>225.27</ele>
      </trkpt>
      <trkpt lat="45.248545" lon="-72.627805">
        <ele>222.46</ele>
      </trkpt>
      <trkpt lat="45.24914" lon="-72.62761">
        <ele>220.21</ele>
      </trkpt>
      <trkpt lat="45.2494" lon="-72.62756">
        <ele>218.89</ele>
      </trkpt>
      <trkpt lat="45.24959" lon="-72.62755">
        <ele>218.36</ele>
      </trkpt>
      <trkpt lat="45.24998" lon="-72.62759">
        <ele>217.38</ele>
      </trkpt>
      <trkpt lat="45.25062" lon="-72.62766">
        <ele>215.64</ele>
      </trkpt>
      <trkpt lat="45.25126" lon="-72.62773">
        <ele>213.92</ele>
      </trkpt>
      <trkpt lat="45.25156" lon="-72.62769">
        <ele>213.25</ele>
      </trkpt>
      <trkpt lat="45.25243" lon="-72.62747">
        <ele>213.42</ele>
      </trkpt>
      <trkpt lat="45.25309" lon="-72.62726">
        <ele>216.14</ele>
      </trkpt>
      <trkpt lat="45.25364" lon="-72.627095">
        <ele>218.41</ele>
      </trkpt>
      <trkpt lat="45.25419" lon="-72.62693">
        <ele>218.67</ele>
      </trkpt>
      <trkpt lat="45.25501" lon="-72.62665">
        <ele>216.61</ele>
      </trkpt>
      <trkpt lat="45.255" lon="-72.62665">
        <ele>216.62</ele>
      </trkpt>
      <trkpt lat="45.2553" lon="-72.62655">
        <ele>215.89</ele>
      </trkpt>
      <trkpt lat="45.2560533" lon="-72.6263333">
        <ele>214.81</ele>
      </trkpt>
      <trkpt lat="45.2568067" lon="-72.6261167">
        <ele>213.81</ele>
      </trkpt>
      <trkpt lat="45.25756" lon="-72.6259">
        <ele>207.93</ele>
      </trkpt>
      <trkpt lat="45.25775" lon="-72.626705">
        <ele>202.65</ele>
      </trkpt>
      <trkpt lat="45.25794" lon="-72.62751">
        <ele>196.95</ele>
      </trkpt>
      <trkpt lat="45.258155" lon="-72.628095">
        <ele>193.45</ele>
      </trkpt>
      <trkpt lat="45.25837" lon="-72.62868">
        <ele>189.08</ele>
      </trkpt>
      <trkpt lat="45.25853" lon="-72.62916">
        <ele>187.93</ele>
      </trkpt>
      <trkpt lat="45.25874" lon="-72.62993">
        <ele>186.18</ele>
      </trkpt>
      <trkpt lat="45.25899" lon="-72.63042">
        <ele>184.54</ele>
      </trkpt>
      <trkpt lat="45.25927" lon="-72.63074">
        <ele>180.52</ele>
      </trkpt>
      <trkpt lat="45.25944" lon="-72.63109">
        <ele>178.02</ele>
      </trkpt>
      <trkpt lat="45.25977" lon="-72.63183">
        <ele>173.06</ele>
      </trkpt>
      <trkpt lat="45.25983" lon="-72.63202">
        <ele>171.31</ele>
      </trkpt>
      <trkpt lat="45.25993" lon="-72.63257">
        <ele>169.12</ele>
      </trkpt>
      <trkpt lat="45.26006" lon="-72.6337">
        <ele>166.44</ele>
      </trkpt>
      <trkpt lat="45.26004" lon="-72.63396">
        <ele>165.64</ele>
      </trkpt>
      <trkpt lat="45.25995" lon="-72.63435">
        <ele>163.22</ele>
      </trkpt>
      <trkpt lat="45.2599" lon="-72.63476">
        <ele>161.12</ele>
      </trkpt>
      <trkpt lat="45.260038" lon="-72.635898">
        <ele>157.8</ele>
      </trkpt>
      <trkpt lat="45.260176" lon="-72.637036">
        <ele>156.86</ele>
      </trkpt>
      <trkpt lat="45.260314" lon="-72.638174">
        <ele>156.11</ele>
      </trkpt>
      <trkpt lat="45.260452" lon="-72.639312">
        <ele>155.34</ele>
      </trkpt>
      <trkpt lat="45.26059" lon="-72.64045">
        <ele>154.65</ele>
      </trkpt>
      <trkpt lat="45.26059" lon="-72.64045">
        <ele>154.65</ele>
      </trkpt>
      <trkpt lat="45.2606967" lon="-72.64139">
        <ele>153.93</ele>
      </trkpt>
      <trkpt lat="45.2608033" lon="-72.64233">
        <ele>153.77</ele>
      </trkpt>
      <trkpt lat="45.26091" lon="-72.64327">
        <ele>159.95</ele>
      </trkpt>
      <trkpt lat="45.26091" lon="-72.64358">
        <ele>160.76</ele>
      </trkpt>
      <trkpt lat="45.260855" lon="-72.64433">
        <ele>163.25</ele>
      </trkpt>
      <trkpt lat="45.2608" lon="-72.64508">
        <ele>166.4</ele>
      </trkpt>
      <trkpt lat="45.26127" lon="-72.64525">
        <ele>166.32</ele>
      </trkpt>
      <trkpt lat="45.26193" lon="-72.64546">
        <ele>168.72</ele>
      </trkpt>
      <trkpt lat="45.262395" lon="-72.645635">
        <ele>170.99</ele>
      </trkpt>
      <trkpt lat="45.26286" lon="-72.64581">
        <ele>174.45</ele>
      </trkpt>
      <trkpt lat="45.26339" lon="-72.64597">
        <ele>177.05</ele>
      </trkpt>
      <trkpt lat="45.26392" lon="-72.64613">
        <ele>179.43</ele>
      </trkpt>
      <trkpt lat="45.264585" lon="-72.646375">
        <ele>180.68</ele>
      </trkpt>
      <trkpt lat="45.26525" lon="-72.64662">
        <ele>180.27</ele>
      </trkpt>
      <trkpt lat="45.26572" lon="-72.64663">
        <ele>177.63</ele>
      </trkpt>
      <trkpt lat="45.26602" lon="-72.64658">
        <ele>176.94</ele>
      </trkpt>
      <trkpt lat="45.266635" lon="-72.64642">
        <ele>176.16</ele>
      </trkpt>
      <trkpt lat="45.26725" lon="-72.64626">
        <ele>174.44</ele>
      </trkpt>
      <trkpt lat="45.26761" lon="-72.64635">
        <ele>173.85</ele>
      </trkpt>
      <trkpt lat="45.26776" lon="-72.64644">
        <ele>173.6</ele>
      </trkpt>
      <trkpt lat="45.26795" lon="-72.64663">
        <ele>173.44</ele>
      </trkpt>
      <trkpt lat="45.26818" lon="-72.64725">
        <ele>171.41</ele>
      </trkpt>
      <trkpt lat="45.268425" lon="-72.64797">
        <ele>166.66</ele>
      </trkpt>
      <trkpt lat="45.26867" lon="-72.64869">
        <ele>163.08</ele>
      </trkpt>
      <trkpt lat="45.26885" lon="-72.64918">
        <ele>163.41</ele>
      </trkpt>
      <trkpt lat="45.26885" lon="-72.64918">
        <ele>163.41</ele>
      </trkpt>
      <trkpt lat="45.26929" lon="-72.65017">
        <ele>170.08</ele>
      </trkpt>
      <trkpt lat="45.26953" lon="-72.65061">
        <ele>172.6</ele>
      </trkpt>
      <trkpt lat="45.27005" lon="-72.65114">
        <ele>177.65</ele>
      </trkpt>
      <trkpt lat="45.27072" lon="-72.651905">
        <ele>180.8</ele>
      </trkpt>
      <trkpt lat="45.27139" lon="-72.65267">
        <ele>181.26</ele>
      </trkpt>
      <trkpt lat="45.27157" lon="-72.65277">
        <ele>181.94</ele>
      </trkpt>
      <trkpt lat="45.27204" lon="-72.65339">
        <ele>184.26</ele>
      </trkpt>
      <trkpt lat="45.27215" lon="-72.65348">
        <ele>184.9</ele>
      </trkpt>
      <trkpt lat="45.27237" lon="-72.65348">
        <ele>186.38</ele>
      </trkpt>
      <trkpt lat="45.27295" lon="-72.65334">
        <ele>191.48</ele>
      </trkpt>
      <trkpt lat="45.27314" lon="-72.65321">
        <ele>193.54</ele>
      </trkpt>
      <trkpt lat="45.2733" lon="-72.65302">
        <ele>196.3</ele>
      </trkpt>
      <trkpt lat="45.27353" lon="-72.65254">
        <ele>198.66</ele>
      </trkpt>
      <trkpt lat="45.27363" lon="-72.65245">
        <ele>198.88</ele>
      </trkpt>
      <trkpt lat="45.27372" lon="-72.6524">
        <ele>199.12</ele>
      </trkpt>
      <trkpt lat="45.2738" lon="-72.6524">
        <ele>199.06</ele>
      </trkpt>
      <trkpt lat="45.27387" lon="-72.65249">
        <ele>199</ele>
      </trkpt>
      <trkpt lat="45.27392" lon="-72.65266">
        <ele>198.61</ele>
      </trkpt>
      <trkpt lat="45.273935" lon="-72.653475">
        <ele>199.49</ele>
      </trkpt>
      <trkpt lat="45.27395" lon="-72.65429">
        <ele>204.02</ele>
      </trkpt>
      <trkpt lat="45.27397" lon="-72.65458">
        <ele>206.14</ele>
      </trkpt>
      <trkpt lat="45.27397" lon="-72.65458">
        <ele>206</ele>
      </trkpt>
      <trkpt lat="45.27401" lon="-72.6551">
        <ele>207.75</ele>
      </trkpt>
      <trkpt lat="45.27401" lon="-72.65531">
        <ele>207.83</ele>
      </trkpt>
      <trkpt lat="45.27395" lon="-72.65559">
        <ele>207.19</ele>
      </trkpt>
      <trkpt lat="45.27358" lon="-72.65629">
        <ele>205.78</ele>
      </trkpt>
      <trkpt lat="45.27352" lon="-72.65644">
        <ele>206.13</ele>
      </trkpt>
      <trkpt lat="45.27352" lon="-72.6567">
        <ele>207.12</ele>
      </trkpt>
      <trkpt lat="45.27365" lon="-72.65769">
        <ele>214.7</ele>
      </trkpt>
      <trkpt lat="45.27368" lon="-72.65817">
        <ele>217.89</ele>
      </trkpt>
      <trkpt lat="45.27358" lon="-72.65875">
        <ele>220.28</ele>
      </trkpt>
      <trkpt lat="45.27343" lon="-72.659405">
        <ele>221.79</ele>
      </trkpt>
      <trkpt lat="45.27328" lon="-72.66006">
        <ele>221.72</ele>
      </trkpt>
      <trkpt lat="45.27301" lon="-72.66098">
        <ele>216.92</ele>
      </trkpt>
      <trkpt lat="45.27292" lon="-72.66122">
        <ele>214.58</ele>
      </trkpt>
      <trkpt lat="45.27288" lon="-72.66171">
        <ele>212.85</ele>
      </trkpt>
      <trkpt lat="45.27293" lon="-72.66212">
        <ele>212.35</ele>
      </trkpt>
      <trkpt lat="45.27307" lon="-72.66256">
        <ele>212.22</ele>
      </trkpt>
      <trkpt lat="45.27305" lon="-72.66287">
        <ele>210.39</ele>
      </trkpt>
      <trkpt lat="45.27283" lon="-72.66346">
        <ele>204.86</ele>
      </trkpt>
      <trkpt lat="45.27241" lon="-72.66431">
        <ele>198.03</ele>
      </trkpt>
      <trkpt lat="45.27222" lon="-72.66476">
        <ele>195.7</ele>
      </trkpt>
      <trkpt lat="45.27216" lon="-72.66503">
        <ele>194.46</ele>
      </trkpt>
      <trkpt lat="45.27214" lon="-72.66534">
        <ele>193.07</ele>
      </trkpt>
      <trkpt lat="45.2723" lon="-72.666465">
        <ele>190.2</ele>
      </trkpt>
      <trkpt lat="45.27246" lon="-72.66759">
        <ele>190.1</ele>
      </trkpt>
      <trkpt lat="45.27246" lon="-72.66759">
        <ele>190.12</ele>
      </trkpt>
      <trkpt lat="45.27248" lon="-72.66771">
        <ele>190.12</ele>
      </trkpt>
      <trkpt lat="45.27264" lon="-72.66834">
        <ele>190.51</ele>
      </trkpt>
      <trkpt lat="45.27281" lon="-72.66869">
        <ele>189.72</ele>
      </trkpt>
      <trkpt lat="45.27299" lon="-72.66897">
        <ele>188.23</ele>
      </trkpt>
      <trkpt lat="45.27325" lon="-72.66923">
        <ele>186.78</ele>
      </trkpt>
      <trkpt lat="45.27366" lon="-72.66946">
        <ele>187.66</ele>
      </trkpt>
      <trkpt lat="45.27388" lon="-72.66955">
        <ele>189.45</ele>
      </trkpt>
      <trkpt lat="45.27426" lon="-72.66964">
        <ele>194.95</ele>
      </trkpt>
      <trkpt lat="45.2748" lon="-72.66968">
        <ele>200.6</ele>
      </trkpt>
      <trkpt lat="45.27496" lon="-72.66968">
        <ele>203.18</ele>
      </trkpt>
      <trkpt lat="45.27537" lon="-72.6695">
        <ele>207.2</ele>
      </trkpt>
      <trkpt lat="45.2758" lon="-72.66923">
        <ele>213.24</ele>
      </trkpt>
      <trkpt lat="45.27603" lon="-72.66901">
        <ele>216.08</ele>
      </trkpt>
      <trkpt lat="45.27624" lon="-72.66861">
        <ele>222.45</ele>
      </trkpt>
      <trkpt lat="45.27634" lon="-72.66848">
        <ele>223.06</ele>
      </trkpt>
      <trkpt lat="45.27646" lon="-72.66835">
        <ele>225.85</ele>
      </trkpt>
      <trkpt lat="45.27657" lon="-72.66829">
        <ele>226.9</ele>
      </trkpt>
      <trkpt lat="45.27689" lon="-72.66817">
        <ele>230.21</ele>
      </trkpt>
      <trkpt lat="45.27708" lon="-72.66821">
        <ele>231.05</ele>
      </trkpt>
      <trkpt lat="45.27715" lon="-72.66825">
        <ele>231.05</ele>
      </trkpt>
      <trkpt lat="45.27745" lon="-72.66851">
        <ele>234.29</ele>
      </trkpt>
      <trkpt lat="45.27772" lon="-72.66856">
        <ele>239.7</ele>
      </trkpt>
      <trkpt lat="45.2779" lon="-72.66847">
        <ele>239.7</ele>
      </trkpt>
      <trkpt lat="45.27803" lon="-72.66829">
        <ele>240.9</ele>
      </trkpt>
      <trkpt lat="45.27827" lon="-72.667675">
        <ele>245.77</ele>
      </trkpt>
      <trkpt lat="45.27851" lon="-72.66706">
        <ele>249.73</ele>
      </trkpt>
      <trkpt lat="45.27915" lon="-72.66697">
        <ele>254.16</ele>
      </trkpt>
      <trkpt lat="45.27914" lon="-72.66697">
        <ele>254.06</ele>
      </trkpt>
      <trkpt lat="45.27999" lon="-72.66686">
        <ele>260.48</ele>
      </trkpt>
      <trkpt lat="45.28054" lon="-72.66682">
        <ele>259.6</ele>
      </trkpt>
      <trkpt lat="45.28071" lon="-72.66677">
        <ele>259.52</ele>
      </trkpt>
      <trkpt lat="45.28082" lon="-72.66668">
        <ele>259.77</ele>
      </trkpt>
      <trkpt lat="45.28129" lon="-72.6662">
        <ele>260.75</ele>
      </trkpt>
      <trkpt lat="45.28139" lon="-72.66619">
        <ele>260.55</ele>
      </trkpt>
      <trkpt lat="45.28151" lon="-72.6662">
        <ele>259.63</ele>
      </trkpt>
      <trkpt lat="45.28206" lon="-72.66659">
        <ele>260.83</ele>
      </trkpt>
      <trkpt lat="45.2822" lon="-72.66664">
        <ele>263.21</ele>
      </trkpt>
      <trkpt lat="45.28232" lon="-72.66664">
        <ele>264.02</ele>
      </trkpt>
      <trkpt lat="45.28254" lon="-72.66656">
        <ele>265.78</ele>
      </trkpt>
      <trkpt lat="45.28272" lon="-72.66638">
        <ele>267.9</ele>
      </trkpt>
      <trkpt lat="45.28309" lon="-72.665835">
        <ele>267.46</ele>
      </trkpt>
      <trkpt lat="45.28346" lon="-72.66529">
        <ele>266.57</ele>
      </trkpt>
      <trkpt lat="45.28379" lon="-72.66449">
        <ele>267.6</ele>
      </trkpt>
      <trkpt lat="45.28403" lon="-72.66401">
        <ele>270.15</ele>
      </trkpt>
      <trkpt lat="45.28444" lon="-72.66297">
        <ele>277.51</ele>
      </trkpt>
      <trkpt lat="45.28451" lon="-72.66287">
        <ele>278.27</ele>
      </trkpt>
      <trkpt lat="45.28468" lon="-72.6627">
        <ele>280.22</ele>
      </trkpt>
      <trkpt lat="45.28476" lon="-72.66283">
        <ele>278.24</ele>
      </trkpt>
      <trkpt lat="45.28497" lon="-72.66296">
        <ele>276.15</ele>
      </trkpt>
      <trkpt lat="45.28518" lon="-72.66302">
        <ele>273.62</ele>
      </trkpt>
      <trkpt lat="45.28518" lon="-72.66302">
        <ele>273.56</ele>
      </trkpt>
      <trkpt lat="45.2857833" lon="-72.6631967">
        <ele>266.25</ele>
      </trkpt>
      <trkpt lat="45.2863867" lon="-72.6633733">
        <ele>257.99</ele>
      </trkpt>
      <trkpt lat="45.28699" lon="-72.66355">
        <ele>251.55</ele>
      </trkpt>
      <trkpt lat="45.28717" lon="-72.66355">
        <ele>250.42</ele>
      </trkpt>
      <trkpt lat="45.28734" lon="-72.66346">
        <ele>249.73</ele>
      </trkpt>
      <trkpt lat="45.28754" lon="-72.66333">
        <ele>249.6</ele>
      </trkpt>
      <trkpt lat="45.28797" lon="-72.66286">
        <ele>247.77</ele>
      </trkpt>
      <trkpt lat="45.2884" lon="-72.66239">
        <ele>243.4</ele>
      </trkpt>
      <trkpt lat="45.288982" lon="-72.661706">
        <ele>243.18</ele>
      </trkpt>
      <trkpt lat="45.289564" lon="-72.661022">
        <ele>243.82</ele>
      </trkpt>
      <trkpt lat="45.290146" lon="-72.660338">
        <ele>243.54</ele>
      </trkpt>
      <trkpt lat="45.290728" lon="-72.659654">
        <ele>241.84</ele>
      </trkpt>
      <trkpt lat="45.29131" lon="-72.65897">
        <ele>241.81</ele>
      </trkpt>
      <trkpt lat="45.29131" lon="-72.65898">
        <ele>241.81</ele>
      </trkpt>
      <trkpt lat="45.29196" lon="-72.65822">
        <ele>242.53</ele>
      </trkpt>
      <trkpt lat="45.29261" lon="-72.65746">
        <ele>244.9</ele>
      </trkpt>
      <trkpt lat="45.29279" lon="-72.65728">
        <ele>245.47</ele>
      </trkpt>
      <trkpt lat="45.29304" lon="-72.65709">
        <ele>244.58</ele>
      </trkpt>
      <trkpt lat="45.29326" lon="-72.65711">
        <ele>241.32</ele>
      </trkpt>
      <trkpt lat="45.2934" lon="-72.65718">
        <ele>239.37</ele>
      </trkpt>
      <trkpt lat="45.29354" lon="-72.65737">
        <ele>236.51</ele>
      </trkpt>
      <trkpt lat="45.29389" lon="-72.65809">
        <ele>226.5</ele>
      </trkpt>
      <trkpt lat="45.29405" lon="-72.65858">
        <ele>216.95</ele>
      </trkpt>
      <trkpt lat="45.294135" lon="-72.65928">
        <ele>210.46</ele>
      </trkpt>
      <trkpt lat="45.29422" lon="-72.65998">
        <ele>201.62</ele>
      </trkpt>
      <trkpt lat="45.29431" lon="-72.660845">
        <ele>194.07</ele>
      </trkpt>
      <trkpt lat="45.2944" lon="-72.66171">
        <ele>189.98</ele>
      </trkpt>
      <trkpt lat="45.2944" lon="-72.66171">
        <ele>189.96</ele>
      </trkpt>
      <trkpt lat="45.29451" lon="-72.66261">
        <ele>185.16</ele>
      </trkpt>
      <trkpt lat="45.293975" lon="-72.663375">
        <ele>186.39</ele>
      </trkpt>
      <trkpt lat="45.29344" lon="-72.66414">
        <ele>192.11</ele>
      </trkpt>
      <trkpt lat="45.29291" lon="-72.66485">
        <ele>196.63</ele>
      </trkpt>
      <trkpt lat="45.29235" lon="-72.66542">
        <ele>198.48</ele>
      </trkpt>
      <trkpt lat="45.29235" lon="-72.66543">
        <ele>198.49</ele>
      </trkpt>
      <trkpt lat="45.291732" lon="-72.666028">
        <ele>198.66</ele>
      </trkpt>
      <trkpt lat="45.291114" lon="-72.666626">
        <ele>198.75</ele>
      </trkpt>
      <trkpt lat="45.290496" lon="-72.667224">
        <ele>199.04</ele>
      </trkpt>
      <trkpt lat="45.289878" lon="-72.667822">
        <ele>199.35</ele>
      </trkpt>
      <trkpt lat="45.28926" lon="-72.66842">
        <ele>201.73</ele>
      </trkpt>
      <trkpt lat="45.2885972" lon="-72.66899">
        <ele>204.56</ele>
      </trkpt>
      <trkpt lat="45.2879343" lon="-72.6695601">
        <ele>208.23</ele>
      </trkpt>
      <trkpt lat="45.2872714" lon="-72.6701301">
        <ele>209.79</ele>
      </trkpt>
      <trkpt lat="45.2866086" lon="-72.6707001">
        <ele>208.84</ele>
      </trkpt>
      <trkpt lat="45.2859457" lon="-72.6712701">
        <ele>205.37</ele>
      </trkpt>
      <trkpt lat="45.2852829" lon="-72.67184">
        <ele>199.96</ele>
      </trkpt>
      <trkpt lat="45.28462" lon="-72.67241">
        <ele>191.03</ele>
      </trkpt>
      <trkpt lat="45.284185" lon="-72.672705">
        <ele>186.55</ele>
      </trkpt>
      <trkpt lat="45.28375" lon="-72.673">
        <ele>182.96</ele>
      </trkpt>
      <trkpt lat="45.28374" lon="-72.673">
        <ele>182.92</ele>
      </trkpt>
      <trkpt lat="45.28325" lon="-72.67335">
        <ele>179.52</ele>
      </trkpt>
      <trkpt lat="45.282745" lon="-72.673645">
        <ele>176.53</ele>
      </trkpt>
      <trkpt lat="45.28224" lon="-72.67394">
        <ele>175.17</ele>
      </trkpt>
      <trkpt lat="45.28161" lon="-72.67425">
        <ele>172.65</ele>
      </trkpt>
      <trkpt lat="45.28098" lon="-72.67456">
        <ele>172.22</ele>
      </trkpt>
      <trkpt lat="45.28039" lon="-72.67482">
        <ele>172.27</ele>
      </trkpt>
      <trkpt lat="45.27996" lon="-72.67496">
        <ele>172.46</ele>
      </trkpt>
      <trkpt lat="45.27934" lon="-72.67501">
        <ele>172.42</ele>
      </trkpt>
      <trkpt lat="45.27882" lon="-72.67499">
        <ele>172.49</ele>
      </trkpt>
      <trkpt lat="45.27849" lon="-72.67496">
        <ele>172.2</ele>
      </trkpt>
      <trkpt lat="45.27806" lon="-72.67487">
        <ele>171.85</ele>
      </trkpt>
      <trkpt lat="45.27765" lon="-72.6747">
        <ele>171.73</ele>
      </trkpt>
      <trkpt lat="45.27716" lon="-72.67445">
        <ele>171.07</ele>
      </trkpt>
      <trkpt lat="45.2768" lon="-72.67429">
        <ele>170.51</ele>
      </trkpt>
      <trkpt lat="45.27639" lon="-72.67407">
        <ele>169.89</ele>
      </trkpt>
      <trkpt lat="45.27557" lon="-72.67376">
        <ele>166.68</ele>
      </trkpt>
      <trkpt lat="45.27497" lon="-72.67358">
        <ele>161.75</ele>
      </trkpt>
      <trkpt lat="45.27466" lon="-72.67354">
        <ele>158.74</ele>
      </trkpt>
      <trkpt lat="45.27431" lon="-72.67353">
        <ele>155.15</ele>
      </trkpt>
      <trkpt lat="45.27379" lon="-72.673575">
        <ele>152.15</ele>
      </trkpt>
      <trkpt lat="45.27327" lon="-72.67362">
        <ele>148.22</ele>
      </trkpt>
      <trkpt lat="45.27244" lon="-72.67384">
        <ele>143.86</ele>
      </trkpt>
      <trkpt lat="45.27226" lon="-72.67336">
        <ele>142.52</ele>
      </trkpt>
      <trkpt lat="45.27176" lon="-72.67264">
        <ele>139.09</ele>
      </trkpt>
      <trkpt lat="45.27145" lon="-72.67228">
        <ele>137.78</ele>
      </trkpt>
      <trkpt lat="45.27073" lon="-72.67157">
        <ele>137.09</ele>
      </trkpt>
      <trkpt lat="45.27014" lon="-72.67095">
        <ele>136.71</ele>
      </trkpt>
    </trkseg>
  </trk>
</gpx>