<?xml version='1.0' encoding='utf-8'?>
<gpx xmlns="http://www.topografix.com/GPX/1/1" xmlns:xsi="http://www.w3.org/2001/XMLSchema-instance" version="1.1" creator="Gravelle Estrie" xsi:schemaLocation="http://www.topografix.com/GPX/1/1 http://www.topografix.com/GPX/1/1/gpx.xsd">
  <metadata>
    <name>Les jeudis Gravelle Estrie</name>
  </metadata>
  <trk>
    <name>Les jeudis Gravelle Estrie</name>
    <trkseg>
      <trkpt lat="45.31787" lon="-72.65183" />
      <trkpt lat="45.31776" lon="-72.6524" />
      <trkpt lat="45.31771" lon="-72.65245" />
      <trkpt lat="45.31762" lon="-72.65243" />
      <trkpt lat="45.31749" lon="-72.65335" />
      <trkpt lat="45.317283" lon="-72.654313" />
      <trkpt lat="45.317076" lon="-72.655276" />
      <trkpt lat="45.31687" lon="-72.65624" />
      <trkpt lat="45.31681" lon="-72.65693" />
      <trkpt lat="45.31675" lon="-72.6571" />
      <trkpt lat="45.31633" lon="-72.65712" />
      <trkpt lat="45.31569" lon="-72.65715" />
      <trkpt lat="45.31505" lon="-72.65718" />
      <trkpt lat="45.31496" lon="-72.65822" />
      <trkpt lat="45.31485" lon="-72.65845" />
      <trkpt lat="45.31478" lon="-72.65867" />
      <trkpt lat="45.31473" lon="-72.65898" />
      <trkpt lat="45.31473" lon="-72.65921" />
      <trkpt lat="45.31469" lon="-72.65928" />
      <trkpt lat="45.31448" lon="-72.65939" />
      <trkpt lat="45.31437" lon="-72.65956" />
      <trkpt lat="45.3142" lon="-72.66028" />
      <trkpt lat="45.3142" lon="-72.66029" />
      <trkpt lat="45.31413" lon="-72.6606" />
      <trkpt lat="45.31387" lon="-72.66136" />
      <trkpt lat="45.3134" lon="-72.66242" />
      <trkpt lat="45.31304" lon="-72.663395" />
      <trkpt lat="45.31268" lon="-72.66437" />
      <trkpt lat="45.31232" lon="-72.665345" />
      <trkpt lat="45.31196" lon="-72.66632" />
      <trkpt lat="45.31155" lon="-72.6673" />
      <trkpt lat="45.31125" lon="-72.66838" />
      <trkpt lat="45.31088" lon="-72.66925" />
      <trkpt lat="45.31051" lon="-72.67012" />
      <trkpt lat="45.31014" lon="-72.67099" />
      <trkpt lat="45.30977" lon="-72.67186" />
      <trkpt lat="45.30977" lon="-72.67187" />
      <trkpt lat="45.30957" lon="-72.67223" />
      <trkpt lat="45.30927" lon="-72.6726" />
      <trkpt lat="45.30913" lon="-72.67291" />
      <trkpt lat="45.30886" lon="-72.67361" />
      <trkpt lat="45.30882" lon="-72.67375" />
      <trkpt lat="45.30881" lon="-72.67385" />
      <trkpt lat="45.30885" lon="-72.67394" />
      <trkpt lat="45.30945" lon="-72.67479" />
      <trkpt lat="45.3096" lon="-72.67488" />
      <trkpt lat="45.3097" lon="-72.67501" />
      <trkpt lat="45.30982" lon="-72.67519" />
      <trkpt lat="45.3099" lon="-72.67541" />
      <trkpt lat="45.31018" lon="-72.67591" />
      <trkpt lat="45.31028" lon="-72.67613" />
      <trkpt lat="45.31029" lon="-72.67622" />
      <trkpt lat="45.31026" lon="-72.6763" />
      <trkpt lat="45.31013" lon="-72.67644" />
      <trkpt lat="45.31006" lon="-72.67662" />
      <trkpt lat="45.31001" lon="-72.67662" />
      <trkpt lat="45.30997" lon="-72.67658" />
      <trkpt lat="45.30984" lon="-72.67626" />
      <trkpt lat="45.30964" lon="-72.6759" />
      <trkpt lat="45.30955" lon="-72.67578" />
      <trkpt lat="45.30939" lon="-72.67578" />
      <trkpt lat="45.30869" lon="-72.67626" />
      <trkpt lat="45.30859" lon="-72.67626" />
      <trkpt lat="45.30835" lon="-72.67596" />
      <trkpt lat="45.30825" lon="-72.676" />
      <trkpt lat="45.307923" lon="-72.676836" />
      <trkpt lat="45.307596" lon="-72.677673" />
      <trkpt lat="45.30727" lon="-72.67851" />
      <trkpt lat="45.3071" lon="-72.67881" />
      <trkpt lat="45.30671" lon="-72.6792" />
      <trkpt lat="45.30632" lon="-72.67959" />
      <trkpt lat="45.30638" lon="-72.67972" />
      <trkpt lat="45.3064" lon="-72.67988" />
      <trkpt lat="45.30638" lon="-72.67999" />
      <trkpt lat="45.30589" lon="-72.68101" />
      <trkpt lat="45.3057" lon="-72.68149" />
      <trkpt lat="45.3057" lon="-72.6815" />
      <trkpt lat="45.3056" lon="-72.68177" />
      <trkpt lat="45.30538" lon="-72.68217" />
      <trkpt lat="45.30533" lon="-72.6825" />
      <trkpt lat="45.30513" lon="-72.68302" />
      <trkpt lat="45.3051" lon="-72.68325" />
      <trkpt lat="45.30481" lon="-72.68387" />
      <trkpt lat="45.30477" lon="-72.68402" />
      <trkpt lat="45.30456" lon="-72.6846" />
      <trkpt lat="45.30435" lon="-72.68508" />
      <trkpt lat="45.30433" lon="-72.68517" />
      <trkpt lat="45.30435" lon="-72.68523" />
      <trkpt lat="45.30448" lon="-72.68536" />
      <trkpt lat="45.3042" lon="-72.68611" />
      <trkpt lat="45.30419" lon="-72.68616" />
      <trkpt lat="45.30423" lon="-72.68633" />
      <trkpt lat="45.30438" lon="-72.68647" />
      <trkpt lat="45.30443" lon="-72.68664" />
      <trkpt lat="45.30447" lon="-72.687479" />
      <trkpt lat="45.30451" lon="-72.68832" />
      <trkpt lat="45.3045" lon="-72.68854" />
      <trkpt lat="45.30453" lon="-72.6893" />
      <trkpt lat="45.30444" lon="-72.68955" />
      <trkpt lat="45.30432" lon="-72.6897" />
      <trkpt lat="45.3042" lon="-72.68978" />
      <trkpt lat="45.30407" lon="-72.68978" />
      <trkpt lat="45.30365" lon="-72.68956" />
      <trkpt lat="45.30349" lon="-72.68955" />
      <trkpt lat="45.30328" lon="-72.68956" />
      <trkpt lat="45.30308" lon="-72.68952" />
      <trkpt lat="45.30294" lon="-72.68943" />
      <trkpt lat="45.30279" lon="-72.68929" />
      <trkpt lat="45.30258" lon="-72.68921" />
      <trkpt lat="45.30257" lon="-72.68921" />
      <trkpt lat="45.30239" lon="-72.68924" />
      <trkpt lat="45.30221" lon="-72.68934" />
      <trkpt lat="45.30215" lon="-72.68943" />
      <trkpt lat="45.30214" lon="-72.6896" />
      <trkpt lat="45.30216" lon="-72.69063" />
      <trkpt lat="45.30218" lon="-72.69091" />
      <trkpt lat="45.30234" lon="-72.69194" />
      <trkpt lat="45.30234" lon="-72.69207" />
      <trkpt lat="45.30228" lon="-72.69216" />
      <trkpt lat="45.30177" lon="-72.69266" />
      <trkpt lat="45.30162" lon="-72.69278" />
      <trkpt lat="45.30156" lon="-72.69278" />
      <trkpt lat="45.30147" lon="-72.69274" />
      <trkpt lat="45.30082" lon="-72.69203" />
      <trkpt lat="45.30075" lon="-72.69203" />
      <trkpt lat="45.30064" lon="-72.69226" />
      <trkpt lat="45.30017" lon="-72.693093" />
      <trkpt lat="45.2997" lon="-72.693926" />
      <trkpt lat="45.29923" lon="-72.69476" />
      <trkpt lat="45.29909" lon="-72.6949" />
      <trkpt lat="45.29877" lon="-72.69516" />
      <trkpt lat="45.29841" lon="-72.6957" />
      <trkpt lat="45.29811" lon="-72.696215" />
      <trkpt lat="45.29781" lon="-72.69673" />
      <trkpt lat="45.29781" lon="-72.69674" />
      <trkpt lat="45.29767" lon="-72.69699" />
      <trkpt lat="45.29765" lon="-72.69722" />
      <trkpt lat="45.29778" lon="-72.69771" />
      <trkpt lat="45.29785" lon="-72.69781" />
      <trkpt lat="45.29819" lon="-72.69811" />
      <trkpt lat="45.29835" lon="-72.69829" />
      <trkpt lat="45.29869" lon="-72.69874" />
      <trkpt lat="45.29908" lon="-72.699536" />
      <trkpt lat="45.29947" lon="-72.700333" />
      <trkpt lat="45.29986" lon="-72.70113" />
      <trkpt lat="45.29999" lon="-72.70139" />
      <trkpt lat="45.30024" lon="-72.70197" />
      <trkpt lat="45.30035" lon="-72.70246" />
      <trkpt lat="45.30036" lon="-72.70272" />
      <trkpt lat="45.30034" lon="-72.70293" />
      <trkpt lat="45.299589" lon="-72.702943" />
      <trkpt lat="45.298839" lon="-72.702956" />
      <trkpt lat="45.298089" lon="-72.70297" />
      <trkpt lat="45.297339" lon="-72.702983" />
      <trkpt lat="45.296589" lon="-72.702996" />
      <trkpt lat="45.29584" lon="-72.70301" />
      <trkpt lat="45.29584" lon="-72.70357" />
      <trkpt lat="45.29584" lon="-72.70358" />
      <trkpt lat="45.29584" lon="-72.70398" />
      <trkpt lat="45.29581" lon="-72.70411" />
      <trkpt lat="45.29575" lon="-72.70419" />
      <trkpt lat="45.29568" lon="-72.70421" />
      <trkpt lat="45.29558" lon="-72.7042" />
      <trkpt lat="45.2949" lon="-72.70398" />
      <trkpt lat="45.29468" lon="-72.70393" />
      <trkpt lat="45.29448" lon="-72.70393" />
      <trkpt lat="45.29431" lon="-72.70394" />
      <trkpt lat="45.293735" lon="-72.70411" />
      <trkpt lat="45.29316" lon="-72.70428" />
      <trkpt lat="45.29297" lon="-72.70442" />
      <trkpt lat="45.29288" lon="-72.70452" />
      <trkpt lat="45.2928" lon="-72.70469" />
      <trkpt lat="45.29273" lon="-72.70502" />
      <trkpt lat="45.29267" lon="-72.70572" />
      <trkpt lat="45.29261" lon="-72.70586" />
      <trkpt lat="45.29244" lon="-72.70608" />
      <trkpt lat="45.29191" lon="-72.70662" />
      <trkpt lat="45.29145" lon="-72.70681" />
      <trkpt lat="45.2911" lon="-72.70693" />
      <trkpt lat="45.2906" lon="-72.70694" />
      <trkpt lat="45.29021" lon="-72.70703" />
      <trkpt lat="45.289815" lon="-72.70739" />
      <trkpt lat="45.28942" lon="-72.70775" />
      <trkpt lat="45.288805" lon="-72.70837" />
      <trkpt lat="45.28819" lon="-72.70899" />
      <trkpt lat="45.2881" lon="-72.70892" />
      <trkpt lat="45.28795" lon="-72.70887" />
      <trkpt lat="45.28774" lon="-72.70904" />
      <trkpt lat="45.28767" lon="-72.70918" />
      <trkpt lat="45.28758" lon="-72.7093" />
      <trkpt lat="45.28715" lon="-72.7098" />
      <trkpt lat="45.28685" lon="-72.7102" />
      <trkpt lat="45.28672" lon="-72.71039" />
      <trkpt lat="45.28661" lon="-72.71069" />
      <trkpt lat="45.2866" lon="-72.71078" />
      <trkpt lat="45.28663" lon="-72.71092" />
      <trkpt lat="45.28668" lon="-72.71105" />
      <trkpt lat="45.28682" lon="-72.71119" />
      <trkpt lat="45.28695" lon="-72.71119" />
      <trkpt lat="45.2871" lon="-72.71128" />
      <trkpt lat="45.2872" lon="-72.71145" />
      <trkpt lat="45.28723" lon="-72.71155" />
      <trkpt lat="45.28723" lon="-72.71163" />
      <trkpt lat="45.28717" lon="-72.71188" />
      <trkpt lat="45.28717" lon="-72.71189" />
      <trkpt lat="45.28708" lon="-72.71213" />
      <trkpt lat="45.28708" lon="-72.71258" />
      <trkpt lat="45.28705" lon="-72.71271" />
      <trkpt lat="45.287" lon="-72.7128" />
      <trkpt lat="45.28675" lon="-72.71294" />
      <trkpt lat="45.28647" lon="-72.71334" />
      <trkpt lat="45.2864" lon="-72.71351" />
      <trkpt lat="45.28634" lon="-72.71374" />
      <trkpt lat="45.2862" lon="-72.71401" />
      <trkpt lat="45.28607" lon="-72.7144" />
      <trkpt lat="45.28595" lon="-72.71463" />
      <trkpt lat="45.28588" lon="-72.71485" />
      <trkpt lat="45.28579" lon="-72.7153" />
      <trkpt lat="45.28563" lon="-72.71584" />
      <trkpt lat="45.28524" lon="-72.7167" />
      <trkpt lat="45.2851" lon="-72.71696" />
      <trkpt lat="45.28479" lon="-72.71732" />
      <trkpt lat="45.28462" lon="-72.71741" />
      <trkpt lat="45.28449" lon="-72.71745" />
      <trkpt lat="45.28442" lon="-72.7175" />
      <trkpt lat="45.28435" lon="-72.71764" />
      <trkpt lat="45.2843" lon="-72.71782" />
      <trkpt lat="45.28433" lon="-72.71828" />
      <trkpt lat="45.28432" lon="-72.71875" />
      <trkpt lat="45.28429" lon="-72.71885" />
      <trkpt lat="45.28408" lon="-72.7191" />
      <trkpt lat="45.28404" lon="-72.71929" />
      <trkpt lat="45.2838" lon="-72.71969" />
      <trkpt lat="45.28361" lon="-72.72015" />
      <trkpt lat="45.28358" lon="-72.72076" />
      <trkpt lat="45.28355" lon="-72.72089" />
      <trkpt lat="45.2833" lon="-72.72157" />
      <trkpt lat="45.28305" lon="-72.72193" />
      <trkpt lat="45.28295" lon="-72.72194" />
      <trkpt lat="45.28286" lon="-72.72198" />
      <trkpt lat="45.28283" lon="-72.72206" />
      <trkpt lat="45.28283" lon="-72.72215" />
      <trkpt lat="45.28287" lon="-72.7222" />
      <trkpt lat="45.28314" lon="-72.7222" />
      <trkpt lat="45.28326" lon="-72.72224" />
      <trkpt lat="45.28329" lon="-72.72233" />
      <trkpt lat="45.28331" lon="-72.72256" />
      <trkpt lat="45.28337" lon="-72.72269" />
      <trkpt lat="45.28361" lon="-72.72292" />
      <trkpt lat="45.28383" lon="-72.72333" />
      <trkpt lat="45.28393" lon="-72.72359" />
      <trkpt lat="45.28393" lon="-72.72389" />
      <trkpt lat="45.28362" lon="-72.72485" />
      <trkpt lat="45.28362" lon="-72.72486" />
      <trkpt lat="45.283346" lon="-72.725643" />
      <trkpt lat="45.283073" lon="-72.726426" />
      <trkpt lat="45.2828" lon="-72.72721" />
      <trkpt lat="45.282565" lon="-72.72791" />
      <trkpt lat="45.28233" lon="-72.72861" />
      <trkpt lat="45.28221" lon="-72.72882" />
      <trkpt lat="45.281552" lon="-72.729457" />
      <trkpt lat="45.280895" lon="-72.730095" />
      <trkpt lat="45.280237" lon="-72.730732" />
      <trkpt lat="45.27958" lon="-72.73137" />
      <trkpt lat="45.27944" lon="-72.73147" />
      <trkpt lat="45.27928" lon="-72.73147" />
      <trkpt lat="45.27856" lon="-72.73161" />
      <trkpt lat="45.27829" lon="-72.7317" />
      <trkpt lat="45.277493" lon="-72.73207" />
      <trkpt lat="45.276696" lon="-72.73244" />
      <trkpt lat="45.2759" lon="-72.73281" />
      <trkpt lat="45.27573" lon="-72.73294" />
      <trkpt lat="45.27562" lon="-72.73304" />
      <trkpt lat="45.2755" lon="-72.73326" />
      <trkpt lat="45.27513" lon="-72.73402" />
      <trkpt lat="45.27481" lon="-72.734645" />
      <trkpt lat="45.27449" lon="-72.73527" />
      <trkpt lat="45.27431" lon="-72.7355" />
      <trkpt lat="45.27419" lon="-72.73559" />
      <trkpt lat="45.27408" lon="-72.73564" />
      <trkpt lat="45.273266" lon="-72.735583" />
      <trkpt lat="45.272452" lon="-72.735527" />
      <trkpt lat="45.271638" lon="-72.735471" />
      <trkpt lat="45.270824" lon="-72.735415" />
      <trkpt lat="45.27001" lon="-72.73536" />
      <trkpt lat="45.269214" lon="-72.735329" />
      <trkpt lat="45.26842" lon="-72.7353" />
      <trkpt lat="45.26816" lon="-72.73536" />
      <trkpt lat="45.267306" lon="-72.735586" />
      <trkpt lat="45.266452" lon="-72.735812" />
      <trkpt lat="45.265598" lon="-72.736038" />
      <trkpt lat="45.264744" lon="-72.736264" />
      <trkpt lat="45.26389" lon="-72.73649" />
      <trkpt lat="45.26311" lon="-72.73666" />
      <trkpt lat="45.26269" lon="-72.73666" />
      <trkpt lat="45.26207" lon="-72.73657" />
      <trkpt lat="45.261605" lon="-72.736479" />
      <trkpt lat="45.26114" lon="-72.73639" />
      <trkpt lat="45.260565" lon="-72.736229" />
      <trkpt lat="45.25999" lon="-72.73607" />
      <trkpt lat="45.259225" lon="-72.735804" />
      <trkpt lat="45.25846" lon="-72.73554" />
      <trkpt lat="45.25783" lon="-72.735289" />
      <trkpt lat="45.2572" lon="-72.73504" />
      <trkpt lat="45.256735" lon="-72.734814" />
      <trkpt lat="45.25627" lon="-72.73459" />
      <trkpt lat="45.25578" lon="-72.73438" />
      <trkpt lat="45.2556" lon="-72.7343" />
      <trkpt lat="45.25548" lon="-72.73433" />
      <trkpt lat="45.2553" lon="-72.73388" />
      <trkpt lat="45.25514" lon="-72.73339" />
      <trkpt lat="45.2551" lon="-72.73319" />
      <trkpt lat="45.254377" lon="-72.733835" />
      <trkpt lat="45.253655" lon="-72.73448" />
      <trkpt lat="45.252932" lon="-72.735125" />
      <trkpt lat="45.25221" lon="-72.73577" />
      <trkpt lat="45.2522" lon="-72.73577" />
      <trkpt lat="45.25147" lon="-72.736432" />
      <trkpt lat="45.25074" lon="-72.737094" />
      <trkpt lat="45.25001" lon="-72.737756" />
      <trkpt lat="45.24928" lon="-72.738418" />
      <trkpt lat="45.24855" lon="-72.73908" />
      <trkpt lat="45.24822" lon="-72.7393" />
      <trkpt lat="45.24793" lon="-72.7394" />
      <trkpt lat="45.24761" lon="-72.73944" />
      <trkpt lat="45.2468" lon="-72.739309" />
      <trkpt lat="45.24599" lon="-72.73918" />
      <trkpt lat="45.245393" lon="-72.739056" />
      <trkpt lat="45.244796" lon="-72.738933" />
      <trkpt lat="45.2442" lon="-72.73881" />
      <trkpt lat="45.24364" lon="-72.73876" />
      <trkpt lat="45.24325" lon="-72.73874" />
      <trkpt lat="45.243157" lon="-72.737512" />
      <trkpt lat="45.243065" lon="-72.736284" />
      <trkpt lat="45.242972" lon="-72.735057" />
      <trkpt lat="45.24288" lon="-72.73383" />
      <trkpt lat="45.2428" lon="-72.73326" />
      <trkpt lat="45.24273" lon="-72.73298" />
      <trkpt lat="45.24263" lon="-72.73272" />
      <trkpt lat="45.24237" lon="-72.73232" />
      <trkpt lat="45.241834" lon="-72.731583" />
      <trkpt lat="45.241298" lon="-72.730847" />
      <trkpt lat="45.240762" lon="-72.730111" />
      <trkpt lat="45.240226" lon="-72.729375" />
      <trkpt lat="45.23969" lon="-72.72864" />
      <trkpt lat="45.239066" lon="-72.727806" />
      <trkpt lat="45.238443" lon="-72.726973" />
      <trkpt lat="45.23782" lon="-72.72614" />
      <trkpt lat="45.23729" lon="-72.725444" />
      <trkpt lat="45.23676" lon="-72.724749" />
      <trkpt lat="45.23623" lon="-72.724054" />
      <trkpt lat="45.2357" lon="-72.72336" />
      <trkpt lat="45.23552" lon="-72.72309" />
      <trkpt lat="45.23543" lon="-72.72283" />
      <trkpt lat="45.23538" lon="-72.72261" />
      <trkpt lat="45.23527" lon="-72.72136" />
      <trkpt lat="45.23521" lon="-72.72082" />
      <trkpt lat="45.23518" lon="-72.72071" />
      <trkpt lat="45.23481" lon="-72.720024" />
      <trkpt lat="45.23444" lon="-72.71934" />
      <trkpt lat="45.23422" lon="-72.71901" />
      <trkpt lat="45.23403" lon="-72.71884" />
      <trkpt lat="45.2336" lon="-72.718514" />
      <trkpt lat="45.23317" lon="-72.71819" />
      <trkpt lat="45.232745" lon="-72.717864" />
      <trkpt lat="45.23232" lon="-72.71754" />
      <trkpt lat="45.23217" lon="-72.7174" />
      <trkpt lat="45.23205" lon="-72.71722" />
      <trkpt lat="45.23167" lon="-72.71624" />
      <trkpt lat="45.23122" lon="-72.71526" />
      <trkpt lat="45.2311" lon="-72.7149" />
      <trkpt lat="45.23098" lon="-72.71432" />
      <trkpt lat="45.230925" lon="-72.713224" />
      <trkpt lat="45.23087" lon="-72.71213" />
      <trkpt lat="45.23081" lon="-72.71133" />
      <trkpt lat="45.23069" lon="-72.71042" />
      <trkpt lat="45.23052" lon="-72.709594" />
      <trkpt lat="45.23035" lon="-72.70877" />
      <trkpt lat="45.23002" lon="-72.70787" />
      <trkpt lat="45.22968" lon="-72.70711" />
      <trkpt lat="45.22925" lon="-72.70622" />
      <trkpt lat="45.22905" lon="-72.70587" />
      <trkpt lat="45.22896" lon="-72.70562" />
      <trkpt lat="45.22891" lon="-72.704713" />
      <trkpt lat="45.22886" lon="-72.703806" />
      <trkpt lat="45.22881" lon="-72.7029" />
      <trkpt lat="45.22874" lon="-72.70263" />
      <trkpt lat="45.22856" lon="-72.70232" />
      <trkpt lat="45.22849" lon="-72.70218" />
      <trkpt lat="45.2284" lon="-72.70175" />
      <trkpt lat="45.22831" lon="-72.70081" />
      <trkpt lat="45.228255" lon="-72.700039" />
      <trkpt lat="45.2282" lon="-72.69927" />
      <trkpt lat="45.22815" lon="-72.698064" />
      <trkpt lat="45.2281" lon="-72.69686" />
      <trkpt lat="45.228023" lon="-72.695906" />
      <trkpt lat="45.227946" lon="-72.694953" />
      <trkpt lat="45.22787" lon="-72.694" />
      <trkpt lat="45.2278" lon="-72.692919" />
      <trkpt lat="45.22773" lon="-72.69184" />
      <trkpt lat="45.22769" lon="-72.69162" />
      <trkpt lat="45.22738" lon="-72.69055" />
      <trkpt lat="45.2272" lon="-72.6897" />
      <trkpt lat="45.227005" lon="-72.688719" />
      <trkpt lat="45.22681" lon="-72.68774" />
      <trkpt lat="45.22739" lon="-72.68705" />
      <trkpt lat="45.22777" lon="-72.68651" />
      <trkpt lat="45.22797" lon="-72.68615" />
      <trkpt lat="45.22814" lon="-72.68589" />
      <trkpt lat="45.22835" lon="-72.68562" />
      <trkpt lat="45.22842" lon="-72.68554" />
      <trkpt lat="45.22853" lon="-72.68549" />
      <trkpt lat="45.22874" lon="-72.68535" />
      <trkpt lat="45.22909" lon="-72.68521" />
      <trkpt lat="45.22938" lon="-72.68495" />
      <trkpt lat="45.22969" lon="-72.68454" />
      <trkpt lat="45.22998" lon="-72.68406" />
      <trkpt lat="45.23034" lon="-72.68343" />
      <trkpt lat="45.23044" lon="-72.68329" />
      <trkpt lat="45.23058" lon="-72.68303" />
      <trkpt lat="45.23069" lon="-72.68275" />
      <trkpt lat="45.23075" lon="-72.68239" />
      <trkpt lat="45.23097" lon="-72.68141" />
      <trkpt lat="45.231253" lon="-72.680483" />
      <trkpt lat="45.231536" lon="-72.679556" />
      <trkpt lat="45.23182" lon="-72.67863" />
      <trkpt lat="45.23213" lon="-72.67775" />
      <trkpt lat="45.23237" lon="-72.67698" />
      <trkpt lat="45.23241" lon="-72.67658" />
      <trkpt lat="45.232575" lon="-72.67566" />
      <trkpt lat="45.23274" lon="-72.67474" />
      <trkpt lat="45.23287" lon="-72.67416" />
      <trkpt lat="45.233" lon="-72.67368" />
      <trkpt lat="45.23327" lon="-72.67304" />
      <trkpt lat="45.233545" lon="-72.672505" />
      <trkpt lat="45.23382" lon="-72.67197" />
      <trkpt lat="45.23409" lon="-72.67125" />
      <trkpt lat="45.23415" lon="-72.67103" />
      <trkpt lat="45.23428" lon="-72.67035" />
      <trkpt lat="45.23442" lon="-72.66927" />
      <trkpt lat="45.23445" lon="-72.668475" />
      <trkpt lat="45.23448" lon="-72.66768" />
      <trkpt lat="45.23451" lon="-72.66732" />
      <trkpt lat="45.23451" lon="-72.66733" />
      <trkpt lat="45.23457" lon="-72.66663" />
      <trkpt lat="45.23463" lon="-72.66593" />
      <trkpt lat="45.23467" lon="-72.66566" />
      <trkpt lat="45.23487" lon="-72.66493" />
      <trkpt lat="45.23495" lon="-72.66445" />
      <trkpt lat="45.23507" lon="-72.66396" />
      <trkpt lat="45.23526" lon="-72.66347" />
      <trkpt lat="45.235715" lon="-72.66253" />
      <trkpt lat="45.23617" lon="-72.66159" />
      <trkpt lat="45.23656" lon="-72.66086" />
      <trkpt lat="45.236925" lon="-72.6601" />
      <trkpt lat="45.23729" lon="-72.65934" />
      <trkpt lat="45.237695" lon="-72.658395" />
      <trkpt lat="45.2381" lon="-72.65745" />
      <trkpt lat="45.238822" lon="-72.657414" />
      <trkpt lat="45.239544" lon="-72.657378" />
      <trkpt lat="45.240266" lon="-72.657342" />
      <trkpt lat="45.240988" lon="-72.657306" />
      <trkpt lat="45.24171" lon="-72.65727" />
      <trkpt lat="45.2417" lon="-72.65727" />
      <trkpt lat="45.242383" lon="-72.657213" />
      <trkpt lat="45.243066" lon="-72.657156" />
      <trkpt lat="45.24375" lon="-72.6571" />
      <trkpt lat="45.244229" lon="-72.65708" />
      <trkpt lat="45.24471" lon="-72.65706" />
      <trkpt lat="45.245386" lon="-72.65699" />
      <trkpt lat="45.246063" lon="-72.65692" />
      <trkpt lat="45.24674" lon="-72.65685" />
      <trkpt lat="45.24762" lon="-72.65672" />
      <trkpt lat="45.24801" lon="-72.6567" />
      <trkpt lat="45.248773" lon="-72.656716" />
      <trkpt lat="45.249536" lon="-72.656733" />
      <trkpt lat="45.2503" lon="-72.65675" />
      <trkpt lat="45.25116" lon="-72.65679" />
      <trkpt lat="45.25201" lon="-72.65679" />
      <trkpt lat="45.25277" lon="-72.656755" />
      <trkpt lat="45.25353" lon="-72.65672" />
      <trkpt lat="45.25429" lon="-72.656685" />
      <trkpt lat="45.25505" lon="-72.65665" />
      <trkpt lat="45.25591" lon="-72.656633" />
      <trkpt lat="45.25677" lon="-72.656616" />
      <trkpt lat="45.25763" lon="-72.6566" />
      <trkpt lat="45.25787" lon="-72.65662" />
      <trkpt lat="45.258605" lon="-72.656644" />
      <trkpt lat="45.25934" lon="-72.65667" />
      <trkpt lat="45.26006" lon="-72.656679" />
      <trkpt lat="45.26078" lon="-72.65669" />
      <trkpt lat="45.26124" lon="-72.65664" />
      <trkpt lat="45.26131" lon="-72.65581" />
      <trkpt lat="45.26128" lon="-72.65532" />
      <trkpt lat="45.26118" lon="-72.654464" />
      <trkpt lat="45.26108" lon="-72.65361" />
      <trkpt lat="45.261056" lon="-72.652429" />
      <trkpt lat="45.261033" lon="-72.651249" />
      <trkpt lat="45.26101" lon="-72.65007" />
      <trkpt lat="45.26095" lon="-72.64938" />
      <trkpt lat="45.26087" lon="-72.64851" />
      <trkpt lat="45.26081" lon="-72.64819" />
      <trkpt lat="45.26078" lon="-72.64739" />
      <trkpt lat="45.26078" lon="-72.64661" />
      <trkpt lat="45.26078" lon="-72.64583" />
      <trkpt lat="45.2608" lon="-72.64508" />
      <trkpt lat="45.260855" lon="-72.64433" />
      <trkpt lat="45.26091" lon="-72.64358" />
      <trkpt lat="45.26091" lon="-72.64327" />
      <trkpt lat="45.260776" lon="-72.642113" />
      <trkpt lat="45.260643" lon="-72.640956" />
      <trkpt lat="45.26051" lon="-72.6398" />
      <trkpt lat="45.260388" lon="-72.638791" />
      <trkpt lat="45.260266" lon="-72.637783" />
      <trkpt lat="45.260144" lon="-72.636775" />
      <trkpt lat="45.260022" lon="-72.635767" />
      <trkpt lat="45.2599" lon="-72.63476" />
      <trkpt lat="45.25995" lon="-72.63435" />
      <trkpt lat="45.26004" lon="-72.63396" />
      <trkpt lat="45.26006" lon="-72.6337" />
      <trkpt lat="45.25993" lon="-72.63257" />
      <trkpt lat="45.25983" lon="-72.63202" />
      <trkpt lat="45.25977" lon="-72.63183" />
      <trkpt lat="45.26027" lon="-72.63212" />
      <trkpt lat="45.260835" lon="-72.632499" />
      <trkpt lat="45.2614" lon="-72.63288" />
      <trkpt lat="45.26155" lon="-72.63297" />
      <trkpt lat="45.26183" lon="-72.63324" />
      <trkpt lat="45.26209" lon="-72.6336" />
      <trkpt lat="45.2623" lon="-72.63382" />
      <trkpt lat="45.26247" lon="-72.63395" />
      <trkpt lat="45.2629" lon="-72.63413" />
      <trkpt lat="45.26318" lon="-72.63417" />
      <trkpt lat="45.2634" lon="-72.63414" />
      <trkpt lat="45.26362" lon="-72.6341" />
      <trkpt lat="45.26413" lon="-72.633965" />
      <trkpt lat="45.26464" lon="-72.63383" />
      <trkpt lat="45.26487" lon="-72.63373" />
      <trkpt lat="45.26543" lon="-72.63333" />
      <trkpt lat="45.26573" lon="-72.63315" />
      <trkpt lat="45.26624" lon="-72.63293" />
      <trkpt lat="45.266835" lon="-72.632725" />
      <trkpt lat="45.26743" lon="-72.63252" />
      <trkpt lat="45.2677" lon="-72.63235" />
      <trkpt lat="45.26788" lon="-72.6321" />
      <trkpt lat="45.26805" lon="-72.63163" />
      <trkpt lat="45.26836" lon="-72.630656" />
      <trkpt lat="45.26867" lon="-72.629683" />
      <trkpt lat="45.26898" lon="-72.62871" />
      <trkpt lat="45.26898" lon="-72.62872" />
      <trkpt lat="45.26933" lon="-72.628016" />
      <trkpt lat="45.26968" lon="-72.627313" />
      <trkpt lat="45.27003" lon="-72.62661" />
      <trkpt lat="45.270545" lon="-72.62563" />
      <trkpt lat="45.27106" lon="-72.62465" />
      <trkpt lat="45.27148" lon="-72.62379" />
      <trkpt lat="45.27192" lon="-72.62383" />
      <trkpt lat="45.272603" lon="-72.623726" />
      <trkpt lat="45.273286" lon="-72.623623" />
      <trkpt lat="45.27397" lon="-72.62352" />
      <trkpt lat="45.27478" lon="-72.623455" />
      <trkpt lat="45.27559" lon="-72.62339" />
      <trkpt lat="45.27579" lon="-72.62334" />
      <trkpt lat="45.2763" lon="-72.62305" />
      <trkpt lat="45.27681" lon="-72.62276" />
      <trkpt lat="45.27735" lon="-72.62252" />
      <trkpt lat="45.27714" lon="-72.62147" />
      <trkpt lat="45.27707" lon="-72.62129" />
      <trkpt lat="45.27697" lon="-72.62115" />
      <trkpt lat="45.2768" lon="-72.62106" />
      <trkpt lat="45.27667" lon="-72.62088" />
      <trkpt lat="45.27662" lon="-72.62065" />
      <trkpt lat="45.276565" lon="-72.619657" />
      <trkpt lat="45.27651" lon="-72.618664" />
      <trkpt lat="45.276455" lon="-72.617672" />
      <trkpt lat="45.2764" lon="-72.61668" />
      <trkpt lat="45.276346" lon="-72.615594" />
      <trkpt lat="45.276293" lon="-72.614509" />
      <trkpt lat="45.27624" lon="-72.613424" />
      <trkpt lat="45.276186" lon="-72.612339" />
      <trkpt lat="45.276133" lon="-72.611254" />
      <trkpt lat="45.27608" lon="-72.61017" />
      <trkpt lat="45.27605" lon="-72.60924" />
      <trkpt lat="45.27605" lon="-72.6081" />
      <trkpt lat="45.27605" lon="-72.60811" />
      <trkpt lat="45.276055" lon="-72.60704" />
      <trkpt lat="45.27606" lon="-72.60597" />
      <trkpt lat="45.276022" lon="-72.604794" />
      <trkpt lat="45.275985" lon="-72.603618" />
      <trkpt lat="45.275948" lon="-72.602442" />
      <trkpt lat="45.275911" lon="-72.601267" />
      <trkpt lat="45.275874" lon="-72.600091" />
      <trkpt lat="45.275837" lon="-72.598915" />
      <trkpt lat="45.2758" lon="-72.59774" />
      <trkpt lat="45.27578" lon="-72.596549" />
      <trkpt lat="45.27576" lon="-72.59536" />
      <trkpt lat="45.276514" lon="-72.595295" />
      <trkpt lat="45.27727" lon="-72.59523" />
      <trkpt lat="45.27808" lon="-72.595185" />
      <trkpt lat="45.27889" lon="-72.595141" />
      <trkpt lat="45.2797" lon="-72.595097" />
      <trkpt lat="45.28051" lon="-72.595052" />
      <trkpt lat="45.28132" lon="-72.595008" />
      <trkpt lat="45.282129" lon="-72.594964" />
      <trkpt lat="45.28294" lon="-72.59492" />
      <trkpt lat="45.283813" lon="-72.594878" />
      <trkpt lat="45.284686" lon="-72.594836" />
      <trkpt lat="45.28556" lon="-72.594795" />
      <trkpt lat="45.286433" lon="-72.594753" />
      <trkpt lat="45.287306" lon="-72.594711" />
      <trkpt lat="45.28818" lon="-72.59467" />
      <trkpt lat="45.289035" lon="-72.594642" />
      <trkpt lat="45.28989" lon="-72.594615" />
      <trkpt lat="45.290745" lon="-72.594587" />
      <trkpt lat="45.2916" lon="-72.59456" />
      <trkpt lat="45.292446" lon="-72.594508" />
      <trkpt lat="45.293292" lon="-72.594456" />
      <trkpt lat="45.294138" lon="-72.594404" />
      <trkpt lat="45.294984" lon="-72.594352" />
      <trkpt lat="45.29583" lon="-72.5943" />
      <trkpt lat="45.296484" lon="-72.59427" />
      <trkpt lat="45.29714" lon="-72.59424" />
      <trkpt lat="45.29747" lon="-72.59415" />
      <trkpt lat="45.29825" lon="-72.59375" />
      <trkpt lat="45.29854" lon="-72.59362" />
      <trkpt lat="45.2988" lon="-72.59352" />
      <trkpt lat="45.29924" lon="-72.59343" />
      <trkpt lat="45.29972" lon="-72.59339" />
      <trkpt lat="45.30029" lon="-72.59348" />
      <trkpt lat="45.300815" lon="-72.593659" />
      <trkpt lat="45.30134" lon="-72.59384" />
      <trkpt lat="45.30156" lon="-72.5939" />
      <trkpt lat="45.30201" lon="-72.59395" />
      <trkpt lat="45.30241" lon="-72.59402" />
      <trkpt lat="45.30275" lon="-72.59402" />
      <trkpt lat="45.303329" lon="-72.59398" />
      <trkpt lat="45.30391" lon="-72.59394" />
      <trkpt lat="45.304586" lon="-72.593876" />
      <trkpt lat="45.305263" lon="-72.593813" />
      <trkpt lat="45.30594" lon="-72.59375" />
      <trkpt lat="45.306609" lon="-72.593705" />
      <trkpt lat="45.30728" lon="-72.59366" />
      <trkpt lat="45.30728" lon="-72.594579" />
      <trkpt lat="45.30728" lon="-72.5955" />
      <trkpt lat="45.308078" lon="-72.595463" />
      <trkpt lat="45.308876" lon="-72.595426" />
      <trkpt lat="45.309675" lon="-72.59539" />
      <trkpt lat="45.310473" lon="-72.595353" />
      <trkpt lat="45.311271" lon="-72.595316" />
      <trkpt lat="45.31207" lon="-72.59528" />
      <trkpt lat="45.312716" lon="-72.59526" />
      <trkpt lat="45.313363" lon="-72.59524" />
      <trkpt lat="45.31401" lon="-72.59522" />
      <trkpt lat="45.314819" lon="-72.59518" />
      <trkpt lat="45.31563" lon="-72.59514" />
      <trkpt lat="45.316395" lon="-72.595115" />
      <trkpt lat="45.31716" lon="-72.59509" />
      <trkpt lat="45.31735" lon="-72.59505" />
      <trkpt lat="45.31753" lon="-72.59488" />
      <trkpt lat="45.31769" lon="-72.59469" />
      <trkpt lat="45.31806" lon="-72.59411" />
      <trkpt lat="45.31843" lon="-72.59353" />
      <trkpt lat="45.31854" lon="-72.59339" />
      <trkpt lat="45.31875" lon="-72.5932" />
      <trkpt lat="45.31905" lon="-72.59308" />
      <trkpt lat="45.31937" lon="-72.59308" />
      <trkpt lat="45.320019" lon="-72.593119" />
      <trkpt lat="45.320669" lon="-72.593159" />
      <trkpt lat="45.32132" lon="-72.5932" />
      <trkpt lat="45.322186" lon="-72.593249" />
      <trkpt lat="45.323053" lon="-72.593299" />
      <trkpt lat="45.32392" lon="-72.59335" />
      <trkpt lat="45.324579" lon="-72.593399" />
      <trkpt lat="45.325239" lon="-72.593449" />
      <trkpt lat="45.3259" lon="-72.5935" />
      <trkpt lat="45.32639" lon="-72.59357" />
      <trkpt lat="45.32671" lon="-72.59354" />
      <trkpt lat="45.32717" lon="-72.59348" />
      <trkpt lat="45.32794" lon="-72.5933" />
      <trkpt lat="45.32871" lon="-72.59312" />
      <trkpt lat="45.32873" lon="-72.59325" />
      <trkpt lat="45.32891" lon="-72.59385" />
      <trkpt lat="45.3292" lon="-72.594924" />
      <trkpt lat="45.32949" lon="-72.596" />
      <trkpt lat="45.3298" lon="-72.597159" />
      <trkpt lat="45.33011" lon="-72.598319" />
      <trkpt lat="45.33042" lon="-72.599479" />
      <trkpt lat="45.33073" lon="-72.60064" />
      <trkpt lat="45.33084" lon="-72.601" />
      <trkpt lat="45.33107" lon="-72.6017" />
      <trkpt lat="45.331295" lon="-72.602274" />
      <trkpt lat="45.33152" lon="-72.60285" />
      <trkpt lat="45.33165" lon="-72.60302" />
      <trkpt lat="45.33173" lon="-72.60307" />
      <trkpt lat="45.33192" lon="-72.60311" />
      <trkpt lat="45.33249" lon="-72.603129" />
      <trkpt lat="45.33306" lon="-72.60315" />
      <trkpt lat="45.33317" lon="-72.60316" />
      <trkpt lat="45.33332" lon="-72.6033" />
      <trkpt lat="45.33337" lon="-72.60342" />
      <trkpt lat="45.33347" lon="-72.60445" />
      <trkpt lat="45.33348" lon="-72.6053" />
      <trkpt lat="45.33351" lon="-72.60615" />
      <trkpt lat="45.3336" lon="-72.607159" />
      <trkpt lat="45.33369" lon="-72.60817" />
      <trkpt lat="45.33374" lon="-72.609104" />
      <trkpt lat="45.33379" lon="-72.61004" />
      <trkpt lat="45.33383" lon="-72.61036" />
      <trkpt lat="45.3339" lon="-72.61059" />
      <trkpt lat="45.33345" lon="-72.61063" />
      <trkpt lat="45.33265" lon="-72.61059" />
      <trkpt lat="45.33239" lon="-72.61054" />
      <trkpt lat="45.33232" lon="-72.61053" />
      <trkpt lat="45.33208" lon="-72.61041" />
      <trkpt lat="45.3319" lon="-72.61027" />
      <trkpt lat="45.33156" lon="-72.60979" />
      <trkpt lat="45.33138" lon="-72.60964" />
      <trkpt lat="45.33114" lon="-72.60956" />
      <trkpt lat="45.33052" lon="-72.60951" />
      <trkpt lat="45.33029" lon="-72.60952" />
      <trkpt lat="45.33016" lon="-72.6096" />
      <trkpt lat="45.33005" lon="-72.6097" />
      <trkpt lat="45.3303" lon="-72.61009" />
      <trkpt lat="45.33063" lon="-72.61067" />
      <trkpt lat="45.33098" lon="-72.61143" />
      <trkpt lat="45.33128" lon="-72.61229" />
      <trkpt lat="45.33149" lon="-72.61319" />
      <trkpt lat="45.331623" lon="-72.614099" />
      <trkpt lat="45.331756" lon="-72.615009" />
      <trkpt lat="45.33189" lon="-72.61592" />
      <trkpt lat="45.332055" lon="-72.616989" />
      <trkpt lat="45.33222" lon="-72.61806" />
      <trkpt lat="45.33246" lon="-72.61922" />
      <trkpt lat="45.3328" lon="-72.62034" />
      <trkpt lat="45.333105" lon="-72.621009" />
      <trkpt lat="45.33341" lon="-72.62168" />
      <trkpt lat="45.333881" lon="-72.622608" />
      <trkpt lat="45.334352" lon="-72.623537" />
      <trkpt lat="45.334823" lon="-72.624466" />
      <trkpt lat="45.335295" lon="-72.625394" />
      <trkpt lat="45.335766" lon="-72.626323" />
      <trkpt lat="45.336237" lon="-72.627252" />
      <trkpt lat="45.336708" lon="-72.628181" />
      <trkpt lat="45.33718" lon="-72.62911" />
      <trkpt lat="45.33742" lon="-72.629679" />
      <trkpt lat="45.33766" lon="-72.63025" />
      <trkpt lat="45.33784" lon="-72.630939" />
      <trkpt lat="45.33802" lon="-72.63163" />
      <trkpt lat="45.33816" lon="-72.632839" />
      <trkpt lat="45.3383" lon="-72.63405" />
      <trkpt lat="45.33851" lon="-72.6352" />
      <trkpt lat="45.33861" lon="-72.6357" />
      <trkpt lat="45.33878" lon="-72.63624" />
      <trkpt lat="45.33917" lon="-72.6371" />
      <trkpt lat="45.339674" lon="-72.638063" />
      <trkpt lat="45.340178" lon="-72.639027" />
      <trkpt lat="45.340682" lon="-72.639991" />
      <trkpt lat="45.341186" lon="-72.640955" />
      <trkpt lat="45.34169" lon="-72.64192" />
      <trkpt lat="45.34214" lon="-72.64295" />
      <trkpt lat="45.34249" lon="-72.64407" />
      <trkpt lat="45.34265" lon="-72.645182" />
      <trkpt lat="45.34281" lon="-72.646294" />
      <trkpt lat="45.34297" lon="-72.647407" />
      <trkpt lat="45.34313" lon="-72.64852" />
      <trkpt lat="45.34306" lon="-72.64855" />
      <trkpt lat="45.34295" lon="-72.64855" />
      <trkpt lat="45.34285" lon="-72.64851" />
      <trkpt lat="45.34269" lon="-72.64842" />
      <trkpt lat="45.34247" lon="-72.64846" />
      <trkpt lat="45.34231" lon="-72.64842" />
      <trkpt lat="45.34216" lon="-72.64842" />
      <trkpt lat="45.34205" lon="-72.64845" />
      <trkpt lat="45.34187" lon="-72.64855" />
      <trkpt lat="45.34182" lon="-72.6486" />
      <trkpt lat="45.3418" lon="-72.64899" />
      <trkpt lat="45.34177" lon="-72.64904" />
      <trkpt lat="45.34171" lon="-72.64909" />
      <trkpt lat="45.34139" lon="-72.64913" />
      <trkpt lat="45.34124" lon="-72.64904" />
      <trkpt lat="45.34115" lon="-72.64905" />
      <trkpt lat="45.34097" lon="-72.64901" />
      <trkpt lat="45.34063" lon="-72.64927" />
      <trkpt lat="45.3405" lon="-72.64936" />
      <trkpt lat="45.34041" lon="-72.64935" />
      <trkpt lat="45.34022" lon="-72.64923" />
      <trkpt lat="45.34012" lon="-72.64922" />
      <trkpt lat="45.33986" lon="-72.64931" />
      <trkpt lat="45.33976" lon="-72.64936" />
      <trkpt lat="45.33963" lon="-72.64931" />
      <trkpt lat="45.33942" lon="-72.64931" />
      <trkpt lat="45.33925" lon="-72.64927" />
      <trkpt lat="45.33898" lon="-72.64908" />
      <trkpt lat="45.33893" lon="-72.64909" />
      <trkpt lat="45.3388" lon="-72.64917" />
      <trkpt lat="45.33879" lon="-72.64917" />
      <trkpt lat="45.33867" lon="-72.64922" />
      <trkpt lat="45.33862" lon="-72.64922" />
      <trkpt lat="45.33849" lon="-72.64913" />
      <trkpt lat="45.33839" lon="-72.64913" />
      <trkpt lat="45.33833" lon="-72.64918" />
      <trkpt lat="45.33825" lon="-72.64928" />
      <trkpt lat="45.33818" lon="-72.64931" />
      <trkpt lat="45.33817" lon="-72.64926" />
      <trkpt lat="45.33819" lon="-72.64901" />
      <trkpt lat="45.33811" lon="-72.64899" />
      <trkpt lat="45.33803" lon="-72.64901" />
      <trkpt lat="45.33798" lon="-72.649" />
      <trkpt lat="45.33789" lon="-72.64886" />
      <trkpt lat="45.33782" lon="-72.64882" />
      <trkpt lat="45.33765" lon="-72.64882" />
      <trkpt lat="45.33724" lon="-72.64886" />
      <trkpt lat="45.3371" lon="-72.64885" />
      <trkpt lat="45.33649" lon="-72.64897" />
      <trkpt lat="45.33641" lon="-72.649" />
      <trkpt lat="45.3364" lon="-72.64909" />
      <trkpt lat="45.33656" lon="-72.649714" />
      <trkpt lat="45.33672" lon="-72.65034" />
      <trkpt lat="45.33671" lon="-72.65043" />
      <trkpt lat="45.33665" lon="-72.65049" />
      <trkpt lat="45.33641" lon="-72.65061" />
      <trkpt lat="45.33639" lon="-72.65065" />
      <trkpt lat="45.3365" lon="-72.65115" />
      <trkpt lat="45.33649" lon="-72.6512" />
      <trkpt lat="45.33641" lon="-72.65128" />
      <trkpt lat="45.33603" lon="-72.65137" />
      <trkpt lat="45.3357" lon="-72.65156" />
      <trkpt lat="45.3351" lon="-72.65168" />
      <trkpt lat="45.33506" lon="-72.65172" />
      <trkpt lat="45.33506" lon="-72.65178" />
      <trkpt lat="45.33447" lon="-72.65191" />
      <trkpt lat="45.33438" lon="-72.65182" />
      <trkpt lat="45.33431" lon="-72.65164" />
      <trkpt lat="45.33424" lon="-72.65155" />
      <trkpt lat="45.33388" lon="-72.6512" />
      <trkpt lat="45.3338" lon="-72.65107" />
      <trkpt lat="45.33375" lon="-72.65102" />
      <trkpt lat="45.33369" lon="-72.65101" />
      <trkpt lat="45.33362" lon="-72.65101" />
      <trkpt lat="45.33353" lon="-72.65106" />
      <trkpt lat="45.33348" lon="-72.65105" />
      <trkpt lat="45.33316" lon="-72.65083" />
      <trkpt lat="45.33303" lon="-72.65088" />
      <trkpt lat="45.33287" lon="-72.65101" />
      <trkpt lat="45.33279" lon="-72.65101" />
      <trkpt lat="45.33275" lon="-72.65097" />
      <trkpt lat="45.33265" lon="-72.65083" />
      <trkpt lat="45.33255" lon="-72.64972" />
      <trkpt lat="45.3325" lon="-72.64959" />
      <trkpt lat="45.33243" lon="-72.64954" />
      <trkpt lat="45.33221" lon="-72.64954" />
      <trkpt lat="45.33209" lon="-72.64945" />
      <trkpt lat="45.33197" lon="-72.64944" />
      <trkpt lat="45.33136" lon="-72.6494" />
      <trkpt lat="45.3311" lon="-72.64936" />
      <trkpt lat="45.33067" lon="-72.64932" />
      <trkpt lat="45.33054" lon="-72.6494" />
      <trkpt lat="45.33039" lon="-72.64957" />
      <trkpt lat="45.33034" lon="-72.64958" />
      <trkpt lat="45.33006" lon="-72.64949" />
      <trkpt lat="45.32987" lon="-72.64954" />
      <trkpt lat="45.32977" lon="-72.6495" />
      <trkpt lat="45.32958" lon="-72.64931" />
      <trkpt lat="45.3295" lon="-72.64929" />
      <trkpt lat="45.32939" lon="-72.64928" />
      <trkpt lat="45.32935" lon="-72.64931" />
      <trkpt lat="45.32921" lon="-72.64949" />
      <trkpt lat="45.32902" lon="-72.64958" />
      <trkpt lat="45.3288" lon="-72.64989" />
      <trkpt lat="45.32859" lon="-72.65004" />
      <trkpt lat="45.32817" lon="-72.65057" />
      <trkpt lat="45.32808" lon="-72.65065" />
      <trkpt lat="45.32807" lon="-72.65065" />
      <trkpt lat="45.32784" lon="-72.65065" />
      <trkpt lat="45.32743" lon="-72.65083" />
      <trkpt lat="45.32721" lon="-72.65098" />
      <trkpt lat="45.3269" lon="-72.65137" />
      <trkpt lat="45.32684" lon="-72.65137" />
      <trkpt lat="45.3268" lon="-72.65136" />
      <trkpt lat="45.32654" lon="-72.65106" />
      <trkpt lat="45.32643" lon="-72.65088" />
      <trkpt lat="45.32623" lon="-72.65039" />
      <trkpt lat="45.32613" lon="-72.65025" />
      <trkpt lat="45.32579" lon="-72.64994" />
      <trkpt lat="45.32564" lon="-72.64963" />
      <trkpt lat="45.32551" lon="-72.64949" />
      <trkpt lat="45.32522" lon="-72.64923" />
      <trkpt lat="45.32502" lon="-72.6491" />
      <trkpt lat="45.32482" lon="-72.64891" />
      <trkpt lat="45.32465" lon="-72.64892" />
      <trkpt lat="45.32457" lon="-72.649" />
      <trkpt lat="45.32455" lon="-72.64909" />
      <trkpt lat="45.32454" lon="-72.64944" />
      <trkpt lat="45.3245" lon="-72.64963" />
      <trkpt lat="45.32439" lon="-72.64981" />
      <trkpt lat="45.32432" lon="-72.64985" />
      <trkpt lat="45.32422" lon="-72.6498" />
      <trkpt lat="45.32414" lon="-72.64957" />
      <trkpt lat="45.32408" lon="-72.64949" />
      <trkpt lat="45.32402" lon="-72.64945" />
      <trkpt lat="45.32369" lon="-72.64944" />
      <trkpt lat="45.32361" lon="-72.6494" />
      <trkpt lat="45.32311" lon="-72.6491" />
      <trkpt lat="45.32302" lon="-72.64901" />
      <trkpt lat="45.32285" lon="-72.64867" />
      <trkpt lat="45.32226" lon="-72.64851" />
      <trkpt lat="45.322" lon="-72.64837" />
      <trkpt lat="45.32156" lon="-72.64824" />
      <trkpt lat="45.32138" lon="-72.64807" />
      <trkpt lat="45.32091" lon="-72.64788" />
      <trkpt lat="45.32083" lon="-72.64781" />
      <trkpt lat="45.32073" lon="-72.64785" />
      <trkpt lat="45.32032" lon="-72.64861" />
      <trkpt lat="45.32013" lon="-72.64904" />
      <trkpt lat="45.31995" lon="-72.64954" />
      <trkpt lat="45.31984" lon="-72.64992" />
      <trkpt lat="45.31984" lon="-72.64993" />
      <trkpt lat="45.31965" lon="-72.650635" />
      <trkpt lat="45.31946" lon="-72.65134" />
      <trkpt lat="45.31943" lon="-72.65149" />
      <trkpt lat="45.31925" lon="-72.65145" />
      <trkpt lat="45.31855" lon="-72.65106" />
      <trkpt lat="45.31815" lon="-72.65088" />
      <trkpt lat="45.31808" lon="-72.65092" />
      <trkpt lat="45.31805" lon="-72.65097" />
      <trkpt lat="45.31787" lon="-72.65183" />
    </trkseg>
  </trk>
</gpx>