<?xml version='1.0' encoding='utf-8'?>
<gpx xmlns="http://www.topografix.com/GPX/1/1" xmlns:xsi="http://www.w3.org/2001/XMLSchema-instance" version="1.1" creator="Gravelle Estrie" xsi:schemaLocation="http://www.topografix.com/GPX/1/1 http://www.topografix.com/GPX/1/1/gpx.xsd">
  <metadata>
    <name>Loin d'ici ......</name>
  </metadata>
  <trk>
    <name>Loin d'ici ......</name>
    <trkseg>
      <trkpt lat="45.22233" lon="-72.53265">
        <ele>202.2</ele>
      </trkpt>
      <trkpt lat="45.22235" lon="-72.533">
        <ele>202.1</ele>
      </trkpt>
      <trkpt lat="45.22231" lon="-72.53398">
        <ele>200.6</ele>
      </trkpt>
      <trkpt lat="45.222325" lon="-72.534969">
        <ele>199.8</ele>
      </trkpt>
      <trkpt lat="45.22234" lon="-72.53596">
        <ele>200.2</ele>
      </trkpt>
      <trkpt lat="45.22258" lon="-72.536">
        <ele>200.4</ele>
      </trkpt>
      <trkpt lat="45.2234" lon="-72.53595">
        <ele>202</ele>
      </trkpt>
      <trkpt lat="45.22385" lon="-72.536039">
        <ele>202.1</ele>
      </trkpt>
      <trkpt lat="45.2243" lon="-72.53613">
        <ele>202.4</ele>
      </trkpt>
      <trkpt lat="45.22462" lon="-72.53618">
        <ele>203</ele>
      </trkpt>
      <trkpt lat="45.22511" lon="-72.53617">
        <ele>203.7</ele>
      </trkpt>
      <trkpt lat="45.225863" lon="-72.536063">
        <ele>202.7</ele>
      </trkpt>
      <trkpt lat="45.226616" lon="-72.535956">
        <ele>202.4</ele>
      </trkpt>
      <trkpt lat="45.22737" lon="-72.53585">
        <ele>202.1</ele>
      </trkpt>
      <trkpt lat="45.22817" lon="-72.53579">
        <ele>202</ele>
      </trkpt>
      <trkpt lat="45.22898" lon="-72.53576">
        <ele>201.5</ele>
      </trkpt>
      <trkpt lat="45.22897" lon="-72.53576">
        <ele>201.5</ele>
      </trkpt>
      <trkpt lat="45.229734" lon="-72.53574">
        <ele>200.2</ele>
      </trkpt>
      <trkpt lat="45.2305" lon="-72.53572">
        <ele>200.8</ele>
      </trkpt>
      <trkpt lat="45.23114" lon="-72.53574">
        <ele>201.1</ele>
      </trkpt>
      <trkpt lat="45.231924" lon="-72.535824">
        <ele>203</ele>
      </trkpt>
      <trkpt lat="45.23271" lon="-72.53591">
        <ele>207</ele>
      </trkpt>
      <trkpt lat="45.23286" lon="-72.53591">
        <ele>207.4</ele>
      </trkpt>
      <trkpt lat="45.233364" lon="-72.535775">
        <ele>207.8</ele>
      </trkpt>
      <trkpt lat="45.23387" lon="-72.53564">
        <ele>207.5</ele>
      </trkpt>
      <trkpt lat="45.23444" lon="-72.535575">
        <ele>207.1</ele>
      </trkpt>
      <trkpt lat="45.23501" lon="-72.53551">
        <ele>207.4</ele>
      </trkpt>
      <trkpt lat="45.23528" lon="-72.53554">
        <ele>207.5</ele>
      </trkpt>
      <trkpt lat="45.2356" lon="-72.53563">
        <ele>207.2</ele>
      </trkpt>
      <trkpt lat="45.23574" lon="-72.53569">
        <ele>206.9</ele>
      </trkpt>
      <trkpt lat="45.23592" lon="-72.53582">
        <ele>206.1</ele>
      </trkpt>
      <trkpt lat="45.23643" lon="-72.53641">
        <ele>204.8</ele>
      </trkpt>
      <trkpt lat="45.23701" lon="-72.53716">
        <ele>203.5</ele>
      </trkpt>
      <trkpt lat="45.2374" lon="-72.53772">
        <ele>203.9</ele>
      </trkpt>
      <trkpt lat="45.237845" lon="-72.538334">
        <ele>204.7</ele>
      </trkpt>
      <trkpt lat="45.23829" lon="-72.53895">
        <ele>206.7</ele>
      </trkpt>
      <trkpt lat="45.23878" lon="-72.53955">
        <ele>207.5</ele>
      </trkpt>
      <trkpt lat="45.23912" lon="-72.53989">
        <ele>207.1</ele>
      </trkpt>
      <trkpt lat="45.23941" lon="-72.54014">
        <ele>206.3</ele>
      </trkpt>
      <trkpt lat="45.2397" lon="-72.54034">
        <ele>205.2</ele>
      </trkpt>
      <trkpt lat="45.24008" lon="-72.54074">
        <ele>204.7</ele>
      </trkpt>
      <trkpt lat="45.24025" lon="-72.54102">
        <ele>204.8</ele>
      </trkpt>
      <trkpt lat="45.24069" lon="-72.54213">
        <ele>203.4</ele>
      </trkpt>
      <trkpt lat="45.24092" lon="-72.54278">
        <ele>204.9</ele>
      </trkpt>
      <trkpt lat="45.24126" lon="-72.54396">
        <ele>204.5</ele>
      </trkpt>
      <trkpt lat="45.2413" lon="-72.54419">
        <ele>204.7</ele>
      </trkpt>
      <trkpt lat="45.24131" lon="-72.54437">
        <ele>205.3</ele>
      </trkpt>
      <trkpt lat="45.24128" lon="-72.54482">
        <ele>206.4</ele>
      </trkpt>
      <trkpt lat="45.24129" lon="-72.54513">
        <ele>206.8</ele>
      </trkpt>
      <trkpt lat="45.24137" lon="-72.54536">
        <ele>206.8</ele>
      </trkpt>
      <trkpt lat="45.24187" lon="-72.546164">
        <ele>204.7</ele>
      </trkpt>
      <trkpt lat="45.24237" lon="-72.54697">
        <ele>203.5</ele>
      </trkpt>
      <trkpt lat="45.24282" lon="-72.54782">
        <ele>200.9</ele>
      </trkpt>
      <trkpt lat="45.24297" lon="-72.54812">
        <ele>200.5</ele>
      </trkpt>
      <trkpt lat="45.24338" lon="-72.54903">
        <ele>199.7</ele>
      </trkpt>
      <trkpt lat="45.24353" lon="-72.54956">
        <ele>199.9</ele>
      </trkpt>
      <trkpt lat="45.24382" lon="-72.55041">
        <ele>200.1</ele>
      </trkpt>
      <trkpt lat="45.24408" lon="-72.55086">
        <ele>200.2</ele>
      </trkpt>
      <trkpt lat="45.24415" lon="-72.55103">
        <ele>200.3</ele>
      </trkpt>
      <trkpt lat="45.24418" lon="-72.55153">
        <ele>200.5</ele>
      </trkpt>
      <trkpt lat="45.24414" lon="-72.55272">
        <ele>202.6</ele>
      </trkpt>
      <trkpt lat="45.2441" lon="-72.55391">
        <ele>206.5</ele>
      </trkpt>
      <trkpt lat="45.244605" lon="-72.553944">
        <ele>205</ele>
      </trkpt>
      <trkpt lat="45.24511" lon="-72.55398">
        <ele>202.8</ele>
      </trkpt>
      <trkpt lat="45.24568" lon="-72.55404">
        <ele>200.9</ele>
      </trkpt>
      <trkpt lat="45.24598" lon="-72.55404">
        <ele>200.2</ele>
      </trkpt>
      <trkpt lat="45.24613" lon="-72.55404">
        <ele>200</ele>
      </trkpt>
      <trkpt lat="45.24641" lon="-72.55395">
        <ele>200</ele>
      </trkpt>
      <trkpt lat="45.24659" lon="-72.55382">
        <ele>200.2</ele>
      </trkpt>
      <trkpt lat="45.247323" lon="-72.554306">
        <ele>201.3</ele>
      </trkpt>
      <trkpt lat="45.248056" lon="-72.554793">
        <ele>200</ele>
      </trkpt>
      <trkpt lat="45.24879" lon="-72.55528">
        <ele>200.4</ele>
      </trkpt>
      <trkpt lat="45.24942" lon="-72.55564">
        <ele>200.3</ele>
      </trkpt>
      <trkpt lat="45.24965" lon="-72.55565">
        <ele>200.5</ele>
      </trkpt>
      <trkpt lat="45.250355" lon="-72.555647">
        <ele>201.9</ele>
      </trkpt>
      <trkpt lat="45.25106" lon="-72.555645">
        <ele>203.1</ele>
      </trkpt>
      <trkpt lat="45.251765" lon="-72.555642">
        <ele>203.4</ele>
      </trkpt>
      <trkpt lat="45.25247" lon="-72.55564">
        <ele>204.7</ele>
      </trkpt>
      <trkpt lat="45.253338" lon="-72.5556">
        <ele>207.7</ele>
      </trkpt>
      <trkpt lat="45.254207" lon="-72.55556">
        <ele>206.9</ele>
      </trkpt>
      <trkpt lat="45.255075" lon="-72.55552">
        <ele>207.4</ele>
      </trkpt>
      <trkpt lat="45.255944" lon="-72.55548">
        <ele>207.7</ele>
      </trkpt>
      <trkpt lat="45.256812" lon="-72.55544">
        <ele>210</ele>
      </trkpt>
      <trkpt lat="45.257681" lon="-72.5554">
        <ele>213.7</ele>
      </trkpt>
      <trkpt lat="45.25855" lon="-72.55536">
        <ele>218.2</ele>
      </trkpt>
      <trkpt lat="45.25854" lon="-72.55536">
        <ele>218.2</ele>
      </trkpt>
      <trkpt lat="45.25924" lon="-72.555325">
        <ele>221</ele>
      </trkpt>
      <trkpt lat="45.25994" lon="-72.55529">
        <ele>221.9</ele>
      </trkpt>
      <trkpt lat="45.26006" lon="-72.55535">
        <ele>222.1</ele>
      </trkpt>
      <trkpt lat="45.26011" lon="-72.55556">
        <ele>222.1</ele>
      </trkpt>
      <trkpt lat="45.26012" lon="-72.55596">
        <ele>222.3</ele>
      </trkpt>
      <trkpt lat="45.26007" lon="-72.557181">
        <ele>222.6</ele>
      </trkpt>
      <trkpt lat="45.26002" lon="-72.558402">
        <ele>222.9</ele>
      </trkpt>
      <trkpt lat="45.25997" lon="-72.559624">
        <ele>221.4</ele>
      </trkpt>
      <trkpt lat="45.25992" lon="-72.560845">
        <ele>219.8</ele>
      </trkpt>
      <trkpt lat="45.25987" lon="-72.562067">
        <ele>214</ele>
      </trkpt>
      <trkpt lat="45.25982" lon="-72.563288">
        <ele>210.4</ele>
      </trkpt>
      <trkpt lat="45.25977" lon="-72.56451">
        <ele>208.1</ele>
      </trkpt>
      <trkpt lat="45.259733" lon="-72.565623">
        <ele>205.1</ele>
      </trkpt>
      <trkpt lat="45.259696" lon="-72.566736">
        <ele>202.6</ele>
      </trkpt>
      <trkpt lat="45.25966" lon="-72.56785">
        <ele>201.8</ele>
      </trkpt>
      <trkpt lat="45.259623" lon="-72.568963">
        <ele>200.7</ele>
      </trkpt>
      <trkpt lat="45.259586" lon="-72.570076">
        <ele>200.7</ele>
      </trkpt>
      <trkpt lat="45.25955" lon="-72.57119">
        <ele>201.8</ele>
      </trkpt>
      <trkpt lat="45.25955" lon="-72.5712">
        <ele>201.8</ele>
      </trkpt>
      <trkpt lat="45.259515" lon="-72.572215">
        <ele>201.6</ele>
      </trkpt>
      <trkpt lat="45.25948" lon="-72.57323">
        <ele>202</ele>
      </trkpt>
      <trkpt lat="45.259445" lon="-72.574245">
        <ele>203</ele>
      </trkpt>
      <trkpt lat="45.25941" lon="-72.57526">
        <ele>204.1</ele>
      </trkpt>
      <trkpt lat="45.25935" lon="-72.57598">
        <ele>204.7</ele>
      </trkpt>
      <trkpt lat="45.25944" lon="-72.57625">
        <ele>204.9</ele>
      </trkpt>
      <trkpt lat="45.25962" lon="-72.57647">
        <ele>204.8</ele>
      </trkpt>
      <trkpt lat="45.260479" lon="-72.576455">
        <ele>203.8</ele>
      </trkpt>
      <trkpt lat="45.26134" lon="-72.57644">
        <ele>203.1</ele>
      </trkpt>
      <trkpt lat="45.262152" lon="-72.576433">
        <ele>202.7</ele>
      </trkpt>
      <trkpt lat="45.262964" lon="-72.576426">
        <ele>202.1</ele>
      </trkpt>
      <trkpt lat="45.263776" lon="-72.576419">
        <ele>203.3</ele>
      </trkpt>
      <trkpt lat="45.264588" lon="-72.576412">
        <ele>202.4</ele>
      </trkpt>
      <trkpt lat="45.2654" lon="-72.576405">
        <ele>201.2</ele>
      </trkpt>
      <trkpt lat="45.266212" lon="-72.576398">
        <ele>198.9</ele>
      </trkpt>
      <trkpt lat="45.267024" lon="-72.576391">
        <ele>198.3</ele>
      </trkpt>
      <trkpt lat="45.267836" lon="-72.576384">
        <ele>197.6</ele>
      </trkpt>
      <trkpt lat="45.268647" lon="-72.576377">
        <ele>197.9</ele>
      </trkpt>
      <trkpt lat="45.26946" lon="-72.57637">
        <ele>199.8</ele>
      </trkpt>
      <trkpt lat="45.270303" lon="-72.57637">
        <ele>199.5</ele>
      </trkpt>
      <trkpt lat="45.271146" lon="-72.57637">
        <ele>200.4</ele>
      </trkpt>
      <trkpt lat="45.27199" lon="-72.57637">
        <ele>201.6</ele>
      </trkpt>
      <trkpt lat="45.272744" lon="-72.57633">
        <ele>202.8</ele>
      </trkpt>
      <trkpt lat="45.2735" lon="-72.57629">
        <ele>206</ele>
      </trkpt>
      <trkpt lat="45.274348" lon="-72.576256">
        <ele>206.1</ele>
      </trkpt>
      <trkpt lat="45.275196" lon="-72.576222">
        <ele>208.7</ele>
      </trkpt>
      <trkpt lat="45.276044" lon="-72.576188">
        <ele>207.6</ele>
      </trkpt>
      <trkpt lat="45.276892" lon="-72.576154">
        <ele>206.8</ele>
      </trkpt>
      <trkpt lat="45.27774" lon="-72.57612">
        <ele>205.4</ele>
      </trkpt>
      <trkpt lat="45.278588" lon="-72.576086">
        <ele>204.5</ele>
      </trkpt>
      <trkpt lat="45.279436" lon="-72.576052">
        <ele>202.9</ele>
      </trkpt>
      <trkpt lat="45.280284" lon="-72.576018">
        <ele>203.3</ele>
      </trkpt>
      <trkpt lat="45.281132" lon="-72.575984">
        <ele>202.2</ele>
      </trkpt>
      <trkpt lat="45.28198" lon="-72.57595">
        <ele>201.4</ele>
      </trkpt>
      <trkpt lat="45.282826" lon="-72.57592">
        <ele>200.7</ele>
      </trkpt>
      <trkpt lat="45.283671" lon="-72.57589">
        <ele>199.3</ele>
      </trkpt>
      <trkpt lat="45.284517" lon="-72.57586">
        <ele>197.4</ele>
      </trkpt>
      <trkpt lat="45.285363" lon="-72.57583">
        <ele>194.1</ele>
      </trkpt>
      <trkpt lat="45.28621" lon="-72.5758">
        <ele>189.9</ele>
      </trkpt>
      <trkpt lat="45.287102" lon="-72.575742">
        <ele>186.7</ele>
      </trkpt>
      <trkpt lat="45.287995" lon="-72.575685">
        <ele>184.6</ele>
      </trkpt>
      <trkpt lat="45.288887" lon="-72.575627">
        <ele>185</ele>
      </trkpt>
      <trkpt lat="45.28978" lon="-72.57557">
        <ele>183.9</ele>
      </trkpt>
      <trkpt lat="45.28977" lon="-72.57557">
        <ele>183.9</ele>
      </trkpt>
      <trkpt lat="45.290354" lon="-72.57553">
        <ele>183.4</ele>
      </trkpt>
      <trkpt lat="45.29094" lon="-72.57549">
        <ele>184.5</ele>
      </trkpt>
      <trkpt lat="45.29094" lon="-72.5744">
        <ele>186.6</ele>
      </trkpt>
      <trkpt lat="45.29099" lon="-72.573273">
        <ele>186.7</ele>
      </trkpt>
      <trkpt lat="45.29104" lon="-72.572146">
        <ele>186.4</ele>
      </trkpt>
      <trkpt lat="45.29109" lon="-72.57102">
        <ele>184.1</ele>
      </trkpt>
      <trkpt lat="45.29113" lon="-72.569772">
        <ele>182</ele>
      </trkpt>
      <trkpt lat="45.29117" lon="-72.568524">
        <ele>181.6</ele>
      </trkpt>
      <trkpt lat="45.29121" lon="-72.567276">
        <ele>181.8</ele>
      </trkpt>
      <trkpt lat="45.29125" lon="-72.566028">
        <ele>183.2</ele>
      </trkpt>
      <trkpt lat="45.29129" lon="-72.564781">
        <ele>183.5</ele>
      </trkpt>
      <trkpt lat="45.29133" lon="-72.563533">
        <ele>184.7</ele>
      </trkpt>
      <trkpt lat="45.29137" lon="-72.562285">
        <ele>186.1</ele>
      </trkpt>
      <trkpt lat="45.29141" lon="-72.561037">
        <ele>187.9</ele>
      </trkpt>
      <trkpt lat="45.29145" lon="-72.55979">
        <ele>189.4</ele>
      </trkpt>
      <trkpt lat="45.29145" lon="-72.5598">
        <ele>189.4</ele>
      </trkpt>
      <trkpt lat="45.29148" lon="-72.5589">
        <ele>186.8</ele>
      </trkpt>
      <trkpt lat="45.29151" lon="-72.558">
        <ele>185</ele>
      </trkpt>
      <trkpt lat="45.29236" lon="-72.558031">
        <ele>177.4</ele>
      </trkpt>
      <trkpt lat="45.29321" lon="-72.558063">
        <ele>174.9</ele>
      </trkpt>
      <trkpt lat="45.29406" lon="-72.558094">
        <ele>172.3</ele>
      </trkpt>
      <trkpt lat="45.29491" lon="-72.558126">
        <ele>170.4</ele>
      </trkpt>
      <trkpt lat="45.29576" lon="-72.558158">
        <ele>169.7</ele>
      </trkpt>
      <trkpt lat="45.29661" lon="-72.55819">
        <ele>167.2</ele>
      </trkpt>
      <trkpt lat="45.29704" lon="-72.5582">
        <ele>166.9</ele>
      </trkpt>
      <trkpt lat="45.29715" lon="-72.55815">
        <ele>166.9</ele>
      </trkpt>
      <trkpt lat="45.29735" lon="-72.55781">
        <ele>167</ele>
      </trkpt>
      <trkpt lat="45.297805" lon="-72.55713">
        <ele>169</ele>
      </trkpt>
      <trkpt lat="45.29826" lon="-72.55645">
        <ele>173.7</ele>
      </trkpt>
      <trkpt lat="45.29844" lon="-72.5561">
        <ele>173.3</ele>
      </trkpt>
      <trkpt lat="45.29856" lon="-72.5557">
        <ele>172</ele>
      </trkpt>
      <trkpt lat="45.29873" lon="-72.5549">
        <ele>171.7</ele>
      </trkpt>
      <trkpt lat="45.29884" lon="-72.55453">
        <ele>172</ele>
      </trkpt>
      <trkpt lat="45.29897" lon="-72.55417">
        <ele>173.3</ele>
      </trkpt>
      <trkpt lat="45.29908" lon="-72.55399">
        <ele>175.1</ele>
      </trkpt>
      <trkpt lat="45.2992" lon="-72.55386">
        <ele>176.6</ele>
      </trkpt>
      <trkpt lat="45.29947" lon="-72.55374">
        <ele>179.2</ele>
      </trkpt>
      <trkpt lat="45.300212" lon="-72.5537">
        <ele>186.9</ele>
      </trkpt>
      <trkpt lat="45.300954" lon="-72.55366">
        <ele>194.2</ele>
      </trkpt>
      <trkpt lat="45.301696" lon="-72.55362">
        <ele>203.6</ele>
      </trkpt>
      <trkpt lat="45.302438" lon="-72.55358">
        <ele>209.4</ele>
      </trkpt>
      <trkpt lat="45.30318" lon="-72.55354">
        <ele>214</ele>
      </trkpt>
      <trkpt lat="45.30317" lon="-72.55354">
        <ele>214</ele>
      </trkpt>
      <trkpt lat="45.304001" lon="-72.553526">
        <ele>215.9</ele>
      </trkpt>
      <trkpt lat="45.304833" lon="-72.553512">
        <ele>214.7</ele>
      </trkpt>
      <trkpt lat="45.305665" lon="-72.553498">
        <ele>214.9</ele>
      </trkpt>
      <trkpt lat="45.306497" lon="-72.553484">
        <ele>218.8</ele>
      </trkpt>
      <trkpt lat="45.30733" lon="-72.55347">
        <ele>225.4</ele>
      </trkpt>
      <trkpt lat="45.30734" lon="-72.552218">
        <ele>226</ele>
      </trkpt>
      <trkpt lat="45.30735" lon="-72.550966">
        <ele>225.9</ele>
      </trkpt>
      <trkpt lat="45.30736" lon="-72.549714">
        <ele>226.4</ele>
      </trkpt>
      <trkpt lat="45.30737" lon="-72.548462">
        <ele>227.8</ele>
      </trkpt>
      <trkpt lat="45.30738" lon="-72.54721">
        <ele>228.1</ele>
      </trkpt>
      <trkpt lat="45.30739" lon="-72.545958">
        <ele>228.6</ele>
      </trkpt>
      <trkpt lat="45.3074" lon="-72.544706">
        <ele>228.6</ele>
      </trkpt>
      <trkpt lat="45.30741" lon="-72.543454">
        <ele>230.4</ele>
      </trkpt>
      <trkpt lat="45.30742" lon="-72.542202">
        <ele>230.6</ele>
      </trkpt>
      <trkpt lat="45.30743" lon="-72.54095">
        <ele>231.3</ele>
      </trkpt>
      <trkpt lat="45.307438" lon="-72.539792">
        <ele>230.6</ele>
      </trkpt>
      <trkpt lat="45.307446" lon="-72.538634">
        <ele>228</ele>
      </trkpt>
      <trkpt lat="45.307454" lon="-72.537476">
        <ele>226.4</ele>
      </trkpt>
      <trkpt lat="45.307462" lon="-72.536318">
        <ele>227.5</ele>
      </trkpt>
      <trkpt lat="45.30747" lon="-72.53516">
        <ele>230</ele>
      </trkpt>
      <trkpt lat="45.307475" lon="-72.53407">
        <ele>228</ele>
      </trkpt>
      <trkpt lat="45.30748" lon="-72.53298">
        <ele>226.9</ele>
      </trkpt>
      <trkpt lat="45.307485" lon="-72.53189">
        <ele>227.2</ele>
      </trkpt>
      <trkpt lat="45.30749" lon="-72.5308">
        <ele>226.4</ele>
      </trkpt>
      <trkpt lat="45.307495" lon="-72.52971">
        <ele>224.5</ele>
      </trkpt>
      <trkpt lat="45.3075" lon="-72.52862">
        <ele>224.9</ele>
      </trkpt>
      <trkpt lat="45.30749" lon="-72.52736">
        <ele>222.8</ele>
      </trkpt>
      <trkpt lat="45.30753" lon="-72.52695">
        <ele>220.4</ele>
      </trkpt>
      <trkpt lat="45.30777" lon="-72.525945">
        <ele>212.3</ele>
      </trkpt>
      <trkpt lat="45.30801" lon="-72.52494">
        <ele>208</ele>
      </trkpt>
      <trkpt lat="45.30816" lon="-72.52382">
        <ele>211.9</ele>
      </trkpt>
      <trkpt lat="45.30825" lon="-72.52325">
        <ele>213.9</ele>
      </trkpt>
      <trkpt lat="45.308492" lon="-72.522102">
        <ele>216.3</ele>
      </trkpt>
      <trkpt lat="45.308735" lon="-72.520955">
        <ele>220.4</ele>
      </trkpt>
      <trkpt lat="45.308977" lon="-72.519807">
        <ele>223.3</ele>
      </trkpt>
      <trkpt lat="45.30922" lon="-72.51866">
        <ele>225.6</ele>
      </trkpt>
      <trkpt lat="45.30922" lon="-72.51867">
        <ele>225.6</ele>
      </trkpt>
      <trkpt lat="45.30933" lon="-72.51813">
        <ele>226.7</ele>
      </trkpt>
      <trkpt lat="45.30939" lon="-72.51764">
        <ele>226.9</ele>
      </trkpt>
      <trkpt lat="45.309483" lon="-72.51654">
        <ele>228.2</ele>
      </trkpt>
      <trkpt lat="45.309576" lon="-72.51544">
        <ele>229.9</ele>
      </trkpt>
      <trkpt lat="45.30967" lon="-72.51434">
        <ele>230.9</ele>
      </trkpt>
      <trkpt lat="45.30969" lon="-72.51374">
        <ele>229.8</ele>
      </trkpt>
      <trkpt lat="45.30963" lon="-72.512879">
        <ele>226.6</ele>
      </trkpt>
      <trkpt lat="45.30957" lon="-72.51202">
        <ele>226.1</ele>
      </trkpt>
      <trkpt lat="45.30937" lon="-72.51111">
        <ele>229.3</ele>
      </trkpt>
      <trkpt lat="45.30923" lon="-72.51066">
        <ele>230.2</ele>
      </trkpt>
      <trkpt lat="45.30877" lon="-72.509699">
        <ele>224.8</ele>
      </trkpt>
      <trkpt lat="45.30831" lon="-72.50874">
        <ele>222.7</ele>
      </trkpt>
      <trkpt lat="45.30807" lon="-72.508199">
        <ele>223.8</ele>
      </trkpt>
      <trkpt lat="45.30783" lon="-72.50766">
        <ele>226</ele>
      </trkpt>
      <trkpt lat="45.30765" lon="-72.50708">
        <ele>227.2</ele>
      </trkpt>
      <trkpt lat="45.30758" lon="-72.50672">
        <ele>226.9</ele>
      </trkpt>
      <trkpt lat="45.30754" lon="-72.50637">
        <ele>225.9</ele>
      </trkpt>
      <trkpt lat="45.307553" lon="-72.50544">
        <ele>223.5</ele>
      </trkpt>
      <trkpt lat="45.307566" lon="-72.50451">
        <ele>222.6</ele>
      </trkpt>
      <trkpt lat="45.30758" lon="-72.50358">
        <ele>223.7</ele>
      </trkpt>
      <trkpt lat="45.307575" lon="-72.502369">
        <ele>223.5</ele>
      </trkpt>
      <trkpt lat="45.30757" lon="-72.50116">
        <ele>223</ele>
      </trkpt>
      <trkpt lat="45.30757" lon="-72.500195">
        <ele>220.4</ele>
      </trkpt>
      <trkpt lat="45.30757" lon="-72.49923">
        <ele>221</ele>
      </trkpt>
      <trkpt lat="45.30793" lon="-72.49933">
        <ele>221.3</ele>
      </trkpt>
      <trkpt lat="45.30815" lon="-72.49937">
        <ele>222.5</ele>
      </trkpt>
      <trkpt lat="45.30885" lon="-72.49937">
        <ele>224</ele>
      </trkpt>
      <trkpt lat="45.3087" lon="-72.4989">
        <ele>224.4</ele>
      </trkpt>
      <trkpt lat="45.308435" lon="-72.497957">
        <ele>225.5</ele>
      </trkpt>
      <trkpt lat="45.30817" lon="-72.497014">
        <ele>226.8</ele>
      </trkpt>
      <trkpt lat="45.307905" lon="-72.496072">
        <ele>230.7</ele>
      </trkpt>
      <trkpt lat="45.30764" lon="-72.49513">
        <ele>235.8</ele>
      </trkpt>
      <trkpt lat="45.30759" lon="-72.49476">
        <ele>236.5</ele>
      </trkpt>
      <trkpt lat="45.30756" lon="-72.49438">
        <ele>240.7</ele>
      </trkpt>
      <trkpt lat="45.307555" lon="-72.493177">
        <ele>247.3</ele>
      </trkpt>
      <trkpt lat="45.30755" lon="-72.491974">
        <ele>251.4</ele>
      </trkpt>
      <trkpt lat="45.307545" lon="-72.490772">
        <ele>254.7</ele>
      </trkpt>
      <trkpt lat="45.30754" lon="-72.48957">
        <ele>261.2</ele>
      </trkpt>
      <trkpt lat="45.30752" lon="-72.48938">
        <ele>261.2</ele>
      </trkpt>
      <trkpt lat="45.30745" lon="-72.48901">
        <ele>262.6</ele>
      </trkpt>
      <trkpt lat="45.30725" lon="-72.488214">
        <ele>264.8</ele>
      </trkpt>
      <trkpt lat="45.30705" lon="-72.48742">
        <ele>266.8</ele>
      </trkpt>
      <trkpt lat="45.3069" lon="-72.4871">
        <ele>267.1</ele>
      </trkpt>
      <trkpt lat="45.3068" lon="-72.48702">
        <ele>267.3</ele>
      </trkpt>
      <trkpt lat="45.306096" lon="-72.487306">
        <ele>265.3</ele>
      </trkpt>
      <trkpt lat="45.305392" lon="-72.487592">
        <ele>262.2</ele>
      </trkpt>
      <trkpt lat="45.304688" lon="-72.487878">
        <ele>259.6</ele>
      </trkpt>
      <trkpt lat="45.303984" lon="-72.488164">
        <ele>257.8</ele>
      </trkpt>
      <trkpt lat="45.30328" lon="-72.48845">
        <ele>252.7</ele>
      </trkpt>
      <trkpt lat="45.30305" lon="-72.48859">
        <ele>251.4</ele>
      </trkpt>
      <trkpt lat="45.302416" lon="-72.489216">
        <ele>248.5</ele>
      </trkpt>
      <trkpt lat="45.301782" lon="-72.489842">
        <ele>246.5</ele>
      </trkpt>
      <trkpt lat="45.301148" lon="-72.490468">
        <ele>244.6</ele>
      </trkpt>
      <trkpt lat="45.300514" lon="-72.491094">
        <ele>241.9</ele>
      </trkpt>
      <trkpt lat="45.29988" lon="-72.49172">
        <ele>237.9</ele>
      </trkpt>
      <trkpt lat="45.29951" lon="-72.49211">
        <ele>235.4</ele>
      </trkpt>
      <trkpt lat="45.2995" lon="-72.49211">
        <ele>235.4</ele>
      </trkpt>
      <trkpt lat="45.29895" lon="-72.492682">
        <ele>232.1</ele>
      </trkpt>
      <trkpt lat="45.2984" lon="-72.493255">
        <ele>229.5</ele>
      </trkpt>
      <trkpt lat="45.29785" lon="-72.493827">
        <ele>227.1</ele>
      </trkpt>
      <trkpt lat="45.2973" lon="-72.4944">
        <ele>223.3</ele>
      </trkpt>
      <trkpt lat="45.29708" lon="-72.49456">
        <ele>223.4</ele>
      </trkpt>
      <trkpt lat="45.297043" lon="-72.493643">
        <ele>226.4</ele>
      </trkpt>
      <trkpt lat="45.297006" lon="-72.492726">
        <ele>230.1</ele>
      </trkpt>
      <trkpt lat="45.29697" lon="-72.49181">
        <ele>233.2</ele>
      </trkpt>
      <trkpt lat="45.296956" lon="-72.490933">
        <ele>236.5</ele>
      </trkpt>
      <trkpt lat="45.296943" lon="-72.490056">
        <ele>239.5</ele>
      </trkpt>
      <trkpt lat="45.29693" lon="-72.48918">
        <ele>243.4</ele>
      </trkpt>
      <trkpt lat="45.296945" lon="-72.48792">
        <ele>243.6</ele>
      </trkpt>
      <trkpt lat="45.29696" lon="-72.48666">
        <ele>244.4</ele>
      </trkpt>
      <trkpt lat="45.296975" lon="-72.4854">
        <ele>244.9</ele>
      </trkpt>
      <trkpt lat="45.29699" lon="-72.48414">
        <ele>244.9</ele>
      </trkpt>
      <trkpt lat="45.29697" lon="-72.48305">
        <ele>245.3</ele>
      </trkpt>
      <trkpt lat="45.29696" lon="-72.481944">
        <ele>246.6</ele>
      </trkpt>
      <trkpt lat="45.29695" lon="-72.48084">
        <ele>248.3</ele>
      </trkpt>
      <trkpt lat="45.29695" lon="-72.479829">
        <ele>248.7</ele>
      </trkpt>
      <trkpt lat="45.29695" lon="-72.47882">
        <ele>247.4</ele>
      </trkpt>
      <trkpt lat="45.29705" lon="-72.47824">
        <ele>247.6</ele>
      </trkpt>
      <trkpt lat="45.29735" lon="-72.477076">
        <ele>248.5</ele>
      </trkpt>
      <trkpt lat="45.29765" lon="-72.475912">
        <ele>248.8</ele>
      </trkpt>
      <trkpt lat="45.29795" lon="-72.474748">
        <ele>250.8</ele>
      </trkpt>
      <trkpt lat="45.29825" lon="-72.473584">
        <ele>254.7</ele>
      </trkpt>
      <trkpt lat="45.29855" lon="-72.47242">
        <ele>256.3</ele>
      </trkpt>
      <trkpt lat="45.297962" lon="-72.471814">
        <ele>255.7</ele>
      </trkpt>
      <trkpt lat="45.297375" lon="-72.471209">
        <ele>255.2</ele>
      </trkpt>
      <trkpt lat="45.296787" lon="-72.470604">
        <ele>254</ele>
      </trkpt>
      <trkpt lat="45.2962" lon="-72.47">
        <ele>253.1</ele>
      </trkpt>
      <trkpt lat="45.295494" lon="-72.469285">
        <ele>251.7</ele>
      </trkpt>
      <trkpt lat="45.294788" lon="-72.468571">
        <ele>250.1</ele>
      </trkpt>
      <trkpt lat="45.294082" lon="-72.467857">
        <ele>249.4</ele>
      </trkpt>
      <trkpt lat="45.293376" lon="-72.467143">
        <ele>246.5</ele>
      </trkpt>
      <trkpt lat="45.29267" lon="-72.46643">
        <ele>243.6</ele>
      </trkpt>
      <trkpt lat="45.29238" lon="-72.46612">
        <ele>241.3</ele>
      </trkpt>
      <trkpt lat="45.29184" lon="-72.465604">
        <ele>239.6</ele>
      </trkpt>
      <trkpt lat="45.2913" lon="-72.46509">
        <ele>237.5</ele>
      </trkpt>
      <trkpt lat="45.290646" lon="-72.464503">
        <ele>235.9</ele>
      </trkpt>
      <trkpt lat="45.289993" lon="-72.463916">
        <ele>232.9</ele>
      </trkpt>
      <trkpt lat="45.28934" lon="-72.46333">
        <ele>228.4</ele>
      </trkpt>
      <trkpt lat="45.28865" lon="-72.46279">
        <ele>225.6</ele>
      </trkpt>
      <trkpt lat="45.28853" lon="-72.46267">
        <ele>225.4</ele>
      </trkpt>
      <trkpt lat="45.287857" lon="-72.462104">
        <ele>220.9</ele>
      </trkpt>
      <trkpt lat="45.287185" lon="-72.461539">
        <ele>217.4</ele>
      </trkpt>
      <trkpt lat="45.286512" lon="-72.460974">
        <ele>218.8</ele>
      </trkpt>
      <trkpt lat="45.28584" lon="-72.46041">
        <ele>216.7</ele>
      </trkpt>
      <trkpt lat="45.28552" lon="-72.46014">
        <ele>216.2</ele>
      </trkpt>
      <trkpt lat="45.28489" lon="-72.45968">
        <ele>216</ele>
      </trkpt>
      <trkpt lat="45.284103" lon="-72.459103">
        <ele>215.6</ele>
      </trkpt>
      <trkpt lat="45.283316" lon="-72.458526">
        <ele>215.3</ele>
      </trkpt>
      <trkpt lat="45.28253" lon="-72.45795">
        <ele>216.7</ele>
      </trkpt>
      <trkpt lat="45.2817" lon="-72.45828">
        <ele>217.1</ele>
      </trkpt>
      <trkpt lat="45.280905" lon="-72.45864">
        <ele>218.6</ele>
      </trkpt>
      <trkpt lat="45.28011" lon="-72.459">
        <ele>220.6</ele>
      </trkpt>
      <trkpt lat="45.27926" lon="-72.459336">
        <ele>226.7</ele>
      </trkpt>
      <trkpt lat="45.27841" lon="-72.459673">
        <ele>227.5</ele>
      </trkpt>
      <trkpt lat="45.27756" lon="-72.46001">
        <ele>231.2</ele>
      </trkpt>
      <trkpt lat="45.27756" lon="-72.46002">
        <ele>231.2</ele>
      </trkpt>
      <trkpt lat="45.276794" lon="-72.460324">
        <ele>233.8</ele>
      </trkpt>
      <trkpt lat="45.276028" lon="-72.460628">
        <ele>233</ele>
      </trkpt>
      <trkpt lat="45.275262" lon="-72.460932">
        <ele>233.2</ele>
      </trkpt>
      <trkpt lat="45.274496" lon="-72.461236">
        <ele>233.8</ele>
      </trkpt>
      <trkpt lat="45.27373" lon="-72.46154">
        <ele>233.5</ele>
      </trkpt>
      <trkpt lat="45.272881" lon="-72.461891">
        <ele>232.4</ele>
      </trkpt>
      <trkpt lat="45.272033" lon="-72.462243">
        <ele>232.3</ele>
      </trkpt>
      <trkpt lat="45.271185" lon="-72.462595">
        <ele>231.3</ele>
      </trkpt>
      <trkpt lat="45.270336" lon="-72.462946">
        <ele>229.5</ele>
      </trkpt>
      <trkpt lat="45.269488" lon="-72.463298">
        <ele>229.4</ele>
      </trkpt>
      <trkpt lat="45.26864" lon="-72.46365">
        <ele>226</ele>
      </trkpt>
      <trkpt lat="45.268046" lon="-72.46387">
        <ele>228.7</ele>
      </trkpt>
      <trkpt lat="45.267453" lon="-72.46409">
        <ele>234</ele>
      </trkpt>
      <trkpt lat="45.26686" lon="-72.46431">
        <ele>235.3</ele>
      </trkpt>
      <trkpt lat="45.26616" lon="-72.464535">
        <ele>237.8</ele>
      </trkpt>
      <trkpt lat="45.26546" lon="-72.46476">
        <ele>238</ele>
      </trkpt>
      <trkpt lat="45.26476" lon="-72.465005">
        <ele>238.4</ele>
      </trkpt>
      <trkpt lat="45.26406" lon="-72.46525">
        <ele>238.7</ele>
      </trkpt>
      <trkpt lat="45.26371" lon="-72.46543">
        <ele>237.1</ele>
      </trkpt>
      <trkpt lat="45.26319" lon="-72.46586">
        <ele>233.6</ele>
      </trkpt>
      <trkpt lat="45.26267" lon="-72.46629">
        <ele>229.9</ele>
      </trkpt>
      <trkpt lat="45.26232" lon="-72.46655">
        <ele>229.6</ele>
      </trkpt>
      <trkpt lat="45.26192" lon="-72.46669">
        <ele>230.1</ele>
      </trkpt>
      <trkpt lat="45.26112" lon="-72.46687">
        <ele>226.2</ele>
      </trkpt>
      <trkpt lat="45.260519" lon="-72.466965">
        <ele>225.1</ele>
      </trkpt>
      <trkpt lat="45.25992" lon="-72.46706">
        <ele>223.6</ele>
      </trkpt>
      <trkpt lat="45.25945" lon="-72.46712">
        <ele>222.6</ele>
      </trkpt>
      <trkpt lat="45.25898" lon="-72.46718">
        <ele>220.8</ele>
      </trkpt>
      <trkpt lat="45.25824" lon="-72.46724">
        <ele>217.6</ele>
      </trkpt>
      <trkpt lat="45.25781" lon="-72.46723">
        <ele>217.5</ele>
      </trkpt>
      <trkpt lat="45.257199" lon="-72.467134">
        <ele>219.6</ele>
      </trkpt>
      <trkpt lat="45.25659" lon="-72.46704">
        <ele>220.5</ele>
      </trkpt>
      <trkpt lat="45.25638" lon="-72.46705">
        <ele>220.5</ele>
      </trkpt>
      <trkpt lat="45.25623" lon="-72.4671">
        <ele>220.5</ele>
      </trkpt>
      <trkpt lat="45.25606" lon="-72.46722">
        <ele>220.3</ele>
      </trkpt>
      <trkpt lat="45.25588" lon="-72.46745">
        <ele>220.3</ele>
      </trkpt>
      <trkpt lat="45.25575" lon="-72.46771">
        <ele>220.2</ele>
      </trkpt>
      <trkpt lat="45.255255" lon="-72.467264">
        <ele>221.4</ele>
      </trkpt>
      <trkpt lat="45.25476" lon="-72.46682">
        <ele>225.2</ele>
      </trkpt>
      <trkpt lat="45.2546" lon="-72.46669">
        <ele>227.1</ele>
      </trkpt>
      <trkpt lat="45.25443" lon="-72.46661">
        <ele>227.1</ele>
      </trkpt>
      <trkpt lat="45.25368" lon="-72.466444">
        <ele>233.6</ele>
      </trkpt>
      <trkpt lat="45.25293" lon="-72.46628">
        <ele>234.8</ele>
      </trkpt>
      <trkpt lat="45.252197" lon="-72.465912">
        <ele>232.9</ele>
      </trkpt>
      <trkpt lat="45.251465" lon="-72.465544">
        <ele>226.8</ele>
      </trkpt>
      <trkpt lat="45.250732" lon="-72.465177">
        <ele>219.9</ele>
      </trkpt>
      <trkpt lat="45.25" lon="-72.46481">
        <ele>219.4</ele>
      </trkpt>
      <trkpt lat="45.24939" lon="-72.464519">
        <ele>217.4</ele>
      </trkpt>
      <trkpt lat="45.24878" lon="-72.46423">
        <ele>216.7</ele>
      </trkpt>
      <trkpt lat="45.24808" lon="-72.46388">
        <ele>217.8</ele>
      </trkpt>
      <trkpt lat="45.24808" lon="-72.46387">
        <ele>217.8</ele>
      </trkpt>
      <trkpt lat="45.247371" lon="-72.463511">
        <ele>220.2</ele>
      </trkpt>
      <trkpt lat="45.246663" lon="-72.463153">
        <ele>228.7</ele>
      </trkpt>
      <trkpt lat="45.245955" lon="-72.462794">
        <ele>236.2</ele>
      </trkpt>
      <trkpt lat="45.245246" lon="-72.462436">
        <ele>242.3</ele>
      </trkpt>
      <trkpt lat="45.244538" lon="-72.462078">
        <ele>245</ele>
      </trkpt>
      <trkpt lat="45.24383" lon="-72.46172">
        <ele>245.9</ele>
      </trkpt>
      <trkpt lat="45.24368" lon="-72.46167">
        <ele>246.1</ele>
      </trkpt>
      <trkpt lat="45.24357" lon="-72.46154">
        <ele>246.8</ele>
      </trkpt>
      <trkpt lat="45.24352" lon="-72.4614">
        <ele>247</ele>
      </trkpt>
      <trkpt lat="45.243516" lon="-72.460286">
        <ele>247.9</ele>
      </trkpt>
      <trkpt lat="45.243513" lon="-72.459173">
        <ele>250</ele>
      </trkpt>
      <trkpt lat="45.24351" lon="-72.458059">
        <ele>249.8</ele>
      </trkpt>
      <trkpt lat="45.243506" lon="-72.456946">
        <ele>254</ele>
      </trkpt>
      <trkpt lat="45.243503" lon="-72.455833">
        <ele>256.3</ele>
      </trkpt>
      <trkpt lat="45.2435" lon="-72.45472">
        <ele>258.4</ele>
      </trkpt>
      <trkpt lat="45.243895" lon="-72.454305">
        <ele>257.4</ele>
      </trkpt>
      <trkpt lat="45.24429" lon="-72.45389">
        <ele>257.2</ele>
      </trkpt>
      <trkpt lat="45.24462" lon="-72.45357">
        <ele>257.4</ele>
      </trkpt>
      <trkpt lat="45.24492" lon="-72.4533">
        <ele>258.1</ele>
      </trkpt>
      <trkpt lat="45.24548" lon="-72.452835">
        <ele>259.9</ele>
      </trkpt>
      <trkpt lat="45.24604" lon="-72.45237">
        <ele>263.9</ele>
      </trkpt>
      <trkpt lat="45.24635" lon="-72.45201">
        <ele>265.2</ele>
      </trkpt>
      <trkpt lat="45.24687" lon="-72.45156">
        <ele>267</ele>
      </trkpt>
      <trkpt lat="45.24742" lon="-72.45125">
        <ele>269.2</ele>
      </trkpt>
      <trkpt lat="45.24772" lon="-72.45102">
        <ele>270.3</ele>
      </trkpt>
      <trkpt lat="45.24824" lon="-72.45049">
        <ele>273.4</ele>
      </trkpt>
      <trkpt lat="45.248725" lon="-72.449855">
        <ele>273.9</ele>
      </trkpt>
      <trkpt lat="45.24921" lon="-72.44922">
        <ele>274.9</ele>
      </trkpt>
      <trkpt lat="45.24921" lon="-72.44923">
        <ele>274.9</ele>
      </trkpt>
      <trkpt lat="45.249585" lon="-72.448785">
        <ele>276.2</ele>
      </trkpt>
      <trkpt lat="45.24996" lon="-72.44834">
        <ele>278.1</ele>
      </trkpt>
      <trkpt lat="45.25047" lon="-72.447816">
        <ele>280.4</ele>
      </trkpt>
      <trkpt lat="45.25098" lon="-72.447293">
        <ele>282.2</ele>
      </trkpt>
      <trkpt lat="45.25149" lon="-72.44677">
        <ele>284.9</ele>
      </trkpt>
      <trkpt lat="45.252096" lon="-72.446126">
        <ele>285.8</ele>
      </trkpt>
      <trkpt lat="45.252703" lon="-72.445483">
        <ele>285.4</ele>
      </trkpt>
      <trkpt lat="45.25331" lon="-72.44484">
        <ele>287.9</ele>
      </trkpt>
      <trkpt lat="45.253846" lon="-72.44411">
        <ele>289.3</ele>
      </trkpt>
      <trkpt lat="45.254383" lon="-72.44338">
        <ele>290.6</ele>
      </trkpt>
      <trkpt lat="45.25492" lon="-72.44265">
        <ele>292.2</ele>
      </trkpt>
      <trkpt lat="45.25532" lon="-72.44218">
        <ele>292.3</ele>
      </trkpt>
      <trkpt lat="45.25572" lon="-72.44171">
        <ele>292</ele>
      </trkpt>
      <trkpt lat="45.256245" lon="-72.44128">
        <ele>290</ele>
      </trkpt>
      <trkpt lat="45.25677" lon="-72.44085">
        <ele>285.9</ele>
      </trkpt>
      <trkpt lat="45.25754" lon="-72.44028">
        <ele>286.6</ele>
      </trkpt>
      <trkpt lat="45.258183" lon="-72.439903">
        <ele>288.6</ele>
      </trkpt>
      <trkpt lat="45.258826" lon="-72.439526">
        <ele>290.5</ele>
      </trkpt>
      <trkpt lat="45.25947" lon="-72.43915">
        <ele>291.9</ele>
      </trkpt>
      <trkpt lat="45.25951" lon="-72.43881">
        <ele>293.3</ele>
      </trkpt>
      <trkpt lat="45.25887" lon="-72.43835">
        <ele>297.1</ele>
      </trkpt>
      <trkpt lat="45.258336" lon="-72.437839">
        <ele>302.2</ele>
      </trkpt>
      <trkpt lat="45.257803" lon="-72.437329">
        <ele>308.6</ele>
      </trkpt>
      <trkpt lat="45.25727" lon="-72.43682">
        <ele>310.5</ele>
      </trkpt>
      <trkpt lat="45.256805" lon="-72.436529">
        <ele>309.6</ele>
      </trkpt>
      <trkpt lat="45.25634" lon="-72.43624">
        <ele>309.2</ele>
      </trkpt>
      <trkpt lat="45.255785" lon="-72.435864">
        <ele>308.6</ele>
      </trkpt>
      <trkpt lat="45.25523" lon="-72.43549">
        <ele>308.3</ele>
      </trkpt>
      <trkpt lat="45.25504" lon="-72.43541">
        <ele>309.4</ele>
      </trkpt>
      <trkpt lat="45.25449" lon="-72.435184">
        <ele>314.7</ele>
      </trkpt>
      <trkpt lat="45.25394" lon="-72.43496">
        <ele>318.8</ele>
      </trkpt>
      <trkpt lat="45.25332" lon="-72.43486">
        <ele>323.3</ele>
      </trkpt>
      <trkpt lat="45.252799" lon="-72.43486">
        <ele>325.4</ele>
      </trkpt>
      <trkpt lat="45.25228" lon="-72.43486">
        <ele>328.7</ele>
      </trkpt>
      <trkpt lat="45.25152" lon="-72.43488">
        <ele>333.5</ele>
      </trkpt>
      <trkpt lat="45.25076" lon="-72.43492">
        <ele>338.8</ele>
      </trkpt>
      <trkpt lat="45.25" lon="-72.43496">
        <ele>346.1</ele>
      </trkpt>
      <trkpt lat="45.249225" lon="-72.43505">
        <ele>349</ele>
      </trkpt>
      <trkpt lat="45.24845" lon="-72.43514">
        <ele>349.6</ele>
      </trkpt>
      <trkpt lat="45.24761" lon="-72.43513">
        <ele>352.5</ele>
      </trkpt>
      <trkpt lat="45.24707" lon="-72.43506">
        <ele>353.7</ele>
      </trkpt>
      <trkpt lat="45.24659" lon="-72.43504">
        <ele>354.5</ele>
      </trkpt>
      <trkpt lat="45.24624" lon="-72.43499">
        <ele>355.9</ele>
      </trkpt>
      <trkpt lat="45.24582" lon="-72.43499">
        <ele>356.2</ele>
      </trkpt>
      <trkpt lat="45.245334" lon="-72.43508">
        <ele>358.1</ele>
      </trkpt>
      <trkpt lat="45.24485" lon="-72.43517">
        <ele>358.8</ele>
      </trkpt>
      <trkpt lat="45.24431" lon="-72.43529">
        <ele>359.9</ele>
      </trkpt>
      <trkpt lat="45.243555" lon="-72.435525">
        <ele>360.6</ele>
      </trkpt>
      <trkpt lat="45.2428" lon="-72.43576">
        <ele>361</ele>
      </trkpt>
      <trkpt lat="45.24211" lon="-72.43593">
        <ele>360.7</ele>
      </trkpt>
      <trkpt lat="45.24188" lon="-72.43602">
        <ele>360.7</ele>
      </trkpt>
      <trkpt lat="45.24123" lon="-72.43634">
        <ele>360.7</ele>
      </trkpt>
      <trkpt lat="45.24089" lon="-72.43655">
        <ele>359.4</ele>
      </trkpt>
      <trkpt lat="45.240375" lon="-72.43696">
        <ele>356.5</ele>
      </trkpt>
      <trkpt lat="45.23986" lon="-72.43737">
        <ele>355.8</ele>
      </trkpt>
      <trkpt lat="45.23921" lon="-72.437975">
        <ele>354.9</ele>
      </trkpt>
      <trkpt lat="45.23856" lon="-72.43858">
        <ele>351.3</ele>
      </trkpt>
      <trkpt lat="45.23822" lon="-72.43884">
        <ele>348.6</ele>
      </trkpt>
      <trkpt lat="45.23777" lon="-72.43925">
        <ele>347</ele>
      </trkpt>
      <trkpt lat="45.23749" lon="-72.43943">
        <ele>348.2</ele>
      </trkpt>
      <trkpt lat="45.23715" lon="-72.43955">
        <ele>349.1</ele>
      </trkpt>
      <trkpt lat="45.236436" lon="-72.439583">
        <ele>349.8</ele>
      </trkpt>
      <trkpt lat="45.235723" lon="-72.439616">
        <ele>353.4</ele>
      </trkpt>
      <trkpt lat="45.23501" lon="-72.43965">
        <ele>355.4</ele>
      </trkpt>
      <trkpt lat="45.235" lon="-72.43965">
        <ele>355.4</ele>
      </trkpt>
      <trkpt lat="45.23477" lon="-72.43966">
        <ele>355.9</ele>
      </trkpt>
      <trkpt lat="45.234185" lon="-72.43968">
        <ele>357.5</ele>
      </trkpt>
      <trkpt lat="45.2336" lon="-72.4397">
        <ele>360.7</ele>
      </trkpt>
      <trkpt lat="45.23336" lon="-72.43973">
        <ele>361.3</ele>
      </trkpt>
      <trkpt lat="45.23292" lon="-72.43973">
        <ele>364.9</ele>
      </trkpt>
      <trkpt lat="45.23292" lon="-72.440934">
        <ele>357.5</ele>
      </trkpt>
      <trkpt lat="45.23292" lon="-72.44214">
        <ele>346.9</ele>
      </trkpt>
      <trkpt lat="45.232906" lon="-72.44307">
        <ele>340</ele>
      </trkpt>
      <trkpt lat="45.232893" lon="-72.444">
        <ele>336.2</ele>
      </trkpt>
      <trkpt lat="45.23288" lon="-72.44493">
        <ele>331.6</ele>
      </trkpt>
      <trkpt lat="45.23286" lon="-72.44525">
        <ele>329.1</ele>
      </trkpt>
      <trkpt lat="45.2328" lon="-72.44574">
        <ele>328.4</ele>
      </trkpt>
      <trkpt lat="45.23268" lon="-72.44602">
        <ele>327.8</ele>
      </trkpt>
      <trkpt lat="45.23254" lon="-72.44628">
        <ele>327.2</ele>
      </trkpt>
      <trkpt lat="45.232175" lon="-72.44706">
        <ele>325.3</ele>
      </trkpt>
      <trkpt lat="45.23181" lon="-72.44784">
        <ele>325.2</ele>
      </trkpt>
      <trkpt lat="45.23158" lon="-72.448465">
        <ele>323.1</ele>
      </trkpt>
      <trkpt lat="45.23135" lon="-72.44909">
        <ele>319.8</ele>
      </trkpt>
      <trkpt lat="45.23116" lon="-72.44968">
        <ele>315.4</ele>
      </trkpt>
      <trkpt lat="45.23094" lon="-72.45013">
        <ele>310.8</ele>
      </trkpt>
      <trkpt lat="45.230695" lon="-72.450955">
        <ele>306.2</ele>
      </trkpt>
      <trkpt lat="45.23045" lon="-72.45178">
        <ele>302.1</ele>
      </trkpt>
      <trkpt lat="45.23018" lon="-72.4525">
        <ele>298.5</ele>
      </trkpt>
      <trkpt lat="45.23009" lon="-72.45295">
        <ele>295</ele>
      </trkpt>
      <trkpt lat="45.22991" lon="-72.45351">
        <ele>294.2</ele>
      </trkpt>
      <trkpt lat="45.22967" lon="-72.45424">
        <ele>297</ele>
      </trkpt>
      <trkpt lat="45.22965" lon="-72.45465">
        <ele>299.8</ele>
      </trkpt>
      <trkpt lat="45.2296" lon="-72.45487">
        <ele>300.1</ele>
      </trkpt>
      <trkpt lat="45.22933" lon="-72.45536">
        <ele>299</ele>
      </trkpt>
      <trkpt lat="45.22921" lon="-72.45564">
        <ele>298</ele>
      </trkpt>
      <trkpt lat="45.22915" lon="-72.4561">
        <ele>297.5</ele>
      </trkpt>
      <trkpt lat="45.22915" lon="-72.45611">
        <ele>297.5</ele>
      </trkpt>
      <trkpt lat="45.22908" lon="-72.45679">
        <ele>299.4</ele>
      </trkpt>
      <trkpt lat="45.2291" lon="-72.45743">
        <ele>299</ele>
      </trkpt>
      <trkpt lat="45.22908" lon="-72.45797">
        <ele>296.9</ele>
      </trkpt>
      <trkpt lat="45.229" lon="-72.45823">
        <ele>296.5</ele>
      </trkpt>
      <trkpt lat="45.22892" lon="-72.45836">
        <ele>296.4</ele>
      </trkpt>
      <trkpt lat="45.22871" lon="-72.45854">
        <ele>296.6</ele>
      </trkpt>
      <trkpt lat="45.22841" lon="-72.45868">
        <ele>297.3</ele>
      </trkpt>
      <trkpt lat="45.22824" lon="-72.45881">
        <ele>298</ele>
      </trkpt>
      <trkpt lat="45.22803" lon="-72.459">
        <ele>298.4</ele>
      </trkpt>
      <trkpt lat="45.22785" lon="-72.45934">
        <ele>298.1</ele>
      </trkpt>
      <trkpt lat="45.22766" lon="-72.45989">
        <ele>297.4</ele>
      </trkpt>
      <trkpt lat="45.22761" lon="-72.4602">
        <ele>297.1</ele>
      </trkpt>
      <trkpt lat="45.22762" lon="-72.46051">
        <ele>296.8</ele>
      </trkpt>
      <trkpt lat="45.22768" lon="-72.46074">
        <ele>295.9</ele>
      </trkpt>
      <trkpt lat="45.22788" lon="-72.46105">
        <ele>295.9</ele>
      </trkpt>
      <trkpt lat="45.22806" lon="-72.46127">
        <ele>295.5</ele>
      </trkpt>
      <trkpt lat="45.22825" lon="-72.46158">
        <ele>294.8</ele>
      </trkpt>
      <trkpt lat="45.2283" lon="-72.46178">
        <ele>293.8</ele>
      </trkpt>
      <trkpt lat="45.22829" lon="-72.46204">
        <ele>292.6</ele>
      </trkpt>
      <trkpt lat="45.22815" lon="-72.46257">
        <ele>288.5</ele>
      </trkpt>
      <trkpt lat="45.22787" lon="-72.46342">
        <ele>277.6</ele>
      </trkpt>
      <trkpt lat="45.22774" lon="-72.46369">
        <ele>275.7</ele>
      </trkpt>
      <trkpt lat="45.22747" lon="-72.46417">
        <ele>272.7</ele>
      </trkpt>
      <trkpt lat="45.22748" lon="-72.465214">
        <ele>267.9</ele>
      </trkpt>
      <trkpt lat="45.22749" lon="-72.46626">
        <ele>264.3</ele>
      </trkpt>
      <trkpt lat="45.227528" lon="-72.467483">
        <ele>257.1</ele>
      </trkpt>
      <trkpt lat="45.227566" lon="-72.468707">
        <ele>255.3</ele>
      </trkpt>
      <trkpt lat="45.227604" lon="-72.469931">
        <ele>255.3</ele>
      </trkpt>
      <trkpt lat="45.227642" lon="-72.471155">
        <ele>254</ele>
      </trkpt>
      <trkpt lat="45.22768" lon="-72.47238">
        <ele>250.9</ele>
      </trkpt>
      <trkpt lat="45.22777" lon="-72.47351">
        <ele>252.9</ele>
      </trkpt>
      <trkpt lat="45.22785" lon="-72.47426">
        <ele>257.4</ele>
      </trkpt>
      <trkpt lat="45.22786" lon="-72.47506">
        <ele>259.3</ele>
      </trkpt>
      <trkpt lat="45.22781" lon="-72.476">
        <ele>260.7</ele>
      </trkpt>
      <trkpt lat="45.22776" lon="-72.4765">
        <ele>261</ele>
      </trkpt>
      <trkpt lat="45.22751" lon="-72.47735">
        <ele>259.7</ele>
      </trkpt>
      <trkpt lat="45.22743" lon="-72.47749">
        <ele>259.4</ele>
      </trkpt>
      <trkpt lat="45.22717" lon="-72.47788">
        <ele>258.4</ele>
      </trkpt>
      <trkpt lat="45.22674" lon="-72.47838">
        <ele>253.4</ele>
      </trkpt>
      <trkpt lat="45.22651" lon="-72.4787">
        <ele>250.5</ele>
      </trkpt>
      <trkpt lat="45.22592" lon="-72.479443">
        <ele>243.7</ele>
      </trkpt>
      <trkpt lat="45.22533" lon="-72.480186">
        <ele>240.2</ele>
      </trkpt>
      <trkpt lat="45.22474" lon="-72.48093">
        <ele>239.7</ele>
      </trkpt>
      <trkpt lat="45.22474" lon="-72.48094">
        <ele>239.7</ele>
      </trkpt>
      <trkpt lat="45.224185" lon="-72.481635">
        <ele>240.8</ele>
      </trkpt>
      <trkpt lat="45.22363" lon="-72.48233">
        <ele>241.8</ele>
      </trkpt>
      <trkpt lat="45.22339" lon="-72.48271">
        <ele>239.3</ele>
      </trkpt>
      <trkpt lat="45.22321" lon="-72.48304">
        <ele>237.8</ele>
      </trkpt>
      <trkpt lat="45.22315" lon="-72.48321">
        <ele>237.5</ele>
      </trkpt>
      <trkpt lat="45.22304" lon="-72.48375">
        <ele>236.5</ele>
      </trkpt>
      <trkpt lat="45.22295" lon="-72.48464">
        <ele>236.7</ele>
      </trkpt>
      <trkpt lat="45.222936" lon="-72.48591">
        <ele>240.1</ele>
      </trkpt>
      <trkpt lat="45.222923" lon="-72.48718">
        <ele>243.1</ele>
      </trkpt>
      <trkpt lat="45.22291" lon="-72.48845">
        <ele>244.7</ele>
      </trkpt>
      <trkpt lat="45.22291" lon="-72.48873">
        <ele>244.4</ele>
      </trkpt>
      <trkpt lat="45.22282" lon="-72.4893">
        <ele>243.5</ele>
      </trkpt>
      <trkpt lat="45.2227" lon="-72.48961">
        <ele>242.6</ele>
      </trkpt>
      <trkpt lat="45.22254" lon="-72.48986">
        <ele>242.4</ele>
      </trkpt>
      <trkpt lat="45.22185" lon="-72.4906">
        <ele>243.6</ele>
      </trkpt>
      <trkpt lat="45.22164" lon="-72.49086">
        <ele>244.2</ele>
      </trkpt>
      <trkpt lat="45.22125" lon="-72.49176">
        <ele>245</ele>
      </trkpt>
      <trkpt lat="45.22091" lon="-72.4927">
        <ele>244.4</ele>
      </trkpt>
      <trkpt lat="45.22074" lon="-72.49322">
        <ele>244</ele>
      </trkpt>
      <trkpt lat="45.22063" lon="-72.49373">
        <ele>242.3</ele>
      </trkpt>
      <trkpt lat="45.22059" lon="-72.49401">
        <ele>241.1</ele>
      </trkpt>
      <trkpt lat="45.22063" lon="-72.49445">
        <ele>237.8</ele>
      </trkpt>
      <trkpt lat="45.22072" lon="-72.49483">
        <ele>235.6</ele>
      </trkpt>
      <trkpt lat="45.22087" lon="-72.49526">
        <ele>232.7</ele>
      </trkpt>
      <trkpt lat="45.2213" lon="-72.49633">
        <ele>226.5</ele>
      </trkpt>
      <trkpt lat="45.22135" lon="-72.49651">
        <ele>225.9</ele>
      </trkpt>
      <trkpt lat="45.22137" lon="-72.49672">
        <ele>225.1</ele>
      </trkpt>
      <trkpt lat="45.22139" lon="-72.49733">
        <ele>223.7</ele>
      </trkpt>
      <trkpt lat="45.2214" lon="-72.49844">
        <ele>220.5</ele>
      </trkpt>
      <trkpt lat="45.22139" lon="-72.499225">
        <ele>218.5</ele>
      </trkpt>
      <trkpt lat="45.22138" lon="-72.50001">
        <ele>219.6</ele>
      </trkpt>
      <trkpt lat="45.221385" lon="-72.500705">
        <ele>222.9</ele>
      </trkpt>
      <trkpt lat="45.22139" lon="-72.5014">
        <ele>223.9</ele>
      </trkpt>
      <trkpt lat="45.22151" lon="-72.50211">
        <ele>221.9</ele>
      </trkpt>
      <trkpt lat="45.22153" lon="-72.5025">
        <ele>221.3</ele>
      </trkpt>
      <trkpt lat="45.22149" lon="-72.50269">
        <ele>221.1</ele>
      </trkpt>
      <trkpt lat="45.22117" lon="-72.50364">
        <ele>222.1</ele>
      </trkpt>
      <trkpt lat="45.2208" lon="-72.50464">
        <ele>223</ele>
      </trkpt>
      <trkpt lat="45.22043" lon="-72.50564">
        <ele>223.2</ele>
      </trkpt>
      <trkpt lat="45.22009" lon="-72.50625">
        <ele>222.5</ele>
      </trkpt>
      <trkpt lat="45.22009" lon="-72.50626">
        <ele>222.5</ele>
      </trkpt>
      <trkpt lat="45.219755" lon="-72.506845">
        <ele>222.4</ele>
      </trkpt>
      <trkpt lat="45.21942" lon="-72.50743">
        <ele>221.1</ele>
      </trkpt>
      <trkpt lat="45.21888" lon="-72.50831">
        <ele>219.3</ele>
      </trkpt>
      <trkpt lat="45.21898" lon="-72.5091">
        <ele>217.4</ele>
      </trkpt>
      <trkpt lat="45.21913" lon="-72.50986">
        <ele>216.2</ele>
      </trkpt>
      <trkpt lat="45.21933" lon="-72.51052">
        <ele>214.5</ele>
      </trkpt>
      <trkpt lat="45.219625" lon="-72.511229">
        <ele>212.5</ele>
      </trkpt>
      <trkpt lat="45.21992" lon="-72.51194">
        <ele>212.1</ele>
      </trkpt>
      <trkpt lat="45.2202" lon="-72.512539">
        <ele>212.4</ele>
      </trkpt>
      <trkpt lat="45.22048" lon="-72.51314">
        <ele>212.1</ele>
      </trkpt>
      <trkpt lat="45.220856" lon="-72.513996">
        <ele>210.2</ele>
      </trkpt>
      <trkpt lat="45.221233" lon="-72.514853">
        <ele>210</ele>
      </trkpt>
      <trkpt lat="45.22161" lon="-72.51571">
        <ele>209.2</ele>
      </trkpt>
      <trkpt lat="45.2218" lon="-72.51627">
        <ele>209.2</ele>
      </trkpt>
      <trkpt lat="45.22188" lon="-72.51674">
        <ele>209.1</ele>
      </trkpt>
      <trkpt lat="45.2219" lon="-72.51696">
        <ele>209.2</ele>
      </trkpt>
      <trkpt lat="45.221915" lon="-72.517859">
        <ele>209.2</ele>
      </trkpt>
      <trkpt lat="45.22193" lon="-72.51876">
        <ele>209.7</ele>
      </trkpt>
      <trkpt lat="45.22196" lon="-72.51894">
        <ele>209.7</ele>
      </trkpt>
      <trkpt lat="45.22202" lon="-72.51912">
        <ele>209.5</ele>
      </trkpt>
      <trkpt lat="45.22241" lon="-72.5201">
        <ele>208.5</ele>
      </trkpt>
      <trkpt lat="45.22265" lon="-72.52095">
        <ele>208.1</ele>
      </trkpt>
      <trkpt lat="45.22274" lon="-72.5214">
        <ele>207.6</ele>
      </trkpt>
      <trkpt lat="45.22278" lon="-72.52248">
        <ele>206.6</ele>
      </trkpt>
      <trkpt lat="45.22276" lon="-72.52292">
        <ele>206.1</ele>
      </trkpt>
      <trkpt lat="45.22267" lon="-72.5232">
        <ele>205.6</ele>
      </trkpt>
      <trkpt lat="45.22245" lon="-72.52355">
        <ele>204.6</ele>
      </trkpt>
      <trkpt lat="45.22224" lon="-72.52378">
        <ele>203</ele>
      </trkpt>
      <trkpt lat="45.22223" lon="-72.52378">
        <ele>203</ele>
      </trkpt>
      <trkpt lat="45.22158" lon="-72.52446">
        <ele>202.1</ele>
      </trkpt>
      <trkpt lat="45.22093" lon="-72.52514">
        <ele>202.8</ele>
      </trkpt>
      <trkpt lat="45.221246" lon="-72.526273">
        <ele>201.9</ele>
      </trkpt>
      <trkpt lat="45.221563" lon="-72.527406">
        <ele>201.9</ele>
      </trkpt>
      <trkpt lat="45.22188" lon="-72.52854">
        <ele>202.5</ele>
      </trkpt>
      <trkpt lat="45.22205" lon="-72.52914">
        <ele>202.8</ele>
      </trkpt>
      <trkpt lat="45.22218" lon="-72.52972">
        <ele>203</ele>
      </trkpt>
      <trkpt lat="45.22226" lon="-72.5303">
        <ele>203</ele>
      </trkpt>
      <trkpt lat="45.222295" lon="-72.531424">
        <ele>202.7</ele>
      </trkpt>
      <trkpt lat="45.22233" lon="-72.53255">
        <ele>202.2</ele>
      </trkpt>
    </trkseg>
  </trk>
</gpx>