<?xml version='1.0' encoding='utf-8'?>
<gpx xmlns="http://www.topografix.com/GPX/1/1" xmlns:xsi="http://www.w3.org/2001/XMLSchema-instance" version="1.1" creator="Gravelle Estrie" xsi:schemaLocation="http://www.topografix.com/GPX/1/1 http://www.topografix.com/GPX/1/1/gpx.xsd">
  <metadata>
    <name>Lumberjack 75KM/1300MD+</name>
  </metadata>
  <trk>
    <name>Lumberjack 75KM/1300MD+</name>
    <trkseg>
      <trkpt lat="45.22234" lon="-72.53309">
        <ele>202</ele>
      </trkpt>
      <trkpt lat="45.22232" lon="-72.532419">
        <ele>202.3</ele>
      </trkpt>
      <trkpt lat="45.2223" lon="-72.53175">
        <ele>202.5</ele>
      </trkpt>
      <trkpt lat="45.221556" lon="-72.5318">
        <ele>202.4</ele>
      </trkpt>
      <trkpt lat="45.220813" lon="-72.53185">
        <ele>202.5</ele>
      </trkpt>
      <trkpt lat="45.22007" lon="-72.5319">
        <ele>202.7</ele>
      </trkpt>
      <trkpt lat="45.22009" lon="-72.53197">
        <ele>202.8</ele>
      </trkpt>
      <trkpt lat="45.22017" lon="-72.53202">
        <ele>202.9</ele>
      </trkpt>
      <trkpt lat="45.22009" lon="-72.53197">
        <ele>202.8</ele>
      </trkpt>
      <trkpt lat="45.22007" lon="-72.5319">
        <ele>202.7</ele>
      </trkpt>
      <trkpt lat="45.21973" lon="-72.53192">
        <ele>202.6</ele>
      </trkpt>
      <trkpt lat="45.21946" lon="-72.53184">
        <ele>202.5</ele>
      </trkpt>
      <trkpt lat="45.21913" lon="-72.53169">
        <ele>202.3</ele>
      </trkpt>
      <trkpt lat="45.218543" lon="-72.531349">
        <ele>202.6</ele>
      </trkpt>
      <trkpt lat="45.217956" lon="-72.531009">
        <ele>202.8</ele>
      </trkpt>
      <trkpt lat="45.21737" lon="-72.53067">
        <ele>201.8</ele>
      </trkpt>
      <trkpt lat="45.21725" lon="-72.53058">
        <ele>201.8</ele>
      </trkpt>
      <trkpt lat="45.21689" lon="-72.52997">
        <ele>202.9</ele>
      </trkpt>
      <trkpt lat="45.21645" lon="-72.530505">
        <ele>201</ele>
      </trkpt>
      <trkpt lat="45.21601" lon="-72.53104">
        <ele>200.6</ele>
      </trkpt>
      <trkpt lat="45.21601" lon="-72.53105">
        <ele>200.6</ele>
      </trkpt>
      <trkpt lat="45.2154" lon="-72.531797">
        <ele>201.4</ele>
      </trkpt>
      <trkpt lat="45.21479" lon="-72.532545">
        <ele>202.2</ele>
      </trkpt>
      <trkpt lat="45.21418" lon="-72.533292">
        <ele>202.2</ele>
      </trkpt>
      <trkpt lat="45.21357" lon="-72.53404">
        <ele>205.2</ele>
      </trkpt>
      <trkpt lat="45.21349" lon="-72.53408">
        <ele>205.4</ele>
      </trkpt>
      <trkpt lat="45.21345" lon="-72.53408">
        <ele>205.4</ele>
      </trkpt>
      <trkpt lat="45.21333" lon="-72.53403">
        <ele>205.6</ele>
      </trkpt>
      <trkpt lat="45.212885" lon="-72.533869">
        <ele>203.2</ele>
      </trkpt>
      <trkpt lat="45.21244" lon="-72.53371">
        <ele>202.9</ele>
      </trkpt>
      <trkpt lat="45.21196" lon="-72.53354">
        <ele>205</ele>
      </trkpt>
      <trkpt lat="45.211755" lon="-72.534745">
        <ele>206.1</ele>
      </trkpt>
      <trkpt lat="45.21155" lon="-72.53595">
        <ele>207</ele>
      </trkpt>
      <trkpt lat="45.210926" lon="-72.535933">
        <ele>207.6</ele>
      </trkpt>
      <trkpt lat="45.210303" lon="-72.535916">
        <ele>210.6</ele>
      </trkpt>
      <trkpt lat="45.20968" lon="-72.5359">
        <ele>215.1</ele>
      </trkpt>
      <trkpt lat="45.208857" lon="-72.535887">
        <ele>216.4</ele>
      </trkpt>
      <trkpt lat="45.208034" lon="-72.535874">
        <ele>216</ele>
      </trkpt>
      <trkpt lat="45.207212" lon="-72.535862">
        <ele>215.8</ele>
      </trkpt>
      <trkpt lat="45.20639" lon="-72.53585">
        <ele>216.5</ele>
      </trkpt>
      <trkpt lat="45.205735" lon="-72.535829">
        <ele>220</ele>
      </trkpt>
      <trkpt lat="45.20508" lon="-72.53581">
        <ele>226.5</ele>
      </trkpt>
      <trkpt lat="45.204239" lon="-72.53584">
        <ele>239.2</ele>
      </trkpt>
      <trkpt lat="45.2034" lon="-72.53587">
        <ele>250.1</ele>
      </trkpt>
      <trkpt lat="45.20279" lon="-72.53577">
        <ele>259.3</ele>
      </trkpt>
      <trkpt lat="45.20271" lon="-72.53577">
        <ele>259.8</ele>
      </trkpt>
      <trkpt lat="45.20211" lon="-72.53592">
        <ele>263.4</ele>
      </trkpt>
      <trkpt lat="45.20183" lon="-72.53595">
        <ele>264.7</ele>
      </trkpt>
      <trkpt lat="45.20141" lon="-72.53582">
        <ele>265</ele>
      </trkpt>
      <trkpt lat="45.20109" lon="-72.53578">
        <ele>264.6</ele>
      </trkpt>
      <trkpt lat="45.200353" lon="-72.535793">
        <ele>256.8</ele>
      </trkpt>
      <trkpt lat="45.199616" lon="-72.535806">
        <ele>248.2</ele>
      </trkpt>
      <trkpt lat="45.19888" lon="-72.53582">
        <ele>251.2</ele>
      </trkpt>
      <trkpt lat="45.1987" lon="-72.53586">
        <ele>253.1</ele>
      </trkpt>
      <trkpt lat="45.19846" lon="-72.53601">
        <ele>255.9</ele>
      </trkpt>
      <trkpt lat="45.19834" lon="-72.53618">
        <ele>257.3</ele>
      </trkpt>
      <trkpt lat="45.198" lon="-72.53676">
        <ele>258.9</ele>
      </trkpt>
      <trkpt lat="45.19782" lon="-72.53695">
        <ele>259.8</ele>
      </trkpt>
      <trkpt lat="45.19762" lon="-72.53708">
        <ele>260.4</ele>
      </trkpt>
      <trkpt lat="45.19743" lon="-72.53712">
        <ele>261.9</ele>
      </trkpt>
      <trkpt lat="45.19711" lon="-72.53712">
        <ele>265</ele>
      </trkpt>
      <trkpt lat="45.19682" lon="-72.53698">
        <ele>269.4</ele>
      </trkpt>
      <trkpt lat="45.19661" lon="-72.53684">
        <ele>272</ele>
      </trkpt>
      <trkpt lat="45.19613" lon="-72.53636">
        <ele>277.9</ele>
      </trkpt>
      <trkpt lat="45.19586" lon="-72.53613">
        <ele>281.3</ele>
      </trkpt>
      <trkpt lat="45.19574" lon="-72.53612">
        <ele>282.3</ele>
      </trkpt>
      <trkpt lat="45.194985" lon="-72.536104">
        <ele>287.8</ele>
      </trkpt>
      <trkpt lat="45.19423" lon="-72.53609">
        <ele>289.2</ele>
      </trkpt>
      <trkpt lat="45.19374" lon="-72.53606">
        <ele>291.2</ele>
      </trkpt>
      <trkpt lat="45.194144" lon="-72.535144">
        <ele>294.5</ele>
      </trkpt>
      <trkpt lat="45.194548" lon="-72.534228">
        <ele>295.4</ele>
      </trkpt>
      <trkpt lat="45.194952" lon="-72.533312">
        <ele>297.3</ele>
      </trkpt>
      <trkpt lat="45.195356" lon="-72.532396">
        <ele>300.6</ele>
      </trkpt>
      <trkpt lat="45.19576" lon="-72.53148">
        <ele>300.4</ele>
      </trkpt>
      <trkpt lat="45.19576" lon="-72.53149">
        <ele>300.4</ele>
      </trkpt>
      <trkpt lat="45.19619" lon="-72.53052">
        <ele>300.3</ele>
      </trkpt>
      <trkpt lat="45.19662" lon="-72.52955">
        <ele>301.6</ele>
      </trkpt>
      <trkpt lat="45.196985" lon="-72.52868">
        <ele>303.6</ele>
      </trkpt>
      <trkpt lat="45.19735" lon="-72.52781">
        <ele>301.4</ele>
      </trkpt>
      <trkpt lat="45.197804" lon="-72.526822">
        <ele>302.6</ele>
      </trkpt>
      <trkpt lat="45.198258" lon="-72.525834">
        <ele>303.8</ele>
      </trkpt>
      <trkpt lat="45.198713" lon="-72.524846">
        <ele>306.3</ele>
      </trkpt>
      <trkpt lat="45.199167" lon="-72.523859">
        <ele>310</ele>
      </trkpt>
      <trkpt lat="45.199622" lon="-72.522871">
        <ele>311.7</ele>
      </trkpt>
      <trkpt lat="45.200076" lon="-72.521883">
        <ele>315.4</ele>
      </trkpt>
      <trkpt lat="45.200531" lon="-72.520895">
        <ele>318.3</ele>
      </trkpt>
      <trkpt lat="45.200985" lon="-72.519907">
        <ele>317.6</ele>
      </trkpt>
      <trkpt lat="45.20144" lon="-72.51892">
        <ele>317.8</ele>
      </trkpt>
      <trkpt lat="45.20113" lon="-72.51858">
        <ele>320</ele>
      </trkpt>
      <trkpt lat="45.2009" lon="-72.51819">
        <ele>322.8</ele>
      </trkpt>
      <trkpt lat="45.20079" lon="-72.51791">
        <ele>325.4</ele>
      </trkpt>
      <trkpt lat="45.2006" lon="-72.517304">
        <ele>334</ele>
      </trkpt>
      <trkpt lat="45.20041" lon="-72.5167">
        <ele>339.5</ele>
      </trkpt>
      <trkpt lat="45.20027" lon="-72.51639">
        <ele>343.8</ele>
      </trkpt>
      <trkpt lat="45.20006" lon="-72.51631">
        <ele>345.7</ele>
      </trkpt>
      <trkpt lat="45.199306" lon="-72.516336">
        <ele>345</ele>
      </trkpt>
      <trkpt lat="45.198553" lon="-72.516363">
        <ele>343.9</ele>
      </trkpt>
      <trkpt lat="45.1978" lon="-72.51639">
        <ele>344.5</ele>
      </trkpt>
      <trkpt lat="45.19779" lon="-72.51639">
        <ele>344.5</ele>
      </trkpt>
      <trkpt lat="45.197107" lon="-72.5164">
        <ele>340.4</ele>
      </trkpt>
      <trkpt lat="45.196424" lon="-72.51641">
        <ele>330.1</ele>
      </trkpt>
      <trkpt lat="45.195742" lon="-72.51642">
        <ele>323.2</ele>
      </trkpt>
      <trkpt lat="45.19506" lon="-72.51643">
        <ele>317</ele>
      </trkpt>
      <trkpt lat="45.194176" lon="-72.51647">
        <ele>307.9</ele>
      </trkpt>
      <trkpt lat="45.193292" lon="-72.516511">
        <ele>293.2</ele>
      </trkpt>
      <trkpt lat="45.192409" lon="-72.516552">
        <ele>284</ele>
      </trkpt>
      <trkpt lat="45.191525" lon="-72.516593">
        <ele>287.4</ele>
      </trkpt>
      <trkpt lat="45.190641" lon="-72.516634">
        <ele>298</ele>
      </trkpt>
      <trkpt lat="45.189758" lon="-72.516675">
        <ele>295.2</ele>
      </trkpt>
      <trkpt lat="45.188874" lon="-72.516716">
        <ele>287.7</ele>
      </trkpt>
      <trkpt lat="45.18799" lon="-72.516757">
        <ele>288</ele>
      </trkpt>
      <trkpt lat="45.187107" lon="-72.516798">
        <ele>287.5</ele>
      </trkpt>
      <trkpt lat="45.186223" lon="-72.516839">
        <ele>281</ele>
      </trkpt>
      <trkpt lat="45.18534" lon="-72.51688">
        <ele>271.9</ele>
      </trkpt>
      <trkpt lat="45.184594" lon="-72.516892">
        <ele>274.1</ele>
      </trkpt>
      <trkpt lat="45.183849" lon="-72.516905">
        <ele>285.8</ele>
      </trkpt>
      <trkpt lat="45.183104" lon="-72.516917">
        <ele>292.5</ele>
      </trkpt>
      <trkpt lat="45.18236" lon="-72.51693">
        <ele>296.4</ele>
      </trkpt>
      <trkpt lat="45.181649" lon="-72.51697">
        <ele>291.1</ele>
      </trkpt>
      <trkpt lat="45.18094" lon="-72.51701">
        <ele>290</ele>
      </trkpt>
      <trkpt lat="45.180257" lon="-72.51701">
        <ele>288.4</ele>
      </trkpt>
      <trkpt lat="45.179574" lon="-72.51701">
        <ele>287.2</ele>
      </trkpt>
      <trkpt lat="45.178892" lon="-72.51701">
        <ele>286.2</ele>
      </trkpt>
      <trkpt lat="45.17821" lon="-72.51701">
        <ele>278.1</ele>
      </trkpt>
      <trkpt lat="45.177629" lon="-72.517035">
        <ele>274.5</ele>
      </trkpt>
      <trkpt lat="45.17705" lon="-72.51706">
        <ele>275.8</ele>
      </trkpt>
      <trkpt lat="45.17635" lon="-72.51704">
        <ele>279</ele>
      </trkpt>
      <trkpt lat="45.17624" lon="-72.51649">
        <ele>278.9</ele>
      </trkpt>
      <trkpt lat="45.17608" lon="-72.51613">
        <ele>279.3</ele>
      </trkpt>
      <trkpt lat="45.17592" lon="-72.51594">
        <ele>279.4</ele>
      </trkpt>
      <trkpt lat="45.17538" lon="-72.515383">
        <ele>276.9</ele>
      </trkpt>
      <trkpt lat="45.17484" lon="-72.514826">
        <ele>274.6</ele>
      </trkpt>
      <trkpt lat="45.1743" lon="-72.51427">
        <ele>272.6</ele>
      </trkpt>
      <trkpt lat="45.17361" lon="-72.51356">
        <ele>269.3</ele>
      </trkpt>
      <trkpt lat="45.17326" lon="-72.51316">
        <ele>267</ele>
      </trkpt>
      <trkpt lat="45.17286" lon="-72.51263">
        <ele>264.4</ele>
      </trkpt>
      <trkpt lat="45.17246" lon="-72.511954">
        <ele>262.6</ele>
      </trkpt>
      <trkpt lat="45.17206" lon="-72.51128">
        <ele>263.9</ele>
      </trkpt>
      <trkpt lat="45.171815" lon="-72.510699">
        <ele>266.9</ele>
      </trkpt>
      <trkpt lat="45.17157" lon="-72.51012">
        <ele>270.4</ele>
      </trkpt>
      <trkpt lat="45.17122" lon="-72.50918">
        <ele>272.4</ele>
      </trkpt>
      <trkpt lat="45.17089" lon="-72.50802">
        <ele>270.9</ele>
      </trkpt>
      <trkpt lat="45.170606" lon="-72.506883">
        <ele>275.3</ele>
      </trkpt>
      <trkpt lat="45.170322" lon="-72.505747">
        <ele>283.3</ele>
      </trkpt>
      <trkpt lat="45.170038" lon="-72.504611">
        <ele>286.7</ele>
      </trkpt>
      <trkpt lat="45.169754" lon="-72.503475">
        <ele>292.4</ele>
      </trkpt>
      <trkpt lat="45.16947" lon="-72.50234">
        <ele>296</ele>
      </trkpt>
      <trkpt lat="45.16934" lon="-72.50149">
        <ele>297.5</ele>
      </trkpt>
      <trkpt lat="45.1693" lon="-72.500554">
        <ele>297.3</ele>
      </trkpt>
      <trkpt lat="45.16926" lon="-72.49962">
        <ele>295.6</ele>
      </trkpt>
      <trkpt lat="45.169205" lon="-72.498909">
        <ele>291.8</ele>
      </trkpt>
      <trkpt lat="45.16915" lon="-72.4982">
        <ele>289.4</ele>
      </trkpt>
      <trkpt lat="45.168533" lon="-72.49822">
        <ele>284.9</ele>
      </trkpt>
      <trkpt lat="45.167916" lon="-72.49824">
        <ele>285.4</ele>
      </trkpt>
      <trkpt lat="45.1673" lon="-72.49826">
        <ele>288.7</ele>
      </trkpt>
      <trkpt lat="45.166455" lon="-72.49831">
        <ele>289.8</ele>
      </trkpt>
      <trkpt lat="45.16561" lon="-72.49836">
        <ele>286.8</ele>
      </trkpt>
      <trkpt lat="45.165009" lon="-72.49838">
        <ele>286.9</ele>
      </trkpt>
      <trkpt lat="45.16441" lon="-72.4984">
        <ele>289.8</ele>
      </trkpt>
      <trkpt lat="45.1644" lon="-72.4984">
        <ele>289.8</ele>
      </trkpt>
      <trkpt lat="45.163584" lon="-72.498436">
        <ele>296</ele>
      </trkpt>
      <trkpt lat="45.162768" lon="-72.498472">
        <ele>300.2</ele>
      </trkpt>
      <trkpt lat="45.161952" lon="-72.498508">
        <ele>302.7</ele>
      </trkpt>
      <trkpt lat="45.161136" lon="-72.498544">
        <ele>307.1</ele>
      </trkpt>
      <trkpt lat="45.16032" lon="-72.49858">
        <ele>311.6</ele>
      </trkpt>
      <trkpt lat="45.15966" lon="-72.498606">
        <ele>317.8</ele>
      </trkpt>
      <trkpt lat="45.158999" lon="-72.498633">
        <ele>328.2</ele>
      </trkpt>
      <trkpt lat="45.15834" lon="-72.49866">
        <ele>334.7</ele>
      </trkpt>
      <trkpt lat="45.15824" lon="-72.4987">
        <ele>335.1</ele>
      </trkpt>
      <trkpt lat="45.15818" lon="-72.49875">
        <ele>335.3</ele>
      </trkpt>
      <trkpt lat="45.15813" lon="-72.49888">
        <ele>335.5</ele>
      </trkpt>
      <trkpt lat="45.15813" lon="-72.5">
        <ele>337.1</ele>
      </trkpt>
      <trkpt lat="45.158158" lon="-72.501221">
        <ele>336.8</ele>
      </trkpt>
      <trkpt lat="45.158186" lon="-72.502443">
        <ele>336</ele>
      </trkpt>
      <trkpt lat="45.158214" lon="-72.503665">
        <ele>335.6</ele>
      </trkpt>
      <trkpt lat="45.158242" lon="-72.504887">
        <ele>335.6</ele>
      </trkpt>
      <trkpt lat="45.15827" lon="-72.50611">
        <ele>335.1</ele>
      </trkpt>
      <trkpt lat="45.1583" lon="-72.507357">
        <ele>334.5</ele>
      </trkpt>
      <trkpt lat="45.15833" lon="-72.508604">
        <ele>333.9</ele>
      </trkpt>
      <trkpt lat="45.15836" lon="-72.509852">
        <ele>335.3</ele>
      </trkpt>
      <trkpt lat="45.15839" lon="-72.5111">
        <ele>340.9</ele>
      </trkpt>
      <trkpt lat="45.15839" lon="-72.51209">
        <ele>342.7</ele>
      </trkpt>
      <trkpt lat="45.15842" lon="-72.513254">
        <ele>345.2</ele>
      </trkpt>
      <trkpt lat="45.15845" lon="-72.51442">
        <ele>343.2</ele>
      </trkpt>
      <trkpt lat="45.1585" lon="-72.51537">
        <ele>341.7</ele>
      </trkpt>
      <trkpt lat="45.1585" lon="-72.51616">
        <ele>340.6</ele>
      </trkpt>
      <trkpt lat="45.15853" lon="-72.516934">
        <ele>337</ele>
      </trkpt>
      <trkpt lat="45.15856" lon="-72.51771">
        <ele>333.9</ele>
      </trkpt>
      <trkpt lat="45.159129" lon="-72.517719">
        <ele>333</ele>
      </trkpt>
      <trkpt lat="45.1597" lon="-72.51773">
        <ele>328.2</ele>
      </trkpt>
      <trkpt lat="45.15981" lon="-72.51778">
        <ele>327.7</ele>
      </trkpt>
      <trkpt lat="45.15996" lon="-72.518">
        <ele>327</ele>
      </trkpt>
      <trkpt lat="45.16014" lon="-72.51841">
        <ele>326.8</ele>
      </trkpt>
      <trkpt lat="45.16019" lon="-72.51854">
        <ele>326.6</ele>
      </trkpt>
      <trkpt lat="45.16042" lon="-72.5189">
        <ele>324.9</ele>
      </trkpt>
      <trkpt lat="45.16075" lon="-72.5197">
        <ele>319.8</ele>
      </trkpt>
      <trkpt lat="45.16097" lon="-72.52061">
        <ele>312.2</ele>
      </trkpt>
      <trkpt lat="45.161135" lon="-72.521424">
        <ele>305</ele>
      </trkpt>
      <trkpt lat="45.1613" lon="-72.52224">
        <ele>297.5</ele>
      </trkpt>
      <trkpt lat="45.16137" lon="-72.5228">
        <ele>294.4</ele>
      </trkpt>
      <trkpt lat="45.16137" lon="-72.52341">
        <ele>290.3</ele>
      </trkpt>
      <trkpt lat="45.16132" lon="-72.52391">
        <ele>286.9</ele>
      </trkpt>
      <trkpt lat="45.16126" lon="-72.52431">
        <ele>284.8</ele>
      </trkpt>
      <trkpt lat="45.16097" lon="-72.52505">
        <ele>283.6</ele>
      </trkpt>
      <trkpt lat="45.16068" lon="-72.52579">
        <ele>285.3</ele>
      </trkpt>
      <trkpt lat="45.16055" lon="-72.52635">
        <ele>285.3</ele>
      </trkpt>
      <trkpt lat="45.16029" lon="-72.52731">
        <ele>280.5</ele>
      </trkpt>
      <trkpt lat="45.16016" lon="-72.52803">
        <ele>281.2</ele>
      </trkpt>
      <trkpt lat="45.16013" lon="-72.52861">
        <ele>282.6</ele>
      </trkpt>
      <trkpt lat="45.16008" lon="-72.52897">
        <ele>281.8</ele>
      </trkpt>
      <trkpt lat="45.16007" lon="-72.52919">
        <ele>280.1</ele>
      </trkpt>
      <trkpt lat="45.1601" lon="-72.529904">
        <ele>277.9</ele>
      </trkpt>
      <trkpt lat="45.16013" lon="-72.53062">
        <ele>276.9</ele>
      </trkpt>
      <trkpt lat="45.16013" lon="-72.53138">
        <ele>278.2</ele>
      </trkpt>
      <trkpt lat="45.16013" lon="-72.53214">
        <ele>278.4</ele>
      </trkpt>
      <trkpt lat="45.16016" lon="-72.53274">
        <ele>278</ele>
      </trkpt>
      <trkpt lat="45.16017" lon="-72.533494">
        <ele>278.9</ele>
      </trkpt>
      <trkpt lat="45.16018" lon="-72.53425">
        <ele>277.9</ele>
      </trkpt>
      <trkpt lat="45.16011" lon="-72.53465">
        <ele>275.9</ele>
      </trkpt>
      <trkpt lat="45.15984" lon="-72.53574">
        <ele>268.9</ele>
      </trkpt>
      <trkpt lat="45.15967" lon="-72.53632">
        <ele>267.7</ele>
      </trkpt>
      <trkpt lat="45.15951" lon="-72.53716">
        <ele>263.1</ele>
      </trkpt>
      <trkpt lat="45.15947" lon="-72.53744">
        <ele>261.4</ele>
      </trkpt>
      <trkpt lat="45.15945" lon="-72.53856">
        <ele>256.3</ele>
      </trkpt>
      <trkpt lat="45.159255" lon="-72.53974">
        <ele>251.1</ele>
      </trkpt>
      <trkpt lat="45.15906" lon="-72.54092">
        <ele>243.2</ele>
      </trkpt>
      <trkpt lat="45.15891" lon="-72.54172">
        <ele>236.8</ele>
      </trkpt>
      <trkpt lat="45.15883" lon="-72.5424">
        <ele>230.4</ele>
      </trkpt>
      <trkpt lat="45.15898" lon="-72.54343">
        <ele>225.3</ele>
      </trkpt>
      <trkpt lat="45.15899" lon="-72.54362">
        <ele>224.7</ele>
      </trkpt>
      <trkpt lat="45.15897" lon="-72.54401">
        <ele>222</ele>
      </trkpt>
      <trkpt lat="45.15901" lon="-72.54428">
        <ele>219.5</ele>
      </trkpt>
      <trkpt lat="45.15912" lon="-72.54477">
        <ele>216</ele>
      </trkpt>
      <trkpt lat="45.15922" lon="-72.54579">
        <ele>214.8</ele>
      </trkpt>
      <trkpt lat="45.15914" lon="-72.54618">
        <ele>215.2</ele>
      </trkpt>
      <trkpt lat="45.15908" lon="-72.5464">
        <ele>215.2</ele>
      </trkpt>
      <trkpt lat="45.15908" lon="-72.54656">
        <ele>214.9</ele>
      </trkpt>
      <trkpt lat="45.15922" lon="-72.54747">
        <ele>215</ele>
      </trkpt>
      <trkpt lat="45.15926" lon="-72.54809">
        <ele>216.4</ele>
      </trkpt>
      <trkpt lat="45.159225" lon="-72.54887">
        <ele>221.6</ele>
      </trkpt>
      <trkpt lat="45.15919" lon="-72.54965">
        <ele>229.2</ele>
      </trkpt>
      <trkpt lat="45.15923" lon="-72.55055">
        <ele>232.7</ele>
      </trkpt>
      <trkpt lat="45.159243" lon="-72.551413">
        <ele>235.5</ele>
      </trkpt>
      <trkpt lat="45.159256" lon="-72.552276">
        <ele>242.6</ele>
      </trkpt>
      <trkpt lat="45.15927" lon="-72.55314">
        <ele>244.9</ele>
      </trkpt>
      <trkpt lat="45.159265" lon="-72.55408">
        <ele>249.7</ele>
      </trkpt>
      <trkpt lat="45.15926" lon="-72.55502">
        <ele>255.8</ele>
      </trkpt>
      <trkpt lat="45.15942" lon="-72.55623">
        <ele>260.4</ele>
      </trkpt>
      <trkpt lat="45.15935" lon="-72.55731">
        <ele>257.4</ele>
      </trkpt>
      <trkpt lat="45.15935" lon="-72.55758">
        <ele>255.5</ele>
      </trkpt>
      <trkpt lat="45.15937" lon="-72.55789">
        <ele>252.6</ele>
      </trkpt>
      <trkpt lat="45.15943" lon="-72.55815">
        <ele>250.4</ele>
      </trkpt>
      <trkpt lat="45.15943" lon="-72.55829">
        <ele>250.4</ele>
      </trkpt>
      <trkpt lat="45.15946" lon="-72.559559">
        <ele>242.4</ele>
      </trkpt>
      <trkpt lat="45.15949" lon="-72.560829">
        <ele>235.5</ele>
      </trkpt>
      <trkpt lat="45.15952" lon="-72.5621">
        <ele>238.7</ele>
      </trkpt>
      <trkpt lat="45.1594" lon="-72.56281">
        <ele>238.6</ele>
      </trkpt>
      <trkpt lat="45.15937" lon="-72.56312">
        <ele>238.8</ele>
      </trkpt>
      <trkpt lat="45.15934" lon="-72.5639">
        <ele>241.1</ele>
      </trkpt>
      <trkpt lat="45.15926" lon="-72.56474">
        <ele>246.2</ele>
      </trkpt>
      <trkpt lat="45.15923" lon="-72.56551">
        <ele>248.5</ele>
      </trkpt>
      <trkpt lat="45.15924" lon="-72.56577">
        <ele>248.7</ele>
      </trkpt>
      <trkpt lat="45.15928" lon="-72.56613">
        <ele>247.6</ele>
      </trkpt>
      <trkpt lat="45.15946" lon="-72.56703">
        <ele>240.6</ele>
      </trkpt>
      <trkpt lat="45.15949" lon="-72.567956">
        <ele>237</ele>
      </trkpt>
      <trkpt lat="45.15952" lon="-72.568883">
        <ele>235.9</ele>
      </trkpt>
      <trkpt lat="45.15955" lon="-72.56981">
        <ele>234.5</ele>
      </trkpt>
      <trkpt lat="45.1596" lon="-72.57085">
        <ele>235.7</ele>
      </trkpt>
      <trkpt lat="45.158839" lon="-72.570822">
        <ele>234.2</ele>
      </trkpt>
      <trkpt lat="45.158079" lon="-72.570794">
        <ele>232.9</ele>
      </trkpt>
      <trkpt lat="45.157319" lon="-72.570767">
        <ele>236.1</ele>
      </trkpt>
      <trkpt lat="45.15656" lon="-72.57074">
        <ele>243</ele>
      </trkpt>
      <trkpt lat="45.155824" lon="-72.570727">
        <ele>244.2</ele>
      </trkpt>
      <trkpt lat="45.155089" lon="-72.570714">
        <ele>246.8</ele>
      </trkpt>
      <trkpt lat="45.154354" lon="-72.570702">
        <ele>249.6</ele>
      </trkpt>
      <trkpt lat="45.15362" lon="-72.57069">
        <ele>250.7</ele>
      </trkpt>
      <trkpt lat="45.15317" lon="-72.57065">
        <ele>250.4</ele>
      </trkpt>
      <trkpt lat="45.152674" lon="-72.570624">
        <ele>251</ele>
      </trkpt>
      <trkpt lat="45.15218" lon="-72.5706">
        <ele>253.6</ele>
      </trkpt>
      <trkpt lat="45.15133" lon="-72.57056">
        <ele>258</ele>
      </trkpt>
      <trkpt lat="45.15103" lon="-72.5706">
        <ele>258.5</ele>
      </trkpt>
      <trkpt lat="45.15077" lon="-72.57065">
        <ele>258.1</ele>
      </trkpt>
      <trkpt lat="45.15064" lon="-72.57073">
        <ele>257.5</ele>
      </trkpt>
      <trkpt lat="45.15053" lon="-72.57083">
        <ele>256.5</ele>
      </trkpt>
      <trkpt lat="45.15035" lon="-72.57115">
        <ele>255.9</ele>
      </trkpt>
      <trkpt lat="45.149927" lon="-72.571985">
        <ele>254.7</ele>
      </trkpt>
      <trkpt lat="45.149505" lon="-72.57282">
        <ele>253.1</ele>
      </trkpt>
      <trkpt lat="45.149082" lon="-72.573655">
        <ele>249.6</ele>
      </trkpt>
      <trkpt lat="45.14866" lon="-72.57449">
        <ele>246.1</ele>
      </trkpt>
      <trkpt lat="45.148242" lon="-72.575335">
        <ele>243.5</ele>
      </trkpt>
      <trkpt lat="45.147825" lon="-72.57618">
        <ele>240.1</ele>
      </trkpt>
      <trkpt lat="45.147407" lon="-72.577025">
        <ele>236.9</ele>
      </trkpt>
      <trkpt lat="45.14699" lon="-72.57787">
        <ele>236</ele>
      </trkpt>
      <trkpt lat="45.14698" lon="-72.57789">
        <ele>236</ele>
      </trkpt>
      <trkpt lat="45.1469" lon="-72.57804">
        <ele>236</ele>
      </trkpt>
      <trkpt lat="45.14689" lon="-72.57841">
        <ele>235.8</ele>
      </trkpt>
      <trkpt lat="45.14689" lon="-72.57842">
        <ele>235.8</ele>
      </trkpt>
      <trkpt lat="45.14686" lon="-72.57944">
        <ele>234.2</ele>
      </trkpt>
      <trkpt lat="45.14689" lon="-72.58039">
        <ele>232.4</ele>
      </trkpt>
      <trkpt lat="45.146916" lon="-72.581303">
        <ele>229.4</ele>
      </trkpt>
      <trkpt lat="45.146943" lon="-72.582216">
        <ele>224.6</ele>
      </trkpt>
      <trkpt lat="45.14697" lon="-72.58313">
        <ele>224.1</ele>
      </trkpt>
      <trkpt lat="45.146986" lon="-72.584143">
        <ele>223.3</ele>
      </trkpt>
      <trkpt lat="45.147003" lon="-72.585156">
        <ele>219.5</ele>
      </trkpt>
      <trkpt lat="45.14702" lon="-72.58617">
        <ele>216.6</ele>
      </trkpt>
      <trkpt lat="45.147025" lon="-72.58734">
        <ele>211.7</ele>
      </trkpt>
      <trkpt lat="45.14703" lon="-72.588511">
        <ele>204.3</ele>
      </trkpt>
      <trkpt lat="45.147035" lon="-72.589682">
        <ele>197.8</ele>
      </trkpt>
      <trkpt lat="45.14704" lon="-72.590853">
        <ele>195.1</ele>
      </trkpt>
      <trkpt lat="45.147045" lon="-72.592024">
        <ele>192.8</ele>
      </trkpt>
      <trkpt lat="45.14705" lon="-72.593195">
        <ele>190.6</ele>
      </trkpt>
      <trkpt lat="45.147055" lon="-72.594366">
        <ele>188.9</ele>
      </trkpt>
      <trkpt lat="45.14706" lon="-72.595537">
        <ele>186.5</ele>
      </trkpt>
      <trkpt lat="45.147065" lon="-72.596708">
        <ele>176.7</ele>
      </trkpt>
      <trkpt lat="45.14707" lon="-72.59788">
        <ele>172.4</ele>
      </trkpt>
      <trkpt lat="45.14711" lon="-72.59807">
        <ele>172.5</ele>
      </trkpt>
      <trkpt lat="45.14708" lon="-72.59815">
        <ele>172.4</ele>
      </trkpt>
      <trkpt lat="45.14707" lon="-72.59823">
        <ele>172.4</ele>
      </trkpt>
      <trkpt lat="45.147065" lon="-72.59889">
        <ele>169.8</ele>
      </trkpt>
      <trkpt lat="45.14706" lon="-72.59955">
        <ele>169.6</ele>
      </trkpt>
      <trkpt lat="45.147087" lon="-72.600574">
        <ele>170.1</ele>
      </trkpt>
      <trkpt lat="45.147115" lon="-72.601599">
        <ele>171.8</ele>
      </trkpt>
      <trkpt lat="45.147142" lon="-72.602624">
        <ele>172.3</ele>
      </trkpt>
      <trkpt lat="45.14717" lon="-72.60365">
        <ele>174.4</ele>
      </trkpt>
      <trkpt lat="45.14716" lon="-72.60393">
        <ele>174.5</ele>
      </trkpt>
      <trkpt lat="45.1471" lon="-72.60436">
        <ele>174.5</ele>
      </trkpt>
      <trkpt lat="45.14696" lon="-72.60472">
        <ele>174.8</ele>
      </trkpt>
      <trkpt lat="45.14711" lon="-72.6049">
        <ele>174.4</ele>
      </trkpt>
      <trkpt lat="45.14716" lon="-72.60503">
        <ele>174.2</ele>
      </trkpt>
      <trkpt lat="45.14723" lon="-72.60535">
        <ele>172.1</ele>
      </trkpt>
      <trkpt lat="45.147264" lon="-72.606449">
        <ele>170.2</ele>
      </trkpt>
      <trkpt lat="45.147298" lon="-72.607549">
        <ele>166.2</ele>
      </trkpt>
      <trkpt lat="45.147332" lon="-72.608649">
        <ele>167.3</ele>
      </trkpt>
      <trkpt lat="45.147366" lon="-72.609749">
        <ele>175.9</ele>
      </trkpt>
      <trkpt lat="45.1474" lon="-72.61085">
        <ele>189.9</ele>
      </trkpt>
      <trkpt lat="45.1475" lon="-72.61192">
        <ele>196.8</ele>
      </trkpt>
      <trkpt lat="45.147525" lon="-72.612669">
        <ele>202.1</ele>
      </trkpt>
      <trkpt lat="45.14755" lon="-72.61342">
        <ele>203.2</ele>
      </trkpt>
      <trkpt lat="45.146837" lon="-72.613645">
        <ele>202.6</ele>
      </trkpt>
      <trkpt lat="45.146125" lon="-72.61387">
        <ele>198.2</ele>
      </trkpt>
      <trkpt lat="45.145412" lon="-72.614095">
        <ele>199.3</ele>
      </trkpt>
      <trkpt lat="45.1447" lon="-72.61432">
        <ele>199</ele>
      </trkpt>
      <trkpt lat="45.14469" lon="-72.61432">
        <ele>199</ele>
      </trkpt>
      <trkpt lat="45.143915" lon="-72.61458">
        <ele>201.3</ele>
      </trkpt>
      <trkpt lat="45.14314" lon="-72.61484">
        <ele>202</ele>
      </trkpt>
      <trkpt lat="45.14295" lon="-72.61488">
        <ele>201.3</ele>
      </trkpt>
      <trkpt lat="45.1422" lon="-72.61493">
        <ele>196.4</ele>
      </trkpt>
      <trkpt lat="45.14134" lon="-72.61485">
        <ele>197.6</ele>
      </trkpt>
      <trkpt lat="45.14092" lon="-72.61484">
        <ele>200.5</ele>
      </trkpt>
      <trkpt lat="45.14034" lon="-72.61493">
        <ele>202.3</ele>
      </trkpt>
      <trkpt lat="45.13994" lon="-72.61506">
        <ele>202.1</ele>
      </trkpt>
      <trkpt lat="45.1396" lon="-72.6152">
        <ele>202.5</ele>
      </trkpt>
      <trkpt lat="45.13933" lon="-72.61542">
        <ele>203.6</ele>
      </trkpt>
      <trkpt lat="45.13907" lon="-72.61578">
        <ele>206.7</ele>
      </trkpt>
      <trkpt lat="45.13885" lon="-72.61618">
        <ele>208</ele>
      </trkpt>
      <trkpt lat="45.13871" lon="-72.61636">
        <ele>208.4</ele>
      </trkpt>
      <trkpt lat="45.13863" lon="-72.61644">
        <ele>208.4</ele>
      </trkpt>
      <trkpt lat="45.13844" lon="-72.6165">
        <ele>207.4</ele>
      </trkpt>
      <trkpt lat="45.13803" lon="-72.61654">
        <ele>204.1</ele>
      </trkpt>
      <trkpt lat="45.13757" lon="-72.6165">
        <ele>203.2</ele>
      </trkpt>
      <trkpt lat="45.13672" lon="-72.61654">
        <ele>202</ele>
      </trkpt>
      <trkpt lat="45.13592" lon="-72.61664">
        <ele>203.3</ele>
      </trkpt>
      <trkpt lat="45.13516" lon="-72.61667">
        <ele>209.5</ele>
      </trkpt>
      <trkpt lat="45.134308" lon="-72.616686">
        <ele>212.7</ele>
      </trkpt>
      <trkpt lat="45.133456" lon="-72.616702">
        <ele>218.5</ele>
      </trkpt>
      <trkpt lat="45.132604" lon="-72.616718">
        <ele>225.1</ele>
      </trkpt>
      <trkpt lat="45.131752" lon="-72.616734">
        <ele>232.9</ele>
      </trkpt>
      <trkpt lat="45.1309" lon="-72.61675">
        <ele>235.2</ele>
      </trkpt>
      <trkpt lat="45.130329" lon="-72.6168">
        <ele>238.5</ele>
      </trkpt>
      <trkpt lat="45.12976" lon="-72.61685">
        <ele>244.3</ele>
      </trkpt>
      <trkpt lat="45.12914" lon="-72.61688">
        <ele>248.5</ele>
      </trkpt>
      <trkpt lat="45.12852" lon="-72.61691">
        <ele>248.8</ele>
      </trkpt>
      <trkpt lat="45.12789" lon="-72.61695">
        <ele>250.7</ele>
      </trkpt>
      <trkpt lat="45.12767" lon="-72.61699">
        <ele>251</ele>
      </trkpt>
      <trkpt lat="45.12751" lon="-72.61704">
        <ele>251.1</ele>
      </trkpt>
      <trkpt lat="45.12686" lon="-72.61733">
        <ele>251.1</ele>
      </trkpt>
      <trkpt lat="45.12621" lon="-72.61762">
        <ele>251.7</ele>
      </trkpt>
      <trkpt lat="45.12556" lon="-72.61791">
        <ele>253</ele>
      </trkpt>
      <trkpt lat="45.12491" lon="-72.6182">
        <ele>252.9</ele>
      </trkpt>
      <trkpt lat="45.124212" lon="-72.618494">
        <ele>250.1</ele>
      </trkpt>
      <trkpt lat="45.123514" lon="-72.618788">
        <ele>248.5</ele>
      </trkpt>
      <trkpt lat="45.122816" lon="-72.619082">
        <ele>248</ele>
      </trkpt>
      <trkpt lat="45.122118" lon="-72.619376">
        <ele>248.2</ele>
      </trkpt>
      <trkpt lat="45.12142" lon="-72.61967">
        <ele>251.8</ele>
      </trkpt>
      <trkpt lat="45.120855" lon="-72.61989">
        <ele>253</ele>
      </trkpt>
      <trkpt lat="45.12029" lon="-72.62011">
        <ele>252.6</ele>
      </trkpt>
      <trkpt lat="45.119755" lon="-72.620395">
        <ele>248.2</ele>
      </trkpt>
      <trkpt lat="45.11922" lon="-72.62068">
        <ele>244</ele>
      </trkpt>
      <trkpt lat="45.11921" lon="-72.62068">
        <ele>243.9</ele>
      </trkpt>
      <trkpt lat="45.1188" lon="-72.62088">
        <ele>239.8</ele>
      </trkpt>
      <trkpt lat="45.11861" lon="-72.62093">
        <ele>238</ele>
      </trkpt>
      <trkpt lat="45.117765" lon="-72.62104">
        <ele>225.5</ele>
      </trkpt>
      <trkpt lat="45.11692" lon="-72.62115">
        <ele>217.9</ele>
      </trkpt>
      <trkpt lat="45.116199" lon="-72.621295">
        <ele>214.7</ele>
      </trkpt>
      <trkpt lat="45.11548" lon="-72.62144">
        <ele>210.5</ele>
      </trkpt>
      <trkpt lat="45.11499" lon="-72.621495">
        <ele>208.3</ele>
      </trkpt>
      <trkpt lat="45.1145" lon="-72.62155">
        <ele>205.2</ele>
      </trkpt>
      <trkpt lat="45.11426" lon="-72.62155">
        <ele>203.4</ele>
      </trkpt>
      <trkpt lat="45.11358" lon="-72.62146">
        <ele>198</ele>
      </trkpt>
      <trkpt lat="45.113595" lon="-72.622649">
        <ele>199.8</ele>
      </trkpt>
      <trkpt lat="45.11361" lon="-72.62384">
        <ele>198.2</ele>
      </trkpt>
      <trkpt lat="45.113635" lon="-72.624579">
        <ele>197.2</ele>
      </trkpt>
      <trkpt lat="45.11366" lon="-72.62532">
        <ele>197.5</ele>
      </trkpt>
      <trkpt lat="45.113686" lon="-72.626399">
        <ele>200.3</ele>
      </trkpt>
      <trkpt lat="45.113712" lon="-72.627479">
        <ele>203.5</ele>
      </trkpt>
      <trkpt lat="45.113738" lon="-72.628559">
        <ele>205</ele>
      </trkpt>
      <trkpt lat="45.113764" lon="-72.629639">
        <ele>206.3</ele>
      </trkpt>
      <trkpt lat="45.11379" lon="-72.63072">
        <ele>209.1</ele>
      </trkpt>
      <trkpt lat="45.113835" lon="-72.631929">
        <ele>218.2</ele>
      </trkpt>
      <trkpt lat="45.11388" lon="-72.63314">
        <ele>229.1</ele>
      </trkpt>
      <trkpt lat="45.11392" lon="-72.634104">
        <ele>230.1</ele>
      </trkpt>
      <trkpt lat="45.11396" lon="-72.63507">
        <ele>229.2</ele>
      </trkpt>
      <trkpt lat="45.11399" lon="-72.636112">
        <ele>224.8</ele>
      </trkpt>
      <trkpt lat="45.11402" lon="-72.637154">
        <ele>221</ele>
      </trkpt>
      <trkpt lat="45.11405" lon="-72.638197">
        <ele>220.3</ele>
      </trkpt>
      <trkpt lat="45.11408" lon="-72.63924">
        <ele>222.1</ele>
      </trkpt>
      <trkpt lat="45.11404" lon="-72.63977">
        <ele>222.6</ele>
      </trkpt>
      <trkpt lat="45.11386" lon="-72.64071">
        <ele>221.5</ele>
      </trkpt>
      <trkpt lat="45.11368" lon="-72.64165">
        <ele>217.9</ele>
      </trkpt>
      <trkpt lat="45.1136" lon="-72.64216">
        <ele>217.1</ele>
      </trkpt>
      <trkpt lat="45.11359" lon="-72.64272">
        <ele>217</ele>
      </trkpt>
      <trkpt lat="45.11363" lon="-72.643964">
        <ele>220.9</ele>
      </trkpt>
      <trkpt lat="45.11367" lon="-72.645209">
        <ele>226.4</ele>
      </trkpt>
      <trkpt lat="45.11371" lon="-72.646454">
        <ele>226.3</ele>
      </trkpt>
      <trkpt lat="45.11375" lon="-72.6477">
        <ele>225.3</ele>
      </trkpt>
      <trkpt lat="45.11375" lon="-72.64846">
        <ele>225.7</ele>
      </trkpt>
      <trkpt lat="45.11369" lon="-72.64904">
        <ele>226.2</ele>
      </trkpt>
      <trkpt lat="45.11354" lon="-72.650005">
        <ele>227.1</ele>
      </trkpt>
      <trkpt lat="45.11339" lon="-72.65097">
        <ele>231.7</ele>
      </trkpt>
      <trkpt lat="45.113295" lon="-72.651685">
        <ele>235.6</ele>
      </trkpt>
      <trkpt lat="45.1132" lon="-72.6524">
        <ele>237.5</ele>
      </trkpt>
      <trkpt lat="45.1132" lon="-72.65281">
        <ele>238.7</ele>
      </trkpt>
      <trkpt lat="45.11326" lon="-72.65321">
        <ele>240.6</ele>
      </trkpt>
      <trkpt lat="45.11331" lon="-72.65339">
        <ele>241</ele>
      </trkpt>
      <trkpt lat="45.11354" lon="-72.65397">
        <ele>242.4</ele>
      </trkpt>
      <trkpt lat="45.11378" lon="-72.65437">
        <ele>243.3</ele>
      </trkpt>
      <trkpt lat="45.11398" lon="-72.65459">
        <ele>244.9</ele>
      </trkpt>
      <trkpt lat="45.114545" lon="-72.655104">
        <ele>248.2</ele>
      </trkpt>
      <trkpt lat="45.11511" lon="-72.65562">
        <ele>252.9</ele>
      </trkpt>
      <trkpt lat="45.11565" lon="-72.65616">
        <ele>254</ele>
      </trkpt>
      <trkpt lat="45.11596" lon="-72.65664">
        <ele>252.5</ele>
      </trkpt>
      <trkpt lat="45.11599" lon="-72.65688">
        <ele>251.8</ele>
      </trkpt>
      <trkpt lat="45.116" lon="-72.6579">
        <ele>250</ele>
      </trkpt>
      <trkpt lat="45.11598" lon="-72.65845">
        <ele>250</ele>
      </trkpt>
      <trkpt lat="45.11599" lon="-72.65884">
        <ele>250.3</ele>
      </trkpt>
      <trkpt lat="45.11608" lon="-72.65944">
        <ele>250.9</ele>
      </trkpt>
      <trkpt lat="45.11634" lon="-72.66014">
        <ele>251.5</ele>
      </trkpt>
      <trkpt lat="45.11686" lon="-72.66117">
        <ele>245</ele>
      </trkpt>
      <trkpt lat="45.117265" lon="-72.661914">
        <ele>242.5</ele>
      </trkpt>
      <trkpt lat="45.11767" lon="-72.66266">
        <ele>240</ele>
      </trkpt>
      <trkpt lat="45.11809" lon="-72.66333">
        <ele>237.8</ele>
      </trkpt>
      <trkpt lat="45.1184" lon="-72.66364">
        <ele>236.8</ele>
      </trkpt>
      <trkpt lat="45.11857" lon="-72.66391">
        <ele>235.9</ele>
      </trkpt>
      <trkpt lat="45.11897" lon="-72.66471">
        <ele>229.5</ele>
      </trkpt>
      <trkpt lat="45.11911" lon="-72.66516">
        <ele>227.3</ele>
      </trkpt>
      <trkpt lat="45.11921" lon="-72.66575">
        <ele>226.3</ele>
      </trkpt>
      <trkpt lat="45.11936" lon="-72.66694">
        <ele>228.7</ele>
      </trkpt>
      <trkpt lat="45.11941" lon="-72.66753">
        <ele>232</ele>
      </trkpt>
      <trkpt lat="45.1194" lon="-72.66806">
        <ele>236.3</ele>
      </trkpt>
      <trkpt lat="45.11926" lon="-72.66928">
        <ele>241.1</ele>
      </trkpt>
      <trkpt lat="45.11926" lon="-72.66941">
        <ele>241.1</ele>
      </trkpt>
      <trkpt lat="45.1193" lon="-72.66968">
        <ele>239.4</ele>
      </trkpt>
      <trkpt lat="45.11939" lon="-72.67">
        <ele>237.7</ele>
      </trkpt>
      <trkpt lat="45.11948" lon="-72.67022">
        <ele>237.7</ele>
      </trkpt>
      <trkpt lat="45.11992" lon="-72.67103">
        <ele>230.4</ele>
      </trkpt>
      <trkpt lat="45.120235" lon="-72.671659">
        <ele>227.5</ele>
      </trkpt>
      <trkpt lat="45.12055" lon="-72.67229">
        <ele>225.9</ele>
      </trkpt>
      <trkpt lat="45.12072" lon="-72.67259">
        <ele>225.2</ele>
      </trkpt>
      <trkpt lat="45.1212" lon="-72.67327">
        <ele>220.8</ele>
      </trkpt>
      <trkpt lat="45.12148" lon="-72.67371">
        <ele>217.1</ele>
      </trkpt>
      <trkpt lat="45.1217" lon="-72.67411">
        <ele>213.1</ele>
      </trkpt>
      <trkpt lat="45.122275" lon="-72.674739">
        <ele>209.8</ele>
      </trkpt>
      <trkpt lat="45.12285" lon="-72.67537">
        <ele>208.6</ele>
      </trkpt>
      <trkpt lat="45.123405" lon="-72.675919">
        <ele>209.4</ele>
      </trkpt>
      <trkpt lat="45.12396" lon="-72.67647">
        <ele>208.2</ele>
      </trkpt>
      <trkpt lat="45.12432" lon="-72.676864">
        <ele>205.5</ele>
      </trkpt>
      <trkpt lat="45.12468" lon="-72.67726">
        <ele>202.2</ele>
      </trkpt>
      <trkpt lat="45.12518" lon="-72.67783">
        <ele>196.7</ele>
      </trkpt>
      <trkpt lat="45.12581" lon="-72.678504">
        <ele>194.8</ele>
      </trkpt>
      <trkpt lat="45.12644" lon="-72.67918">
        <ele>196</ele>
      </trkpt>
      <trkpt lat="45.12689" lon="-72.67994">
        <ele>200.1</ele>
      </trkpt>
      <trkpt lat="45.127423" lon="-72.680953">
        <ele>205.2</ele>
      </trkpt>
      <trkpt lat="45.127956" lon="-72.681966">
        <ele>210.3</ele>
      </trkpt>
      <trkpt lat="45.12849" lon="-72.68298">
        <ele>219.2</ele>
      </trkpt>
      <trkpt lat="45.12862" lon="-72.68334">
        <ele>220.9</ele>
      </trkpt>
      <trkpt lat="45.12866" lon="-72.68353">
        <ele>220.5</ele>
      </trkpt>
      <trkpt lat="45.12866" lon="-72.68405">
        <ele>218.2</ele>
      </trkpt>
      <trkpt lat="45.12873" lon="-72.68509">
        <ele>213</ele>
      </trkpt>
      <trkpt lat="45.128855" lon="-72.686274">
        <ele>212.1</ele>
      </trkpt>
      <trkpt lat="45.12898" lon="-72.68746">
        <ele>209.9</ele>
      </trkpt>
      <trkpt lat="45.12913" lon="-72.68822">
        <ele>209.5</ele>
      </trkpt>
      <trkpt lat="45.1292" lon="-72.6884">
        <ele>209.7</ele>
      </trkpt>
      <trkpt lat="45.12935" lon="-72.68867">
        <ele>210.3</ele>
      </trkpt>
      <trkpt lat="45.12981" lon="-72.68929">
        <ele>214.5</ele>
      </trkpt>
      <trkpt lat="45.12994" lon="-72.68939">
        <ele>215.2</ele>
      </trkpt>
      <trkpt lat="45.13016" lon="-72.68952">
        <ele>217.2</ele>
      </trkpt>
      <trkpt lat="45.13048" lon="-72.68961">
        <ele>222.6</ele>
      </trkpt>
      <trkpt lat="45.131255" lon="-72.689629">
        <ele>228.6</ele>
      </trkpt>
      <trkpt lat="45.13203" lon="-72.68965">
        <ele>231.7</ele>
      </trkpt>
      <trkpt lat="45.132605" lon="-72.68954">
        <ele>228.9</ele>
      </trkpt>
      <trkpt lat="45.13318" lon="-72.68943">
        <ele>227.2</ele>
      </trkpt>
      <trkpt lat="45.13377" lon="-72.68938">
        <ele>224.3</ele>
      </trkpt>
      <trkpt lat="45.13392" lon="-72.68938">
        <ele>223.7</ele>
      </trkpt>
      <trkpt lat="45.13406" lon="-72.68943">
        <ele>221.9</ele>
      </trkpt>
      <trkpt lat="45.13444" lon="-72.6897">
        <ele>219.4</ele>
      </trkpt>
      <trkpt lat="45.134975" lon="-72.690169">
        <ele>216.6</ele>
      </trkpt>
      <trkpt lat="45.13551" lon="-72.69064">
        <ele>215.8</ele>
      </trkpt>
      <trkpt lat="45.136153" lon="-72.691056">
        <ele>210.9</ele>
      </trkpt>
      <trkpt lat="45.136796" lon="-72.691473">
        <ele>202.8</ele>
      </trkpt>
      <trkpt lat="45.13744" lon="-72.69189">
        <ele>195.1</ele>
      </trkpt>
      <trkpt lat="45.13765" lon="-72.69199">
        <ele>192.6</ele>
      </trkpt>
      <trkpt lat="45.13794" lon="-72.69208">
        <ele>191.7</ele>
      </trkpt>
      <trkpt lat="45.13815" lon="-72.69211">
        <ele>192.5</ele>
      </trkpt>
      <trkpt lat="45.13886" lon="-72.69204">
        <ele>200.6</ele>
      </trkpt>
      <trkpt lat="45.13852" lon="-72.69284">
        <ele>195</ele>
      </trkpt>
      <trkpt lat="45.138175" lon="-72.69375">
        <ele>190.9</ele>
      </trkpt>
      <trkpt lat="45.13783" lon="-72.69466">
        <ele>188.5</ele>
      </trkpt>
      <trkpt lat="45.13751" lon="-72.695445">
        <ele>186.4</ele>
      </trkpt>
      <trkpt lat="45.13719" lon="-72.69623">
        <ele>185.5</ele>
      </trkpt>
      <trkpt lat="45.13695" lon="-72.69686">
        <ele>186.1</ele>
      </trkpt>
      <trkpt lat="45.13655" lon="-72.69758">
        <ele>188.2</ele>
      </trkpt>
      <trkpt lat="45.1362" lon="-72.69816">
        <ele>189.2</ele>
      </trkpt>
      <trkpt lat="45.13585" lon="-72.69874">
        <ele>189.9</ele>
      </trkpt>
      <trkpt lat="45.13561" lon="-72.69933">
        <ele>191.3</ele>
      </trkpt>
      <trkpt lat="45.1356" lon="-72.69933">
        <ele>191.3</ele>
      </trkpt>
      <trkpt lat="45.13537" lon="-72.69995">
        <ele>192.7</ele>
      </trkpt>
      <trkpt lat="45.13514" lon="-72.70057">
        <ele>193.4</ele>
      </trkpt>
      <trkpt lat="45.1349" lon="-72.70129">
        <ele>193.4</ele>
      </trkpt>
      <trkpt lat="45.13483" lon="-72.70157">
        <ele>193.3</ele>
      </trkpt>
      <trkpt lat="45.134665" lon="-72.70257">
        <ele>192.9</ele>
      </trkpt>
      <trkpt lat="45.1345" lon="-72.70357">
        <ele>193.7</ele>
      </trkpt>
      <trkpt lat="45.13435" lon="-72.70478">
        <ele>199.3</ele>
      </trkpt>
      <trkpt lat="45.1342" lon="-72.70599">
        <ele>204.1</ele>
      </trkpt>
      <trkpt lat="45.13414" lon="-72.7069">
        <ele>207.7</ele>
      </trkpt>
      <trkpt lat="45.13408" lon="-72.70781">
        <ele>212.2</ele>
      </trkpt>
      <trkpt lat="45.13402" lon="-72.70872">
        <ele>214.6</ele>
      </trkpt>
      <trkpt lat="45.13388" lon="-72.70971">
        <ele>217.3</ele>
      </trkpt>
      <trkpt lat="45.13374" lon="-72.71043">
        <ele>219</ele>
      </trkpt>
      <trkpt lat="45.133435" lon="-72.711332">
        <ele>220.9</ele>
      </trkpt>
      <trkpt lat="45.13313" lon="-72.712235">
        <ele>221.9</ele>
      </trkpt>
      <trkpt lat="45.132825" lon="-72.713137">
        <ele>222.3</ele>
      </trkpt>
      <trkpt lat="45.13252" lon="-72.71404">
        <ele>225.2</ele>
      </trkpt>
      <trkpt lat="45.13222" lon="-72.71499">
        <ele>230.1</ele>
      </trkpt>
      <trkpt lat="45.131965" lon="-72.71575">
        <ele>232.7</ele>
      </trkpt>
      <trkpt lat="45.13171" lon="-72.71651">
        <ele>236.2</ele>
      </trkpt>
      <trkpt lat="45.13153" lon="-72.71692">
        <ele>237.3</ele>
      </trkpt>
      <trkpt lat="45.13111" lon="-72.7178">
        <ele>238.5</ele>
      </trkpt>
      <trkpt lat="45.13069" lon="-72.718643">
        <ele>238.1</ele>
      </trkpt>
      <trkpt lat="45.13027" lon="-72.719486">
        <ele>239.4</ele>
      </trkpt>
      <trkpt lat="45.12985" lon="-72.72033">
        <ele>239.8</ele>
      </trkpt>
      <trkpt lat="45.129412" lon="-72.72112">
        <ele>238.4</ele>
      </trkpt>
      <trkpt lat="45.128975" lon="-72.72191">
        <ele>237.5</ele>
      </trkpt>
      <trkpt lat="45.128537" lon="-72.7227">
        <ele>237.6</ele>
      </trkpt>
      <trkpt lat="45.1281" lon="-72.72349">
        <ele>237.4</ele>
      </trkpt>
      <trkpt lat="45.12781" lon="-72.72394">
        <ele>235.9</ele>
      </trkpt>
      <trkpt lat="45.12735" lon="-72.72482">
        <ele>234.1</ele>
      </trkpt>
      <trkpt lat="45.12689" lon="-72.7257">
        <ele>230.8</ele>
      </trkpt>
      <trkpt lat="45.12644" lon="-72.72666">
        <ele>226.2</ele>
      </trkpt>
      <trkpt lat="45.12599" lon="-72.72762">
        <ele>222.8</ele>
      </trkpt>
      <trkpt lat="45.12563" lon="-72.72801">
        <ele>218.8</ele>
      </trkpt>
      <trkpt lat="45.12514" lon="-72.72864">
        <ele>214.9</ele>
      </trkpt>
      <trkpt lat="45.12465" lon="-72.72927">
        <ele>213.2</ele>
      </trkpt>
      <trkpt lat="45.124055" lon="-72.730125">
        <ele>213.9</ele>
      </trkpt>
      <trkpt lat="45.12346" lon="-72.73098">
        <ele>213.5</ele>
      </trkpt>
      <trkpt lat="45.12291" lon="-72.73187">
        <ele>213.6</ele>
      </trkpt>
      <trkpt lat="45.122377" lon="-72.73269">
        <ele>214.3</ele>
      </trkpt>
      <trkpt lat="45.121844" lon="-72.73351">
        <ele>215.4</ele>
      </trkpt>
      <trkpt lat="45.121311" lon="-72.73433">
        <ele>216.3</ele>
      </trkpt>
      <trkpt lat="45.120778" lon="-72.73515">
        <ele>216.9</ele>
      </trkpt>
      <trkpt lat="45.120245" lon="-72.73597">
        <ele>217.2</ele>
      </trkpt>
      <trkpt lat="45.119712" lon="-72.73679">
        <ele>217.6</ele>
      </trkpt>
      <trkpt lat="45.11918" lon="-72.73761">
        <ele>219.2</ele>
      </trkpt>
      <trkpt lat="45.11918" lon="-72.73762">
        <ele>219.2</ele>
      </trkpt>
      <trkpt lat="45.118666" lon="-72.738416">
        <ele>220.1</ele>
      </trkpt>
      <trkpt lat="45.118153" lon="-72.739213">
        <ele>219</ele>
      </trkpt>
      <trkpt lat="45.11764" lon="-72.74001">
        <ele>218.1</ele>
      </trkpt>
      <trkpt lat="45.117185" lon="-72.74074">
        <ele>216.7</ele>
      </trkpt>
      <trkpt lat="45.11673" lon="-72.74147">
        <ele>216.8</ele>
      </trkpt>
      <trkpt lat="45.116275" lon="-72.7422">
        <ele>218.7</ele>
      </trkpt>
      <trkpt lat="45.11582" lon="-72.74293">
        <ele>221.2</ele>
      </trkpt>
      <trkpt lat="45.115312" lon="-72.74372">
        <ele>223.4</ele>
      </trkpt>
      <trkpt lat="45.114804" lon="-72.74451">
        <ele>223.8</ele>
      </trkpt>
      <trkpt lat="45.114296" lon="-72.7453">
        <ele>223.8</ele>
      </trkpt>
      <trkpt lat="45.113788" lon="-72.74609">
        <ele>223.4</ele>
      </trkpt>
      <trkpt lat="45.11328" lon="-72.74688">
        <ele>221.8</ele>
      </trkpt>
      <trkpt lat="45.11284" lon="-72.74754">
        <ele>219.6</ele>
      </trkpt>
      <trkpt lat="45.113518" lon="-72.748307">
        <ele>213.3</ele>
      </trkpt>
      <trkpt lat="45.114196" lon="-72.749075">
        <ele>206.7</ele>
      </trkpt>
      <trkpt lat="45.114874" lon="-72.749843">
        <ele>200</ele>
      </trkpt>
      <trkpt lat="45.115552" lon="-72.750611">
        <ele>197.6</ele>
      </trkpt>
      <trkpt lat="45.11623" lon="-72.75138">
        <ele>197.2</ele>
      </trkpt>
      <trkpt lat="45.1168" lon="-72.752039">
        <ele>196.3</ele>
      </trkpt>
      <trkpt lat="45.11737" lon="-72.7527">
        <ele>193.9</ele>
      </trkpt>
      <trkpt lat="45.117715" lon="-72.753169">
        <ele>194.4</ele>
      </trkpt>
      <trkpt lat="45.11806" lon="-72.75364">
        <ele>196</ele>
      </trkpt>
      <trkpt lat="45.118475" lon="-72.754259">
        <ele>196.6</ele>
      </trkpt>
      <trkpt lat="45.11889" lon="-72.75488">
        <ele>196.8</ele>
      </trkpt>
      <trkpt lat="45.11908" lon="-72.75524">
        <ele>197</ele>
      </trkpt>
      <trkpt lat="45.11922" lon="-72.7556">
        <ele>197.1</ele>
      </trkpt>
      <trkpt lat="45.11929" lon="-72.75589">
        <ele>197.3</ele>
      </trkpt>
      <trkpt lat="45.11933" lon="-72.75627">
        <ele>197.3</ele>
      </trkpt>
      <trkpt lat="45.11936" lon="-72.757523">
        <ele>195.8</ele>
      </trkpt>
      <trkpt lat="45.11939" lon="-72.758776">
        <ele>195.4</ele>
      </trkpt>
      <trkpt lat="45.11942" lon="-72.76003">
        <ele>194.7</ele>
      </trkpt>
      <trkpt lat="45.119452" lon="-72.760992">
        <ele>193.8</ele>
      </trkpt>
      <trkpt lat="45.119485" lon="-72.761954">
        <ele>193.6</ele>
      </trkpt>
      <trkpt lat="45.119517" lon="-72.762917">
        <ele>193.4</ele>
      </trkpt>
      <trkpt lat="45.11955" lon="-72.76388">
        <ele>192.4</ele>
      </trkpt>
      <trkpt lat="45.11956" lon="-72.765089">
        <ele>189.5</ele>
      </trkpt>
      <trkpt lat="45.11957" lon="-72.766299">
        <ele>186</ele>
      </trkpt>
      <trkpt lat="45.11958" lon="-72.76751">
        <ele>184.7</ele>
      </trkpt>
      <trkpt lat="45.119585" lon="-72.768733">
        <ele>183.7</ele>
      </trkpt>
      <trkpt lat="45.11959" lon="-72.769956">
        <ele>181.8</ele>
      </trkpt>
      <trkpt lat="45.119595" lon="-72.771179">
        <ele>181.8</ele>
      </trkpt>
      <trkpt lat="45.1196" lon="-72.772403">
        <ele>182.7</ele>
      </trkpt>
      <trkpt lat="45.119605" lon="-72.773626">
        <ele>183.1</ele>
      </trkpt>
      <trkpt lat="45.11961" lon="-72.77485">
        <ele>185.6</ele>
      </trkpt>
      <trkpt lat="45.11963" lon="-72.77591">
        <ele>187.8</ele>
      </trkpt>
      <trkpt lat="45.120253" lon="-72.776423">
        <ele>189.4</ele>
      </trkpt>
      <trkpt lat="45.120876" lon="-72.776936">
        <ele>191</ele>
      </trkpt>
      <trkpt lat="45.1215" lon="-72.77745">
        <ele>192.3</ele>
      </trkpt>
      <trkpt lat="45.122195" lon="-72.778019">
        <ele>193.2</ele>
      </trkpt>
      <trkpt lat="45.12289" lon="-72.778589">
        <ele>194</ele>
      </trkpt>
      <trkpt lat="45.123585" lon="-72.779159">
        <ele>195.6</ele>
      </trkpt>
      <trkpt lat="45.12428" lon="-72.779729">
        <ele>197</ele>
      </trkpt>
      <trkpt lat="45.124975" lon="-72.780299">
        <ele>198.1</ele>
      </trkpt>
      <trkpt lat="45.12567" lon="-72.780869">
        <ele>198.6</ele>
      </trkpt>
      <trkpt lat="45.126365" lon="-72.781439">
        <ele>198.3</ele>
      </trkpt>
      <trkpt lat="45.12706" lon="-72.78201">
        <ele>196.3</ele>
      </trkpt>
      <trkpt lat="45.12777" lon="-72.782609">
        <ele>195</ele>
      </trkpt>
      <trkpt lat="45.12848" lon="-72.78321">
        <ele>194.4</ele>
      </trkpt>
      <trkpt lat="45.12863" lon="-72.78335">
        <ele>194.1</ele>
      </trkpt>
      <trkpt lat="45.1287" lon="-72.78353">
        <ele>193.7</ele>
      </trkpt>
      <trkpt lat="45.12876" lon="-72.78376">
        <ele>193.7</ele>
      </trkpt>
      <trkpt lat="45.128933" lon="-72.784769">
        <ele>190.6</ele>
      </trkpt>
      <trkpt lat="45.129106" lon="-72.785779">
        <ele>187.7</ele>
      </trkpt>
      <trkpt lat="45.12928" lon="-72.78679">
        <ele>186.1</ele>
      </trkpt>
      <trkpt lat="45.12944" lon="-72.78779">
        <ele>182.3</ele>
      </trkpt>
      <trkpt lat="45.12946" lon="-72.78886">
        <ele>176.2</ele>
      </trkpt>
      <trkpt lat="45.12946" lon="-72.78979">
        <ele>173.2</ele>
      </trkpt>
      <trkpt lat="45.12946" lon="-72.7898">
        <ele>173.1</ele>
      </trkpt>
      <trkpt lat="45.129455" lon="-72.790684">
        <ele>171.7</ele>
      </trkpt>
      <trkpt lat="45.12945" lon="-72.79157">
        <ele>171.1</ele>
      </trkpt>
      <trkpt lat="45.129438" lon="-72.792725">
        <ele>170</ele>
      </trkpt>
      <trkpt lat="45.129426" lon="-72.79388">
        <ele>168.8</ele>
      </trkpt>
      <trkpt lat="45.129415" lon="-72.795035">
        <ele>166.4</ele>
      </trkpt>
      <trkpt lat="45.129403" lon="-72.79619">
        <ele>163.8</ele>
      </trkpt>
      <trkpt lat="45.129391" lon="-72.797345">
        <ele>161.3</ele>
      </trkpt>
      <trkpt lat="45.12938" lon="-72.7985">
        <ele>160.1</ele>
      </trkpt>
      <trkpt lat="45.12938" lon="-72.799609">
        <ele>158.6</ele>
      </trkpt>
      <trkpt lat="45.12938" lon="-72.80072">
        <ele>156.5</ele>
      </trkpt>
      <trkpt lat="45.13026" lon="-72.8007">
        <ele>156.4</ele>
      </trkpt>
      <trkpt lat="45.13026" lon="-72.80094">
        <ele>155.4</ele>
      </trkpt>
      <trkpt lat="45.13026" lon="-72.80095">
        <ele>155.4</ele>
      </trkpt>
      <trkpt lat="45.13026" lon="-72.8007">
        <ele>156.4</ele>
      </trkpt>
      <trkpt lat="45.13032" lon="-72.80069">
        <ele>156.4</ele>
      </trkpt>
      <trkpt lat="45.130946" lon="-72.80066">
        <ele>155.4</ele>
      </trkpt>
      <trkpt lat="45.131573" lon="-72.80063">
        <ele>154.6</ele>
      </trkpt>
      <trkpt lat="45.1322" lon="-72.8006">
        <ele>153.5</ele>
      </trkpt>
      <trkpt lat="45.13282" lon="-72.80059">
        <ele>152.1</ele>
      </trkpt>
      <trkpt lat="45.133527" lon="-72.800582">
        <ele>149.9</ele>
      </trkpt>
      <trkpt lat="45.134235" lon="-72.800575">
        <ele>148.1</ele>
      </trkpt>
      <trkpt lat="45.134942" lon="-72.800567">
        <ele>146.5</ele>
      </trkpt>
      <trkpt lat="45.13565" lon="-72.80056">
        <ele>144.9</ele>
      </trkpt>
      <trkpt lat="45.135648" lon="-72.799344">
        <ele>146.2</ele>
      </trkpt>
      <trkpt lat="45.135647" lon="-72.798128">
        <ele>149.3</ele>
      </trkpt>
      <trkpt lat="45.135646" lon="-72.796913">
        <ele>153.2</ele>
      </trkpt>
      <trkpt lat="45.135645" lon="-72.795697">
        <ele>158.1</ele>
      </trkpt>
      <trkpt lat="45.135644" lon="-72.794482">
        <ele>161.5</ele>
      </trkpt>
      <trkpt lat="45.135643" lon="-72.793266">
        <ele>162.6</ele>
      </trkpt>
      <trkpt lat="45.135642" lon="-72.792051">
        <ele>166.5</ele>
      </trkpt>
      <trkpt lat="45.135641" lon="-72.790835">
        <ele>171.8</ele>
      </trkpt>
      <trkpt lat="45.13564" lon="-72.78962">
        <ele>174.2</ele>
      </trkpt>
      <trkpt lat="45.135645" lon="-72.78848">
        <ele>175.7</ele>
      </trkpt>
      <trkpt lat="45.13565" lon="-72.78734">
        <ele>179.3</ele>
      </trkpt>
      <trkpt lat="45.135668" lon="-72.786186">
        <ele>182.4</ele>
      </trkpt>
      <trkpt lat="45.135686" lon="-72.785032">
        <ele>185</ele>
      </trkpt>
      <trkpt lat="45.135704" lon="-72.783878">
        <ele>187.7</ele>
      </trkpt>
      <trkpt lat="45.135722" lon="-72.782724">
        <ele>190.4</ele>
      </trkpt>
      <trkpt lat="45.13574" lon="-72.78157">
        <ele>193.2</ele>
      </trkpt>
      <trkpt lat="45.13575" lon="-72.7808">
        <ele>195.7</ele>
      </trkpt>
      <trkpt lat="45.13576" lon="-72.78003">
        <ele>198.7</ele>
      </trkpt>
      <trkpt lat="45.135755" lon="-72.77876">
        <ele>195.5</ele>
      </trkpt>
      <trkpt lat="45.13575" lon="-72.777491">
        <ele>191.2</ele>
      </trkpt>
      <trkpt lat="45.135745" lon="-72.776222">
        <ele>186.2</ele>
      </trkpt>
      <trkpt lat="45.13574" lon="-72.774952">
        <ele>182.5</ele>
      </trkpt>
      <trkpt lat="45.135735" lon="-72.773683">
        <ele>180.5</ele>
      </trkpt>
      <trkpt lat="45.13573" lon="-72.772414">
        <ele>175.6</ele>
      </trkpt>
      <trkpt lat="45.135725" lon="-72.771144">
        <ele>175</ele>
      </trkpt>
      <trkpt lat="45.13572" lon="-72.769875">
        <ele>180.6</ele>
      </trkpt>
      <trkpt lat="45.135715" lon="-72.768606">
        <ele>181.9</ele>
      </trkpt>
      <trkpt lat="45.13571" lon="-72.767337">
        <ele>183.3</ele>
      </trkpt>
      <trkpt lat="45.135705" lon="-72.766067">
        <ele>187</ele>
      </trkpt>
      <trkpt lat="45.1357" lon="-72.764798">
        <ele>193.5</ele>
      </trkpt>
      <trkpt lat="45.135695" lon="-72.763529">
        <ele>196</ele>
      </trkpt>
      <trkpt lat="45.13569" lon="-72.76226">
        <ele>194.8</ele>
      </trkpt>
      <trkpt lat="45.13575" lon="-72.7615">
        <ele>193.5</ele>
      </trkpt>
      <trkpt lat="45.13579" lon="-72.76119">
        <ele>193.6</ele>
      </trkpt>
      <trkpt lat="45.13592" lon="-72.76092">
        <ele>193.6</ele>
      </trkpt>
      <trkpt lat="45.13608" lon="-72.76061">
        <ele>193.6</ele>
      </trkpt>
      <trkpt lat="45.13637" lon="-72.76016">
        <ele>192.5</ele>
      </trkpt>
      <trkpt lat="45.13692" lon="-72.759515">
        <ele>190</ele>
      </trkpt>
      <trkpt lat="45.13747" lon="-72.75887">
        <ele>186.2</ele>
      </trkpt>
      <trkpt lat="45.13767" lon="-72.75859">
        <ele>185.5</ele>
      </trkpt>
      <trkpt lat="45.13788" lon="-72.75819">
        <ele>185</ele>
      </trkpt>
      <trkpt lat="45.13814" lon="-72.75763">
        <ele>183.2</ele>
      </trkpt>
      <trkpt lat="45.1384" lon="-72.75707">
        <ele>179.4</ele>
      </trkpt>
      <trkpt lat="45.138695" lon="-72.756335">
        <ele>178</ele>
      </trkpt>
      <trkpt lat="45.13899" lon="-72.7556">
        <ele>177.6</ele>
      </trkpt>
      <trkpt lat="45.139345" lon="-72.75486">
        <ele>179.4</ele>
      </trkpt>
      <trkpt lat="45.1397" lon="-72.75412">
        <ele>182.5</ele>
      </trkpt>
      <trkpt lat="45.14027" lon="-72.75457">
        <ele>181.9</ele>
      </trkpt>
      <trkpt lat="45.14048" lon="-72.75467">
        <ele>181.3</ele>
      </trkpt>
      <trkpt lat="45.14071" lon="-72.75475">
        <ele>181.3</ele>
      </trkpt>
      <trkpt lat="45.14092" lon="-72.75479">
        <ele>181.7</ele>
      </trkpt>
      <trkpt lat="45.1412" lon="-72.75479">
        <ele>182.7</ele>
      </trkpt>
      <trkpt lat="45.142079" lon="-72.754763">
        <ele>180.5</ele>
      </trkpt>
      <trkpt lat="45.142959" lon="-72.754736">
        <ele>175.2</ele>
      </trkpt>
      <trkpt lat="45.14384" lon="-72.75471">
        <ele>172.5</ele>
      </trkpt>
      <trkpt lat="45.14403" lon="-72.7547">
        <ele>172.3</ele>
      </trkpt>
      <trkpt lat="45.14428" lon="-72.75461">
        <ele>172.3</ele>
      </trkpt>
      <trkpt lat="45.14428" lon="-72.75462">
        <ele>172.3</ele>
      </trkpt>
      <trkpt lat="45.14466" lon="-72.75449">
        <ele>172.5</ele>
      </trkpt>
      <trkpt lat="45.1449" lon="-72.75446">
        <ele>172.3</ele>
      </trkpt>
      <trkpt lat="45.145777" lon="-72.754424">
        <ele>168</ele>
      </trkpt>
      <trkpt lat="45.146654" lon="-72.754389">
        <ele>171</ele>
      </trkpt>
      <trkpt lat="45.147531" lon="-72.754353">
        <ele>175.8</ele>
      </trkpt>
      <trkpt lat="45.148409" lon="-72.754318">
        <ele>180.7</ele>
      </trkpt>
      <trkpt lat="45.149286" lon="-72.754282">
        <ele>182.5</ele>
      </trkpt>
      <trkpt lat="45.150163" lon="-72.754247">
        <ele>189.9</ele>
      </trkpt>
      <trkpt lat="45.15104" lon="-72.754211">
        <ele>195.7</ele>
      </trkpt>
      <trkpt lat="45.151918" lon="-72.754176">
        <ele>204.9</ele>
      </trkpt>
      <trkpt lat="45.152795" lon="-72.75414">
        <ele>212</ele>
      </trkpt>
      <trkpt lat="45.153672" lon="-72.754105">
        <ele>218.3</ele>
      </trkpt>
      <trkpt lat="45.15455" lon="-72.75407">
        <ele>229.7</ele>
      </trkpt>
      <trkpt lat="45.15491" lon="-72.75403">
        <ele>232.4</ele>
      </trkpt>
      <trkpt lat="45.15511" lon="-72.75398">
        <ele>233.3</ele>
      </trkpt>
      <trkpt lat="45.15527" lon="-72.75385">
        <ele>234.2</ele>
      </trkpt>
      <trkpt lat="45.155615" lon="-72.753405">
        <ele>235.7</ele>
      </trkpt>
      <trkpt lat="45.15596" lon="-72.75296">
        <ele>236.4</ele>
      </trkpt>
      <trkpt lat="45.15659" lon="-72.75228">
        <ele>238.3</ele>
      </trkpt>
      <trkpt lat="45.157125" lon="-72.75179">
        <ele>235.1</ele>
      </trkpt>
      <trkpt lat="45.15766" lon="-72.7513">
        <ele>228.9</ele>
      </trkpt>
      <trkpt lat="45.15843" lon="-72.75067">
        <ele>218.3</ele>
      </trkpt>
      <trkpt lat="45.1586" lon="-72.75058">
        <ele>216.9</ele>
      </trkpt>
      <trkpt lat="45.1588" lon="-72.75049">
        <ele>215.1</ele>
      </trkpt>
      <trkpt lat="45.15959" lon="-72.7504">
        <ele>212.5</ele>
      </trkpt>
      <trkpt lat="45.1604" lon="-72.750444">
        <ele>211.4</ele>
      </trkpt>
      <trkpt lat="45.16121" lon="-72.75049">
        <ele>205.8</ele>
      </trkpt>
      <trkpt lat="45.16144" lon="-72.75047">
        <ele>204.3</ele>
      </trkpt>
      <trkpt lat="45.162064" lon="-72.750465">
        <ele>202.8</ele>
      </trkpt>
      <trkpt lat="45.16269" lon="-72.75046">
        <ele>201.9</ele>
      </trkpt>
      <trkpt lat="45.16301" lon="-72.75054">
        <ele>201.5</ele>
      </trkpt>
      <trkpt lat="45.16315" lon="-72.75063">
        <ele>201</ele>
      </trkpt>
      <trkpt lat="45.1633" lon="-72.75076">
        <ele>200.7</ele>
      </trkpt>
      <trkpt lat="45.16363" lon="-72.75129">
        <ele>198.1</ele>
      </trkpt>
      <trkpt lat="45.16377" lon="-72.75158">
        <ele>194.9</ele>
      </trkpt>
      <trkpt lat="45.16387" lon="-72.75189">
        <ele>191.9</ele>
      </trkpt>
      <trkpt lat="45.16395" lon="-72.75224">
        <ele>188.4</ele>
      </trkpt>
      <trkpt lat="45.164132" lon="-72.753189">
        <ele>178.1</ele>
      </trkpt>
      <trkpt lat="45.164315" lon="-72.754139">
        <ele>172.9</ele>
      </trkpt>
      <trkpt lat="45.164497" lon="-72.755089">
        <ele>170</ele>
      </trkpt>
      <trkpt lat="45.16468" lon="-72.75604">
        <ele>167.7</ele>
      </trkpt>
      <trkpt lat="45.16487" lon="-72.757075">
        <ele>166.6</ele>
      </trkpt>
      <trkpt lat="45.16506" lon="-72.758111">
        <ele>163.1</ele>
      </trkpt>
      <trkpt lat="45.16525" lon="-72.759147">
        <ele>157.9</ele>
      </trkpt>
      <trkpt lat="45.16544" lon="-72.760183">
        <ele>156.6</ele>
      </trkpt>
      <trkpt lat="45.16563" lon="-72.76122">
        <ele>155.9</ele>
      </trkpt>
      <trkpt lat="45.166176" lon="-72.76048">
        <ele>154.8</ele>
      </trkpt>
      <trkpt lat="45.166722" lon="-72.75974">
        <ele>154.3</ele>
      </trkpt>
      <trkpt lat="45.167268" lon="-72.759">
        <ele>154.3</ele>
      </trkpt>
      <trkpt lat="45.167814" lon="-72.75826">
        <ele>154.4</ele>
      </trkpt>
      <trkpt lat="45.16836" lon="-72.75752">
        <ele>154.5</ele>
      </trkpt>
      <trkpt lat="45.16885" lon="-72.75689">
        <ele>154.6</ele>
      </trkpt>
      <trkpt lat="45.16949" lon="-72.75613">
        <ele>154.3</ele>
      </trkpt>
      <trkpt lat="45.17001" lon="-72.75559">
        <ele>153.1</ele>
      </trkpt>
      <trkpt lat="45.17041" lon="-72.755195">
        <ele>152.1</ele>
      </trkpt>
      <trkpt lat="45.17081" lon="-72.7548">
        <ele>151.4</ele>
      </trkpt>
      <trkpt lat="45.17136" lon="-72.75431">
        <ele>148.4</ele>
      </trkpt>
      <trkpt lat="45.17198" lon="-72.7538">
        <ele>146.1</ele>
      </trkpt>
      <trkpt lat="45.17267" lon="-72.75331">
        <ele>143.8</ele>
      </trkpt>
      <trkpt lat="45.1731" lon="-72.75304">
        <ele>142.8</ele>
      </trkpt>
      <trkpt lat="45.17353" lon="-72.75277">
        <ele>141.5</ele>
      </trkpt>
      <trkpt lat="45.17408" lon="-72.75243">
        <ele>140.9</ele>
      </trkpt>
      <trkpt lat="45.17475" lon="-72.75193">
        <ele>139.5</ele>
      </trkpt>
      <trkpt lat="45.17515" lon="-72.751435">
        <ele>139.3</ele>
      </trkpt>
      <trkpt lat="45.17555" lon="-72.75094">
        <ele>140</ele>
      </trkpt>
      <trkpt lat="45.17606" lon="-72.750196">
        <ele>142.3</ele>
      </trkpt>
      <trkpt lat="45.17657" lon="-72.749453">
        <ele>146.2</ele>
      </trkpt>
      <trkpt lat="45.17708" lon="-72.74871">
        <ele>150.5</ele>
      </trkpt>
      <trkpt lat="45.17728" lon="-72.74839">
        <ele>152.3</ele>
      </trkpt>
      <trkpt lat="45.17776" lon="-72.74741">
        <ele>155</ele>
      </trkpt>
      <trkpt lat="45.178208" lon="-72.74646">
        <ele>150.3</ele>
      </trkpt>
      <trkpt lat="45.178656" lon="-72.74551">
        <ele>149.5</ele>
      </trkpt>
      <trkpt lat="45.179105" lon="-72.74456">
        <ele>149.3</ele>
      </trkpt>
      <trkpt lat="45.179553" lon="-72.74361">
        <ele>143.9</ele>
      </trkpt>
      <trkpt lat="45.180001" lon="-72.74266">
        <ele>137.5</ele>
      </trkpt>
      <trkpt lat="45.18045" lon="-72.74171">
        <ele>136</ele>
      </trkpt>
      <trkpt lat="45.18045" lon="-72.74172">
        <ele>136</ele>
      </trkpt>
      <trkpt lat="45.18094" lon="-72.74074">
        <ele>134.5</ele>
      </trkpt>
      <trkpt lat="45.18107" lon="-72.74042">
        <ele>135.1</ele>
      </trkpt>
      <trkpt lat="45.18118" lon="-72.74023">
        <ele>135.5</ele>
      </trkpt>
      <trkpt lat="45.18142" lon="-72.73988">
        <ele>137.5</ele>
      </trkpt>
      <trkpt lat="45.181925" lon="-72.739345">
        <ele>138.2</ele>
      </trkpt>
      <trkpt lat="45.18243" lon="-72.73881">
        <ele>138</ele>
      </trkpt>
      <trkpt lat="45.18267" lon="-72.73854">
        <ele>137.3</ele>
      </trkpt>
      <trkpt lat="45.18303" lon="-72.738">
        <ele>134.7</ele>
      </trkpt>
      <trkpt lat="45.18315" lon="-72.73778">
        <ele>133.9</ele>
      </trkpt>
      <trkpt lat="45.18344" lon="-72.73722">
        <ele>132.2</ele>
      </trkpt>
      <trkpt lat="45.18373" lon="-72.73666">
        <ele>132.3</ele>
      </trkpt>
      <trkpt lat="45.184076" lon="-72.735853">
        <ele>136</ele>
      </trkpt>
      <trkpt lat="45.184423" lon="-72.735046">
        <ele>140.6</ele>
      </trkpt>
      <trkpt lat="45.18477" lon="-72.73424">
        <ele>146.1</ele>
      </trkpt>
      <trkpt lat="45.18526" lon="-72.733275">
        <ele>149.6</ele>
      </trkpt>
      <trkpt lat="45.18575" lon="-72.73231">
        <ele>151.4</ele>
      </trkpt>
      <trkpt lat="45.18619" lon="-72.731265">
        <ele>149.8</ele>
      </trkpt>
      <trkpt lat="45.18663" lon="-72.73022">
        <ele>149.1</ele>
      </trkpt>
      <trkpt lat="45.18707" lon="-72.72924">
        <ele>149.2</ele>
      </trkpt>
      <trkpt lat="45.18721" lon="-72.72896">
        <ele>149.3</ele>
      </trkpt>
      <trkpt lat="45.18741" lon="-72.72865">
        <ele>149.7</ele>
      </trkpt>
      <trkpt lat="45.18789" lon="-72.727955">
        <ele>151.4</ele>
      </trkpt>
      <trkpt lat="45.18837" lon="-72.72726">
        <ele>152.3</ele>
      </trkpt>
      <trkpt lat="45.18895" lon="-72.72654">
        <ele>152.7</ele>
      </trkpt>
      <trkpt lat="45.18924" lon="-72.72623">
        <ele>152.7</ele>
      </trkpt>
      <trkpt lat="45.189775" lon="-72.725715">
        <ele>152.9</ele>
      </trkpt>
      <trkpt lat="45.19031" lon="-72.7252">
        <ele>152.8</ele>
      </trkpt>
      <trkpt lat="45.19095" lon="-72.72461">
        <ele>152.9</ele>
      </trkpt>
      <trkpt lat="45.19147" lon="-72.72417">
        <ele>154.9</ele>
      </trkpt>
      <trkpt lat="45.19176" lon="-72.72395">
        <ele>155.3</ele>
      </trkpt>
      <trkpt lat="45.19234" lon="-72.72364">
        <ele>153.4</ele>
      </trkpt>
      <trkpt lat="45.19277" lon="-72.72328">
        <ele>150.5</ele>
      </trkpt>
      <trkpt lat="45.19338" lon="-72.72268">
        <ele>149.7</ele>
      </trkpt>
      <trkpt lat="45.19405" lon="-72.722127">
        <ele>150</ele>
      </trkpt>
      <trkpt lat="45.19472" lon="-72.721575">
        <ele>148.2</ele>
      </trkpt>
      <trkpt lat="45.19539" lon="-72.721022">
        <ele>146.5</ele>
      </trkpt>
      <trkpt lat="45.19606" lon="-72.72047">
        <ele>145.1</ele>
      </trkpt>
      <trkpt lat="45.19605" lon="-72.72047">
        <ele>145.1</ele>
      </trkpt>
      <trkpt lat="45.19656" lon="-72.72006">
        <ele>144.4</ele>
      </trkpt>
      <trkpt lat="45.19707" lon="-72.71965">
        <ele>142.8</ele>
      </trkpt>
      <trkpt lat="45.19728" lon="-72.71943">
        <ele>142.5</ele>
      </trkpt>
      <trkpt lat="45.19748" lon="-72.71916">
        <ele>142.1</ele>
      </trkpt>
      <trkpt lat="45.19758" lon="-72.71898">
        <ele>142</ele>
      </trkpt>
      <trkpt lat="45.1977" lon="-72.71869">
        <ele>142</ele>
      </trkpt>
      <trkpt lat="45.198125" lon="-72.71758">
        <ele>139.7</ele>
      </trkpt>
      <trkpt lat="45.19855" lon="-72.71647">
        <ele>136.7</ele>
      </trkpt>
      <trkpt lat="45.19872" lon="-72.71592">
        <ele>136.3</ele>
      </trkpt>
      <trkpt lat="45.19892" lon="-72.71518">
        <ele>135.1</ele>
      </trkpt>
      <trkpt lat="45.19903" lon="-72.71468">
        <ele>134.4</ele>
      </trkpt>
      <trkpt lat="45.19922" lon="-72.713625">
        <ele>133.7</ele>
      </trkpt>
      <trkpt lat="45.19941" lon="-72.71257">
        <ele>133.4</ele>
      </trkpt>
      <trkpt lat="45.19947" lon="-72.712">
        <ele>133.5</ele>
      </trkpt>
      <trkpt lat="45.19945" lon="-72.71141">
        <ele>133.6</ele>
      </trkpt>
      <trkpt lat="45.19941" lon="-72.71105">
        <ele>133.5</ele>
      </trkpt>
      <trkpt lat="45.1992" lon="-72.710219">
        <ele>133.8</ele>
      </trkpt>
      <trkpt lat="45.19899" lon="-72.70939">
        <ele>134.6</ele>
      </trkpt>
      <trkpt lat="45.19882" lon="-72.70877">
        <ele>136.3</ele>
      </trkpt>
      <trkpt lat="45.19871" lon="-72.70845">
        <ele>137</ele>
      </trkpt>
      <trkpt lat="45.19864" lon="-72.70832">
        <ele>137.4</ele>
      </trkpt>
      <trkpt lat="45.19836" lon="-72.70787">
        <ele>139.5</ele>
      </trkpt>
      <trkpt lat="45.19799" lon="-72.707424">
        <ele>143.3</ele>
      </trkpt>
      <trkpt lat="45.19762" lon="-72.70698">
        <ele>147.5</ele>
      </trkpt>
      <trkpt lat="45.19723" lon="-72.7064">
        <ele>151.7</ele>
      </trkpt>
      <trkpt lat="45.19696" lon="-72.7059">
        <ele>154.8</ele>
      </trkpt>
      <trkpt lat="45.1967" lon="-72.70532">
        <ele>156.5</ele>
      </trkpt>
      <trkpt lat="45.19655" lon="-72.70507">
        <ele>156.6</ele>
      </trkpt>
      <trkpt lat="45.19636" lon="-72.70478">
        <ele>156.6</ele>
      </trkpt>
      <trkpt lat="45.19586" lon="-72.70435">
        <ele>157.1</ele>
      </trkpt>
      <trkpt lat="45.19511" lon="-72.70384">
        <ele>156.6</ele>
      </trkpt>
      <trkpt lat="45.1946" lon="-72.70345">
        <ele>155.1</ele>
      </trkpt>
      <trkpt lat="45.19431" lon="-72.70327">
        <ele>154.1</ele>
      </trkpt>
      <trkpt lat="45.193625" lon="-72.702994">
        <ele>151.9</ele>
      </trkpt>
      <trkpt lat="45.19294" lon="-72.70272">
        <ele>151.9</ele>
      </trkpt>
      <trkpt lat="45.19264" lon="-72.70251">
        <ele>152.6</ele>
      </trkpt>
      <trkpt lat="45.19206" lon="-72.70196">
        <ele>152.1</ele>
      </trkpt>
      <trkpt lat="45.19174" lon="-72.7016">
        <ele>150.4</ele>
      </trkpt>
      <trkpt lat="45.19137" lon="-72.70113">
        <ele>149.4</ele>
      </trkpt>
      <trkpt lat="45.19114" lon="-72.70081">
        <ele>149.3</ele>
      </trkpt>
      <trkpt lat="45.19089" lon="-72.70044">
        <ele>149.2</ele>
      </trkpt>
      <trkpt lat="45.19046" lon="-72.69985">
        <ele>148</ele>
      </trkpt>
      <trkpt lat="45.19011" lon="-72.699429">
        <ele>146.3</ele>
      </trkpt>
      <trkpt lat="45.18976" lon="-72.69901">
        <ele>145.2</ele>
      </trkpt>
      <trkpt lat="45.18982" lon="-72.69829">
        <ele>141.1</ele>
      </trkpt>
      <trkpt lat="45.18992" lon="-72.69745">
        <ele>134</ele>
      </trkpt>
      <trkpt lat="45.19" lon="-72.69713">
        <ele>132.7</ele>
      </trkpt>
      <trkpt lat="45.19036" lon="-72.69642">
        <ele>127.4</ele>
      </trkpt>
      <trkpt lat="45.190825" lon="-72.69534">
        <ele>122.8</ele>
      </trkpt>
      <trkpt lat="45.19129" lon="-72.69426">
        <ele>125.3</ele>
      </trkpt>
      <trkpt lat="45.19137" lon="-72.69395">
        <ele>126</ele>
      </trkpt>
      <trkpt lat="45.19142" lon="-72.69297">
        <ele>130.8</ele>
      </trkpt>
      <trkpt lat="45.19141" lon="-72.69189">
        <ele>133.7</ele>
      </trkpt>
      <trkpt lat="45.191313" lon="-72.690983">
        <ele>135.9</ele>
      </trkpt>
      <trkpt lat="45.191216" lon="-72.690076">
        <ele>139</ele>
      </trkpt>
      <trkpt lat="45.19112" lon="-72.68917">
        <ele>145.3</ele>
      </trkpt>
      <trkpt lat="45.19105" lon="-72.68879">
        <ele>146.7</ele>
      </trkpt>
      <trkpt lat="45.19097" lon="-72.68849">
        <ele>147.3</ele>
      </trkpt>
      <trkpt lat="45.1908" lon="-72.68804">
        <ele>150.3</ele>
      </trkpt>
      <trkpt lat="45.19075" lon="-72.68778">
        <ele>151.9</ele>
      </trkpt>
      <trkpt lat="45.19072" lon="-72.6872">
        <ele>155</ele>
      </trkpt>
      <trkpt lat="45.190665" lon="-72.686554">
        <ele>157.6</ele>
      </trkpt>
      <trkpt lat="45.19061" lon="-72.68591">
        <ele>158.1</ele>
      </trkpt>
      <trkpt lat="45.190513" lon="-72.684824">
        <ele>157.1</ele>
      </trkpt>
      <trkpt lat="45.190416" lon="-72.683739">
        <ele>154</ele>
      </trkpt>
      <trkpt lat="45.19032" lon="-72.682654">
        <ele>150</ele>
      </trkpt>
      <trkpt lat="45.190223" lon="-72.681569">
        <ele>146.8</ele>
      </trkpt>
      <trkpt lat="45.190126" lon="-72.680484">
        <ele>142</ele>
      </trkpt>
      <trkpt lat="45.19003" lon="-72.6794">
        <ele>142.1</ele>
      </trkpt>
      <trkpt lat="45.189925" lon="-72.678254">
        <ele>143.8</ele>
      </trkpt>
      <trkpt lat="45.18982" lon="-72.67711">
        <ele>148.5</ele>
      </trkpt>
      <trkpt lat="45.18973" lon="-72.67644">
        <ele>153.3</ele>
      </trkpt>
      <trkpt lat="45.18972" lon="-72.67559">
        <ele>160.4</ele>
      </trkpt>
      <trkpt lat="45.1897" lon="-72.67529">
        <ele>162</ele>
      </trkpt>
      <trkpt lat="45.18961" lon="-72.67474">
        <ele>163.5</ele>
      </trkpt>
      <trkpt lat="45.1895" lon="-72.67424">
        <ele>164.3</ele>
      </trkpt>
      <trkpt lat="45.189433" lon="-72.673273">
        <ele>165.3</ele>
      </trkpt>
      <trkpt lat="45.189366" lon="-72.672306">
        <ele>163.2</ele>
      </trkpt>
      <trkpt lat="45.1893" lon="-72.67134">
        <ele>160.3</ele>
      </trkpt>
      <trkpt lat="45.1893" lon="-72.67112">
        <ele>160.1</ele>
      </trkpt>
      <trkpt lat="45.18933" lon="-72.67093">
        <ele>160.1</ele>
      </trkpt>
      <trkpt lat="45.18945" lon="-72.67031">
        <ele>161.6</ele>
      </trkpt>
      <trkpt lat="45.18955" lon="-72.67">
        <ele>163.3</ele>
      </trkpt>
      <trkpt lat="45.18957" lon="-72.66973">
        <ele>165.6</ele>
      </trkpt>
      <trkpt lat="45.18956" lon="-72.66959">
        <ele>165.6</ele>
      </trkpt>
      <trkpt lat="45.18948" lon="-72.66936">
        <ele>167.5</ele>
      </trkpt>
      <trkpt lat="45.18937" lon="-72.66914">
        <ele>169.1</ele>
      </trkpt>
      <trkpt lat="45.18923" lon="-72.66878">
        <ele>170.9</ele>
      </trkpt>
      <trkpt lat="45.18921" lon="-72.66852">
        <ele>171.6</ele>
      </trkpt>
      <trkpt lat="45.18919" lon="-72.667674">
        <ele>169</ele>
      </trkpt>
      <trkpt lat="45.18917" lon="-72.66683">
        <ele>164.3</ele>
      </trkpt>
      <trkpt lat="45.18945" lon="-72.6669">
        <ele>162.1</ele>
      </trkpt>
      <trkpt lat="45.18967" lon="-72.66691">
        <ele>161.4</ele>
      </trkpt>
      <trkpt lat="45.18993" lon="-72.66691">
        <ele>160.6</ele>
      </trkpt>
      <trkpt lat="45.19048" lon="-72.66682">
        <ele>160</ele>
      </trkpt>
      <trkpt lat="45.1908" lon="-72.66673">
        <ele>160.4</ele>
      </trkpt>
      <trkpt lat="45.19114" lon="-72.66659">
        <ele>161.1</ele>
      </trkpt>
      <trkpt lat="45.19153" lon="-72.66637">
        <ele>162</ele>
      </trkpt>
      <trkpt lat="45.19189" lon="-72.66614">
        <ele>162.4</ele>
      </trkpt>
      <trkpt lat="45.19262" lon="-72.66558">
        <ele>162.1</ele>
      </trkpt>
      <trkpt lat="45.19335" lon="-72.66502">
        <ele>161.5</ele>
      </trkpt>
      <trkpt lat="45.19383" lon="-72.66467">
        <ele>161.4</ele>
      </trkpt>
      <trkpt lat="45.19417" lon="-72.66444">
        <ele>161.7</ele>
      </trkpt>
      <trkpt lat="45.19492" lon="-72.66404">
        <ele>163.2</ele>
      </trkpt>
      <trkpt lat="45.195435" lon="-72.66379">
        <ele>164</ele>
      </trkpt>
      <trkpt lat="45.19595" lon="-72.66354">
        <ele>163.3</ele>
      </trkpt>
      <trkpt lat="45.19594" lon="-72.66354">
        <ele>163.3</ele>
      </trkpt>
      <trkpt lat="45.196627" lon="-72.6632">
        <ele>159.9</ele>
      </trkpt>
      <trkpt lat="45.197315" lon="-72.66286">
        <ele>158.1</ele>
      </trkpt>
      <trkpt lat="45.198002" lon="-72.66252">
        <ele>157.5</ele>
      </trkpt>
      <trkpt lat="45.19869" lon="-72.66218">
        <ele>158.4</ele>
      </trkpt>
      <trkpt lat="45.19868" lon="-72.66149">
        <ele>159.3</ele>
      </trkpt>
      <trkpt lat="45.19872" lon="-72.661">
        <ele>160.1</ele>
      </trkpt>
      <trkpt lat="45.198805" lon="-72.66024">
        <ele>161.6</ele>
      </trkpt>
      <trkpt lat="45.19889" lon="-72.65948">
        <ele>163.9</ele>
      </trkpt>
      <trkpt lat="45.19814" lon="-72.659339">
        <ele>168.2</ele>
      </trkpt>
      <trkpt lat="45.19739" lon="-72.6592">
        <ele>173.9</ele>
      </trkpt>
      <trkpt lat="45.19719" lon="-72.65912">
        <ele>174.6</ele>
      </trkpt>
      <trkpt lat="45.19696" lon="-72.65894">
        <ele>177.5</ele>
      </trkpt>
      <trkpt lat="45.19683" lon="-72.6588">
        <ele>178.6</ele>
      </trkpt>
      <trkpt lat="45.19666" lon="-72.65847">
        <ele>181.1</ele>
      </trkpt>
      <trkpt lat="45.19646" lon="-72.65804">
        <ele>183.9</ele>
      </trkpt>
      <trkpt lat="45.19624" lon="-72.657414">
        <ele>185.2</ele>
      </trkpt>
      <trkpt lat="45.19602" lon="-72.65679">
        <ele>185.1</ele>
      </trkpt>
      <trkpt lat="45.19571" lon="-72.65598">
        <ele>183.8</ele>
      </trkpt>
      <trkpt lat="45.19562" lon="-72.65566">
        <ele>182.7</ele>
      </trkpt>
      <trkpt lat="45.19539" lon="-72.655059">
        <ele>179.2</ele>
      </trkpt>
      <trkpt lat="45.19516" lon="-72.65446">
        <ele>176</ele>
      </trkpt>
      <trkpt lat="45.19495" lon="-72.65388">
        <ele>174.3</ele>
      </trkpt>
      <trkpt lat="45.19462" lon="-72.652939">
        <ele>173.3</ele>
      </trkpt>
      <trkpt lat="45.19429" lon="-72.652">
        <ele>169.8</ele>
      </trkpt>
      <trkpt lat="45.19401" lon="-72.65106">
        <ele>167.1</ele>
      </trkpt>
      <trkpt lat="45.194773" lon="-72.651021">
        <ele>166.9</ele>
      </trkpt>
      <trkpt lat="45.195536" lon="-72.650983">
        <ele>169.2</ele>
      </trkpt>
      <trkpt lat="45.1963" lon="-72.650945">
        <ele>170.1</ele>
      </trkpt>
      <trkpt lat="45.197063" lon="-72.650906">
        <ele>172</ele>
      </trkpt>
      <trkpt lat="45.197826" lon="-72.650868">
        <ele>172.7</ele>
      </trkpt>
      <trkpt lat="45.19859" lon="-72.65083">
        <ele>173.6</ele>
      </trkpt>
      <trkpt lat="45.19924" lon="-72.650773">
        <ele>174.9</ele>
      </trkpt>
      <trkpt lat="45.19989" lon="-72.650716">
        <ele>179.6</ele>
      </trkpt>
      <trkpt lat="45.20054" lon="-72.65066">
        <ele>182.8</ele>
      </trkpt>
      <trkpt lat="45.201236" lon="-72.650646">
        <ele>183.6</ele>
      </trkpt>
      <trkpt lat="45.201933" lon="-72.650633">
        <ele>184.7</ele>
      </trkpt>
      <trkpt lat="45.20263" lon="-72.65062">
        <ele>186.9</ele>
      </trkpt>
      <trkpt lat="45.20262" lon="-72.65062">
        <ele>186.9</ele>
      </trkpt>
      <trkpt lat="45.20304" lon="-72.65061">
        <ele>188.6</ele>
      </trkpt>
      <trkpt lat="45.203885" lon="-72.650555">
        <ele>187</ele>
      </trkpt>
      <trkpt lat="45.20473" lon="-72.6505">
        <ele>185.2</ele>
      </trkpt>
      <trkpt lat="45.205574" lon="-72.650445">
        <ele>183.3</ele>
      </trkpt>
      <trkpt lat="45.20642" lon="-72.65039">
        <ele>184.3</ele>
      </trkpt>
      <trkpt lat="45.20682" lon="-72.65042">
        <ele>184.8</ele>
      </trkpt>
      <trkpt lat="45.20743" lon="-72.650405">
        <ele>186.9</ele>
      </trkpt>
      <trkpt lat="45.20804" lon="-72.65039">
        <ele>189.8</ele>
      </trkpt>
      <trkpt lat="45.20826" lon="-72.65042">
        <ele>190.3</ele>
      </trkpt>
      <trkpt lat="45.20858" lon="-72.65039">
        <ele>190.7</ele>
      </trkpt>
      <trkpt lat="45.20873" lon="-72.65035">
        <ele>190.5</ele>
      </trkpt>
      <trkpt lat="45.20958" lon="-72.650255">
        <ele>187.8</ele>
      </trkpt>
      <trkpt lat="45.21043" lon="-72.65016">
        <ele>182.1</ele>
      </trkpt>
      <trkpt lat="45.21061" lon="-72.65011">
        <ele>181.3</ele>
      </trkpt>
      <trkpt lat="45.21068" lon="-72.65007">
        <ele>181</ele>
      </trkpt>
      <trkpt lat="45.21098" lon="-72.64981">
        <ele>179.9</ele>
      </trkpt>
      <trkpt lat="45.21116" lon="-72.64971">
        <ele>179.3</ele>
      </trkpt>
      <trkpt lat="45.211925" lon="-72.649265">
        <ele>177.3</ele>
      </trkpt>
      <trkpt lat="45.21269" lon="-72.64882">
        <ele>172.1</ele>
      </trkpt>
      <trkpt lat="45.213455" lon="-72.648375">
        <ele>165.1</ele>
      </trkpt>
      <trkpt lat="45.21422" lon="-72.64793">
        <ele>166</ele>
      </trkpt>
      <trkpt lat="45.214873" lon="-72.647543">
        <ele>171.1</ele>
      </trkpt>
      <trkpt lat="45.215526" lon="-72.647156">
        <ele>176.6</ele>
      </trkpt>
      <trkpt lat="45.21618" lon="-72.64677">
        <ele>183.3</ele>
      </trkpt>
      <trkpt lat="45.216873" lon="-72.64638">
        <ele>186.3</ele>
      </trkpt>
      <trkpt lat="45.217566" lon="-72.64599">
        <ele>188.4</ele>
      </trkpt>
      <trkpt lat="45.21826" lon="-72.6456">
        <ele>191.1</ele>
      </trkpt>
      <trkpt lat="45.21903" lon="-72.6452">
        <ele>193.1</ele>
      </trkpt>
      <trkpt lat="45.2198" lon="-72.6448">
        <ele>194.9</ele>
      </trkpt>
      <trkpt lat="45.21979" lon="-72.64481">
        <ele>194.8</ele>
      </trkpt>
      <trkpt lat="45.22036" lon="-72.64452">
        <ele>198.6</ele>
      </trkpt>
      <trkpt lat="45.221066" lon="-72.64417">
        <ele>203.6</ele>
      </trkpt>
      <trkpt lat="45.221773" lon="-72.64382">
        <ele>209.1</ele>
      </trkpt>
      <trkpt lat="45.22248" lon="-72.64347">
        <ele>215.2</ele>
      </trkpt>
      <trkpt lat="45.22267" lon="-72.64242">
        <ele>214.1</ele>
      </trkpt>
      <trkpt lat="45.2228" lon="-72.6418">
        <ele>215.9</ele>
      </trkpt>
      <trkpt lat="45.22293" lon="-72.6413">
        <ele>218.9</ele>
      </trkpt>
      <trkpt lat="45.22315" lon="-72.64071">
        <ele>224.5</ele>
      </trkpt>
      <trkpt lat="45.22329" lon="-72.64041">
        <ele>225.5</ele>
      </trkpt>
      <trkpt lat="45.22386" lon="-72.63952">
        <ele>229.7</ele>
      </trkpt>
      <trkpt lat="45.22433" lon="-72.638885">
        <ele>227.9</ele>
      </trkpt>
      <trkpt lat="45.2248" lon="-72.63825">
        <ele>229.1</ele>
      </trkpt>
      <trkpt lat="45.22488" lon="-72.63812">
        <ele>229.1</ele>
      </trkpt>
      <trkpt lat="45.22497" lon="-72.63781">
        <ele>228.4</ele>
      </trkpt>
      <trkpt lat="45.22499" lon="-72.63767">
        <ele>228.4</ele>
      </trkpt>
      <trkpt lat="45.22498" lon="-72.63699">
        <ele>226.5</ele>
      </trkpt>
      <trkpt lat="45.22495" lon="-72.636234">
        <ele>225.8</ele>
      </trkpt>
      <trkpt lat="45.22492" lon="-72.63548">
        <ele>225.4</ele>
      </trkpt>
      <trkpt lat="45.224855" lon="-72.634269">
        <ele>223.8</ele>
      </trkpt>
      <trkpt lat="45.22479" lon="-72.63306">
        <ele>223</ele>
      </trkpt>
      <trkpt lat="45.22477" lon="-72.632415">
        <ele>222.9</ele>
      </trkpt>
      <trkpt lat="45.22475" lon="-72.63177">
        <ele>221.6</ele>
      </trkpt>
      <trkpt lat="45.224711" lon="-72.630671">
        <ele>219</ele>
      </trkpt>
      <trkpt lat="45.224673" lon="-72.629573">
        <ele>220.5</ele>
      </trkpt>
      <trkpt lat="45.224635" lon="-72.628474">
        <ele>219.5</ele>
      </trkpt>
      <trkpt lat="45.224596" lon="-72.627376">
        <ele>218.5</ele>
      </trkpt>
      <trkpt lat="45.224558" lon="-72.626278">
        <ele>216.5</ele>
      </trkpt>
      <trkpt lat="45.22452" lon="-72.62518">
        <ele>214.4</ele>
      </trkpt>
      <trkpt lat="45.22447" lon="-72.624034">
        <ele>214.8</ele>
      </trkpt>
      <trkpt lat="45.22442" lon="-72.62289">
        <ele>215.7</ele>
      </trkpt>
      <trkpt lat="45.224366" lon="-72.621666">
        <ele>217.2</ele>
      </trkpt>
      <trkpt lat="45.224312" lon="-72.620442">
        <ele>217.1</ele>
      </trkpt>
      <trkpt lat="45.224258" lon="-72.619218">
        <ele>214.4</ele>
      </trkpt>
      <trkpt lat="45.224204" lon="-72.617994">
        <ele>213.8</ele>
      </trkpt>
      <trkpt lat="45.224151" lon="-72.61677">
        <ele>215.9</ele>
      </trkpt>
      <trkpt lat="45.224097" lon="-72.615546">
        <ele>216.2</ele>
      </trkpt>
      <trkpt lat="45.224043" lon="-72.614323">
        <ele>214.6</ele>
      </trkpt>
      <trkpt lat="45.223989" lon="-72.613099">
        <ele>214.2</ele>
      </trkpt>
      <trkpt lat="45.223935" lon="-72.611875">
        <ele>211.2</ele>
      </trkpt>
      <trkpt lat="45.223881" lon="-72.610651">
        <ele>209.4</ele>
      </trkpt>
      <trkpt lat="45.223827" lon="-72.609427">
        <ele>208.9</ele>
      </trkpt>
      <trkpt lat="45.223773" lon="-72.608203">
        <ele>210.5</ele>
      </trkpt>
      <trkpt lat="45.22372" lon="-72.60698">
        <ele>214.2</ele>
      </trkpt>
      <trkpt lat="45.223662" lon="-72.605858">
        <ele>215.7</ele>
      </trkpt>
      <trkpt lat="45.223605" lon="-72.604737">
        <ele>212.5</ele>
      </trkpt>
      <trkpt lat="45.223548" lon="-72.603615">
        <ele>209.8</ele>
      </trkpt>
      <trkpt lat="45.223491" lon="-72.602494">
        <ele>209.6</ele>
      </trkpt>
      <trkpt lat="45.223434" lon="-72.601372">
        <ele>212.2</ele>
      </trkpt>
      <trkpt lat="45.223377" lon="-72.600251">
        <ele>218.3</ele>
      </trkpt>
      <trkpt lat="45.22332" lon="-72.59913">
        <ele>220.8</ele>
      </trkpt>
      <trkpt lat="45.22328" lon="-72.597925">
        <ele>221.1</ele>
      </trkpt>
      <trkpt lat="45.22324" lon="-72.596721">
        <ele>219.5</ele>
      </trkpt>
      <trkpt lat="45.2232" lon="-72.595516">
        <ele>218</ele>
      </trkpt>
      <trkpt lat="45.22316" lon="-72.594312">
        <ele>216.5</ele>
      </trkpt>
      <trkpt lat="45.22312" lon="-72.593107">
        <ele>213.1</ele>
      </trkpt>
      <trkpt lat="45.22308" lon="-72.591903">
        <ele>210.9</ele>
      </trkpt>
      <trkpt lat="45.22304" lon="-72.590698">
        <ele>208.6</ele>
      </trkpt>
      <trkpt lat="45.223" lon="-72.589494">
        <ele>204.8</ele>
      </trkpt>
      <trkpt lat="45.22296" lon="-72.588289">
        <ele>200.5</ele>
      </trkpt>
      <trkpt lat="45.22292" lon="-72.587085">
        <ele>200.1</ele>
      </trkpt>
      <trkpt lat="45.22288" lon="-72.585881">
        <ele>202</ele>
      </trkpt>
      <trkpt lat="45.22284" lon="-72.584676">
        <ele>205.4</ele>
      </trkpt>
      <trkpt lat="45.2228" lon="-72.583472">
        <ele>208</ele>
      </trkpt>
      <trkpt lat="45.22276" lon="-72.582267">
        <ele>214.4</ele>
      </trkpt>
      <trkpt lat="45.22272" lon="-72.581063">
        <ele>218.1</ele>
      </trkpt>
      <trkpt lat="45.22268" lon="-72.579858">
        <ele>222.1</ele>
      </trkpt>
      <trkpt lat="45.22264" lon="-72.578654">
        <ele>227.2</ele>
      </trkpt>
      <trkpt lat="45.2226" lon="-72.57745">
        <ele>232.5</ele>
      </trkpt>
      <trkpt lat="45.222595" lon="-72.576669">
        <ele>238.3</ele>
      </trkpt>
      <trkpt lat="45.22259" lon="-72.57589">
        <ele>245.8</ele>
      </trkpt>
      <trkpt lat="45.222603" lon="-72.574771">
        <ele>252.9</ele>
      </trkpt>
      <trkpt lat="45.222617" lon="-72.573652">
        <ele>259.5</ele>
      </trkpt>
      <trkpt lat="45.222631" lon="-72.572533">
        <ele>266.8</ele>
      </trkpt>
      <trkpt lat="45.222645" lon="-72.571415">
        <ele>272.6</ele>
      </trkpt>
      <trkpt lat="45.222658" lon="-72.570296">
        <ele>278.8</ele>
      </trkpt>
      <trkpt lat="45.222672" lon="-72.569177">
        <ele>282.3</ele>
      </trkpt>
      <trkpt lat="45.222686" lon="-72.568058">
        <ele>285.8</ele>
      </trkpt>
      <trkpt lat="45.2227" lon="-72.56694">
        <ele>285.9</ele>
      </trkpt>
      <trkpt lat="45.222723" lon="-72.565775">
        <ele>281.7</ele>
      </trkpt>
      <trkpt lat="45.222746" lon="-72.56461">
        <ele>272.5</ele>
      </trkpt>
      <trkpt lat="45.22277" lon="-72.563445">
        <ele>266</ele>
      </trkpt>
      <trkpt lat="45.222793" lon="-72.56228">
        <ele>262.4</ele>
      </trkpt>
      <trkpt lat="45.222816" lon="-72.561115">
        <ele>257</ele>
      </trkpt>
      <trkpt lat="45.22284" lon="-72.55995">
        <ele>254.2</ele>
      </trkpt>
      <trkpt lat="45.22283" lon="-72.559055">
        <ele>257.4</ele>
      </trkpt>
      <trkpt lat="45.22282" lon="-72.55816">
        <ele>263.8</ele>
      </trkpt>
      <trkpt lat="45.22287" lon="-72.55762">
        <ele>267.2</ele>
      </trkpt>
      <trkpt lat="45.22288" lon="-72.55695">
        <ele>268.6</ele>
      </trkpt>
      <trkpt lat="45.222864" lon="-72.555911">
        <ele>271.6</ele>
      </trkpt>
      <trkpt lat="45.222848" lon="-72.554873">
        <ele>275.6</ele>
      </trkpt>
      <trkpt lat="45.222832" lon="-72.553835">
        <ele>276.8</ele>
      </trkpt>
      <trkpt lat="45.222816" lon="-72.552797">
        <ele>275.7</ele>
      </trkpt>
      <trkpt lat="45.2228" lon="-72.55176">
        <ele>273.8</ele>
      </trkpt>
      <trkpt lat="45.222755" lon="-72.551114">
        <ele>266.4</ele>
      </trkpt>
      <trkpt lat="45.22271" lon="-72.55047">
        <ele>262.6</ele>
      </trkpt>
      <trkpt lat="45.222696" lon="-72.549359">
        <ele>257.8</ele>
      </trkpt>
      <trkpt lat="45.222683" lon="-72.548249">
        <ele>254.3</ele>
      </trkpt>
      <trkpt lat="45.22267" lon="-72.54714">
        <ele>252.7</ele>
      </trkpt>
      <trkpt lat="45.222635" lon="-72.545894">
        <ele>256.2</ele>
      </trkpt>
      <trkpt lat="45.2226" lon="-72.54465">
        <ele>255.2</ele>
      </trkpt>
      <trkpt lat="45.22258" lon="-72.54459">
        <ele>253.8</ele>
      </trkpt>
      <trkpt lat="45.22242" lon="-72.54426">
        <ele>253.1</ele>
      </trkpt>
      <trkpt lat="45.22198" lon="-72.543529">
        <ele>247.4</ele>
      </trkpt>
      <trkpt lat="45.22154" lon="-72.5428">
        <ele>243.7</ele>
      </trkpt>
      <trkpt lat="45.22139" lon="-72.5424">
        <ele>241.8</ele>
      </trkpt>
      <trkpt lat="45.22136" lon="-72.54209">
        <ele>239.8</ele>
      </trkpt>
      <trkpt lat="45.22141" lon="-72.54174">
        <ele>238.9</ele>
      </trkpt>
      <trkpt lat="45.22148" lon="-72.54159">
        <ele>233.6</ele>
      </trkpt>
      <trkpt lat="45.22159" lon="-72.54145">
        <ele>233.6</ele>
      </trkpt>
      <trkpt lat="45.22193" lon="-72.5411">
        <ele>229.8</ele>
      </trkpt>
      <trkpt lat="45.22203" lon="-72.54096">
        <ele>229.8</ele>
      </trkpt>
      <trkpt lat="45.22232" lon="-72.54042">
        <ele>224.2</ele>
      </trkpt>
      <trkpt lat="45.22248" lon="-72.54007">
        <ele>221.3</ele>
      </trkpt>
      <trkpt lat="45.22259" lon="-72.53977">
        <ele>219.1</ele>
      </trkpt>
      <trkpt lat="45.22263" lon="-72.53954">
        <ele>216.1</ele>
      </trkpt>
      <trkpt lat="45.22246" lon="-72.53855">
        <ele>212.2</ele>
      </trkpt>
      <trkpt lat="45.22242" lon="-72.537686">
        <ele>210.6</ele>
      </trkpt>
      <trkpt lat="45.22238" lon="-72.536823">
        <ele>204.1</ele>
      </trkpt>
      <trkpt lat="45.22234" lon="-72.53596">
        <ele>200</ele>
      </trkpt>
      <trkpt lat="45.222325" lon="-72.534969">
        <ele>199.5</ele>
      </trkpt>
      <trkpt lat="45.22231" lon="-72.53398">
        <ele>201.1</ele>
      </trkpt>
      <trkpt lat="45.22234" lon="-72.5331">
        <ele>202</ele>
      </trkpt>
    </trkseg>
  </trk>
</gpx>