<?xml version='1.0' encoding='utf-8'?>
<gpx xmlns="http://www.topografix.com/GPX/1/1" xmlns:xsi="http://www.w3.org/2001/XMLSchema-instance" version="1.1" creator="Gravelle Estrie" xsi:schemaLocation="http://www.topografix.com/GPX/1/1 http://www.topografix.com/GPX/1/1/gpx.xsd">
  <metadata>
    <name>Lumberjack 62KM/1050MD+</name>
  </metadata>
  <trk>
    <name>Lumberjack 62KM/1050MD+</name>
    <trkseg>
      <trkpt lat="45.22234" lon="-72.53309">
        <ele>202.04</ele>
      </trkpt>
      <trkpt lat="45.22232" lon="-72.53242">
        <ele>202.35</ele>
      </trkpt>
      <trkpt lat="45.2223" lon="-72.53175">
        <ele>202.55</ele>
      </trkpt>
      <trkpt lat="45.2215567" lon="-72.5318">
        <ele>202.4</ele>
      </trkpt>
      <trkpt lat="45.2208133" lon="-72.53185">
        <ele>202.55</ele>
      </trkpt>
      <trkpt lat="45.22007" lon="-72.5319">
        <ele>202.7</ele>
      </trkpt>
      <trkpt lat="45.22009" lon="-72.53197">
        <ele>202.86</ele>
      </trkpt>
      <trkpt lat="45.22017" lon="-72.53202">
        <ele>202.92</ele>
      </trkpt>
      <trkpt lat="45.22017" lon="-72.53202">
        <ele>202.91</ele>
      </trkpt>
      <trkpt lat="45.22009" lon="-72.53197">
        <ele>202.86</ele>
      </trkpt>
      <trkpt lat="45.22007" lon="-72.5319">
        <ele>202.7</ele>
      </trkpt>
      <trkpt lat="45.21973" lon="-72.53192">
        <ele>202.66</ele>
      </trkpt>
      <trkpt lat="45.21946" lon="-72.53184">
        <ele>202.5</ele>
      </trkpt>
      <trkpt lat="45.21913" lon="-72.53169">
        <ele>202.37</ele>
      </trkpt>
      <trkpt lat="45.2185433" lon="-72.53135">
        <ele>202.69</ele>
      </trkpt>
      <trkpt lat="45.2179567" lon="-72.53101">
        <ele>202.8</ele>
      </trkpt>
      <trkpt lat="45.21737" lon="-72.53067">
        <ele>201.86</ele>
      </trkpt>
      <trkpt lat="45.21725" lon="-72.53058">
        <ele>201.87</ele>
      </trkpt>
      <trkpt lat="45.21689" lon="-72.52997">
        <ele>202.99</ele>
      </trkpt>
      <trkpt lat="45.21645" lon="-72.530505">
        <ele>201.06</ele>
      </trkpt>
      <trkpt lat="45.21601" lon="-72.53104">
        <ele>200.64</ele>
      </trkpt>
      <trkpt lat="45.21601" lon="-72.53105">
        <ele>200.65</ele>
      </trkpt>
      <trkpt lat="45.2154" lon="-72.5317975">
        <ele>201.4</ele>
      </trkpt>
      <trkpt lat="45.21479" lon="-72.532545">
        <ele>202.26</ele>
      </trkpt>
      <trkpt lat="45.21418" lon="-72.5332925">
        <ele>202.23</ele>
      </trkpt>
      <trkpt lat="45.21357" lon="-72.53404">
        <ele>205.23</ele>
      </trkpt>
      <trkpt lat="45.21349" lon="-72.53408">
        <ele>205.47</ele>
      </trkpt>
      <trkpt lat="45.21345" lon="-72.53408">
        <ele>205.47</ele>
      </trkpt>
      <trkpt lat="45.21333" lon="-72.53403">
        <ele>205.62</ele>
      </trkpt>
      <trkpt lat="45.212885" lon="-72.53387">
        <ele>203.23</ele>
      </trkpt>
      <trkpt lat="45.21244" lon="-72.53371">
        <ele>202.91</ele>
      </trkpt>
      <trkpt lat="45.21244" lon="-72.53371">
        <ele>202.91</ele>
      </trkpt>
      <trkpt lat="45.21196" lon="-72.53354">
        <ele>205</ele>
      </trkpt>
      <trkpt lat="45.211755" lon="-72.534745">
        <ele>206.14</ele>
      </trkpt>
      <trkpt lat="45.21155" lon="-72.53595">
        <ele>207.04</ele>
      </trkpt>
      <trkpt lat="45.2109267" lon="-72.5359333">
        <ele>207.61</ele>
      </trkpt>
      <trkpt lat="45.2103033" lon="-72.5359167">
        <ele>210.62</ele>
      </trkpt>
      <trkpt lat="45.20968" lon="-72.5359">
        <ele>215.15</ele>
      </trkpt>
      <trkpt lat="45.20968" lon="-72.5359">
        <ele>215.2</ele>
      </trkpt>
      <trkpt lat="45.2088575" lon="-72.5358875">
        <ele>216.41</ele>
      </trkpt>
      <trkpt lat="45.208035" lon="-72.535875">
        <ele>216.08</ele>
      </trkpt>
      <trkpt lat="45.2072125" lon="-72.5358625">
        <ele>215.86</ele>
      </trkpt>
      <trkpt lat="45.20639" lon="-72.53585">
        <ele>216.78</ele>
      </trkpt>
      <trkpt lat="45.205735" lon="-72.53583">
        <ele>220.05</ele>
      </trkpt>
      <trkpt lat="45.20508" lon="-72.53581">
        <ele>226.54</ele>
      </trkpt>
      <trkpt lat="45.20424" lon="-72.53584">
        <ele>239.21</ele>
      </trkpt>
      <trkpt lat="45.2034" lon="-72.53587">
        <ele>250.17</ele>
      </trkpt>
      <trkpt lat="45.20279" lon="-72.53577">
        <ele>259.36</ele>
      </trkpt>
      <trkpt lat="45.20271" lon="-72.53577">
        <ele>259.81</ele>
      </trkpt>
      <trkpt lat="45.20211" lon="-72.53592">
        <ele>263.45</ele>
      </trkpt>
      <trkpt lat="45.20183" lon="-72.53595">
        <ele>264.72</ele>
      </trkpt>
      <trkpt lat="45.20141" lon="-72.53582">
        <ele>265.05</ele>
      </trkpt>
      <trkpt lat="45.20109" lon="-72.53578">
        <ele>264.63</ele>
      </trkpt>
      <trkpt lat="45.2003533" lon="-72.5357933">
        <ele>256.8</ele>
      </trkpt>
      <trkpt lat="45.1996167" lon="-72.5358067">
        <ele>248.28</ele>
      </trkpt>
      <trkpt lat="45.19888" lon="-72.53582">
        <ele>251.26</ele>
      </trkpt>
      <trkpt lat="45.1987" lon="-72.53586">
        <ele>253.1</ele>
      </trkpt>
      <trkpt lat="45.19846" lon="-72.53601">
        <ele>255.96</ele>
      </trkpt>
      <trkpt lat="45.19834" lon="-72.53618">
        <ele>257.36</ele>
      </trkpt>
      <trkpt lat="45.198" lon="-72.53676">
        <ele>258.94</ele>
      </trkpt>
      <trkpt lat="45.19782" lon="-72.53695">
        <ele>259.87</ele>
      </trkpt>
      <trkpt lat="45.19762" lon="-72.53708">
        <ele>260.48</ele>
      </trkpt>
      <trkpt lat="45.19743" lon="-72.53712">
        <ele>261.9</ele>
      </trkpt>
      <trkpt lat="45.19711" lon="-72.53712">
        <ele>265.01</ele>
      </trkpt>
      <trkpt lat="45.19682" lon="-72.53698">
        <ele>269.42</ele>
      </trkpt>
      <trkpt lat="45.19661" lon="-72.53684">
        <ele>272</ele>
      </trkpt>
      <trkpt lat="45.19613" lon="-72.53636">
        <ele>277.91</ele>
      </trkpt>
      <trkpt lat="45.19586" lon="-72.53613">
        <ele>281.39</ele>
      </trkpt>
      <trkpt lat="45.19574" lon="-72.53612">
        <ele>282.31</ele>
      </trkpt>
      <trkpt lat="45.194985" lon="-72.536105">
        <ele>287.8</ele>
      </trkpt>
      <trkpt lat="45.19423" lon="-72.53609">
        <ele>289.27</ele>
      </trkpt>
      <trkpt lat="45.19374" lon="-72.53606">
        <ele>291.29</ele>
      </trkpt>
      <trkpt lat="45.19325" lon="-72.53703">
        <ele>289.2</ele>
      </trkpt>
      <trkpt lat="45.192685" lon="-72.53783">
        <ele>289.59</ele>
      </trkpt>
      <trkpt lat="45.19212" lon="-72.53863">
        <ele>288.96</ele>
      </trkpt>
      <trkpt lat="45.1915767" lon="-72.5395434">
        <ele>284.49</ele>
      </trkpt>
      <trkpt lat="45.1910333" lon="-72.5404567">
        <ele>281.17</ele>
      </trkpt>
      <trkpt lat="45.19049" lon="-72.54137">
        <ele>275.48</ele>
      </trkpt>
      <trkpt lat="45.19038" lon="-72.54173">
        <ele>273.65</ele>
      </trkpt>
      <trkpt lat="45.190215" lon="-72.542645">
        <ele>265.86</ele>
      </trkpt>
      <trkpt lat="45.19005" lon="-72.54356">
        <ele>260.54</ele>
      </trkpt>
      <trkpt lat="45.18986" lon="-72.54423">
        <ele>258.31</ele>
      </trkpt>
      <trkpt lat="45.18971" lon="-72.54457">
        <ele>257.39</ele>
      </trkpt>
      <trkpt lat="45.1897" lon="-72.54458">
        <ele>257.35</ele>
      </trkpt>
      <trkpt lat="45.189455" lon="-72.545165">
        <ele>254.79</ele>
      </trkpt>
      <trkpt lat="45.18921" lon="-72.54575">
        <ele>251.43</ele>
      </trkpt>
      <trkpt lat="45.18876" lon="-72.5465067">
        <ele>243.86</ele>
      </trkpt>
      <trkpt lat="45.18831" lon="-72.5472633">
        <ele>234.36</ele>
      </trkpt>
      <trkpt lat="45.18786" lon="-72.54802">
        <ele>231</ele>
      </trkpt>
      <trkpt lat="45.18786" lon="-72.5490433">
        <ele>230.87</ele>
      </trkpt>
      <trkpt lat="45.18786" lon="-72.5500667">
        <ele>230.41</ele>
      </trkpt>
      <trkpt lat="45.18786" lon="-72.55109">
        <ele>228.03</ele>
      </trkpt>
      <trkpt lat="45.18784" lon="-72.55234">
        <ele>226.38</ele>
      </trkpt>
      <trkpt lat="45.1877733" lon="-72.5533733">
        <ele>226.45</ele>
      </trkpt>
      <trkpt lat="45.1877067" lon="-72.5544067">
        <ele>223.12</ele>
      </trkpt>
      <trkpt lat="45.18764" lon="-72.55544">
        <ele>217.59</ele>
      </trkpt>
      <trkpt lat="45.18758" lon="-72.5561">
        <ele>216.31</ele>
      </trkpt>
      <trkpt lat="45.18756" lon="-72.55655">
        <ele>215.27</ele>
      </trkpt>
      <trkpt lat="45.18757" lon="-72.55718">
        <ele>213</ele>
      </trkpt>
      <trkpt lat="45.18759" lon="-72.55749">
        <ele>212.23</ele>
      </trkpt>
      <trkpt lat="45.18773" lon="-72.5582">
        <ele>210.56</ele>
      </trkpt>
      <trkpt lat="45.18799" lon="-72.55901">
        <ele>210.13</ele>
      </trkpt>
      <trkpt lat="45.1882533" lon="-72.5598">
        <ele>209.5</ele>
      </trkpt>
      <trkpt lat="45.1885167" lon="-72.56059">
        <ele>209.89</ele>
      </trkpt>
      <trkpt lat="45.18878" lon="-72.56138">
        <ele>209.44</ele>
      </trkpt>
      <trkpt lat="45.18844" lon="-72.5616">
        <ele>208.4</ele>
      </trkpt>
      <trkpt lat="45.18804" lon="-72.56173">
        <ele>207.49</ele>
      </trkpt>
      <trkpt lat="45.1872725" lon="-72.5619775">
        <ele>206.61</ele>
      </trkpt>
      <trkpt lat="45.186505" lon="-72.562225">
        <ele>206.42</ele>
      </trkpt>
      <trkpt lat="45.1857375" lon="-72.5624725">
        <ele>205.64</ele>
      </trkpt>
      <trkpt lat="45.18497" lon="-72.56272">
        <ele>205.43</ele>
      </trkpt>
      <trkpt lat="45.1843767" lon="-72.5628867">
        <ele>206.58</ele>
      </trkpt>
      <trkpt lat="45.1837833" lon="-72.5630533">
        <ele>209.85</ele>
      </trkpt>
      <trkpt lat="45.18319" lon="-72.56322">
        <ele>215.3</ele>
      </trkpt>
      <trkpt lat="45.1824933" lon="-72.5633933">
        <ele>215.94</ele>
      </trkpt>
      <trkpt lat="45.1817967" lon="-72.5635667">
        <ele>211.74</ele>
      </trkpt>
      <trkpt lat="45.1811" lon="-72.56374">
        <ele>210.21</ele>
      </trkpt>
      <trkpt lat="45.1811" lon="-72.56374">
        <ele>210.21</ele>
      </trkpt>
      <trkpt lat="45.18063" lon="-72.56388">
        <ele>209.9</ele>
      </trkpt>
      <trkpt lat="45.18005" lon="-72.56397">
        <ele>210.38</ele>
      </trkpt>
      <trkpt lat="45.1796" lon="-72.564005">
        <ele>209.13</ele>
      </trkpt>
      <trkpt lat="45.17915" lon="-72.56404">
        <ele>208.37</ele>
      </trkpt>
      <trkpt lat="45.17837" lon="-72.564075">
        <ele>207.51</ele>
      </trkpt>
      <trkpt lat="45.17759" lon="-72.56411">
        <ele>207.85</ele>
      </trkpt>
      <trkpt lat="45.17728" lon="-72.56407">
        <ele>206.25</ele>
      </trkpt>
      <trkpt lat="45.17659" lon="-72.56394">
        <ele>201.81</ele>
      </trkpt>
      <trkpt lat="45.17618" lon="-72.56384">
        <ele>201.59</ele>
      </trkpt>
      <trkpt lat="45.17547" lon="-72.56354">
        <ele>205.29</ele>
      </trkpt>
      <trkpt lat="45.17534" lon="-72.56351">
        <ele>206.11</ele>
      </trkpt>
      <trkpt lat="45.17496" lon="-72.56349">
        <ele>210.86</ele>
      </trkpt>
      <trkpt lat="45.17475" lon="-72.56353">
        <ele>212.62</ele>
      </trkpt>
      <trkpt lat="45.174085" lon="-72.56383">
        <ele>213.22</ele>
      </trkpt>
      <trkpt lat="45.17342" lon="-72.56413">
        <ele>214.03</ele>
      </trkpt>
      <trkpt lat="45.172755" lon="-72.56443">
        <ele>214.48</ele>
      </trkpt>
      <trkpt lat="45.17209" lon="-72.56473">
        <ele>214.61</ele>
      </trkpt>
      <trkpt lat="45.17152" lon="-72.56505">
        <ele>215.3</ele>
      </trkpt>
      <trkpt lat="45.17132" lon="-72.56519">
        <ele>215.21</ele>
      </trkpt>
      <trkpt lat="45.17098" lon="-72.56554">
        <ele>212.48</ele>
      </trkpt>
      <trkpt lat="45.1706" lon="-72.56578">
        <ele>206.98</ele>
      </trkpt>
      <trkpt lat="45.16987" lon="-72.56607">
        <ele>203.83</ele>
      </trkpt>
      <trkpt lat="45.16924" lon="-72.5662667">
        <ele>205.97</ele>
      </trkpt>
      <trkpt lat="45.16861" lon="-72.5664633">
        <ele>208.77</ele>
      </trkpt>
      <trkpt lat="45.16798" lon="-72.56666">
        <ele>212.45</ele>
      </trkpt>
      <trkpt lat="45.16752" lon="-72.56682">
        <ele>217.16</ele>
      </trkpt>
      <trkpt lat="45.16706" lon="-72.56698">
        <ele>220.98</ele>
      </trkpt>
      <trkpt lat="45.16671" lon="-72.5672">
        <ele>222.87</ele>
      </trkpt>
      <trkpt lat="45.16619" lon="-72.5676">
        <ele>225.62</ele>
      </trkpt>
      <trkpt lat="45.165585" lon="-72.567915">
        <ele>227.76</ele>
      </trkpt>
      <trkpt lat="45.16498" lon="-72.56823">
        <ele>228.77</ele>
      </trkpt>
      <trkpt lat="45.1643275" lon="-72.56861">
        <ele>230.47</ele>
      </trkpt>
      <trkpt lat="45.163675" lon="-72.56899">
        <ele>231.43</ele>
      </trkpt>
      <trkpt lat="45.1630225" lon="-72.56937">
        <ele>232.58</ele>
      </trkpt>
      <trkpt lat="45.16237" lon="-72.56975">
        <ele>232.38</ele>
      </trkpt>
      <trkpt lat="45.1619" lon="-72.57">
        <ele>232.54</ele>
      </trkpt>
      <trkpt lat="45.16143" lon="-72.57025">
        <ele>233.64</ele>
      </trkpt>
      <trkpt lat="45.16114" lon="-72.57043">
        <ele>235.56</ele>
      </trkpt>
      <trkpt lat="45.1606" lon="-72.57064">
        <ele>236.57</ele>
      </trkpt>
      <trkpt lat="45.16001" lon="-72.57083">
        <ele>235.93</ele>
      </trkpt>
      <trkpt lat="45.1596" lon="-72.57085">
        <ele>235.76</ele>
      </trkpt>
      <trkpt lat="45.15884" lon="-72.5708225">
        <ele>234.27</ele>
      </trkpt>
      <trkpt lat="45.15808" lon="-72.570795">
        <ele>232.98</ele>
      </trkpt>
      <trkpt lat="45.15732" lon="-72.5707675">
        <ele>236.15</ele>
      </trkpt>
      <trkpt lat="45.15656" lon="-72.57074">
        <ele>243.18</ele>
      </trkpt>
      <trkpt lat="45.155825" lon="-72.5707275">
        <ele>244.2</ele>
      </trkpt>
      <trkpt lat="45.15509" lon="-72.570715">
        <ele>246.82</ele>
      </trkpt>
      <trkpt lat="45.154355" lon="-72.5707025">
        <ele>249.61</ele>
      </trkpt>
      <trkpt lat="45.15362" lon="-72.57069">
        <ele>250.7</ele>
      </trkpt>
      <trkpt lat="45.15317" lon="-72.57065">
        <ele>250.34</ele>
      </trkpt>
      <trkpt lat="45.152675" lon="-72.570625">
        <ele>251.22</ele>
      </trkpt>
      <trkpt lat="45.15218" lon="-72.5706">
        <ele>253.64</ele>
      </trkpt>
      <trkpt lat="45.15218" lon="-72.5706">
        <ele>253.64</ele>
      </trkpt>
      <trkpt lat="45.15133" lon="-72.57056">
        <ele>258.1</ele>
      </trkpt>
      <trkpt lat="45.15103" lon="-72.5706">
        <ele>258.54</ele>
      </trkpt>
      <trkpt lat="45.15077" lon="-72.57065">
        <ele>258.11</ele>
      </trkpt>
      <trkpt lat="45.15064" lon="-72.57073">
        <ele>257.52</ele>
      </trkpt>
      <trkpt lat="45.15053" lon="-72.57083">
        <ele>256.57</ele>
      </trkpt>
      <trkpt lat="45.15035" lon="-72.57115">
        <ele>255.91</ele>
      </trkpt>
      <trkpt lat="45.1499275" lon="-72.571985">
        <ele>254.73</ele>
      </trkpt>
      <trkpt lat="45.149505" lon="-72.57282">
        <ele>253.12</ele>
      </trkpt>
      <trkpt lat="45.1490825" lon="-72.573655">
        <ele>249.63</ele>
      </trkpt>
      <trkpt lat="45.14866" lon="-72.57449">
        <ele>246.16</ele>
      </trkpt>
      <trkpt lat="45.1482425" lon="-72.575335">
        <ele>243.53</ele>
      </trkpt>
      <trkpt lat="45.147825" lon="-72.57618">
        <ele>240.11</ele>
      </trkpt>
      <trkpt lat="45.1474075" lon="-72.577025">
        <ele>236.99</ele>
      </trkpt>
      <trkpt lat="45.14699" lon="-72.57787">
        <ele>236.01</ele>
      </trkpt>
      <trkpt lat="45.14698" lon="-72.57789">
        <ele>236.02</ele>
      </trkpt>
      <trkpt lat="45.1469" lon="-72.57804">
        <ele>236.06</ele>
      </trkpt>
      <trkpt lat="45.14689" lon="-72.57841">
        <ele>235.83</ele>
      </trkpt>
      <trkpt lat="45.14689" lon="-72.57842">
        <ele>235.82</ele>
      </trkpt>
      <trkpt lat="45.14686" lon="-72.57944">
        <ele>234.2</ele>
      </trkpt>
      <trkpt lat="45.14689" lon="-72.58039">
        <ele>232.43</ele>
      </trkpt>
      <trkpt lat="45.14689" lon="-72.58039">
        <ele>232.44</ele>
      </trkpt>
      <trkpt lat="45.1469167" lon="-72.5813033">
        <ele>229.41</ele>
      </trkpt>
      <trkpt lat="45.1469433" lon="-72.5822167">
        <ele>224.69</ele>
      </trkpt>
      <trkpt lat="45.14697" lon="-72.58313">
        <ele>224.17</ele>
      </trkpt>
      <trkpt lat="45.1469867" lon="-72.5841433">
        <ele>223.38</ele>
      </trkpt>
      <trkpt lat="45.1470033" lon="-72.5851567">
        <ele>219.54</ele>
      </trkpt>
      <trkpt lat="45.14702" lon="-72.58617">
        <ele>216.62</ele>
      </trkpt>
      <trkpt lat="45.1470251" lon="-72.587341">
        <ele>211.76</ele>
      </trkpt>
      <trkpt lat="45.1470301" lon="-72.588512">
        <ele>204.32</ele>
      </trkpt>
      <trkpt lat="45.1470351" lon="-72.589683">
        <ele>197.84</ele>
      </trkpt>
      <trkpt lat="45.1470401" lon="-72.590854">
        <ele>195.1</ele>
      </trkpt>
      <trkpt lat="45.1470451" lon="-72.592025">
        <ele>192.88</ele>
      </trkpt>
      <trkpt lat="45.1470501" lon="-72.593196">
        <ele>190.62</ele>
      </trkpt>
      <trkpt lat="45.1470551" lon="-72.594367">
        <ele>188.94</ele>
      </trkpt>
      <trkpt lat="45.1470601" lon="-72.595538">
        <ele>186.53</ele>
      </trkpt>
      <trkpt lat="45.1470651" lon="-72.596709">
        <ele>176.7</ele>
      </trkpt>
      <trkpt lat="45.14707" lon="-72.59788">
        <ele>172.44</ele>
      </trkpt>
      <trkpt lat="45.14711" lon="-72.59807">
        <ele>172.56</ele>
      </trkpt>
      <trkpt lat="45.14708" lon="-72.59815">
        <ele>172.43</ele>
      </trkpt>
      <trkpt lat="45.14707" lon="-72.59823">
        <ele>172.43</ele>
      </trkpt>
      <trkpt lat="45.147065" lon="-72.59889">
        <ele>169.81</ele>
      </trkpt>
      <trkpt lat="45.14706" lon="-72.59955">
        <ele>169.69</ele>
      </trkpt>
      <trkpt lat="45.1470875" lon="-72.600575">
        <ele>170.19</ele>
      </trkpt>
      <trkpt lat="45.147115" lon="-72.6016">
        <ele>171.82</ele>
      </trkpt>
      <trkpt lat="45.1471425" lon="-72.602625">
        <ele>172.33</ele>
      </trkpt>
      <trkpt lat="45.14717" lon="-72.60365">
        <ele>174.48</ele>
      </trkpt>
      <trkpt lat="45.14716" lon="-72.60393">
        <ele>174.52</ele>
      </trkpt>
      <trkpt lat="45.1471" lon="-72.60436">
        <ele>174.54</ele>
      </trkpt>
      <trkpt lat="45.14696" lon="-72.60472">
        <ele>174.82</ele>
      </trkpt>
      <trkpt lat="45.14711" lon="-72.6049">
        <ele>174.44</ele>
      </trkpt>
      <trkpt lat="45.14716" lon="-72.60503">
        <ele>174.26</ele>
      </trkpt>
      <trkpt lat="45.14723" lon="-72.60535">
        <ele>172.17</ele>
      </trkpt>
      <trkpt lat="45.147264" lon="-72.60645">
        <ele>170.25</ele>
      </trkpt>
      <trkpt lat="45.147298" lon="-72.60755">
        <ele>166.23</ele>
      </trkpt>
      <trkpt lat="45.147332" lon="-72.60865">
        <ele>167.36</ele>
      </trkpt>
      <trkpt lat="45.147366" lon="-72.60975">
        <ele>175.94</ele>
      </trkpt>
      <trkpt lat="45.1474" lon="-72.61085">
        <ele>189.97</ele>
      </trkpt>
      <trkpt lat="45.1475" lon="-72.61192">
        <ele>196.86</ele>
      </trkpt>
      <trkpt lat="45.147525" lon="-72.61267">
        <ele>202.15</ele>
      </trkpt>
      <trkpt lat="45.14755" lon="-72.61342">
        <ele>203.25</ele>
      </trkpt>
      <trkpt lat="45.1468375" lon="-72.613645">
        <ele>202.6</ele>
      </trkpt>
      <trkpt lat="45.146125" lon="-72.61387">
        <ele>198.22</ele>
      </trkpt>
      <trkpt lat="45.1454125" lon="-72.614095">
        <ele>199.3</ele>
      </trkpt>
      <trkpt lat="45.1447" lon="-72.61432">
        <ele>199</ele>
      </trkpt>
      <trkpt lat="45.14469" lon="-72.61432">
        <ele>199</ele>
      </trkpt>
      <trkpt lat="45.143915" lon="-72.61458">
        <ele>201.3</ele>
      </trkpt>
      <trkpt lat="45.14314" lon="-72.61484">
        <ele>202.02</ele>
      </trkpt>
      <trkpt lat="45.14295" lon="-72.61488">
        <ele>201.3</ele>
      </trkpt>
      <trkpt lat="45.1422" lon="-72.61493">
        <ele>196.48</ele>
      </trkpt>
      <trkpt lat="45.14134" lon="-72.61485">
        <ele>197.67</ele>
      </trkpt>
      <trkpt lat="45.14092" lon="-72.61484">
        <ele>200.59</ele>
      </trkpt>
      <trkpt lat="45.14034" lon="-72.61493">
        <ele>202.3</ele>
      </trkpt>
      <trkpt lat="45.13994" lon="-72.61506">
        <ele>202.18</ele>
      </trkpt>
      <trkpt lat="45.1396" lon="-72.6152">
        <ele>202.53</ele>
      </trkpt>
      <trkpt lat="45.13933" lon="-72.61542">
        <ele>203.62</ele>
      </trkpt>
      <trkpt lat="45.13907" lon="-72.61578">
        <ele>206.75</ele>
      </trkpt>
      <trkpt lat="45.13885" lon="-72.61618">
        <ele>208.06</ele>
      </trkpt>
      <trkpt lat="45.13871" lon="-72.61636">
        <ele>208.45</ele>
      </trkpt>
      <trkpt lat="45.13863" lon="-72.61644">
        <ele>208.4</ele>
      </trkpt>
      <trkpt lat="45.13844" lon="-72.6165">
        <ele>207.45</ele>
      </trkpt>
      <trkpt lat="45.13803" lon="-72.61654">
        <ele>204.15</ele>
      </trkpt>
      <trkpt lat="45.13757" lon="-72.6165">
        <ele>203.25</ele>
      </trkpt>
      <trkpt lat="45.13672" lon="-72.61654">
        <ele>202.09</ele>
      </trkpt>
      <trkpt lat="45.13592" lon="-72.61664">
        <ele>203.38</ele>
      </trkpt>
      <trkpt lat="45.13516" lon="-72.61667">
        <ele>209.59</ele>
      </trkpt>
      <trkpt lat="45.134308" lon="-72.616686">
        <ele>212.75</ele>
      </trkpt>
      <trkpt lat="45.133456" lon="-72.616702">
        <ele>218.58</ele>
      </trkpt>
      <trkpt lat="45.132604" lon="-72.616718">
        <ele>225.17</ele>
      </trkpt>
      <trkpt lat="45.131752" lon="-72.616734">
        <ele>232.9</ele>
      </trkpt>
      <trkpt lat="45.1309" lon="-72.61675">
        <ele>235.29</ele>
      </trkpt>
      <trkpt lat="45.13033" lon="-72.6168">
        <ele>238.56</ele>
      </trkpt>
      <trkpt lat="45.12976" lon="-72.61685">
        <ele>244.37</ele>
      </trkpt>
      <trkpt lat="45.12914" lon="-72.61688">
        <ele>248.56</ele>
      </trkpt>
      <trkpt lat="45.12852" lon="-72.61691">
        <ele>248.85</ele>
      </trkpt>
      <trkpt lat="45.12789" lon="-72.61695">
        <ele>250.71</ele>
      </trkpt>
      <trkpt lat="45.12767" lon="-72.61699">
        <ele>251.04</ele>
      </trkpt>
      <trkpt lat="45.12751" lon="-72.61704">
        <ele>251.16</ele>
      </trkpt>
      <trkpt lat="45.12686" lon="-72.61733">
        <ele>251.12</ele>
      </trkpt>
      <trkpt lat="45.12621" lon="-72.61762">
        <ele>251.72</ele>
      </trkpt>
      <trkpt lat="45.12556" lon="-72.61791">
        <ele>253.06</ele>
      </trkpt>
      <trkpt lat="45.12491" lon="-72.6182">
        <ele>252.91</ele>
      </trkpt>
      <trkpt lat="45.124212" lon="-72.618494">
        <ele>250.16</ele>
      </trkpt>
      <trkpt lat="45.123514" lon="-72.618788">
        <ele>248.52</ele>
      </trkpt>
      <trkpt lat="45.122816" lon="-72.619082">
        <ele>248.09</ele>
      </trkpt>
      <trkpt lat="45.122118" lon="-72.619376">
        <ele>248.29</ele>
      </trkpt>
      <trkpt lat="45.12142" lon="-72.61967">
        <ele>251.84</ele>
      </trkpt>
      <trkpt lat="45.120855" lon="-72.61989">
        <ele>253.01</ele>
      </trkpt>
      <trkpt lat="45.12029" lon="-72.62011">
        <ele>252.6</ele>
      </trkpt>
      <trkpt lat="45.119755" lon="-72.620395">
        <ele>248.28</ele>
      </trkpt>
      <trkpt lat="45.11922" lon="-72.62068">
        <ele>244.01</ele>
      </trkpt>
      <trkpt lat="45.11921" lon="-72.62068">
        <ele>243.92</ele>
      </trkpt>
      <trkpt lat="45.1188" lon="-72.62088">
        <ele>239.87</ele>
      </trkpt>
      <trkpt lat="45.11861" lon="-72.62093">
        <ele>238.08</ele>
      </trkpt>
      <trkpt lat="45.117765" lon="-72.62104">
        <ele>225.58</ele>
      </trkpt>
      <trkpt lat="45.11692" lon="-72.62115">
        <ele>217.99</ele>
      </trkpt>
      <trkpt lat="45.1162" lon="-72.621295">
        <ele>214.72</ele>
      </trkpt>
      <trkpt lat="45.11548" lon="-72.62144">
        <ele>210.5</ele>
      </trkpt>
      <trkpt lat="45.11499" lon="-72.621495">
        <ele>208.34</ele>
      </trkpt>
      <trkpt lat="45.1145" lon="-72.62155">
        <ele>205.25</ele>
      </trkpt>
      <trkpt lat="45.11426" lon="-72.62155">
        <ele>203.41</ele>
      </trkpt>
      <trkpt lat="45.11358" lon="-72.62146">
        <ele>198</ele>
      </trkpt>
      <trkpt lat="45.113595" lon="-72.62265">
        <ele>199.82</ele>
      </trkpt>
      <trkpt lat="45.11361" lon="-72.62384">
        <ele>198.29</ele>
      </trkpt>
      <trkpt lat="45.113635" lon="-72.62458">
        <ele>197.22</ele>
      </trkpt>
      <trkpt lat="45.11366" lon="-72.62532">
        <ele>197.56</ele>
      </trkpt>
      <trkpt lat="45.113686" lon="-72.6264">
        <ele>200.34</ele>
      </trkpt>
      <trkpt lat="45.113712" lon="-72.62748">
        <ele>203.54</ele>
      </trkpt>
      <trkpt lat="45.113738" lon="-72.62856">
        <ele>205.08</ele>
      </trkpt>
      <trkpt lat="45.113764" lon="-72.62964">
        <ele>206.37</ele>
      </trkpt>
      <trkpt lat="45.11379" lon="-72.63072">
        <ele>209.11</ele>
      </trkpt>
      <trkpt lat="45.113835" lon="-72.63193">
        <ele>218.21</ele>
      </trkpt>
      <trkpt lat="45.11388" lon="-72.63314">
        <ele>229.14</ele>
      </trkpt>
      <trkpt lat="45.11388" lon="-72.63314">
        <ele>229.15</ele>
      </trkpt>
      <trkpt lat="45.11392" lon="-72.634105">
        <ele>230.19</ele>
      </trkpt>
      <trkpt lat="45.11396" lon="-72.63507">
        <ele>229.27</ele>
      </trkpt>
      <trkpt lat="45.11399" lon="-72.6361125">
        <ele>224.89</ele>
      </trkpt>
      <trkpt lat="45.11402" lon="-72.637155">
        <ele>221.02</ele>
      </trkpt>
      <trkpt lat="45.11405" lon="-72.6381975">
        <ele>220.35</ele>
      </trkpt>
      <trkpt lat="45.11408" lon="-72.63924">
        <ele>222.16</ele>
      </trkpt>
      <trkpt lat="45.11404" lon="-72.63977">
        <ele>222.67</ele>
      </trkpt>
      <trkpt lat="45.11386" lon="-72.64071">
        <ele>221.57</ele>
      </trkpt>
      <trkpt lat="45.11368" lon="-72.64165">
        <ele>217.93</ele>
      </trkpt>
      <trkpt lat="45.1136" lon="-72.64216">
        <ele>217.17</ele>
      </trkpt>
      <trkpt lat="45.11359" lon="-72.64272">
        <ele>217.06</ele>
      </trkpt>
      <trkpt lat="45.11363" lon="-72.643965">
        <ele>220.92</ele>
      </trkpt>
      <trkpt lat="45.11367" lon="-72.64521">
        <ele>226.46</ele>
      </trkpt>
      <trkpt lat="45.11371" lon="-72.646455">
        <ele>226.3</ele>
      </trkpt>
      <trkpt lat="45.11375" lon="-72.6477">
        <ele>225.37</ele>
      </trkpt>
      <trkpt lat="45.11375" lon="-72.64846">
        <ele>225.71</ele>
      </trkpt>
      <trkpt lat="45.11369" lon="-72.64904">
        <ele>226.22</ele>
      </trkpt>
      <trkpt lat="45.11354" lon="-72.650005">
        <ele>227.1</ele>
      </trkpt>
      <trkpt lat="45.11339" lon="-72.65097">
        <ele>231.78</ele>
      </trkpt>
      <trkpt lat="45.113295" lon="-72.651685">
        <ele>235.64</ele>
      </trkpt>
      <trkpt lat="45.1132" lon="-72.6524">
        <ele>237.53</ele>
      </trkpt>
      <trkpt lat="45.1132" lon="-72.65281">
        <ele>238.76</ele>
      </trkpt>
      <trkpt lat="45.11326" lon="-72.65321">
        <ele>240.68</ele>
      </trkpt>
      <trkpt lat="45.11331" lon="-72.65339">
        <ele>241.08</ele>
      </trkpt>
      <trkpt lat="45.11354" lon="-72.65397">
        <ele>242.45</ele>
      </trkpt>
      <trkpt lat="45.11378" lon="-72.65437">
        <ele>243.34</ele>
      </trkpt>
      <trkpt lat="45.11398" lon="-72.65459">
        <ele>244.9</ele>
      </trkpt>
      <trkpt lat="45.114545" lon="-72.655105">
        <ele>248.25</ele>
      </trkpt>
      <trkpt lat="45.11511" lon="-72.65562">
        <ele>252.94</ele>
      </trkpt>
      <trkpt lat="45.11565" lon="-72.65616">
        <ele>254.05</ele>
      </trkpt>
      <trkpt lat="45.11596" lon="-72.65664">
        <ele>252.59</ele>
      </trkpt>
      <trkpt lat="45.11599" lon="-72.65688">
        <ele>251.82</ele>
      </trkpt>
      <trkpt lat="45.116" lon="-72.6579">
        <ele>250.03</ele>
      </trkpt>
      <trkpt lat="45.11598" lon="-72.65845">
        <ele>250.06</ele>
      </trkpt>
      <trkpt lat="45.11599" lon="-72.65884">
        <ele>250.38</ele>
      </trkpt>
      <trkpt lat="45.11608" lon="-72.65944">
        <ele>250.9</ele>
      </trkpt>
      <trkpt lat="45.11634" lon="-72.66014">
        <ele>251.54</ele>
      </trkpt>
      <trkpt lat="45.11686" lon="-72.66117">
        <ele>245.06</ele>
      </trkpt>
      <trkpt lat="45.117265" lon="-72.661915">
        <ele>242.53</ele>
      </trkpt>
      <trkpt lat="45.11767" lon="-72.66266">
        <ele>240.06</ele>
      </trkpt>
      <trkpt lat="45.11767" lon="-72.66266">
        <ele>240.09</ele>
      </trkpt>
      <trkpt lat="45.11809" lon="-72.66333">
        <ele>237.83</ele>
      </trkpt>
      <trkpt lat="45.1184" lon="-72.66364">
        <ele>236.8</ele>
      </trkpt>
      <trkpt lat="45.11857" lon="-72.66391">
        <ele>235.95</ele>
      </trkpt>
      <trkpt lat="45.11897" lon="-72.66471">
        <ele>229.59</ele>
      </trkpt>
      <trkpt lat="45.11911" lon="-72.66516">
        <ele>227.37</ele>
      </trkpt>
      <trkpt lat="45.11921" lon="-72.66575">
        <ele>226.3</ele>
      </trkpt>
      <trkpt lat="45.11936" lon="-72.66694">
        <ele>228.72</ele>
      </trkpt>
      <trkpt lat="45.11941" lon="-72.66753">
        <ele>232.09</ele>
      </trkpt>
      <trkpt lat="45.1194" lon="-72.66806">
        <ele>236.38</ele>
      </trkpt>
      <trkpt lat="45.11926" lon="-72.66928">
        <ele>241.13</ele>
      </trkpt>
      <trkpt lat="45.11926" lon="-72.66941">
        <ele>241.13</ele>
      </trkpt>
      <trkpt lat="45.1193" lon="-72.66968">
        <ele>239.48</ele>
      </trkpt>
      <trkpt lat="45.11939" lon="-72.67">
        <ele>237.7</ele>
      </trkpt>
      <trkpt lat="45.11948" lon="-72.67022">
        <ele>237.7</ele>
      </trkpt>
      <trkpt lat="45.11992" lon="-72.67103">
        <ele>230.47</ele>
      </trkpt>
      <trkpt lat="45.120235" lon="-72.67166">
        <ele>227.51</ele>
      </trkpt>
      <trkpt lat="45.12055" lon="-72.67229">
        <ele>225.97</ele>
      </trkpt>
      <trkpt lat="45.12072" lon="-72.67259">
        <ele>225.2</ele>
      </trkpt>
      <trkpt lat="45.1212" lon="-72.67327">
        <ele>220.89</ele>
      </trkpt>
      <trkpt lat="45.12148" lon="-72.67371">
        <ele>217.13</ele>
      </trkpt>
      <trkpt lat="45.1217" lon="-72.67411">
        <ele>213.16</ele>
      </trkpt>
      <trkpt lat="45.122275" lon="-72.67474">
        <ele>209.85</ele>
      </trkpt>
      <trkpt lat="45.12285" lon="-72.67537">
        <ele>208.67</ele>
      </trkpt>
      <trkpt lat="45.123405" lon="-72.67592">
        <ele>209.46</ele>
      </trkpt>
      <trkpt lat="45.12396" lon="-72.67647">
        <ele>208.21</ele>
      </trkpt>
      <trkpt lat="45.12432" lon="-72.676865">
        <ele>205.59</ele>
      </trkpt>
      <trkpt lat="45.12468" lon="-72.67726">
        <ele>202.25</ele>
      </trkpt>
      <trkpt lat="45.12468" lon="-72.67726">
        <ele>202.35</ele>
      </trkpt>
      <trkpt lat="45.12518" lon="-72.67783">
        <ele>196.77</ele>
      </trkpt>
      <trkpt lat="45.12581" lon="-72.678505">
        <ele>194.8</ele>
      </trkpt>
      <trkpt lat="45.12644" lon="-72.67918">
        <ele>196</ele>
      </trkpt>
      <trkpt lat="45.12689" lon="-72.67994">
        <ele>200.15</ele>
      </trkpt>
      <trkpt lat="45.1274233" lon="-72.6809533">
        <ele>205.25</ele>
      </trkpt>
      <trkpt lat="45.1279567" lon="-72.6819666">
        <ele>210.31</ele>
      </trkpt>
      <trkpt lat="45.12849" lon="-72.68298">
        <ele>219.2</ele>
      </trkpt>
      <trkpt lat="45.12862" lon="-72.68334">
        <ele>220.92</ele>
      </trkpt>
      <trkpt lat="45.12866" lon="-72.68353">
        <ele>220.56</ele>
      </trkpt>
      <trkpt lat="45.12866" lon="-72.68405">
        <ele>218.21</ele>
      </trkpt>
      <trkpt lat="45.12873" lon="-72.68509">
        <ele>213.05</ele>
      </trkpt>
      <trkpt lat="45.128855" lon="-72.686275">
        <ele>212.1</ele>
      </trkpt>
      <trkpt lat="45.12898" lon="-72.68746">
        <ele>209.91</ele>
      </trkpt>
      <trkpt lat="45.12913" lon="-72.68822">
        <ele>209.56</ele>
      </trkpt>
      <trkpt lat="45.1292" lon="-72.6884">
        <ele>209.71</ele>
      </trkpt>
      <trkpt lat="45.12935" lon="-72.68867">
        <ele>210.36</ele>
      </trkpt>
      <trkpt lat="45.12981" lon="-72.68929">
        <ele>214.58</ele>
      </trkpt>
      <trkpt lat="45.12994" lon="-72.68939">
        <ele>215.28</ele>
      </trkpt>
      <trkpt lat="45.13016" lon="-72.68952">
        <ele>217.23</ele>
      </trkpt>
      <trkpt lat="45.13048" lon="-72.68961">
        <ele>222.62</ele>
      </trkpt>
      <trkpt lat="45.131255" lon="-72.68963">
        <ele>228.65</ele>
      </trkpt>
      <trkpt lat="45.13203" lon="-72.68965">
        <ele>231.74</ele>
      </trkpt>
      <trkpt lat="45.132605" lon="-72.68954">
        <ele>228.91</ele>
      </trkpt>
      <trkpt lat="45.13318" lon="-72.68943">
        <ele>227.25</ele>
      </trkpt>
      <trkpt lat="45.13377" lon="-72.68938">
        <ele>224.38</ele>
      </trkpt>
      <trkpt lat="45.13392" lon="-72.68938">
        <ele>223.79</ele>
      </trkpt>
      <trkpt lat="45.13406" lon="-72.68943">
        <ele>221.96</ele>
      </trkpt>
      <trkpt lat="45.13444" lon="-72.6897">
        <ele>219.4</ele>
      </trkpt>
      <trkpt lat="45.134975" lon="-72.69017">
        <ele>216.66</ele>
      </trkpt>
      <trkpt lat="45.13551" lon="-72.69064">
        <ele>215.89</ele>
      </trkpt>
      <trkpt lat="45.1361533" lon="-72.6910567">
        <ele>210.9</ele>
      </trkpt>
      <trkpt lat="45.1367967" lon="-72.6914733">
        <ele>202.87</ele>
      </trkpt>
      <trkpt lat="45.13744" lon="-72.69189">
        <ele>195.15</ele>
      </trkpt>
      <trkpt lat="45.13765" lon="-72.69199">
        <ele>192.69</ele>
      </trkpt>
      <trkpt lat="45.13794" lon="-72.69208">
        <ele>191.73</ele>
      </trkpt>
      <trkpt lat="45.13815" lon="-72.69211">
        <ele>192.54</ele>
      </trkpt>
      <trkpt lat="45.13886" lon="-72.69204">
        <ele>200.63</ele>
      </trkpt>
      <trkpt lat="45.13852" lon="-72.69284">
        <ele>195.05</ele>
      </trkpt>
      <trkpt lat="45.138175" lon="-72.69375">
        <ele>190.94</ele>
      </trkpt>
      <trkpt lat="45.13783" lon="-72.69466">
        <ele>188.52</ele>
      </trkpt>
      <trkpt lat="45.13751" lon="-72.695445">
        <ele>186.41</ele>
      </trkpt>
      <trkpt lat="45.13719" lon="-72.69623">
        <ele>185.59</ele>
      </trkpt>
      <trkpt lat="45.13695" lon="-72.69686">
        <ele>186.14</ele>
      </trkpt>
      <trkpt lat="45.13655" lon="-72.69758">
        <ele>188.28</ele>
      </trkpt>
      <trkpt lat="45.1362" lon="-72.69816">
        <ele>189.26</ele>
      </trkpt>
      <trkpt lat="45.13585" lon="-72.69874">
        <ele>189.91</ele>
      </trkpt>
      <trkpt lat="45.13561" lon="-72.69933">
        <ele>191.3</ele>
      </trkpt>
      <trkpt lat="45.1356" lon="-72.69934">
        <ele>191.33</ele>
      </trkpt>
      <trkpt lat="45.13537" lon="-72.699955">
        <ele>192.77</ele>
      </trkpt>
      <trkpt lat="45.13514" lon="-72.70057">
        <ele>193.46</ele>
      </trkpt>
      <trkpt lat="45.1349" lon="-72.70129">
        <ele>193.4</ele>
      </trkpt>
      <trkpt lat="45.13483" lon="-72.70157">
        <ele>193.35</ele>
      </trkpt>
      <trkpt lat="45.134665" lon="-72.70257">
        <ele>192.99</ele>
      </trkpt>
      <trkpt lat="45.1345" lon="-72.70357">
        <ele>193.77</ele>
      </trkpt>
      <trkpt lat="45.13435" lon="-72.70478">
        <ele>199.35</ele>
      </trkpt>
      <trkpt lat="45.1342" lon="-72.70599">
        <ele>204.12</ele>
      </trkpt>
      <trkpt lat="45.13414" lon="-72.7069">
        <ele>207.78</ele>
      </trkpt>
      <trkpt lat="45.13408" lon="-72.70781">
        <ele>212.26</ele>
      </trkpt>
      <trkpt lat="45.13402" lon="-72.70872">
        <ele>214.62</ele>
      </trkpt>
      <trkpt lat="45.13388" lon="-72.70971">
        <ele>217.34</ele>
      </trkpt>
      <trkpt lat="45.13374" lon="-72.71043">
        <ele>219</ele>
      </trkpt>
      <trkpt lat="45.133435" lon="-72.7113325">
        <ele>220.99</ele>
      </trkpt>
      <trkpt lat="45.13313" lon="-72.712235">
        <ele>221.96</ele>
      </trkpt>
      <trkpt lat="45.132825" lon="-72.7131375">
        <ele>222.35</ele>
      </trkpt>
      <trkpt lat="45.13252" lon="-72.71404">
        <ele>225.25</ele>
      </trkpt>
      <trkpt lat="45.13222" lon="-72.71499">
        <ele>230.11</ele>
      </trkpt>
      <trkpt lat="45.131965" lon="-72.71575">
        <ele>232.78</ele>
      </trkpt>
      <trkpt lat="45.13171" lon="-72.71651">
        <ele>236.2</ele>
      </trkpt>
      <trkpt lat="45.13153" lon="-72.71692">
        <ele>237.39</ele>
      </trkpt>
      <trkpt lat="45.13111" lon="-72.7178">
        <ele>238.5</ele>
      </trkpt>
      <trkpt lat="45.13069" lon="-72.7186433">
        <ele>238.17</ele>
      </trkpt>
      <trkpt lat="45.13027" lon="-72.7194867">
        <ele>239.42</ele>
      </trkpt>
      <trkpt lat="45.12985" lon="-72.72033">
        <ele>239.82</ele>
      </trkpt>
      <trkpt lat="45.1294125" lon="-72.72112">
        <ele>238.44</ele>
      </trkpt>
      <trkpt lat="45.128975" lon="-72.72191">
        <ele>237.57</ele>
      </trkpt>
      <trkpt lat="45.1285375" lon="-72.7227">
        <ele>237.67</ele>
      </trkpt>
      <trkpt lat="45.1281" lon="-72.72349">
        <ele>237.47</ele>
      </trkpt>
      <trkpt lat="45.12781" lon="-72.72394">
        <ele>235.98</ele>
      </trkpt>
      <trkpt lat="45.12735" lon="-72.72482">
        <ele>234.14</ele>
      </trkpt>
      <trkpt lat="45.12689" lon="-72.7257">
        <ele>230.89</ele>
      </trkpt>
      <trkpt lat="45.12644" lon="-72.72666">
        <ele>226.28</ele>
      </trkpt>
      <trkpt lat="45.12599" lon="-72.72762">
        <ele>222.84</ele>
      </trkpt>
      <trkpt lat="45.12655" lon="-72.727595">
        <ele>225.38</ele>
      </trkpt>
      <trkpt lat="45.12711" lon="-72.72757">
        <ele>228.11</ele>
      </trkpt>
      <trkpt lat="45.12798" lon="-72.7275138">
        <ele>230.48</ele>
      </trkpt>
      <trkpt lat="45.12885" lon="-72.7274575">
        <ele>232.07</ele>
      </trkpt>
      <trkpt lat="45.12972" lon="-72.7274013">
        <ele>232.47</ele>
      </trkpt>
      <trkpt lat="45.13059" lon="-72.727345">
        <ele>230.65</ele>
      </trkpt>
      <trkpt lat="45.13146" lon="-72.7272888">
        <ele>229.55</ele>
      </trkpt>
      <trkpt lat="45.13233" lon="-72.7272325">
        <ele>228.45</ele>
      </trkpt>
      <trkpt lat="45.1332" lon="-72.7271763">
        <ele>223.88</ele>
      </trkpt>
      <trkpt lat="45.13407" lon="-72.72712">
        <ele>218.12</ele>
      </trkpt>
      <trkpt lat="45.1348913" lon="-72.7270788">
        <ele>210.75</ele>
      </trkpt>
      <trkpt lat="45.1357125" lon="-72.7270375">
        <ele>208.68</ele>
      </trkpt>
      <trkpt lat="45.1365338" lon="-72.7269963">
        <ele>207.79</ele>
      </trkpt>
      <trkpt lat="45.137355" lon="-72.726955">
        <ele>204.27</ele>
      </trkpt>
      <trkpt lat="45.1381763" lon="-72.7269138">
        <ele>204.98</ele>
      </trkpt>
      <trkpt lat="45.1389975" lon="-72.7268725">
        <ele>208.24</ele>
      </trkpt>
      <trkpt lat="45.1398188" lon="-72.7268313">
        <ele>208.45</ele>
      </trkpt>
      <trkpt lat="45.14064" lon="-72.72679">
        <ele>211.93</ele>
      </trkpt>
      <trkpt lat="45.14064" lon="-72.72679">
        <ele>211.97</ele>
      </trkpt>
      <trkpt lat="45.1413033" lon="-72.7267333">
        <ele>216.28</ele>
      </trkpt>
      <trkpt lat="45.1419667" lon="-72.7266767">
        <ele>221.39</ele>
      </trkpt>
      <trkpt lat="45.14263" lon="-72.72662">
        <ele>223.79</ele>
      </trkpt>
      <trkpt lat="45.14279" lon="-72.72654">
        <ele>225.37</ele>
      </trkpt>
      <trkpt lat="45.14301" lon="-72.72636">
        <ele>225.74</ele>
      </trkpt>
      <trkpt lat="45.1435043" lon="-72.7254443">
        <ele>229.11</ele>
      </trkpt>
      <trkpt lat="45.1439986" lon="-72.7245287">
        <ele>232.73</ele>
      </trkpt>
      <trkpt lat="45.1444929" lon="-72.723613">
        <ele>234.13</ele>
      </trkpt>
      <trkpt lat="45.1449872" lon="-72.7226972">
        <ele>233.97</ele>
      </trkpt>
      <trkpt lat="45.1454815" lon="-72.7217815">
        <ele>232.67</ele>
      </trkpt>
      <trkpt lat="45.1459757" lon="-72.7208658">
        <ele>232.76</ele>
      </trkpt>
      <trkpt lat="45.14647" lon="-72.71995">
        <ele>232.05</ele>
      </trkpt>
      <trkpt lat="45.14697" lon="-72.71895">
        <ele>229.41</ele>
      </trkpt>
      <trkpt lat="45.14747" lon="-72.71795">
        <ele>227.61</ele>
      </trkpt>
      <trkpt lat="45.1475729" lon="-72.7190443">
        <ele>224.62</ele>
      </trkpt>
      <trkpt lat="45.1476758" lon="-72.7201386">
        <ele>223.13</ele>
      </trkpt>
      <trkpt lat="45.1477786" lon="-72.7212328">
        <ele>223.37</ele>
      </trkpt>
      <trkpt lat="45.1478815" lon="-72.7223271">
        <ele>225.16</ele>
      </trkpt>
      <trkpt lat="45.1479843" lon="-72.7234214">
        <ele>228.9</ele>
      </trkpt>
      <trkpt lat="45.1480872" lon="-72.7245157">
        <ele>232.95</ele>
      </trkpt>
      <trkpt lat="45.14819" lon="-72.72561">
        <ele>233.74</ele>
      </trkpt>
      <trkpt lat="45.14832" lon="-72.72663">
        <ele>230.04</ele>
      </trkpt>
      <trkpt lat="45.14836" lon="-72.72713">
        <ele>226.62</ele>
      </trkpt>
      <trkpt lat="45.14837" lon="-72.72766">
        <ele>225.23</ele>
      </trkpt>
      <trkpt lat="45.1483267" lon="-72.7287433">
        <ele>223.33</ele>
      </trkpt>
      <trkpt lat="45.1482834" lon="-72.7298267">
        <ele>221.27</ele>
      </trkpt>
      <trkpt lat="45.14824" lon="-72.73091">
        <ele>217.8</ele>
      </trkpt>
      <trkpt lat="45.1481967" lon="-72.7319933">
        <ele>215.58</ele>
      </trkpt>
      <trkpt lat="45.1481534" lon="-72.7330767">
        <ele>214.37</ele>
      </trkpt>
      <trkpt lat="45.14811" lon="-72.73416">
        <ele>212.28</ele>
      </trkpt>
      <trkpt lat="45.1480625" lon="-72.7351575">
        <ele>210.7</ele>
      </trkpt>
      <trkpt lat="45.148015" lon="-72.736155">
        <ele>209.21</ele>
      </trkpt>
      <trkpt lat="45.1479675" lon="-72.7371525">
        <ele>207.79</ele>
      </trkpt>
      <trkpt lat="45.14792" lon="-72.73815">
        <ele>205.39</ele>
      </trkpt>
      <trkpt lat="45.14786" lon="-72.7388">
        <ele>203.4</ele>
      </trkpt>
      <trkpt lat="45.14771" lon="-72.73938">
        <ele>202.8</ele>
      </trkpt>
      <trkpt lat="45.1473434" lon="-72.7403234">
        <ele>202.92</ele>
      </trkpt>
      <trkpt lat="45.1469767" lon="-72.7412667">
        <ele>201.79</ele>
      </trkpt>
      <trkpt lat="45.14661" lon="-72.7422101">
        <ele>196.81</ele>
      </trkpt>
      <trkpt lat="45.1462434" lon="-72.7431534">
        <ele>194.94</ele>
      </trkpt>
      <trkpt lat="45.1458767" lon="-72.7440967">
        <ele>193.38</ele>
      </trkpt>
      <trkpt lat="45.14551" lon="-72.74504">
        <ele>195.85</ele>
      </trkpt>
      <trkpt lat="45.14503" lon="-72.74611">
        <ele>196.95</ele>
      </trkpt>
      <trkpt lat="45.14452" lon="-72.747115">
        <ele>199.29</ele>
      </trkpt>
      <trkpt lat="45.14401" lon="-72.74812">
        <ele>197.64</ele>
      </trkpt>
      <trkpt lat="45.14371" lon="-72.74866">
        <ele>196.21</ele>
      </trkpt>
      <trkpt lat="45.14341" lon="-72.7492">
        <ele>194.11</ele>
      </trkpt>
      <trkpt lat="45.14289" lon="-72.75009">
        <ele>194.2</ele>
      </trkpt>
      <trkpt lat="45.14258" lon="-72.75049">
        <ele>195.25</ele>
      </trkpt>
      <trkpt lat="45.14213" lon="-72.751005">
        <ele>194.91</ele>
      </trkpt>
      <trkpt lat="45.14168" lon="-72.75152">
        <ele>194.57</ele>
      </trkpt>
      <trkpt lat="45.141095" lon="-72.75211">
        <ele>193.28</ele>
      </trkpt>
      <trkpt lat="45.14051" lon="-72.7527">
        <ele>191.56</ele>
      </trkpt>
      <trkpt lat="45.1403" lon="-72.75299">
        <ele>189.77</ele>
      </trkpt>
      <trkpt lat="45.14" lon="-72.753555">
        <ele>184.79</ele>
      </trkpt>
      <trkpt lat="45.1397" lon="-72.75412">
        <ele>182.52</ele>
      </trkpt>
      <trkpt lat="45.14027" lon="-72.75457">
        <ele>181.65</ele>
      </trkpt>
      <trkpt lat="45.14048" lon="-72.75467">
        <ele>181.38</ele>
      </trkpt>
      <trkpt lat="45.14071" lon="-72.75475">
        <ele>181.44</ele>
      </trkpt>
      <trkpt lat="45.14092" lon="-72.75479">
        <ele>181.75</ele>
      </trkpt>
      <trkpt lat="45.1412" lon="-72.75479">
        <ele>182.71</ele>
      </trkpt>
      <trkpt lat="45.14208" lon="-72.7547633">
        <ele>180.54</ele>
      </trkpt>
      <trkpt lat="45.14296" lon="-72.7547367">
        <ele>175.22</ele>
      </trkpt>
      <trkpt lat="45.14384" lon="-72.75471">
        <ele>172.58</ele>
      </trkpt>
      <trkpt lat="45.14403" lon="-72.7547">
        <ele>172.36</ele>
      </trkpt>
      <trkpt lat="45.14428" lon="-72.75461">
        <ele>172.3</ele>
      </trkpt>
      <trkpt lat="45.14428" lon="-72.75462">
        <ele>172.3</ele>
      </trkpt>
      <trkpt lat="45.14466" lon="-72.75449">
        <ele>172.54</ele>
      </trkpt>
      <trkpt lat="45.1449" lon="-72.75446">
        <ele>172.31</ele>
      </trkpt>
      <trkpt lat="45.1457773" lon="-72.7544246">
        <ele>168.09</ele>
      </trkpt>
      <trkpt lat="45.1466545" lon="-72.7543891">
        <ele>171.03</ele>
      </trkpt>
      <trkpt lat="45.1475318" lon="-72.7543536">
        <ele>175.84</ele>
      </trkpt>
      <trkpt lat="45.1484091" lon="-72.7543182">
        <ele>180.71</ele>
      </trkpt>
      <trkpt lat="45.1492864" lon="-72.7542827">
        <ele>182.57</ele>
      </trkpt>
      <trkpt lat="45.1501636" lon="-72.7542473">
        <ele>189.94</ele>
      </trkpt>
      <trkpt lat="45.1510409" lon="-72.7542118">
        <ele>195.74</ele>
      </trkpt>
      <trkpt lat="45.1519182" lon="-72.7541764">
        <ele>204.93</ele>
      </trkpt>
      <trkpt lat="45.1527955" lon="-72.7541409">
        <ele>212.05</ele>
      </trkpt>
      <trkpt lat="45.1536727" lon="-72.7541055">
        <ele>218.33</ele>
      </trkpt>
      <trkpt lat="45.15455" lon="-72.75407">
        <ele>229.73</ele>
      </trkpt>
      <trkpt lat="45.15491" lon="-72.75403">
        <ele>232.42</ele>
      </trkpt>
      <trkpt lat="45.15511" lon="-72.75398">
        <ele>233.32</ele>
      </trkpt>
      <trkpt lat="45.15527" lon="-72.75385">
        <ele>234.29</ele>
      </trkpt>
      <trkpt lat="45.155615" lon="-72.753405">
        <ele>235.78</ele>
      </trkpt>
      <trkpt lat="45.15596" lon="-72.75296">
        <ele>236.47</ele>
      </trkpt>
      <trkpt lat="45.15659" lon="-72.75228">
        <ele>238.37</ele>
      </trkpt>
      <trkpt lat="45.157125" lon="-72.75179">
        <ele>235.18</ele>
      </trkpt>
      <trkpt lat="45.15766" lon="-72.7513">
        <ele>228.93</ele>
      </trkpt>
      <trkpt lat="45.15843" lon="-72.75067">
        <ele>218.38</ele>
      </trkpt>
      <trkpt lat="45.1586" lon="-72.75058">
        <ele>216.99</ele>
      </trkpt>
      <trkpt lat="45.1588" lon="-72.75049">
        <ele>215.19</ele>
      </trkpt>
      <trkpt lat="45.15959" lon="-72.7504">
        <ele>212.51</ele>
      </trkpt>
      <trkpt lat="45.1604" lon="-72.750445">
        <ele>211.46</ele>
      </trkpt>
      <trkpt lat="45.16121" lon="-72.75049">
        <ele>205.85</ele>
      </trkpt>
      <trkpt lat="45.16144" lon="-72.75047">
        <ele>204.38</ele>
      </trkpt>
      <trkpt lat="45.162065" lon="-72.750465">
        <ele>202.87</ele>
      </trkpt>
      <trkpt lat="45.16269" lon="-72.75046">
        <ele>201.99</ele>
      </trkpt>
      <trkpt lat="45.16301" lon="-72.75054">
        <ele>201.51</ele>
      </trkpt>
      <trkpt lat="45.16315" lon="-72.75063">
        <ele>201.06</ele>
      </trkpt>
      <trkpt lat="45.1633" lon="-72.75076">
        <ele>200.78</ele>
      </trkpt>
      <trkpt lat="45.16363" lon="-72.75129">
        <ele>198.12</ele>
      </trkpt>
      <trkpt lat="45.16377" lon="-72.75158">
        <ele>194.9</ele>
      </trkpt>
      <trkpt lat="45.16387" lon="-72.75189">
        <ele>191.9</ele>
      </trkpt>
      <trkpt lat="45.16395" lon="-72.75224">
        <ele>188.45</ele>
      </trkpt>
      <trkpt lat="45.1641325" lon="-72.75319">
        <ele>178.11</ele>
      </trkpt>
      <trkpt lat="45.164315" lon="-72.75414">
        <ele>172.94</ele>
      </trkpt>
      <trkpt lat="45.1644975" lon="-72.75509">
        <ele>170.06</ele>
      </trkpt>
      <trkpt lat="45.16468" lon="-72.75604">
        <ele>167.76</ele>
      </trkpt>
      <trkpt lat="45.16468" lon="-72.75604">
        <ele>167.76</ele>
      </trkpt>
      <trkpt lat="45.16487" lon="-72.757076">
        <ele>166.63</ele>
      </trkpt>
      <trkpt lat="45.16506" lon="-72.758112">
        <ele>163.11</ele>
      </trkpt>
      <trkpt lat="45.16525" lon="-72.759148">
        <ele>157.91</ele>
      </trkpt>
      <trkpt lat="45.16544" lon="-72.760184">
        <ele>156.64</ele>
      </trkpt>
      <trkpt lat="45.16563" lon="-72.76122">
        <ele>155.99</ele>
      </trkpt>
      <trkpt lat="45.166176" lon="-72.76048">
        <ele>154.81</ele>
      </trkpt>
      <trkpt lat="45.166722" lon="-72.75974">
        <ele>154.39</ele>
      </trkpt>
      <trkpt lat="45.167268" lon="-72.759">
        <ele>154.34</ele>
      </trkpt>
      <trkpt lat="45.167814" lon="-72.75826">
        <ele>154.44</ele>
      </trkpt>
      <trkpt lat="45.16836" lon="-72.75752">
        <ele>154.53</ele>
      </trkpt>
      <trkpt lat="45.16885" lon="-72.75689">
        <ele>154.65</ele>
      </trkpt>
      <trkpt lat="45.16949" lon="-72.75613">
        <ele>154.34</ele>
      </trkpt>
      <trkpt lat="45.17001" lon="-72.75559">
        <ele>153.15</ele>
      </trkpt>
      <trkpt lat="45.17041" lon="-72.755195">
        <ele>152.12</ele>
      </trkpt>
      <trkpt lat="45.17081" lon="-72.7548">
        <ele>151.4</ele>
      </trkpt>
      <trkpt lat="45.17136" lon="-72.75431">
        <ele>148.41</ele>
      </trkpt>
      <trkpt lat="45.17198" lon="-72.7538">
        <ele>146.16</ele>
      </trkpt>
      <trkpt lat="45.17267" lon="-72.75331">
        <ele>143.89</ele>
      </trkpt>
      <trkpt lat="45.1731" lon="-72.75304">
        <ele>142.81</ele>
      </trkpt>
      <trkpt lat="45.17353" lon="-72.75277">
        <ele>141.55</ele>
      </trkpt>
      <trkpt lat="45.17408" lon="-72.75243">
        <ele>140.95</ele>
      </trkpt>
      <trkpt lat="45.17475" lon="-72.75193">
        <ele>139.52</ele>
      </trkpt>
      <trkpt lat="45.17515" lon="-72.751435">
        <ele>139.31</ele>
      </trkpt>
      <trkpt lat="45.17555" lon="-72.75094">
        <ele>140.07</ele>
      </trkpt>
      <trkpt lat="45.17606" lon="-72.7501967">
        <ele>142.3</ele>
      </trkpt>
      <trkpt lat="45.17657" lon="-72.7494533">
        <ele>146.29</ele>
      </trkpt>
      <trkpt lat="45.17708" lon="-72.74871">
        <ele>150.57</ele>
      </trkpt>
      <trkpt lat="45.17728" lon="-72.74839">
        <ele>152.35</ele>
      </trkpt>
      <trkpt lat="45.17776" lon="-72.74741">
        <ele>155.03</ele>
      </trkpt>
      <trkpt lat="45.1782084" lon="-72.74646">
        <ele>150.32</ele>
      </trkpt>
      <trkpt lat="45.1786567" lon="-72.7455101">
        <ele>149.56</ele>
      </trkpt>
      <trkpt lat="45.179105" lon="-72.7445601">
        <ele>149.39</ele>
      </trkpt>
      <trkpt lat="45.1795534" lon="-72.7436101">
        <ele>143.97</ele>
      </trkpt>
      <trkpt lat="45.1800017" lon="-72.74266">
        <ele>137.53</ele>
      </trkpt>
      <trkpt lat="45.18045" lon="-72.74171">
        <ele>136.08</ele>
      </trkpt>
      <trkpt lat="45.18045" lon="-72.74172">
        <ele>136.09</ele>
      </trkpt>
      <trkpt lat="45.18094" lon="-72.74074">
        <ele>134.59</ele>
      </trkpt>
      <trkpt lat="45.18107" lon="-72.74042">
        <ele>135.16</ele>
      </trkpt>
      <trkpt lat="45.18118" lon="-72.74023">
        <ele>135.53</ele>
      </trkpt>
      <trkpt lat="45.18142" lon="-72.73988">
        <ele>137.51</ele>
      </trkpt>
      <trkpt lat="45.181925" lon="-72.739345">
        <ele>138.24</ele>
      </trkpt>
      <trkpt lat="45.18243" lon="-72.73881">
        <ele>138.07</ele>
      </trkpt>
      <trkpt lat="45.18267" lon="-72.73854">
        <ele>137.34</ele>
      </trkpt>
      <trkpt lat="45.18303" lon="-72.738">
        <ele>134.7</ele>
      </trkpt>
      <trkpt lat="45.18315" lon="-72.73778">
        <ele>133.93</ele>
      </trkpt>
      <trkpt lat="45.18344" lon="-72.73722">
        <ele>132.2</ele>
      </trkpt>
      <trkpt lat="45.18373" lon="-72.73666">
        <ele>132.37</ele>
      </trkpt>
      <trkpt lat="45.1840767" lon="-72.7358533">
        <ele>136</ele>
      </trkpt>
      <trkpt lat="45.1844233" lon="-72.7350467">
        <ele>140.63</ele>
      </trkpt>
      <trkpt lat="45.18477" lon="-72.73424">
        <ele>146.16</ele>
      </trkpt>
      <trkpt lat="45.18526" lon="-72.733275">
        <ele>149.66</ele>
      </trkpt>
      <trkpt lat="45.18575" lon="-72.73231">
        <ele>151.42</ele>
      </trkpt>
      <trkpt lat="45.18619" lon="-72.731265">
        <ele>149.82</ele>
      </trkpt>
      <trkpt lat="45.18663" lon="-72.73022">
        <ele>149.16</ele>
      </trkpt>
      <trkpt lat="45.18707" lon="-72.72924">
        <ele>149.28</ele>
      </trkpt>
      <trkpt lat="45.18721" lon="-72.72896">
        <ele>149.39</ele>
      </trkpt>
      <trkpt lat="45.18741" lon="-72.72865">
        <ele>149.76</ele>
      </trkpt>
      <trkpt lat="45.18789" lon="-72.727955">
        <ele>151.48</ele>
      </trkpt>
      <trkpt lat="45.18837" lon="-72.72726">
        <ele>152.32</ele>
      </trkpt>
      <trkpt lat="45.18895" lon="-72.72654">
        <ele>152.78</ele>
      </trkpt>
      <trkpt lat="45.18924" lon="-72.72623">
        <ele>152.78</ele>
      </trkpt>
      <trkpt lat="45.189775" lon="-72.725715">
        <ele>152.94</ele>
      </trkpt>
      <trkpt lat="45.19031" lon="-72.7252">
        <ele>152.85</ele>
      </trkpt>
      <trkpt lat="45.19095" lon="-72.72461">
        <ele>152.93</ele>
      </trkpt>
      <trkpt lat="45.19147" lon="-72.72417">
        <ele>154.91</ele>
      </trkpt>
      <trkpt lat="45.19176" lon="-72.72395">
        <ele>155.35</ele>
      </trkpt>
      <trkpt lat="45.19234" lon="-72.72364">
        <ele>153.4</ele>
      </trkpt>
      <trkpt lat="45.19277" lon="-72.72328">
        <ele>150.55</ele>
      </trkpt>
      <trkpt lat="45.19338" lon="-72.72268">
        <ele>149.79</ele>
      </trkpt>
      <trkpt lat="45.19405" lon="-72.7221275">
        <ele>150.03</ele>
      </trkpt>
      <trkpt lat="45.19472" lon="-72.721575">
        <ele>148.27</ele>
      </trkpt>
      <trkpt lat="45.19539" lon="-72.7210225">
        <ele>146.52</ele>
      </trkpt>
      <trkpt lat="45.19606" lon="-72.72047">
        <ele>145.14</ele>
      </trkpt>
      <trkpt lat="45.19605" lon="-72.72047">
        <ele>145.15</ele>
      </trkpt>
      <trkpt lat="45.19656" lon="-72.72006">
        <ele>144.47</ele>
      </trkpt>
      <trkpt lat="45.19707" lon="-72.71965">
        <ele>142.8</ele>
      </trkpt>
      <trkpt lat="45.19728" lon="-72.71943">
        <ele>142.54</ele>
      </trkpt>
      <trkpt lat="45.19748" lon="-72.71916">
        <ele>142.17</ele>
      </trkpt>
      <trkpt lat="45.19758" lon="-72.71898">
        <ele>142.04</ele>
      </trkpt>
      <trkpt lat="45.1977" lon="-72.71869">
        <ele>142.06</ele>
      </trkpt>
      <trkpt lat="45.198125" lon="-72.71758">
        <ele>139.78</ele>
      </trkpt>
      <trkpt lat="45.19855" lon="-72.71647">
        <ele>136.79</ele>
      </trkpt>
      <trkpt lat="45.19872" lon="-72.71592">
        <ele>136.35</ele>
      </trkpt>
      <trkpt lat="45.19892" lon="-72.71518">
        <ele>135.14</ele>
      </trkpt>
      <trkpt lat="45.19903" lon="-72.71468">
        <ele>134.49</ele>
      </trkpt>
      <trkpt lat="45.19922" lon="-72.713625">
        <ele>133.71</ele>
      </trkpt>
      <trkpt lat="45.19941" lon="-72.71257">
        <ele>133.43</ele>
      </trkpt>
      <trkpt lat="45.19947" lon="-72.712">
        <ele>133.57</ele>
      </trkpt>
      <trkpt lat="45.19945" lon="-72.71141">
        <ele>133.68</ele>
      </trkpt>
      <trkpt lat="45.19941" lon="-72.71105">
        <ele>133.59</ele>
      </trkpt>
      <trkpt lat="45.1992" lon="-72.71022">
        <ele>133.87</ele>
      </trkpt>
      <trkpt lat="45.19899" lon="-72.70939">
        <ele>134.68</ele>
      </trkpt>
      <trkpt lat="45.19882" lon="-72.70877">
        <ele>136.35</ele>
      </trkpt>
      <trkpt lat="45.19871" lon="-72.70845">
        <ele>137.05</ele>
      </trkpt>
      <trkpt lat="45.19864" lon="-72.70832">
        <ele>137.41</ele>
      </trkpt>
      <trkpt lat="45.19836" lon="-72.70787">
        <ele>139.53</ele>
      </trkpt>
      <trkpt lat="45.19799" lon="-72.707425">
        <ele>143.36</ele>
      </trkpt>
      <trkpt lat="45.19762" lon="-72.70698">
        <ele>147.54</ele>
      </trkpt>
      <trkpt lat="45.19723" lon="-72.7064">
        <ele>151.78</ele>
      </trkpt>
      <trkpt lat="45.19696" lon="-72.7059">
        <ele>154.82</ele>
      </trkpt>
      <trkpt lat="45.1967" lon="-72.70532">
        <ele>156.5</ele>
      </trkpt>
      <trkpt lat="45.19655" lon="-72.70507">
        <ele>156.68</ele>
      </trkpt>
      <trkpt lat="45.19636" lon="-72.70478">
        <ele>156.69</ele>
      </trkpt>
      <trkpt lat="45.19586" lon="-72.70435">
        <ele>157.19</ele>
      </trkpt>
      <trkpt lat="45.19511" lon="-72.70384">
        <ele>156.69</ele>
      </trkpt>
      <trkpt lat="45.1946" lon="-72.70345">
        <ele>155.18</ele>
      </trkpt>
      <trkpt lat="45.19431" lon="-72.70327">
        <ele>154.12</ele>
      </trkpt>
      <trkpt lat="45.193625" lon="-72.702995">
        <ele>151.96</ele>
      </trkpt>
      <trkpt lat="45.19294" lon="-72.70272">
        <ele>151.96</ele>
      </trkpt>
      <trkpt lat="45.19264" lon="-72.70251">
        <ele>152.66</ele>
      </trkpt>
      <trkpt lat="45.19206" lon="-72.70196">
        <ele>152.17</ele>
      </trkpt>
      <trkpt lat="45.19174" lon="-72.7016">
        <ele>150.47</ele>
      </trkpt>
      <trkpt lat="45.19137" lon="-72.70113">
        <ele>149.4</ele>
      </trkpt>
      <trkpt lat="45.19137" lon="-72.70113">
        <ele>149.39</ele>
      </trkpt>
      <trkpt lat="45.19114" lon="-72.70081">
        <ele>149.36</ele>
      </trkpt>
      <trkpt lat="45.19089" lon="-72.70044">
        <ele>149.26</ele>
      </trkpt>
      <trkpt lat="45.19046" lon="-72.69985">
        <ele>148</ele>
      </trkpt>
      <trkpt lat="45.19011" lon="-72.69943">
        <ele>146.31</ele>
      </trkpt>
      <trkpt lat="45.18976" lon="-72.69901">
        <ele>145.28</ele>
      </trkpt>
      <trkpt lat="45.18982" lon="-72.69829">
        <ele>141.1</ele>
      </trkpt>
      <trkpt lat="45.18992" lon="-72.69745">
        <ele>134.01</ele>
      </trkpt>
      <trkpt lat="45.19" lon="-72.69713">
        <ele>132.71</ele>
      </trkpt>
      <trkpt lat="45.19036" lon="-72.69642">
        <ele>127.45</ele>
      </trkpt>
      <trkpt lat="45.190825" lon="-72.69534">
        <ele>122.88</ele>
      </trkpt>
      <trkpt lat="45.19129" lon="-72.69426">
        <ele>125.35</ele>
      </trkpt>
      <trkpt lat="45.19137" lon="-72.69395">
        <ele>126</ele>
      </trkpt>
      <trkpt lat="45.19142" lon="-72.69297">
        <ele>130.81</ele>
      </trkpt>
      <trkpt lat="45.19141" lon="-72.69189">
        <ele>133.73</ele>
      </trkpt>
      <trkpt lat="45.1913133" lon="-72.6909833">
        <ele>135.95</ele>
      </trkpt>
      <trkpt lat="45.1912167" lon="-72.6900767">
        <ele>139.03</ele>
      </trkpt>
      <trkpt lat="45.19112" lon="-72.68917">
        <ele>145.37</ele>
      </trkpt>
      <trkpt lat="45.19105" lon="-72.68879">
        <ele>146.74</ele>
      </trkpt>
      <trkpt lat="45.19097" lon="-72.68849">
        <ele>147.33</ele>
      </trkpt>
      <trkpt lat="45.1908" lon="-72.68804">
        <ele>150.32</ele>
      </trkpt>
      <trkpt lat="45.19075" lon="-72.68778">
        <ele>151.91</ele>
      </trkpt>
      <trkpt lat="45.19072" lon="-72.6872">
        <ele>155.07</ele>
      </trkpt>
      <trkpt lat="45.190665" lon="-72.686555">
        <ele>157.6</ele>
      </trkpt>
      <trkpt lat="45.19061" lon="-72.68591">
        <ele>158.19</ele>
      </trkpt>
      <trkpt lat="45.1905134" lon="-72.684825">
        <ele>157.1</ele>
      </trkpt>
      <trkpt lat="45.1904167" lon="-72.68374">
        <ele>154.05</ele>
      </trkpt>
      <trkpt lat="45.19032" lon="-72.682655">
        <ele>150.08</ele>
      </trkpt>
      <trkpt lat="45.1902234" lon="-72.68157">
        <ele>146.81</ele>
      </trkpt>
      <trkpt lat="45.1901267" lon="-72.680485">
        <ele>142.05</ele>
      </trkpt>
      <trkpt lat="45.19003" lon="-72.6794">
        <ele>142.17</ele>
      </trkpt>
      <trkpt lat="45.19003" lon="-72.6794">
        <ele>142.17</ele>
      </trkpt>
      <trkpt lat="45.189925" lon="-72.678255">
        <ele>143.85</ele>
      </trkpt>
      <trkpt lat="45.18982" lon="-72.67711">
        <ele>148.51</ele>
      </trkpt>
      <trkpt lat="45.18973" lon="-72.67644">
        <ele>153.37</ele>
      </trkpt>
      <trkpt lat="45.18972" lon="-72.67559">
        <ele>160.43</ele>
      </trkpt>
      <trkpt lat="45.1897" lon="-72.67529">
        <ele>162.02</ele>
      </trkpt>
      <trkpt lat="45.18961" lon="-72.67474">
        <ele>163.53</ele>
      </trkpt>
      <trkpt lat="45.1895" lon="-72.67424">
        <ele>164.35</ele>
      </trkpt>
      <trkpt lat="45.1894333" lon="-72.6732733">
        <ele>165.33</ele>
      </trkpt>
      <trkpt lat="45.1893667" lon="-72.6723067">
        <ele>163.23</ele>
      </trkpt>
      <trkpt lat="45.1893" lon="-72.67134">
        <ele>160.39</ele>
      </trkpt>
      <trkpt lat="45.1893" lon="-72.67112">
        <ele>160.17</ele>
      </trkpt>
      <trkpt lat="45.18933" lon="-72.67093">
        <ele>160.17</ele>
      </trkpt>
      <trkpt lat="45.18945" lon="-72.67031">
        <ele>161.6</ele>
      </trkpt>
      <trkpt lat="45.18955" lon="-72.67">
        <ele>163.31</ele>
      </trkpt>
      <trkpt lat="45.18957" lon="-72.66973">
        <ele>165.69</ele>
      </trkpt>
      <trkpt lat="45.18956" lon="-72.66959">
        <ele>165.69</ele>
      </trkpt>
      <trkpt lat="45.18948" lon="-72.66936">
        <ele>167.5</ele>
      </trkpt>
      <trkpt lat="45.18937" lon="-72.66914">
        <ele>169.17</ele>
      </trkpt>
      <trkpt lat="45.18923" lon="-72.66878">
        <ele>170.92</ele>
      </trkpt>
      <trkpt lat="45.18921" lon="-72.66852">
        <ele>171.61</ele>
      </trkpt>
      <trkpt lat="45.18919" lon="-72.667675">
        <ele>169</ele>
      </trkpt>
      <trkpt lat="45.18917" lon="-72.66683">
        <ele>164.36</ele>
      </trkpt>
      <trkpt lat="45.18945" lon="-72.6669">
        <ele>162.18</ele>
      </trkpt>
      <trkpt lat="45.18967" lon="-72.66691">
        <ele>161.48</ele>
      </trkpt>
      <trkpt lat="45.18993" lon="-72.66691">
        <ele>160.64</ele>
      </trkpt>
      <trkpt lat="45.19048" lon="-72.66682">
        <ele>160.04</ele>
      </trkpt>
      <trkpt lat="45.1908" lon="-72.66673">
        <ele>160.45</ele>
      </trkpt>
      <trkpt lat="45.19114" lon="-72.66659">
        <ele>161.19</ele>
      </trkpt>
      <trkpt lat="45.19153" lon="-72.66637">
        <ele>162.02</ele>
      </trkpt>
      <trkpt lat="45.19189" lon="-72.66614">
        <ele>162.41</ele>
      </trkpt>
      <trkpt lat="45.19262" lon="-72.66558">
        <ele>162.14</ele>
      </trkpt>
      <trkpt lat="45.19335" lon="-72.66502">
        <ele>161.51</ele>
      </trkpt>
      <trkpt lat="45.19383" lon="-72.66467">
        <ele>161.43</ele>
      </trkpt>
      <trkpt lat="45.19417" lon="-72.66444">
        <ele>161.72</ele>
      </trkpt>
      <trkpt lat="45.19492" lon="-72.66404">
        <ele>163.27</ele>
      </trkpt>
      <trkpt lat="45.195435" lon="-72.66379">
        <ele>164.08</ele>
      </trkpt>
      <trkpt lat="45.19595" lon="-72.66354">
        <ele>163.39</ele>
      </trkpt>
      <trkpt lat="45.19594" lon="-72.66354">
        <ele>163.38</ele>
      </trkpt>
      <trkpt lat="45.1966275" lon="-72.6632">
        <ele>159.97</ele>
      </trkpt>
      <trkpt lat="45.197315" lon="-72.66286">
        <ele>158.13</ele>
      </trkpt>
      <trkpt lat="45.1980025" lon="-72.66252">
        <ele>157.5</ele>
      </trkpt>
      <trkpt lat="45.19869" lon="-72.66218">
        <ele>158.44</ele>
      </trkpt>
      <trkpt lat="45.19868" lon="-72.66149">
        <ele>159.34</ele>
      </trkpt>
      <trkpt lat="45.19872" lon="-72.661">
        <ele>160.16</ele>
      </trkpt>
      <trkpt lat="45.198805" lon="-72.66024">
        <ele>161.63</ele>
      </trkpt>
      <trkpt lat="45.19889" lon="-72.65948">
        <ele>163.92</ele>
      </trkpt>
      <trkpt lat="45.19814" lon="-72.65934">
        <ele>168.29</ele>
      </trkpt>
      <trkpt lat="45.19739" lon="-72.6592">
        <ele>173.94</ele>
      </trkpt>
      <trkpt lat="45.19719" lon="-72.65912">
        <ele>174.61</ele>
      </trkpt>
      <trkpt lat="45.19696" lon="-72.65894">
        <ele>177.51</ele>
      </trkpt>
      <trkpt lat="45.19683" lon="-72.6588">
        <ele>178.64</ele>
      </trkpt>
      <trkpt lat="45.19666" lon="-72.65847">
        <ele>181.12</ele>
      </trkpt>
      <trkpt lat="45.19666" lon="-72.65847">
        <ele>181.17</ele>
      </trkpt>
      <trkpt lat="45.19646" lon="-72.65804">
        <ele>183.95</ele>
      </trkpt>
      <trkpt lat="45.19624" lon="-72.657415">
        <ele>185.23</ele>
      </trkpt>
      <trkpt lat="45.19602" lon="-72.65679">
        <ele>185.18</ele>
      </trkpt>
      <trkpt lat="45.19571" lon="-72.65598">
        <ele>183.85</ele>
      </trkpt>
      <trkpt lat="45.19562" lon="-72.65566">
        <ele>182.77</ele>
      </trkpt>
      <trkpt lat="45.19539" lon="-72.65506">
        <ele>179.21</ele>
      </trkpt>
      <trkpt lat="45.19516" lon="-72.65446">
        <ele>176.03</ele>
      </trkpt>
      <trkpt lat="45.19495" lon="-72.65388">
        <ele>174.35</ele>
      </trkpt>
      <trkpt lat="45.19495" lon="-72.65388">
        <ele>174.35</ele>
      </trkpt>
      <trkpt lat="45.19462" lon="-72.65294">
        <ele>173.34</ele>
      </trkpt>
      <trkpt lat="45.19429" lon="-72.652">
        <ele>169.82</ele>
      </trkpt>
      <trkpt lat="45.19401" lon="-72.65106">
        <ele>167.12</ele>
      </trkpt>
      <trkpt lat="45.1947733" lon="-72.6510217">
        <ele>166.99</ele>
      </trkpt>
      <trkpt lat="45.1955367" lon="-72.6509833">
        <ele>169.26</ele>
      </trkpt>
      <trkpt lat="45.1963" lon="-72.650945">
        <ele>170.11</ele>
      </trkpt>
      <trkpt lat="45.1970633" lon="-72.6509067">
        <ele>172.02</ele>
      </trkpt>
      <trkpt lat="45.1978267" lon="-72.6508683">
        <ele>172.77</ele>
      </trkpt>
      <trkpt lat="45.19859" lon="-72.65083">
        <ele>173.65</ele>
      </trkpt>
      <trkpt lat="45.19924" lon="-72.6507733">
        <ele>174.99</ele>
      </trkpt>
      <trkpt lat="45.19989" lon="-72.6507167">
        <ele>179.63</ele>
      </trkpt>
      <trkpt lat="45.20054" lon="-72.65066">
        <ele>182.83</ele>
      </trkpt>
      <trkpt lat="45.2012367" lon="-72.6506467">
        <ele>183.68</ele>
      </trkpt>
      <trkpt lat="45.2019333" lon="-72.6506333">
        <ele>184.75</ele>
      </trkpt>
      <trkpt lat="45.20263" lon="-72.65062">
        <ele>186.98</ele>
      </trkpt>
      <trkpt lat="45.20262" lon="-72.65062">
        <ele>186.95</ele>
      </trkpt>
      <trkpt lat="45.20304" lon="-72.65061">
        <ele>188.66</ele>
      </trkpt>
      <trkpt lat="45.203885" lon="-72.650555">
        <ele>187.07</ele>
      </trkpt>
      <trkpt lat="45.20473" lon="-72.6505">
        <ele>185.25</ele>
      </trkpt>
      <trkpt lat="45.205575" lon="-72.650445">
        <ele>183.35</ele>
      </trkpt>
      <trkpt lat="45.20642" lon="-72.65039">
        <ele>184.3</ele>
      </trkpt>
      <trkpt lat="45.20682" lon="-72.65042">
        <ele>184.83</ele>
      </trkpt>
      <trkpt lat="45.20743" lon="-72.650405">
        <ele>186.91</ele>
      </trkpt>
      <trkpt lat="45.20804" lon="-72.65039">
        <ele>189.84</ele>
      </trkpt>
      <trkpt lat="45.20826" lon="-72.65042">
        <ele>190.34</ele>
      </trkpt>
      <trkpt lat="45.20858" lon="-72.65039">
        <ele>190.71</ele>
      </trkpt>
      <trkpt lat="45.20873" lon="-72.65035">
        <ele>190.55</ele>
      </trkpt>
      <trkpt lat="45.20958" lon="-72.650255">
        <ele>187.87</ele>
      </trkpt>
      <trkpt lat="45.21043" lon="-72.65016">
        <ele>182.1</ele>
      </trkpt>
      <trkpt lat="45.21061" lon="-72.65011">
        <ele>181.33</ele>
      </trkpt>
      <trkpt lat="45.21068" lon="-72.65007">
        <ele>181</ele>
      </trkpt>
      <trkpt lat="45.21098" lon="-72.64981">
        <ele>179.91</ele>
      </trkpt>
      <trkpt lat="45.21116" lon="-72.64971">
        <ele>179.34</ele>
      </trkpt>
      <trkpt lat="45.211925" lon="-72.649265">
        <ele>177.35</ele>
      </trkpt>
      <trkpt lat="45.21269" lon="-72.64882">
        <ele>172.19</ele>
      </trkpt>
      <trkpt lat="45.213455" lon="-72.648375">
        <ele>165.19</ele>
      </trkpt>
      <trkpt lat="45.21422" lon="-72.64793">
        <ele>166</ele>
      </trkpt>
      <trkpt lat="45.2148733" lon="-72.6475433">
        <ele>171.17</ele>
      </trkpt>
      <trkpt lat="45.2155267" lon="-72.6471567">
        <ele>176.66</ele>
      </trkpt>
      <trkpt lat="45.21618" lon="-72.64677">
        <ele>183.33</ele>
      </trkpt>
      <trkpt lat="45.2168733" lon="-72.64638">
        <ele>186.38</ele>
      </trkpt>
      <trkpt lat="45.2175667" lon="-72.64599">
        <ele>188.48</ele>
      </trkpt>
      <trkpt lat="45.21826" lon="-72.6456">
        <ele>191.11</ele>
      </trkpt>
      <trkpt lat="45.21903" lon="-72.6452">
        <ele>193.15</ele>
      </trkpt>
      <trkpt lat="45.2198" lon="-72.6448">
        <ele>194.92</ele>
      </trkpt>
      <trkpt lat="45.21979" lon="-72.64481">
        <ele>194.85</ele>
      </trkpt>
      <trkpt lat="45.22036" lon="-72.64452">
        <ele>198.68</ele>
      </trkpt>
      <trkpt lat="45.2210667" lon="-72.64417">
        <ele>203.68</ele>
      </trkpt>
      <trkpt lat="45.2217733" lon="-72.64382">
        <ele>209.18</ele>
      </trkpt>
      <trkpt lat="45.22248" lon="-72.64347">
        <ele>215.29</ele>
      </trkpt>
      <trkpt lat="45.22267" lon="-72.64242">
        <ele>214.11</ele>
      </trkpt>
      <trkpt lat="45.2228" lon="-72.6418">
        <ele>215.94</ele>
      </trkpt>
      <trkpt lat="45.22293" lon="-72.6413">
        <ele>218.99</ele>
      </trkpt>
      <trkpt lat="45.22315" lon="-72.64071">
        <ele>224.51</ele>
      </trkpt>
      <trkpt lat="45.22329" lon="-72.64041">
        <ele>225.59</ele>
      </trkpt>
      <trkpt lat="45.22386" lon="-72.63952">
        <ele>229.76</ele>
      </trkpt>
      <trkpt lat="45.22433" lon="-72.638885">
        <ele>227.96</ele>
      </trkpt>
      <trkpt lat="45.2248" lon="-72.63825">
        <ele>229.11</ele>
      </trkpt>
      <trkpt lat="45.22488" lon="-72.63812">
        <ele>229.19</ele>
      </trkpt>
      <trkpt lat="45.22497" lon="-72.63781">
        <ele>228.43</ele>
      </trkpt>
      <trkpt lat="45.22499" lon="-72.63767">
        <ele>228.43</ele>
      </trkpt>
      <trkpt lat="45.22498" lon="-72.63699">
        <ele>226.55</ele>
      </trkpt>
      <trkpt lat="45.22495" lon="-72.636235">
        <ele>225.82</ele>
      </trkpt>
      <trkpt lat="45.22492" lon="-72.63548">
        <ele>225.4</ele>
      </trkpt>
      <trkpt lat="45.224855" lon="-72.63427">
        <ele>223.87</ele>
      </trkpt>
      <trkpt lat="45.22479" lon="-72.63306">
        <ele>223.03</ele>
      </trkpt>
      <trkpt lat="45.22477" lon="-72.632415">
        <ele>222.94</ele>
      </trkpt>
      <trkpt lat="45.22475" lon="-72.63177">
        <ele>221.68</ele>
      </trkpt>
      <trkpt lat="45.2247117" lon="-72.6306717">
        <ele>219.09</ele>
      </trkpt>
      <trkpt lat="45.2246734" lon="-72.6295733">
        <ele>220.52</ele>
      </trkpt>
      <trkpt lat="45.224635" lon="-72.628475">
        <ele>219.55</ele>
      </trkpt>
      <trkpt lat="45.2245967" lon="-72.6273767">
        <ele>218.5</ele>
      </trkpt>
      <trkpt lat="45.2245584" lon="-72.6262783">
        <ele>216.51</ele>
      </trkpt>
      <trkpt lat="45.22452" lon="-72.62518">
        <ele>214.4</ele>
      </trkpt>
      <trkpt lat="45.22447" lon="-72.624035">
        <ele>214.84</ele>
      </trkpt>
      <trkpt lat="45.22442" lon="-72.62289">
        <ele>215.79</ele>
      </trkpt>
      <trkpt lat="45.2243662" lon="-72.6216661">
        <ele>217.29</ele>
      </trkpt>
      <trkpt lat="45.2243125" lon="-72.6204423">
        <ele>217.12</ele>
      </trkpt>
      <trkpt lat="45.2242587" lon="-72.6192184">
        <ele>214.42</ele>
      </trkpt>
      <trkpt lat="45.2242049" lon="-72.6179946">
        <ele>213.83</ele>
      </trkpt>
      <trkpt lat="45.224151" lon="-72.6167707">
        <ele>215.91</ele>
      </trkpt>
      <trkpt lat="45.2240972" lon="-72.6155469">
        <ele>216.23</ele>
      </trkpt>
      <trkpt lat="45.2240434" lon="-72.614323">
        <ele>214.62</ele>
      </trkpt>
      <trkpt lat="45.2239895" lon="-72.6130992">
        <ele>214.27</ele>
      </trkpt>
      <trkpt lat="45.2239356" lon="-72.6118753">
        <ele>211.24</ele>
      </trkpt>
      <trkpt lat="45.2238817" lon="-72.6106515">
        <ele>209.41</ele>
      </trkpt>
      <trkpt lat="45.2238278" lon="-72.6094277">
        <ele>208.97</ele>
      </trkpt>
      <trkpt lat="45.2237739" lon="-72.6082038">
        <ele>210.58</ele>
      </trkpt>
      <trkpt lat="45.22372" lon="-72.60698">
        <ele>214.29</ele>
      </trkpt>
      <trkpt lat="45.2236629" lon="-72.6058586">
        <ele>215.77</ele>
      </trkpt>
      <trkpt lat="45.2236058" lon="-72.6047371">
        <ele>212.55</ele>
      </trkpt>
      <trkpt lat="45.2235486" lon="-72.6036157">
        <ele>209.83</ele>
      </trkpt>
      <trkpt lat="45.2234915" lon="-72.6024943">
        <ele>209.62</ele>
      </trkpt>
      <trkpt lat="45.2234343" lon="-72.6013728">
        <ele>212.27</ele>
      </trkpt>
      <trkpt lat="45.2233772" lon="-72.6002514">
        <ele>218.3</ele>
      </trkpt>
      <trkpt lat="45.22332" lon="-72.59913">
        <ele>220.83</ele>
      </trkpt>
      <trkpt lat="45.2232801" lon="-72.5979255">
        <ele>221.13</ele>
      </trkpt>
      <trkpt lat="45.2232402" lon="-72.5967211">
        <ele>219.53</ele>
      </trkpt>
      <trkpt lat="45.2232003" lon="-72.5955166">
        <ele>218.09</ele>
      </trkpt>
      <trkpt lat="45.2231604" lon="-72.5943122">
        <ele>216.59</ele>
      </trkpt>
      <trkpt lat="45.2231204" lon="-72.5931077">
        <ele>213.1</ele>
      </trkpt>
      <trkpt lat="45.2230805" lon="-72.5919033">
        <ele>210.94</ele>
      </trkpt>
      <trkpt lat="45.2230405" lon="-72.5906988">
        <ele>208.66</ele>
      </trkpt>
      <trkpt lat="45.2230005" lon="-72.5894944">
        <ele>204.82</ele>
      </trkpt>
      <trkpt lat="45.2229605" lon="-72.5882899">
        <ele>200.55</ele>
      </trkpt>
      <trkpt lat="45.2229205" lon="-72.5870855">
        <ele>200.14</ele>
      </trkpt>
      <trkpt lat="45.2228805" lon="-72.585881">
        <ele>202.03</ele>
      </trkpt>
      <trkpt lat="45.2228405" lon="-72.5846766">
        <ele>205.45</ele>
      </trkpt>
      <trkpt lat="45.2228004" lon="-72.5834722">
        <ele>208.07</ele>
      </trkpt>
      <trkpt lat="45.2227604" lon="-72.5822677">
        <ele>214.41</ele>
      </trkpt>
      <trkpt lat="45.2227203" lon="-72.5810633">
        <ele>218.12</ele>
      </trkpt>
      <trkpt lat="45.2226802" lon="-72.5798589">
        <ele>222.1</ele>
      </trkpt>
      <trkpt lat="45.2226401" lon="-72.5786544">
        <ele>227.26</ele>
      </trkpt>
      <trkpt lat="45.2226" lon="-72.57745">
        <ele>232.53</ele>
      </trkpt>
      <trkpt lat="45.222595" lon="-72.57667">
        <ele>238.3</ele>
      </trkpt>
      <trkpt lat="45.22259" lon="-72.57589">
        <ele>245.87</ele>
      </trkpt>
      <trkpt lat="45.2226038" lon="-72.5747713">
        <ele>252.97</ele>
      </trkpt>
      <trkpt lat="45.2226176" lon="-72.5736525">
        <ele>259.51</ele>
      </trkpt>
      <trkpt lat="45.2226313" lon="-72.5725338">
        <ele>266.8</ele>
      </trkpt>
      <trkpt lat="45.2226451" lon="-72.571415">
        <ele>272.6</ele>
      </trkpt>
      <trkpt lat="45.2226588" lon="-72.5702963">
        <ele>278.89</ele>
      </trkpt>
      <trkpt lat="45.2226726" lon="-72.5691775">
        <ele>282.37</ele>
      </trkpt>
      <trkpt lat="45.2226863" lon="-72.5680588">
        <ele>285.8</ele>
      </trkpt>
      <trkpt lat="45.2227" lon="-72.56694">
        <ele>285.96</ele>
      </trkpt>
      <trkpt lat="45.2227234" lon="-72.565775">
        <ele>281.71</ele>
      </trkpt>
      <trkpt lat="45.2227467" lon="-72.56461">
        <ele>272.5</ele>
      </trkpt>
      <trkpt lat="45.2227701" lon="-72.563445">
        <ele>266.07</ele>
      </trkpt>
      <trkpt lat="45.2227934" lon="-72.56228">
        <ele>262.43</ele>
      </trkpt>
      <trkpt lat="45.2228167" lon="-72.561115">
        <ele>257.09</ele>
      </trkpt>
      <trkpt lat="45.22284" lon="-72.55995">
        <ele>254.29</ele>
      </trkpt>
      <trkpt lat="45.22283" lon="-72.559055">
        <ele>257.41</ele>
      </trkpt>
      <trkpt lat="45.22282" lon="-72.55816">
        <ele>263.87</ele>
      </trkpt>
      <trkpt lat="45.22287" lon="-72.55762">
        <ele>267.22</ele>
      </trkpt>
      <trkpt lat="45.22288" lon="-72.55695">
        <ele>268.6</ele>
      </trkpt>
      <trkpt lat="45.222864" lon="-72.555912">
        <ele>271.6</ele>
      </trkpt>
      <trkpt lat="45.222848" lon="-72.554874">
        <ele>275.69</ele>
      </trkpt>
      <trkpt lat="45.222832" lon="-72.553836">
        <ele>276.88</ele>
      </trkpt>
      <trkpt lat="45.222816" lon="-72.552798">
        <ele>275.75</ele>
      </trkpt>
      <trkpt lat="45.2228" lon="-72.55176">
        <ele>273.89</ele>
      </trkpt>
      <trkpt lat="45.222755" lon="-72.551115">
        <ele>266.47</ele>
      </trkpt>
      <trkpt lat="45.22271" lon="-72.55047">
        <ele>262.68</ele>
      </trkpt>
      <trkpt lat="45.2226967" lon="-72.54936">
        <ele>257.81</ele>
      </trkpt>
      <trkpt lat="45.2226833" lon="-72.54825">
        <ele>254.31</ele>
      </trkpt>
      <trkpt lat="45.22267" lon="-72.54714">
        <ele>252.74</ele>
      </trkpt>
      <trkpt lat="45.222635" lon="-72.545895">
        <ele>256.26</ele>
      </trkpt>
      <trkpt lat="45.2226" lon="-72.54465">
        <ele>255.22</ele>
      </trkpt>
      <trkpt lat="45.22258" lon="-72.54459">
        <ele>253.88</ele>
      </trkpt>
      <trkpt lat="45.22242" lon="-72.54426">
        <ele>253.13</ele>
      </trkpt>
      <trkpt lat="45.22198" lon="-72.54353">
        <ele>247.42</ele>
      </trkpt>
      <trkpt lat="45.22154" lon="-72.5428">
        <ele>243.73</ele>
      </trkpt>
      <trkpt lat="45.22139" lon="-72.5424">
        <ele>241.8</ele>
      </trkpt>
      <trkpt lat="45.22136" lon="-72.54209">
        <ele>239.84</ele>
      </trkpt>
      <trkpt lat="45.22141" lon="-72.54174">
        <ele>238.96</ele>
      </trkpt>
      <trkpt lat="45.22148" lon="-72.54159">
        <ele>233.6</ele>
      </trkpt>
      <trkpt lat="45.22159" lon="-72.54145">
        <ele>233.6</ele>
      </trkpt>
      <trkpt lat="45.22193" lon="-72.5411">
        <ele>229.82</ele>
      </trkpt>
      <trkpt lat="45.22203" lon="-72.54096">
        <ele>229.82</ele>
      </trkpt>
      <trkpt lat="45.22232" lon="-72.54042">
        <ele>224.2</ele>
      </trkpt>
      <trkpt lat="45.22248" lon="-72.54007">
        <ele>221.38</ele>
      </trkpt>
      <trkpt lat="45.22259" lon="-72.53977">
        <ele>219.12</ele>
      </trkpt>
      <trkpt lat="45.22263" lon="-72.53954">
        <ele>216.14</ele>
      </trkpt>
      <trkpt lat="45.22246" lon="-72.53855">
        <ele>212.25</ele>
      </trkpt>
      <trkpt lat="45.22242" lon="-72.5376867">
        <ele>210.69</ele>
      </trkpt>
      <trkpt lat="45.22238" lon="-72.5368233">
        <ele>204.14</ele>
      </trkpt>
      <trkpt lat="45.22234" lon="-72.53596">
        <ele>200.08</ele>
      </trkpt>
      <trkpt lat="45.222325" lon="-72.53497">
        <ele>199.52</ele>
      </trkpt>
      <trkpt lat="45.22231" lon="-72.53398">
        <ele>201.14</ele>
      </trkpt>
      <trkpt lat="45.22234" lon="-72.5331">
        <ele>202.03</ele>
      </trkpt>
    </trkseg>
  </trk>
</gpx>