<?xml version='1.0' encoding='utf-8'?>
<gpx xmlns="http://www.topografix.com/GPX/1/1" xmlns:xsi="http://www.w3.org/2001/XMLSchema-instance" version="1.1" creator="Gravelle Estrie" xsi:schemaLocation="http://www.topografix.com/GPX/1/1 http://www.topografix.com/GPX/1/1/gpx.xsd">
  <metadata>
    <name>Petit Hippopotame 55KM/780MD+</name>
  </metadata>
  <trk>
    <name>Petit Hippopotame 55KM/780MD+</name>
    <trkseg>
      <trkpt lat="45.38339" lon="-72.57238">
        <ele>244.44</ele>
      </trkpt>
      <trkpt lat="45.3840567" lon="-72.5725">
        <ele>247.04</ele>
      </trkpt>
      <trkpt lat="45.3847233" lon="-72.57262">
        <ele>249.71</ele>
      </trkpt>
      <trkpt lat="45.38539" lon="-72.57274">
        <ele>248.16</ele>
      </trkpt>
      <trkpt lat="45.38599" lon="-72.5728333">
        <ele>253.86</ele>
      </trkpt>
      <trkpt lat="45.38659" lon="-72.5729267">
        <ele>257.71</ele>
      </trkpt>
      <trkpt lat="45.38719" lon="-72.57302">
        <ele>259.49</ele>
      </trkpt>
      <trkpt lat="45.3878533" lon="-72.5731567">
        <ele>257.14</ele>
      </trkpt>
      <trkpt lat="45.3885167" lon="-72.5732933">
        <ele>254.4</ele>
      </trkpt>
      <trkpt lat="45.38918" lon="-72.57343">
        <ele>253.77</ele>
      </trkpt>
      <trkpt lat="45.38946" lon="-72.57342">
        <ele>253.8</ele>
      </trkpt>
      <trkpt lat="45.38963" lon="-72.57347">
        <ele>253.66</ele>
      </trkpt>
      <trkpt lat="45.38972" lon="-72.57351">
        <ele>253.66</ele>
      </trkpt>
      <trkpt lat="45.39005" lon="-72.57449">
        <ele>250.71</ele>
      </trkpt>
      <trkpt lat="45.390335" lon="-72.575185">
        <ele>246.16</ele>
      </trkpt>
      <trkpt lat="45.39062" lon="-72.57588">
        <ele>242.33</ele>
      </trkpt>
      <trkpt lat="45.39098" lon="-72.57702">
        <ele>235.65</ele>
      </trkpt>
      <trkpt lat="45.39105" lon="-72.57732">
        <ele>234.02</ele>
      </trkpt>
      <trkpt lat="45.39107" lon="-72.5776">
        <ele>231.1</ele>
      </trkpt>
      <trkpt lat="45.3909" lon="-72.57848">
        <ele>224.62</ele>
      </trkpt>
      <trkpt lat="45.39088" lon="-72.5787">
        <ele>223.47</ele>
      </trkpt>
      <trkpt lat="45.39088" lon="-72.57907">
        <ele>221.77</ele>
      </trkpt>
      <trkpt lat="45.39097" lon="-72.5801675">
        <ele>214.99</ele>
      </trkpt>
      <trkpt lat="45.39106" lon="-72.581265">
        <ele>210.91</ele>
      </trkpt>
      <trkpt lat="45.39115" lon="-72.5823625">
        <ele>205.59</ele>
      </trkpt>
      <trkpt lat="45.39124" lon="-72.58346">
        <ele>200.42</ele>
      </trkpt>
      <trkpt lat="45.3913133" lon="-72.5844367">
        <ele>195.78</ele>
      </trkpt>
      <trkpt lat="45.3913867" lon="-72.5854133">
        <ele>191.63</ele>
      </trkpt>
      <trkpt lat="45.39146" lon="-72.58639">
        <ele>188.85</ele>
      </trkpt>
      <trkpt lat="45.391565" lon="-72.587505">
        <ele>184.41</ele>
      </trkpt>
      <trkpt lat="45.39167" lon="-72.58862">
        <ele>179.71</ele>
      </trkpt>
      <trkpt lat="45.391775" lon="-72.589735">
        <ele>177.21</ele>
      </trkpt>
      <trkpt lat="45.39188" lon="-72.59085">
        <ele>176.99</ele>
      </trkpt>
      <trkpt lat="45.39195" lon="-72.59111">
        <ele>177.19</ele>
      </trkpt>
      <trkpt lat="45.39202" lon="-72.59124">
        <ele>177.55</ele>
      </trkpt>
      <trkpt lat="45.39221" lon="-72.59147">
        <ele>178.54</ele>
      </trkpt>
      <trkpt lat="45.39242" lon="-72.5916">
        <ele>180.4</ele>
      </trkpt>
      <trkpt lat="45.39255" lon="-72.59164">
        <ele>181.93</ele>
      </trkpt>
      <trkpt lat="45.39287" lon="-72.59156">
        <ele>184.11</ele>
      </trkpt>
      <trkpt lat="45.393475" lon="-72.5912">
        <ele>187.11</ele>
      </trkpt>
      <trkpt lat="45.39408" lon="-72.59084">
        <ele>192.08</ele>
      </trkpt>
      <trkpt lat="45.3948967" lon="-72.5903289">
        <ele>195.59</ele>
      </trkpt>
      <trkpt lat="45.3957133" lon="-72.5898179">
        <ele>199.58</ele>
      </trkpt>
      <trkpt lat="45.39653" lon="-72.5893068">
        <ele>201.92</ele>
      </trkpt>
      <trkpt lat="45.3973467" lon="-72.5887957">
        <ele>200.97</ele>
      </trkpt>
      <trkpt lat="45.3981634" lon="-72.5882846">
        <ele>201.22</ele>
      </trkpt>
      <trkpt lat="45.39898" lon="-72.5877735">
        <ele>202.87</ele>
      </trkpt>
      <trkpt lat="45.3997967" lon="-72.5872623">
        <ele>204.98</ele>
      </trkpt>
      <trkpt lat="45.4006133" lon="-72.5867512">
        <ele>208.44</ele>
      </trkpt>
      <trkpt lat="45.40143" lon="-72.58624">
        <ele>209.4</ele>
      </trkpt>
      <trkpt lat="45.40214" lon="-72.58583">
        <ele>209.72</ele>
      </trkpt>
      <trkpt lat="45.40297" lon="-72.585364">
        <ele>210.69</ele>
      </trkpt>
      <trkpt lat="45.4038" lon="-72.584898">
        <ele>212.21</ele>
      </trkpt>
      <trkpt lat="45.40463" lon="-72.584432">
        <ele>212.08</ele>
      </trkpt>
      <trkpt lat="45.40546" lon="-72.583966">
        <ele>211.53</ele>
      </trkpt>
      <trkpt lat="45.40629" lon="-72.5835">
        <ele>212.31</ele>
      </trkpt>
      <trkpt lat="45.40682" lon="-72.58318">
        <ele>213.2</ele>
      </trkpt>
      <trkpt lat="45.4075067" lon="-72.5827033">
        <ele>215.69</ele>
      </trkpt>
      <trkpt lat="45.4081933" lon="-72.5822267">
        <ele>219.1</ele>
      </trkpt>
      <trkpt lat="45.40888" lon="-72.58175">
        <ele>220.77</ele>
      </trkpt>
      <trkpt lat="45.40925" lon="-72.58153">
        <ele>219.94</ele>
      </trkpt>
      <trkpt lat="45.40957" lon="-72.58139">
        <ele>219.28</ele>
      </trkpt>
      <trkpt lat="45.40989" lon="-72.58135">
        <ele>217.55</ele>
      </trkpt>
      <trkpt lat="45.410585" lon="-72.5813">
        <ele>215.63</ele>
      </trkpt>
      <trkpt lat="45.41128" lon="-72.58125">
        <ele>214.62</ele>
      </trkpt>
      <trkpt lat="45.411975" lon="-72.5812">
        <ele>212.28</ele>
      </trkpt>
      <trkpt lat="45.41267" lon="-72.58115">
        <ele>209.84</ele>
      </trkpt>
      <trkpt lat="45.41263" lon="-72.58115">
        <ele>209.95</ele>
      </trkpt>
      <trkpt lat="45.413448" lon="-72.581109">
        <ele>208.12</ele>
      </trkpt>
      <trkpt lat="45.414266" lon="-72.581068">
        <ele>205.88</ele>
      </trkpt>
      <trkpt lat="45.415084" lon="-72.581027">
        <ele>202.59</ele>
      </trkpt>
      <trkpt lat="45.415902" lon="-72.580986">
        <ele>198.53</ele>
      </trkpt>
      <trkpt lat="45.41672" lon="-72.580945">
        <ele>194.32</ele>
      </trkpt>
      <trkpt lat="45.417538" lon="-72.580904">
        <ele>188.22</ele>
      </trkpt>
      <trkpt lat="45.418356" lon="-72.580863">
        <ele>183.95</ele>
      </trkpt>
      <trkpt lat="45.419174" lon="-72.580822">
        <ele>176.32</ele>
      </trkpt>
      <trkpt lat="45.419992" lon="-72.580781">
        <ele>172.16</ele>
      </trkpt>
      <trkpt lat="45.42081" lon="-72.58074">
        <ele>163.35</ele>
      </trkpt>
      <trkpt lat="45.42143" lon="-72.58072">
        <ele>159.71</ele>
      </trkpt>
      <trkpt lat="45.42205" lon="-72.5807">
        <ele>152.82</ele>
      </trkpt>
      <trkpt lat="45.42218" lon="-72.58023">
        <ele>152.57</ele>
      </trkpt>
      <trkpt lat="45.42225" lon="-72.5801">
        <ele>152.43</ele>
      </trkpt>
      <trkpt lat="45.42263" lon="-72.57969">
        <ele>149.91</ele>
      </trkpt>
      <trkpt lat="45.42269" lon="-72.5796">
        <ele>149.78</ele>
      </trkpt>
      <trkpt lat="45.42272" lon="-72.57947">
        <ele>149.63</ele>
      </trkpt>
      <trkpt lat="45.42272" lon="-72.57925">
        <ele>149.64</ele>
      </trkpt>
      <trkpt lat="45.42274" lon="-72.5791">
        <ele>149.74</ele>
      </trkpt>
      <trkpt lat="45.42278" lon="-72.57897">
        <ele>149.99</ele>
      </trkpt>
      <trkpt lat="45.42286" lon="-72.5788">
        <ele>150.14</ele>
      </trkpt>
      <trkpt lat="45.4229" lon="-72.57866">
        <ele>150.47</ele>
      </trkpt>
      <trkpt lat="45.42292" lon="-72.57827">
        <ele>151.08</ele>
      </trkpt>
      <trkpt lat="45.423" lon="-72.57777">
        <ele>150.83</ele>
      </trkpt>
      <trkpt lat="45.42302" lon="-72.57751">
        <ele>150.29</ele>
      </trkpt>
      <trkpt lat="45.42316" lon="-72.57687">
        <ele>149.71</ele>
      </trkpt>
      <trkpt lat="45.42328" lon="-72.57656">
        <ele>149.12</ele>
      </trkpt>
      <trkpt lat="45.42357" lon="-72.57625">
        <ele>148.08</ele>
      </trkpt>
      <trkpt lat="45.42362" lon="-72.57616">
        <ele>147.45</ele>
      </trkpt>
      <trkpt lat="45.42367" lon="-72.57602">
        <ele>147.1</ele>
      </trkpt>
      <trkpt lat="45.42375" lon="-72.57566">
        <ele>146.88</ele>
      </trkpt>
      <trkpt lat="45.42375" lon="-72.57553">
        <ele>147.1</ele>
      </trkpt>
      <trkpt lat="45.42372" lon="-72.57539">
        <ele>147.45</ele>
      </trkpt>
      <trkpt lat="45.42347" lon="-72.57486">
        <ele>150.78</ele>
      </trkpt>
      <trkpt lat="45.42337" lon="-72.57455">
        <ele>151.71</ele>
      </trkpt>
      <trkpt lat="45.42335" lon="-72.57436">
        <ele>151.84</ele>
      </trkpt>
      <trkpt lat="45.42337" lon="-72.57393">
        <ele>151.49</ele>
      </trkpt>
      <trkpt lat="45.42337" lon="-72.57314">
        <ele>149.43</ele>
      </trkpt>
      <trkpt lat="45.42337" lon="-72.57235">
        <ele>149.12</ele>
      </trkpt>
      <trkpt lat="45.42335" lon="-72.57186">
        <ele>149.48</ele>
      </trkpt>
      <trkpt lat="45.42355" lon="-72.57118">
        <ele>148.25</ele>
      </trkpt>
      <trkpt lat="45.42361" lon="-72.57069">
        <ele>147.9</ele>
      </trkpt>
      <trkpt lat="45.42357" lon="-72.5702">
        <ele>148.01</ele>
      </trkpt>
      <trkpt lat="45.42336" lon="-72.5694">
        <ele>150.02</ele>
      </trkpt>
      <trkpt lat="45.42334" lon="-72.56922">
        <ele>150.14</ele>
      </trkpt>
      <trkpt lat="45.42336" lon="-72.56899">
        <ele>150.12</ele>
      </trkpt>
      <trkpt lat="45.42337" lon="-72.56851">
        <ele>149.15</ele>
      </trkpt>
      <trkpt lat="45.42347" lon="-72.56797">
        <ele>147.35</ele>
      </trkpt>
      <trkpt lat="45.4235" lon="-72.56773">
        <ele>146.77</ele>
      </trkpt>
      <trkpt lat="45.42348" lon="-72.56729">
        <ele>146.44</ele>
      </trkpt>
      <trkpt lat="45.42342" lon="-72.56702">
        <ele>147.02</ele>
      </trkpt>
      <trkpt lat="45.42294" lon="-72.56599">
        <ele>149.43</ele>
      </trkpt>
      <trkpt lat="45.42274" lon="-72.56546">
        <ele>151.9</ele>
      </trkpt>
      <trkpt lat="45.42233" lon="-72.56474">
        <ele>154.31</ele>
      </trkpt>
      <trkpt lat="45.42219" lon="-72.56435">
        <ele>154.02</ele>
      </trkpt>
      <trkpt lat="45.42196" lon="-72.56358">
        <ele>152.77</ele>
      </trkpt>
      <trkpt lat="45.42166" lon="-72.56282">
        <ele>153.73</ele>
      </trkpt>
      <trkpt lat="45.42132" lon="-72.56219">
        <ele>153.32</ele>
      </trkpt>
      <trkpt lat="45.42126" lon="-72.56201">
        <ele>153.17</ele>
      </trkpt>
      <trkpt lat="45.4212" lon="-72.56103">
        <ele>148.95</ele>
      </trkpt>
      <trkpt lat="45.42101" lon="-72.55987">
        <ele>147.37</ele>
      </trkpt>
      <trkpt lat="45.42102" lon="-72.55977">
        <ele>147.26</ele>
      </trkpt>
      <trkpt lat="45.42106" lon="-72.55964">
        <ele>147.26</ele>
      </trkpt>
      <trkpt lat="45.42115" lon="-72.55946">
        <ele>146.86</ele>
      </trkpt>
      <trkpt lat="45.4212" lon="-72.55932">
        <ele>146.73</ele>
      </trkpt>
      <trkpt lat="45.4212" lon="-72.55909">
        <ele>146.56</ele>
      </trkpt>
      <trkpt lat="45.42112" lon="-72.55838">
        <ele>146.81</ele>
      </trkpt>
      <trkpt lat="45.42113" lon="-72.55824">
        <ele>147.03</ele>
      </trkpt>
      <trkpt lat="45.42126" lon="-72.5578">
        <ele>147.19</ele>
      </trkpt>
      <trkpt lat="45.4213" lon="-72.55748">
        <ele>147.24</ele>
      </trkpt>
      <trkpt lat="45.42129" lon="-72.55731">
        <ele>147.3</ele>
      </trkpt>
      <trkpt lat="45.42111" lon="-72.55655">
        <ele>147.68</ele>
      </trkpt>
      <trkpt lat="45.42105" lon="-72.55575">
        <ele>147.93</ele>
      </trkpt>
      <trkpt lat="45.42101" lon="-72.55553">
        <ele>148.19</ele>
      </trkpt>
      <trkpt lat="45.4209" lon="-72.55534">
        <ele>148.44</ele>
      </trkpt>
      <trkpt lat="45.42057" lon="-72.55485">
        <ele>149.02</ele>
      </trkpt>
      <trkpt lat="45.42042" lon="-72.55476">
        <ele>149.26</ele>
      </trkpt>
      <trkpt lat="45.4203" lon="-72.55471">
        <ele>149.39</ele>
      </trkpt>
      <trkpt lat="45.42013" lon="-72.55471">
        <ele>149.6</ele>
      </trkpt>
      <trkpt lat="45.41981" lon="-72.55462">
        <ele>149.91</ele>
      </trkpt>
      <trkpt lat="45.41968" lon="-72.5545">
        <ele>149.91</ele>
      </trkpt>
      <trkpt lat="45.41947" lon="-72.55426">
        <ele>150.13</ele>
      </trkpt>
      <trkpt lat="45.41934" lon="-72.55417">
        <ele>150.13</ele>
      </trkpt>
      <trkpt lat="45.41926" lon="-72.55413">
        <ele>150.48</ele>
      </trkpt>
      <trkpt lat="45.41916" lon="-72.55404">
        <ele>150.48</ele>
      </trkpt>
      <trkpt lat="45.41906" lon="-72.55391">
        <ele>150.48</ele>
      </trkpt>
      <trkpt lat="45.41885" lon="-72.55351">
        <ele>150.91</ele>
      </trkpt>
      <trkpt lat="45.41871" lon="-72.55333">
        <ele>151.21</ele>
      </trkpt>
      <trkpt lat="45.41856" lon="-72.55319">
        <ele>151.49</ele>
      </trkpt>
      <trkpt lat="45.41849" lon="-72.55305">
        <ele>152.02</ele>
      </trkpt>
      <trkpt lat="45.41845" lon="-72.55292">
        <ele>152.02</ele>
      </trkpt>
      <trkpt lat="45.41848" lon="-72.55265">
        <ele>152.68</ele>
      </trkpt>
      <trkpt lat="45.41856" lon="-72.55253">
        <ele>152.68</ele>
      </trkpt>
      <trkpt lat="45.41882" lon="-72.55238">
        <ele>152.63</ele>
      </trkpt>
      <trkpt lat="45.41882" lon="-72.55233">
        <ele>152.63</ele>
      </trkpt>
      <trkpt lat="45.41869" lon="-72.55194">
        <ele>152.98</ele>
      </trkpt>
      <trkpt lat="45.41866" lon="-72.55176">
        <ele>153.53</ele>
      </trkpt>
      <trkpt lat="45.4187" lon="-72.55135">
        <ele>155.39</ele>
      </trkpt>
      <trkpt lat="45.41878" lon="-72.551">
        <ele>156.88</ele>
      </trkpt>
      <trkpt lat="45.41883" lon="-72.55086">
        <ele>157.75</ele>
      </trkpt>
      <trkpt lat="45.41894" lon="-72.55077">
        <ele>159.17</ele>
      </trkpt>
      <trkpt lat="45.41902" lon="-72.55073">
        <ele>160.06</ele>
      </trkpt>
      <trkpt lat="45.41911" lon="-72.55073">
        <ele>160.87</ele>
      </trkpt>
      <trkpt lat="45.41936" lon="-72.55086">
        <ele>162.51</ele>
      </trkpt>
      <trkpt lat="45.41947" lon="-72.55087">
        <ele>162.72</ele>
      </trkpt>
      <trkpt lat="45.41971" lon="-72.55194">
        <ele>161.6</ele>
      </trkpt>
      <trkpt lat="45.41995" lon="-72.55251">
        <ele>160.95</ele>
      </trkpt>
      <trkpt lat="45.4203" lon="-72.55305">
        <ele>159.8</ele>
      </trkpt>
      <trkpt lat="45.42061" lon="-72.55342">
        <ele>159.05</ele>
      </trkpt>
      <trkpt lat="45.42118" lon="-72.5540025">
        <ele>158.56</ele>
      </trkpt>
      <trkpt lat="45.42175" lon="-72.554585">
        <ele>158.64</ele>
      </trkpt>
      <trkpt lat="45.42232" lon="-72.5551675">
        <ele>159.59</ele>
      </trkpt>
      <trkpt lat="45.42289" lon="-72.55575">
        <ele>160.94</ele>
      </trkpt>
      <trkpt lat="45.42336" lon="-72.55635">
        <ele>161.54</ele>
      </trkpt>
      <trkpt lat="45.42383" lon="-72.55695">
        <ele>162.18</ele>
      </trkpt>
      <trkpt lat="45.42422" lon="-72.557575">
        <ele>162.52</ele>
      </trkpt>
      <trkpt lat="45.42461" lon="-72.5582">
        <ele>161.56</ele>
      </trkpt>
      <trkpt lat="45.42516" lon="-72.55917">
        <ele>160.78</ele>
      </trkpt>
      <trkpt lat="45.42571" lon="-72.5601399">
        <ele>159.83</ele>
      </trkpt>
      <trkpt lat="45.42626" lon="-72.5611099">
        <ele>158.88</ele>
      </trkpt>
      <trkpt lat="45.42681" lon="-72.56208">
        <ele>159.43</ele>
      </trkpt>
      <trkpt lat="45.42736" lon="-72.56305">
        <ele>160.69</ele>
      </trkpt>
      <trkpt lat="45.42735" lon="-72.56228">
        <ele>160.48</ele>
      </trkpt>
      <trkpt lat="45.42741" lon="-72.56213">
        <ele>160.7</ele>
      </trkpt>
      <trkpt lat="45.42746" lon="-72.56232">
        <ele>160.7</ele>
      </trkpt>
      <trkpt lat="45.42783" lon="-72.56322">
        <ele>160.45</ele>
      </trkpt>
      <trkpt lat="45.42802" lon="-72.56354">
        <ele>160.42</ele>
      </trkpt>
      <trkpt lat="45.42823" lon="-72.56384">
        <ele>160.47</ele>
      </trkpt>
      <trkpt lat="45.42842" lon="-72.56402">
        <ele>160.46</ele>
      </trkpt>
      <trkpt lat="45.42883" lon="-72.56439">
        <ele>160.58</ele>
      </trkpt>
      <trkpt lat="45.4291" lon="-72.56456">
        <ele>161.06</ele>
      </trkpt>
      <trkpt lat="45.42936" lon="-72.5647">
        <ele>161.75</ele>
      </trkpt>
      <trkpt lat="45.42961" lon="-72.56478">
        <ele>162.59</ele>
      </trkpt>
      <trkpt lat="45.42987" lon="-72.56484">
        <ele>164.29</ele>
      </trkpt>
      <trkpt lat="45.43038" lon="-72.56487">
        <ele>167.08</ele>
      </trkpt>
      <trkpt lat="45.43125" lon="-72.564752">
        <ele>173.18</ele>
      </trkpt>
      <trkpt lat="45.43212" lon="-72.564634">
        <ele>184.14</ele>
      </trkpt>
      <trkpt lat="45.43299" lon="-72.564516">
        <ele>191.22</ele>
      </trkpt>
      <trkpt lat="45.43386" lon="-72.564398">
        <ele>200.85</ele>
      </trkpt>
      <trkpt lat="45.43473" lon="-72.56428">
        <ele>208.22</ele>
      </trkpt>
      <trkpt lat="45.4355043" lon="-72.56418">
        <ele>210.93</ele>
      </trkpt>
      <trkpt lat="45.4362786" lon="-72.56408">
        <ele>207.68</ele>
      </trkpt>
      <trkpt lat="45.4370529" lon="-72.56398">
        <ele>206.33</ele>
      </trkpt>
      <trkpt lat="45.4378271" lon="-72.56388">
        <ele>206.75</ele>
      </trkpt>
      <trkpt lat="45.4386014" lon="-72.56378">
        <ele>207.98</ele>
      </trkpt>
      <trkpt lat="45.4393757" lon="-72.56368">
        <ele>206.87</ele>
      </trkpt>
      <trkpt lat="45.44015" lon="-72.56358">
        <ele>208.88</ele>
      </trkpt>
      <trkpt lat="45.44081" lon="-72.56354">
        <ele>211.59</ele>
      </trkpt>
      <trkpt lat="45.44075" lon="-72.562474">
        <ele>213.77</ele>
      </trkpt>
      <trkpt lat="45.44069" lon="-72.561408">
        <ele>217.02</ele>
      </trkpt>
      <trkpt lat="45.44063" lon="-72.560342">
        <ele>217.71</ele>
      </trkpt>
      <trkpt lat="45.44057" lon="-72.559276">
        <ele>215.72</ele>
      </trkpt>
      <trkpt lat="45.44051" lon="-72.55821">
        <ele>214.25</ele>
      </trkpt>
      <trkpt lat="45.4404334" lon="-72.55699">
        <ele>212.23</ele>
      </trkpt>
      <trkpt lat="45.4403568" lon="-72.55577">
        <ele>212.83</ele>
      </trkpt>
      <trkpt lat="45.4402802" lon="-72.55455">
        <ele>214.25</ele>
      </trkpt>
      <trkpt lat="45.4402035" lon="-72.5533299">
        <ele>213.66</ele>
      </trkpt>
      <trkpt lat="45.4401269" lon="-72.5521099">
        <ele>213.96</ele>
      </trkpt>
      <trkpt lat="45.4400502" lon="-72.5508899">
        <ele>216.51</ele>
      </trkpt>
      <trkpt lat="45.4399736" lon="-72.5496699">
        <ele>219.93</ele>
      </trkpt>
      <trkpt lat="45.4398969" lon="-72.5484499">
        <ele>220.5</ele>
      </trkpt>
      <trkpt lat="45.4398202" lon="-72.54723">
        <ele>221.86</ele>
      </trkpt>
      <trkpt lat="45.4397435" lon="-72.54601">
        <ele>223.47</ele>
      </trkpt>
      <trkpt lat="45.4396667" lon="-72.54479">
        <ele>224.74</ele>
      </trkpt>
      <trkpt lat="45.43959" lon="-72.54357">
        <ele>225.38</ele>
      </trkpt>
      <trkpt lat="45.43959" lon="-72.54354">
        <ele>225.43</ele>
      </trkpt>
      <trkpt lat="45.4395151" lon="-72.5422994">
        <ele>229.57</ele>
      </trkpt>
      <trkpt lat="45.4394402" lon="-72.5410587">
        <ele>229.12</ele>
      </trkpt>
      <trkpt lat="45.4393653" lon="-72.5398181">
        <ele>227.45</ele>
      </trkpt>
      <trkpt lat="45.4392903" lon="-72.5385774">
        <ele>225.49</ele>
      </trkpt>
      <trkpt lat="45.4392154" lon="-72.5373368">
        <ele>223.42</ele>
      </trkpt>
      <trkpt lat="45.4391404" lon="-72.5360962">
        <ele>221.65</ele>
      </trkpt>
      <trkpt lat="45.4390654" lon="-72.5348555">
        <ele>220.57</ele>
      </trkpt>
      <trkpt lat="45.4389904" lon="-72.5336149">
        <ele>218.31</ele>
      </trkpt>
      <trkpt lat="45.4389154" lon="-72.5323743">
        <ele>215.39</ele>
      </trkpt>
      <trkpt lat="45.4388404" lon="-72.5311337">
        <ele>214.11</ele>
      </trkpt>
      <trkpt lat="45.4387654" lon="-72.529893">
        <ele>215.2</ele>
      </trkpt>
      <trkpt lat="45.4386903" lon="-72.5286524">
        <ele>214.79</ele>
      </trkpt>
      <trkpt lat="45.4386153" lon="-72.5274118">
        <ele>212.14</ele>
      </trkpt>
      <trkpt lat="45.4385402" lon="-72.5261712">
        <ele>203.1</ele>
      </trkpt>
      <trkpt lat="45.4384651" lon="-72.5249306">
        <ele>199.69</ele>
      </trkpt>
      <trkpt lat="45.43839" lon="-72.52369">
        <ele>201.91</ele>
      </trkpt>
      <trkpt lat="45.4383467" lon="-72.5227533">
        <ele>203.25</ele>
      </trkpt>
      <trkpt lat="45.4383033" lon="-72.5218167">
        <ele>205.72</ele>
      </trkpt>
      <trkpt lat="45.43826" lon="-72.52088">
        <ele>208.29</ele>
      </trkpt>
      <trkpt lat="45.4381933" lon="-72.5198">
        <ele>206.29</ele>
      </trkpt>
      <trkpt lat="45.4381267" lon="-72.51872">
        <ele>206.38</ele>
      </trkpt>
      <trkpt lat="45.43806" lon="-72.51764">
        <ele>209.52</ele>
      </trkpt>
      <trkpt lat="45.4380051" lon="-72.5164258">
        <ele>214.53</ele>
      </trkpt>
      <trkpt lat="45.4379501" lon="-72.5152116">
        <ele>216.37</ele>
      </trkpt>
      <trkpt lat="45.4378952" lon="-72.5139975">
        <ele>219.04</ele>
      </trkpt>
      <trkpt lat="45.4378402" lon="-72.5127833">
        <ele>221.35</ele>
      </trkpt>
      <trkpt lat="45.4377852" lon="-72.5115691">
        <ele>228.41</ele>
      </trkpt>
      <trkpt lat="45.4377302" lon="-72.510355">
        <ele>228.76</ele>
      </trkpt>
      <trkpt lat="45.4376752" lon="-72.5091408">
        <ele>221.85</ele>
      </trkpt>
      <trkpt lat="45.4376202" lon="-72.5079266">
        <ele>217.24</ele>
      </trkpt>
      <trkpt lat="45.4375652" lon="-72.5067125">
        <ele>215.43</ele>
      </trkpt>
      <trkpt lat="45.4375101" lon="-72.5054983">
        <ele>216.2</ele>
      </trkpt>
      <trkpt lat="45.4374551" lon="-72.5042842">
        <ele>215.92</ele>
      </trkpt>
      <trkpt lat="45.4374" lon="-72.50307">
        <ele>214.92</ele>
      </trkpt>
      <trkpt lat="45.43739" lon="-72.50297">
        <ele>214.81</ele>
      </trkpt>
      <trkpt lat="45.4373292" lon="-72.5017095">
        <ele>215.23</ele>
      </trkpt>
      <trkpt lat="45.4372685" lon="-72.500449">
        <ele>213.41</ele>
      </trkpt>
      <trkpt lat="45.4372077" lon="-72.4991886">
        <ele>211</ele>
      </trkpt>
      <trkpt lat="45.4371469" lon="-72.4979281">
        <ele>210.66</ele>
      </trkpt>
      <trkpt lat="45.437086" lon="-72.4966676">
        <ele>210.49</ele>
      </trkpt>
      <trkpt lat="45.4370252" lon="-72.4954071">
        <ele>209.46</ele>
      </trkpt>
      <trkpt lat="45.4369644" lon="-72.4941467">
        <ele>210.97</ele>
      </trkpt>
      <trkpt lat="45.4369035" lon="-72.4928862">
        <ele>213.08</ele>
      </trkpt>
      <trkpt lat="45.4368426" lon="-72.4916257">
        <ele>211.73</ele>
      </trkpt>
      <trkpt lat="45.4367817" lon="-72.4903653">
        <ele>211.66</ele>
      </trkpt>
      <trkpt lat="45.4367208" lon="-72.4891048">
        <ele>208.38</ele>
      </trkpt>
      <trkpt lat="45.4366599" lon="-72.4878444">
        <ele>206.16</ele>
      </trkpt>
      <trkpt lat="45.436599" lon="-72.4865839">
        <ele>204.26</ele>
      </trkpt>
      <trkpt lat="45.436538" lon="-72.4853235">
        <ele>202.32</ele>
      </trkpt>
      <trkpt lat="45.4364771" lon="-72.484063">
        <ele>201.34</ele>
      </trkpt>
      <trkpt lat="45.4364161" lon="-72.4828026">
        <ele>201.54</ele>
      </trkpt>
      <trkpt lat="45.4363551" lon="-72.4815422">
        <ele>200.27</ele>
      </trkpt>
      <trkpt lat="45.4362941" lon="-72.4802817">
        <ele>199.35</ele>
      </trkpt>
      <trkpt lat="45.4362331" lon="-72.4790213">
        <ele>198.82</ele>
      </trkpt>
      <trkpt lat="45.4361721" lon="-72.4777609">
        <ele>198.74</ele>
      </trkpt>
      <trkpt lat="45.4361111" lon="-72.4765004">
        <ele>195.92</ele>
      </trkpt>
      <trkpt lat="45.43605" lon="-72.47524">
        <ele>195.48</ele>
      </trkpt>
      <trkpt lat="45.436015" lon="-72.47424">
        <ele>198.44</ele>
      </trkpt>
      <trkpt lat="45.43598" lon="-72.47324">
        <ele>200.67</ele>
      </trkpt>
      <trkpt lat="45.4359225" lon="-72.47214">
        <ele>203.61</ele>
      </trkpt>
      <trkpt lat="45.435865" lon="-72.47104">
        <ele>201.19</ele>
      </trkpt>
      <trkpt lat="45.4358075" lon="-72.46994">
        <ele>201.06</ele>
      </trkpt>
      <trkpt lat="45.43575" lon="-72.46884">
        <ele>204.16</ele>
      </trkpt>
      <trkpt lat="45.43575" lon="-72.46786">
        <ele>208.77</ele>
      </trkpt>
      <trkpt lat="45.43567" lon="-72.46701">
        <ele>212.16</ele>
      </trkpt>
      <trkpt lat="45.435645" lon="-72.4662">
        <ele>212.55</ele>
      </trkpt>
      <trkpt lat="45.43562" lon="-72.46539">
        <ele>213.56</ele>
      </trkpt>
      <trkpt lat="45.436464" lon="-72.4654233">
        <ele>212.77</ele>
      </trkpt>
      <trkpt lat="45.437308" lon="-72.4654567">
        <ele>211.89</ele>
      </trkpt>
      <trkpt lat="45.438152" lon="-72.46549">
        <ele>210.07</ele>
      </trkpt>
      <trkpt lat="45.438996" lon="-72.4655233">
        <ele>207.12</ele>
      </trkpt>
      <trkpt lat="45.43984" lon="-72.4655566">
        <ele>203.88</ele>
      </trkpt>
      <trkpt lat="45.440684" lon="-72.46559">
        <ele>200.62</ele>
      </trkpt>
      <trkpt lat="45.441528" lon="-72.4656233">
        <ele>196.18</ele>
      </trkpt>
      <trkpt lat="45.442372" lon="-72.4656566">
        <ele>192.46</ele>
      </trkpt>
      <trkpt lat="45.443216" lon="-72.46569">
        <ele>191.69</ele>
      </trkpt>
      <trkpt lat="45.44406" lon="-72.4657233">
        <ele>193.81</ele>
      </trkpt>
      <trkpt lat="45.444904" lon="-72.4657566">
        <ele>193.15</ele>
      </trkpt>
      <trkpt lat="45.445748" lon="-72.46579">
        <ele>192.79</ele>
      </trkpt>
      <trkpt lat="45.446592" lon="-72.4658233">
        <ele>192.63</ele>
      </trkpt>
      <trkpt lat="45.447436" lon="-72.4658567">
        <ele>192.42</ele>
      </trkpt>
      <trkpt lat="45.44828" lon="-72.46589">
        <ele>192.63</ele>
      </trkpt>
      <trkpt lat="45.44821" lon="-72.46487">
        <ele>194.38</ele>
      </trkpt>
      <trkpt lat="45.44814" lon="-72.46385">
        <ele>195.79</ele>
      </trkpt>
      <trkpt lat="45.44807" lon="-72.46283">
        <ele>197.15</ele>
      </trkpt>
      <trkpt lat="45.448" lon="-72.46181">
        <ele>198.39</ele>
      </trkpt>
      <trkpt lat="45.448" lon="-72.46179">
        <ele>198.39</ele>
      </trkpt>
      <trkpt lat="45.447926" lon="-72.460684">
        <ele>199.27</ele>
      </trkpt>
      <trkpt lat="45.447852" lon="-72.459578">
        <ele>200.15</ele>
      </trkpt>
      <trkpt lat="45.447778" lon="-72.458472">
        <ele>200.37</ele>
      </trkpt>
      <trkpt lat="45.447704" lon="-72.457366">
        <ele>200.55</ele>
      </trkpt>
      <trkpt lat="45.44763" lon="-72.45626">
        <ele>201.7</ele>
      </trkpt>
      <trkpt lat="45.44755" lon="-72.4559">
        <ele>201.91</ele>
      </trkpt>
      <trkpt lat="45.44749" lon="-72.45573">
        <ele>201.91</ele>
      </trkpt>
      <trkpt lat="45.44727" lon="-72.45541">
        <ele>202.52</ele>
      </trkpt>
      <trkpt lat="45.4471" lon="-72.45527">
        <ele>203.1</ele>
      </trkpt>
      <trkpt lat="45.44687" lon="-72.45518">
        <ele>203.24</ele>
      </trkpt>
      <trkpt lat="45.44669" lon="-72.45515">
        <ele>203.24</ele>
      </trkpt>
      <trkpt lat="45.445904" lon="-72.455264">
        <ele>204.17</ele>
      </trkpt>
      <trkpt lat="45.445118" lon="-72.455378">
        <ele>204.87</ele>
      </trkpt>
      <trkpt lat="45.444332" lon="-72.455492">
        <ele>205.67</ele>
      </trkpt>
      <trkpt lat="45.443546" lon="-72.455606">
        <ele>206.46</ele>
      </trkpt>
      <trkpt lat="45.44276" lon="-72.45572">
        <ele>207.27</ele>
      </trkpt>
      <trkpt lat="45.44255" lon="-72.45571">
        <ele>207.38</ele>
      </trkpt>
      <trkpt lat="45.44244" lon="-72.45569">
        <ele>207.38</ele>
      </trkpt>
      <trkpt lat="45.44225" lon="-72.4556">
        <ele>208.04</ele>
      </trkpt>
      <trkpt lat="45.44216" lon="-72.45554">
        <ele>208.04</ele>
      </trkpt>
      <trkpt lat="45.44201" lon="-72.4554">
        <ele>208.27</ele>
      </trkpt>
      <trkpt lat="45.44184" lon="-72.45513">
        <ele>208.65</ele>
      </trkpt>
      <trkpt lat="45.44174" lon="-72.45478">
        <ele>209.64</ele>
      </trkpt>
      <trkpt lat="45.44166" lon="-72.45421">
        <ele>209.64</ele>
      </trkpt>
      <trkpt lat="45.4415938" lon="-72.4530662">
        <ele>212.06</ele>
      </trkpt>
      <trkpt lat="45.4415276" lon="-72.4519225">
        <ele>213.69</ele>
      </trkpt>
      <trkpt lat="45.4414613" lon="-72.4507787">
        <ele>215.27</ele>
      </trkpt>
      <trkpt lat="45.4413951" lon="-72.449635">
        <ele>216.74</ele>
      </trkpt>
      <trkpt lat="45.4413288" lon="-72.4484912">
        <ele>219.44</ele>
      </trkpt>
      <trkpt lat="45.4412626" lon="-72.4473475">
        <ele>221.54</ele>
      </trkpt>
      <trkpt lat="45.4411963" lon="-72.4462037">
        <ele>224.38</ele>
      </trkpt>
      <trkpt lat="45.44113" lon="-72.44506">
        <ele>231.38</ele>
      </trkpt>
      <trkpt lat="45.44101" lon="-72.44444">
        <ele>238.5</ele>
      </trkpt>
      <trkpt lat="45.44075" lon="-72.44377">
        <ele>241.96</ele>
      </trkpt>
      <trkpt lat="45.44133" lon="-72.44323">
        <ele>241.78</ele>
      </trkpt>
      <trkpt lat="45.44191" lon="-72.44269">
        <ele>241.41</ele>
      </trkpt>
      <trkpt lat="45.44244" lon="-72.44229">
        <ele>240.19</ele>
      </trkpt>
      <trkpt lat="45.44323" lon="-72.44185">
        <ele>237.68</ele>
      </trkpt>
      <trkpt lat="45.44395" lon="-72.44163">
        <ele>236.29</ele>
      </trkpt>
      <trkpt lat="45.44472" lon="-72.44153">
        <ele>234.35</ele>
      </trkpt>
      <trkpt lat="45.44535" lon="-72.4415467">
        <ele>233.11</ele>
      </trkpt>
      <trkpt lat="45.44598" lon="-72.4415633">
        <ele>232.19</ele>
      </trkpt>
      <trkpt lat="45.44661" lon="-72.44158">
        <ele>231.7</ele>
      </trkpt>
      <trkpt lat="45.4471" lon="-72.44147">
        <ele>232.1</ele>
      </trkpt>
      <trkpt lat="45.44759" lon="-72.44136">
        <ele>232.64</ele>
      </trkpt>
      <trkpt lat="45.44836" lon="-72.44104">
        <ele>234.06</ele>
      </trkpt>
      <trkpt lat="45.448875" lon="-72.440725">
        <ele>235.43</ele>
      </trkpt>
      <trkpt lat="45.44939" lon="-72.44041">
        <ele>235.68</ele>
      </trkpt>
      <trkpt lat="45.44921" lon="-72.43929">
        <ele>240.05</ele>
      </trkpt>
      <trkpt lat="45.44903" lon="-72.43817">
        <ele>240.85</ele>
      </trkpt>
      <trkpt lat="45.44885" lon="-72.43705">
        <ele>247.28</ele>
      </trkpt>
      <trkpt lat="45.44867" lon="-72.43593">
        <ele>251.73</ele>
      </trkpt>
      <trkpt lat="45.4484567" lon="-72.4349333">
        <ele>252.03</ele>
      </trkpt>
      <trkpt lat="45.4482433" lon="-72.4339367">
        <ele>251.58</ele>
      </trkpt>
      <trkpt lat="45.44803" lon="-72.43294">
        <ele>249.75</ele>
      </trkpt>
      <trkpt lat="45.44791" lon="-72.43214">
        <ele>253.87</ele>
      </trkpt>
      <trkpt lat="45.44791" lon="-72.4319">
        <ele>254.91</ele>
      </trkpt>
      <trkpt lat="45.44791" lon="-72.43191">
        <ele>254.91</ele>
      </trkpt>
      <trkpt lat="45.44792" lon="-72.43096">
        <ele>254.69</ele>
      </trkpt>
      <trkpt lat="45.44797" lon="-72.42991">
        <ele>252.63</ele>
      </trkpt>
      <trkpt lat="45.44802" lon="-72.42886">
        <ele>254.58</ele>
      </trkpt>
      <trkpt lat="45.448105" lon="-72.42777">
        <ele>260.7</ele>
      </trkpt>
      <trkpt lat="45.44819" lon="-72.42668">
        <ele>265.65</ele>
      </trkpt>
      <trkpt lat="45.4482" lon="-72.42608">
        <ele>266.38</ele>
      </trkpt>
      <trkpt lat="45.44813" lon="-72.4253">
        <ele>263.99</ele>
      </trkpt>
      <trkpt lat="45.44806" lon="-72.42452">
        <ele>260.5</ele>
      </trkpt>
      <trkpt lat="45.4478967" lon="-72.42346">
        <ele>258.82</ele>
      </trkpt>
      <trkpt lat="45.4477333" lon="-72.4224">
        <ele>257.45</ele>
      </trkpt>
      <trkpt lat="45.44757" lon="-72.42134">
        <ele>259.91</ele>
      </trkpt>
      <trkpt lat="45.4468825" lon="-72.42143">
        <ele>264.98</ele>
      </trkpt>
      <trkpt lat="45.446195" lon="-72.42152">
        <ele>270.18</ele>
      </trkpt>
      <trkpt lat="45.4455075" lon="-72.42161">
        <ele>271.47</ele>
      </trkpt>
      <trkpt lat="45.44482" lon="-72.4217">
        <ele>272.74</ele>
      </trkpt>
      <trkpt lat="45.44414" lon="-72.421765">
        <ele>273.32</ele>
      </trkpt>
      <trkpt lat="45.44346" lon="-72.42183">
        <ele>274.2</ele>
      </trkpt>
      <trkpt lat="45.44263" lon="-72.42165">
        <ele>276.88</ele>
      </trkpt>
      <trkpt lat="45.44197" lon="-72.42143">
        <ele>280.62</ele>
      </trkpt>
      <trkpt lat="45.44131" lon="-72.42121">
        <ele>283.15</ele>
      </trkpt>
      <trkpt lat="45.44065" lon="-72.42099">
        <ele>283.2</ele>
      </trkpt>
      <trkpt lat="45.44033" lon="-72.42058">
        <ele>284.27</ele>
      </trkpt>
      <trkpt lat="45.4402" lon="-72.42018">
        <ele>285.51</ele>
      </trkpt>
      <trkpt lat="45.44013" lon="-72.41973">
        <ele>286.98</ele>
      </trkpt>
      <trkpt lat="45.44017" lon="-72.41906">
        <ele>292.69</ele>
      </trkpt>
      <trkpt lat="45.44035" lon="-72.41816">
        <ele>300.44</ele>
      </trkpt>
      <trkpt lat="45.44039" lon="-72.41767">
        <ele>302.52</ele>
      </trkpt>
      <trkpt lat="45.44037" lon="-72.41701">
        <ele>306.73</ele>
      </trkpt>
      <trkpt lat="45.44036" lon="-72.41699">
        <ele>306.73</ele>
      </trkpt>
      <trkpt lat="45.44033" lon="-72.41668">
        <ele>308.54</ele>
      </trkpt>
      <trkpt lat="45.44023" lon="-72.41645">
        <ele>308.73</ele>
      </trkpt>
      <trkpt lat="45.44003" lon="-72.41614">
        <ele>307.85</ele>
      </trkpt>
      <trkpt lat="45.4396" lon="-72.41569">
        <ele>304.45</ele>
      </trkpt>
      <trkpt lat="45.43915" lon="-72.41534">
        <ele>298.42</ele>
      </trkpt>
      <trkpt lat="45.43876" lon="-72.41516">
        <ele>293.42</ele>
      </trkpt>
      <trkpt lat="45.43821" lon="-72.41506">
        <ele>287.93</ele>
      </trkpt>
      <trkpt lat="45.43793" lon="-72.41507">
        <ele>283.87</ele>
      </trkpt>
      <trkpt lat="45.43753" lon="-72.4152">
        <ele>281.19</ele>
      </trkpt>
      <trkpt lat="45.43718" lon="-72.41543">
        <ele>282.26</ele>
      </trkpt>
      <trkpt lat="45.43657" lon="-72.415985">
        <ele>287.7</ele>
      </trkpt>
      <trkpt lat="45.43596" lon="-72.41654">
        <ele>289.74</ele>
      </trkpt>
      <trkpt lat="45.4354233" lon="-72.41711">
        <ele>290.49</ele>
      </trkpt>
      <trkpt lat="45.4348867" lon="-72.41768">
        <ele>294.22</ele>
      </trkpt>
      <trkpt lat="45.43435" lon="-72.41825">
        <ele>294.37</ele>
      </trkpt>
      <trkpt lat="45.43408" lon="-72.4186">
        <ele>293.03</ele>
      </trkpt>
      <trkpt lat="45.43386" lon="-72.41896">
        <ele>291.75</ele>
      </trkpt>
      <trkpt lat="45.43376" lon="-72.41906">
        <ele>291.22</ele>
      </trkpt>
      <trkpt lat="45.43356" lon="-72.41923">
        <ele>289.17</ele>
      </trkpt>
      <trkpt lat="45.43279" lon="-72.41956">
        <ele>284.47</ele>
      </trkpt>
      <trkpt lat="45.43195" lon="-72.4198">
        <ele>280.84</ele>
      </trkpt>
      <trkpt lat="45.43111" lon="-72.42004">
        <ele>278.53</ele>
      </trkpt>
      <trkpt lat="45.43068" lon="-72.42009">
        <ele>280.41</ele>
      </trkpt>
      <trkpt lat="45.42989" lon="-72.42">
        <ele>282.29</ele>
      </trkpt>
      <trkpt lat="45.42971" lon="-72.41991">
        <ele>281.72</ele>
      </trkpt>
      <trkpt lat="45.42954" lon="-72.41978">
        <ele>280.83</ele>
      </trkpt>
      <trkpt lat="45.42939" lon="-72.41959">
        <ele>280.5</ele>
      </trkpt>
      <trkpt lat="45.42911" lon="-72.418875">
        <ele>283.14</ele>
      </trkpt>
      <trkpt lat="45.42883" lon="-72.41816">
        <ele>280.29</ele>
      </trkpt>
      <trkpt lat="45.42851" lon="-72.41771">
        <ele>277.01</ele>
      </trkpt>
      <trkpt lat="45.42819" lon="-72.41726">
        <ele>271.87</ele>
      </trkpt>
      <trkpt lat="45.4278567" lon="-72.4165433">
        <ele>267.29</ele>
      </trkpt>
      <trkpt lat="45.4275233" lon="-72.4158267">
        <ele>265.61</ele>
      </trkpt>
      <trkpt lat="45.42719" lon="-72.41511">
        <ele>266.37</ele>
      </trkpt>
      <trkpt lat="45.42714" lon="-72.4148">
        <ele>266.36</ele>
      </trkpt>
      <trkpt lat="45.427135" lon="-72.413995">
        <ele>263.58</ele>
      </trkpt>
      <trkpt lat="45.42713" lon="-72.41319">
        <ele>261.74</ele>
      </trkpt>
      <trkpt lat="45.42717" lon="-72.411974">
        <ele>261.84</ele>
      </trkpt>
      <trkpt lat="45.42721" lon="-72.410758">
        <ele>261.64</ele>
      </trkpt>
      <trkpt lat="45.42725" lon="-72.409542">
        <ele>259.84</ele>
      </trkpt>
      <trkpt lat="45.42729" lon="-72.408326">
        <ele>255.69</ele>
      </trkpt>
      <trkpt lat="45.42733" lon="-72.40711">
        <ele>247.38</ele>
      </trkpt>
      <trkpt lat="45.42743" lon="-72.40602">
        <ele>237.83</ele>
      </trkpt>
      <trkpt lat="45.42754" lon="-72.40559">
        <ele>234.92</ele>
      </trkpt>
      <trkpt lat="45.4278" lon="-72.40489">
        <ele>230.98</ele>
      </trkpt>
      <trkpt lat="45.42806" lon="-72.40419">
        <ele>227.32</ele>
      </trkpt>
      <trkpt lat="45.42819" lon="-72.40374">
        <ele>225.98</ele>
      </trkpt>
      <trkpt lat="45.42831" lon="-72.40303">
        <ele>225.8</ele>
      </trkpt>
      <trkpt lat="45.42827" lon="-72.40249">
        <ele>227.37</ele>
      </trkpt>
      <trkpt lat="45.42821" lon="-72.40227">
        <ele>228.88</ele>
      </trkpt>
      <trkpt lat="45.42791" lon="-72.40138">
        <ele>236.89</ele>
      </trkpt>
      <trkpt lat="45.42785" lon="-72.40107">
        <ele>238.7</ele>
      </trkpt>
      <trkpt lat="45.42782" lon="-72.40074">
        <ele>239.66</ele>
      </trkpt>
      <trkpt lat="45.42789" lon="-72.39996">
        <ele>240.31</ele>
      </trkpt>
      <trkpt lat="45.427115" lon="-72.39993">
        <ele>236.9</ele>
      </trkpt>
      <trkpt lat="45.42634" lon="-72.3999">
        <ele>231.65</ele>
      </trkpt>
      <trkpt lat="45.42558" lon="-72.39985">
        <ele>224.46</ele>
      </trkpt>
      <trkpt lat="45.42559" lon="-72.39985">
        <ele>224.46</ele>
      </trkpt>
      <trkpt lat="45.425" lon="-72.399805">
        <ele>220.61</ele>
      </trkpt>
      <trkpt lat="45.42441" lon="-72.39976">
        <ele>223.5</ele>
      </trkpt>
      <trkpt lat="45.42365" lon="-72.399725">
        <ele>231.29</ele>
      </trkpt>
      <trkpt lat="45.42289" lon="-72.39969">
        <ele>239.43</ele>
      </trkpt>
      <trkpt lat="45.42213" lon="-72.399655">
        <ele>242.09</ele>
      </trkpt>
      <trkpt lat="45.42137" lon="-72.39962">
        <ele>241.76</ele>
      </trkpt>
      <trkpt lat="45.42072" lon="-72.39951">
        <ele>242.19</ele>
      </trkpt>
      <trkpt lat="45.42007" lon="-72.3994">
        <ele>240.95</ele>
      </trkpt>
      <trkpt lat="45.41935" lon="-72.39946">
        <ele>241.51</ele>
      </trkpt>
      <trkpt lat="45.41863" lon="-72.39954">
        <ele>241.19</ele>
      </trkpt>
      <trkpt lat="45.417935" lon="-72.39953">
        <ele>240.79</ele>
      </trkpt>
      <trkpt lat="45.41724" lon="-72.39952">
        <ele>238.74</ele>
      </trkpt>
      <trkpt lat="45.4165267" lon="-72.3995467">
        <ele>235.42</ele>
      </trkpt>
      <trkpt lat="45.4158133" lon="-72.3995733">
        <ele>233.39</ele>
      </trkpt>
      <trkpt lat="45.4151" lon="-72.3996">
        <ele>232.06</ele>
      </trkpt>
      <trkpt lat="45.414355" lon="-72.39972">
        <ele>229.48</ele>
      </trkpt>
      <trkpt lat="45.41361" lon="-72.39984">
        <ele>227.31</ele>
      </trkpt>
      <trkpt lat="45.41334" lon="-72.39984">
        <ele>227.07</ele>
      </trkpt>
      <trkpt lat="45.41317" lon="-72.39986">
        <ele>227.01</ele>
      </trkpt>
      <trkpt lat="45.4123656" lon="-72.4000434">
        <ele>229.5</ele>
      </trkpt>
      <trkpt lat="45.4115611" lon="-72.4002267">
        <ele>232.08</ele>
      </trkpt>
      <trkpt lat="45.4107567" lon="-72.40041">
        <ele>232.55</ele>
      </trkpt>
      <trkpt lat="45.4099522" lon="-72.4005934">
        <ele>234.82</ele>
      </trkpt>
      <trkpt lat="45.4091478" lon="-72.4007767">
        <ele>234.19</ele>
      </trkpt>
      <trkpt lat="45.4083433" lon="-72.40096">
        <ele>233.37</ele>
      </trkpt>
      <trkpt lat="45.4075389" lon="-72.4011434">
        <ele>232.55</ele>
      </trkpt>
      <trkpt lat="45.4067344" lon="-72.4013267">
        <ele>237.68</ele>
      </trkpt>
      <trkpt lat="45.40593" lon="-72.40151">
        <ele>242.11</ele>
      </trkpt>
      <trkpt lat="45.40586" lon="-72.40156">
        <ele>242.32</ele>
      </trkpt>
      <trkpt lat="45.40575" lon="-72.40172">
        <ele>242.99</ele>
      </trkpt>
      <trkpt lat="45.40566" lon="-72.40191">
        <ele>243.95</ele>
      </trkpt>
      <trkpt lat="45.4056" lon="-72.40217">
        <ele>244.4</ele>
      </trkpt>
      <trkpt lat="45.40549" lon="-72.4024">
        <ele>244.63</ele>
      </trkpt>
      <trkpt lat="45.40534" lon="-72.40255">
        <ele>245.26</ele>
      </trkpt>
      <trkpt lat="45.404615" lon="-72.402725">
        <ele>248.66</ele>
      </trkpt>
      <trkpt lat="45.40389" lon="-72.4029">
        <ele>255</ele>
      </trkpt>
      <trkpt lat="45.40303" lon="-72.40307">
        <ele>262.81</ele>
      </trkpt>
      <trkpt lat="45.402255" lon="-72.403285">
        <ele>267.14</ele>
      </trkpt>
      <trkpt lat="45.40148" lon="-72.4035">
        <ele>270.25</ele>
      </trkpt>
      <trkpt lat="45.40125" lon="-72.4036">
        <ele>270.38</ele>
      </trkpt>
      <trkpt lat="45.40084" lon="-72.40388">
        <ele>273.03</ele>
      </trkpt>
      <trkpt lat="45.400345" lon="-72.404265">
        <ele>277.33</ele>
      </trkpt>
      <trkpt lat="45.39985" lon="-72.40465">
        <ele>279.68</ele>
      </trkpt>
      <trkpt lat="45.39922" lon="-72.405025">
        <ele>281.04</ele>
      </trkpt>
      <trkpt lat="45.39859" lon="-72.4054">
        <ele>281.25</ele>
      </trkpt>
      <trkpt lat="45.39785" lon="-72.4059533">
        <ele>280.67</ele>
      </trkpt>
      <trkpt lat="45.39711" lon="-72.4065067">
        <ele>282.28</ele>
      </trkpt>
      <trkpt lat="45.39637" lon="-72.40706">
        <ele>285.43</ele>
      </trkpt>
      <trkpt lat="45.3956767" lon="-72.4075367">
        <ele>288.01</ele>
      </trkpt>
      <trkpt lat="45.3949833" lon="-72.4080133">
        <ele>287.33</ele>
      </trkpt>
      <trkpt lat="45.39429" lon="-72.40849">
        <ele>286.16</ele>
      </trkpt>
      <trkpt lat="45.39365" lon="-72.40884">
        <ele>282.95</ele>
      </trkpt>
      <trkpt lat="45.39282" lon="-72.40918">
        <ele>279.2</ele>
      </trkpt>
      <trkpt lat="45.39199" lon="-72.40952">
        <ele>282.77</ele>
      </trkpt>
      <trkpt lat="45.39166" lon="-72.4097">
        <ele>283.75</ele>
      </trkpt>
      <trkpt lat="45.39111" lon="-72.41007">
        <ele>286.52</ele>
      </trkpt>
      <trkpt lat="45.3909" lon="-72.41028">
        <ele>286.55</ele>
      </trkpt>
      <trkpt lat="45.39031" lon="-72.410995">
        <ele>285.59</ele>
      </trkpt>
      <trkpt lat="45.38972" lon="-72.41171">
        <ele>284.9</ele>
      </trkpt>
      <trkpt lat="45.38944" lon="-72.41199">
        <ele>284.62</ele>
      </trkpt>
      <trkpt lat="45.38914" lon="-72.41223">
        <ele>285.26</ele>
      </trkpt>
      <trkpt lat="45.38909" lon="-72.41347">
        <ele>290.56</ele>
      </trkpt>
      <trkpt lat="45.38904" lon="-72.41471">
        <ele>290.93</ele>
      </trkpt>
      <trkpt lat="45.38899" lon="-72.41595">
        <ele>287.22</ele>
      </trkpt>
      <trkpt lat="45.38899" lon="-72.41596">
        <ele>287.22</ele>
      </trkpt>
      <trkpt lat="45.38891" lon="-72.4172133">
        <ele>283.83</ele>
      </trkpt>
      <trkpt lat="45.38883" lon="-72.4184667">
        <ele>284.68</ele>
      </trkpt>
      <trkpt lat="45.38875" lon="-72.41972">
        <ele>285.71</ele>
      </trkpt>
      <trkpt lat="45.388665" lon="-72.42093">
        <ele>284.4</ele>
      </trkpt>
      <trkpt lat="45.3885801" lon="-72.42214">
        <ele>278.8</ele>
      </trkpt>
      <trkpt lat="45.3884951" lon="-72.42335">
        <ele>276.93</ele>
      </trkpt>
      <trkpt lat="45.3884101" lon="-72.42456">
        <ele>276.25</ele>
      </trkpt>
      <trkpt lat="45.3883251" lon="-72.42577">
        <ele>275.03</ele>
      </trkpt>
      <trkpt lat="45.3882401" lon="-72.42698">
        <ele>272.24</ele>
      </trkpt>
      <trkpt lat="45.388155" lon="-72.42819">
        <ele>264.41</ele>
      </trkpt>
      <trkpt lat="45.38807" lon="-72.4294">
        <ele>256.98</ele>
      </trkpt>
      <trkpt lat="45.3879933" lon="-72.43034">
        <ele>253.47</ele>
      </trkpt>
      <trkpt lat="45.3879167" lon="-72.43128">
        <ele>251.36</ele>
      </trkpt>
      <trkpt lat="45.38784" lon="-72.43222">
        <ele>250.63</ele>
      </trkpt>
      <trkpt lat="45.38773" lon="-72.43343">
        <ele>250.14</ele>
      </trkpt>
      <trkpt lat="45.38762" lon="-72.43464">
        <ele>249.05</ele>
      </trkpt>
      <trkpt lat="45.38763" lon="-72.43499">
        <ele>249.07</ele>
      </trkpt>
      <trkpt lat="45.38771" lon="-72.43562">
        <ele>250.19</ele>
      </trkpt>
      <trkpt lat="45.38784" lon="-72.43608">
        <ele>252.91</ele>
      </trkpt>
      <trkpt lat="45.38788" lon="-72.43647">
        <ele>257.3</ele>
      </trkpt>
      <trkpt lat="45.38788" lon="-72.43674">
        <ele>259.38</ele>
      </trkpt>
      <trkpt lat="45.38785" lon="-72.43692">
        <ele>260.32</ele>
      </trkpt>
      <trkpt lat="45.38751" lon="-72.43794">
        <ele>258.53</ele>
      </trkpt>
      <trkpt lat="45.38734" lon="-72.43858">
        <ele>258.01</ele>
      </trkpt>
      <trkpt lat="45.38722" lon="-72.4397">
        <ele>251.78</ele>
      </trkpt>
      <trkpt lat="45.3871167" lon="-72.4409067">
        <ele>251.94</ele>
      </trkpt>
      <trkpt lat="45.3870133" lon="-72.4421133">
        <ele>255.74</ele>
      </trkpt>
      <trkpt lat="45.38691" lon="-72.44332">
        <ele>265.5</ele>
      </trkpt>
      <trkpt lat="45.38686" lon="-72.44372">
        <ele>267.7</ele>
      </trkpt>
      <trkpt lat="45.38673" lon="-72.44408">
        <ele>269.52</ele>
      </trkpt>
      <trkpt lat="45.38642" lon="-72.44479">
        <ele>270.69</ele>
      </trkpt>
      <trkpt lat="45.38629" lon="-72.44524">
        <ele>270.01</ele>
      </trkpt>
      <trkpt lat="45.38623" lon="-72.44556">
        <ele>269.21</ele>
      </trkpt>
      <trkpt lat="45.38623" lon="-72.44592">
        <ele>267.18</ele>
      </trkpt>
      <trkpt lat="45.38625" lon="-72.44623">
        <ele>266.25</ele>
      </trkpt>
      <trkpt lat="45.38647" lon="-72.44708">
        <ele>266.21</ele>
      </trkpt>
      <trkpt lat="45.38669" lon="-72.44793">
        <ele>264.97</ele>
      </trkpt>
      <trkpt lat="45.38691" lon="-72.44878">
        <ele>266.74</ele>
      </trkpt>
      <trkpt lat="45.38709" lon="-72.44924">
        <ele>267.34</ele>
      </trkpt>
      <trkpt lat="45.3872" lon="-72.44941">
        <ele>267.34</ele>
      </trkpt>
      <trkpt lat="45.38735" lon="-72.44951">
        <ele>267.47</ele>
      </trkpt>
      <trkpt lat="45.3882" lon="-72.4498875">
        <ele>270.48</ele>
      </trkpt>
      <trkpt lat="45.38905" lon="-72.450265">
        <ele>270.63</ele>
      </trkpt>
      <trkpt lat="45.3899" lon="-72.4506425">
        <ele>268.06</ele>
      </trkpt>
      <trkpt lat="45.39075" lon="-72.45102">
        <ele>259.73</ele>
      </trkpt>
      <trkpt lat="45.39113" lon="-72.4513">
        <ele>257.51</ele>
      </trkpt>
      <trkpt lat="45.39145" lon="-72.45169">
        <ele>259.1</ele>
      </trkpt>
      <trkpt lat="45.39171" lon="-72.45214">
        <ele>261.01</ele>
      </trkpt>
      <trkpt lat="45.39186" lon="-72.45267">
        <ele>262.75</ele>
      </trkpt>
      <trkpt lat="45.3920175" lon="-72.4538925">
        <ele>265.9</ele>
      </trkpt>
      <trkpt lat="45.392175" lon="-72.455115">
        <ele>262.26</ele>
      </trkpt>
      <trkpt lat="45.3923325" lon="-72.4563375">
        <ele>264.42</ele>
      </trkpt>
      <trkpt lat="45.39249" lon="-72.45756">
        <ele>269.76</ele>
      </trkpt>
      <trkpt lat="45.39265" lon="-72.4585">
        <ele>270.68</ele>
      </trkpt>
      <trkpt lat="45.39292" lon="-72.45945">
        <ele>269.62</ele>
      </trkpt>
      <trkpt lat="45.39297" lon="-72.45989">
        <ele>268.67</ele>
      </trkpt>
      <trkpt lat="45.39284" lon="-72.4611">
        <ele>263.56</ele>
      </trkpt>
      <trkpt lat="45.39266" lon="-72.4615">
        <ele>262.43</ele>
      </trkpt>
      <trkpt lat="45.39247" lon="-72.46176">
        <ele>262.16</ele>
      </trkpt>
      <trkpt lat="45.3918033" lon="-72.46242">
        <ele>261.53</ele>
      </trkpt>
      <trkpt lat="45.3911367" lon="-72.46308">
        <ele>265.87</ele>
      </trkpt>
      <trkpt lat="45.39047" lon="-72.46374">
        <ele>269.46</ele>
      </trkpt>
      <trkpt lat="45.39002" lon="-72.46423">
        <ele>274.48</ele>
      </trkpt>
      <trkpt lat="45.38975" lon="-72.46459">
        <ele>277.38</ele>
      </trkpt>
      <trkpt lat="45.38924" lon="-72.46537">
        <ele>280.02</ele>
      </trkpt>
      <trkpt lat="45.38873" lon="-72.46615">
        <ele>280.2</ele>
      </trkpt>
      <trkpt lat="45.38856" lon="-72.46633">
        <ele>280.25</ele>
      </trkpt>
      <trkpt lat="45.38838" lon="-72.46647">
        <ele>280.48</ele>
      </trkpt>
      <trkpt lat="45.38829" lon="-72.4665">
        <ele>280.66</ele>
      </trkpt>
      <trkpt lat="45.3875833" lon="-72.4668867">
        <ele>283.43</ele>
      </trkpt>
      <trkpt lat="45.3868767" lon="-72.4672733">
        <ele>285.49</ele>
      </trkpt>
      <trkpt lat="45.38617" lon="-72.46766">
        <ele>287.01</ele>
      </trkpt>
      <trkpt lat="45.3853367" lon="-72.4681067">
        <ele>288.83</ele>
      </trkpt>
      <trkpt lat="45.3845033" lon="-72.4685533">
        <ele>289.62</ele>
      </trkpt>
      <trkpt lat="45.38367" lon="-72.469">
        <ele>290.53</ele>
      </trkpt>
      <trkpt lat="45.383075" lon="-72.46935">
        <ele>291.08</ele>
      </trkpt>
      <trkpt lat="45.38248" lon="-72.4697">
        <ele>291.81</ele>
      </trkpt>
      <trkpt lat="45.3819" lon="-72.4700267">
        <ele>292.26</ele>
      </trkpt>
      <trkpt lat="45.38132" lon="-72.4703533">
        <ele>292.37</ele>
      </trkpt>
      <trkpt lat="45.38074" lon="-72.47068">
        <ele>292.55</ele>
      </trkpt>
      <trkpt lat="45.38026" lon="-72.47098">
        <ele>292.17</ele>
      </trkpt>
      <trkpt lat="45.379535" lon="-72.4713575">
        <ele>289.64</ele>
      </trkpt>
      <trkpt lat="45.37881" lon="-72.471735">
        <ele>289.11</ele>
      </trkpt>
      <trkpt lat="45.378085" lon="-72.4721125">
        <ele>289.65</ele>
      </trkpt>
      <trkpt lat="45.37736" lon="-72.47249">
        <ele>291.24</ele>
      </trkpt>
      <trkpt lat="45.37692" lon="-72.47268">
        <ele>291.11</ele>
      </trkpt>
      <trkpt lat="45.37648" lon="-72.47287">
        <ele>289.87</ele>
      </trkpt>
      <trkpt lat="45.37593" lon="-72.47314">
        <ele>286.59</ele>
      </trkpt>
      <trkpt lat="45.37573" lon="-72.47327">
        <ele>285.24</ele>
      </trkpt>
      <trkpt lat="45.37553" lon="-72.47345">
        <ele>282.1</ele>
      </trkpt>
      <trkpt lat="45.37536" lon="-72.47372">
        <ele>280.43</ele>
      </trkpt>
      <trkpt lat="45.37532" lon="-72.47386">
        <ele>280.43</ele>
      </trkpt>
      <trkpt lat="45.37529" lon="-72.47408">
        <ele>279.6</ele>
      </trkpt>
      <trkpt lat="45.37536" lon="-72.47523">
        <ele>275.25</ele>
      </trkpt>
      <trkpt lat="45.37543" lon="-72.47638">
        <ele>278.63</ele>
      </trkpt>
      <trkpt lat="45.37543" lon="-72.47637">
        <ele>278.63</ele>
      </trkpt>
      <trkpt lat="45.3754867" lon="-72.4772333">
        <ele>282.09</ele>
      </trkpt>
      <trkpt lat="45.3755433" lon="-72.4780967">
        <ele>283.63</ele>
      </trkpt>
      <trkpt lat="45.3756" lon="-72.47896">
        <ele>283.54</ele>
      </trkpt>
      <trkpt lat="45.37562" lon="-72.47994">
        <ele>282.84</ele>
      </trkpt>
      <trkpt lat="45.37564" lon="-72.48092">
        <ele>279.83</ele>
      </trkpt>
      <trkpt lat="45.37567" lon="-72.48129">
        <ele>277.05</ele>
      </trkpt>
      <trkpt lat="45.37578" lon="-72.48209">
        <ele>269.75</ele>
      </trkpt>
      <trkpt lat="45.37585" lon="-72.48294">
        <ele>266.9</ele>
      </trkpt>
      <trkpt lat="45.375895" lon="-72.483815">
        <ele>266.26</ele>
      </trkpt>
      <trkpt lat="45.37594" lon="-72.48469">
        <ele>265.93</ele>
      </trkpt>
      <trkpt lat="45.37597" lon="-72.48585">
        <ele>263.26</ele>
      </trkpt>
      <trkpt lat="45.37594" lon="-72.48638">
        <ele>261.49</ele>
      </trkpt>
      <trkpt lat="45.37587" lon="-72.48688">
        <ele>259.95</ele>
      </trkpt>
      <trkpt lat="45.37576" lon="-72.48738">
        <ele>258.51</ele>
      </trkpt>
      <trkpt lat="45.37555" lon="-72.4882133">
        <ele>256.65</ele>
      </trkpt>
      <trkpt lat="45.37534" lon="-72.4890467">
        <ele>255.2</ele>
      </trkpt>
      <trkpt lat="45.37513" lon="-72.48988">
        <ele>253.5</ele>
      </trkpt>
      <trkpt lat="45.37488" lon="-72.49063">
        <ele>251.98</ele>
      </trkpt>
      <trkpt lat="45.374645" lon="-72.49122">
        <ele>251.22</ele>
      </trkpt>
      <trkpt lat="45.37441" lon="-72.49181">
        <ele>250.27</ele>
      </trkpt>
      <trkpt lat="45.37415" lon="-72.49231">
        <ele>249.7</ele>
      </trkpt>
      <trkpt lat="45.37378" lon="-72.49285">
        <ele>248.41</ele>
      </trkpt>
      <trkpt lat="45.37323" lon="-72.4935233">
        <ele>246.64</ele>
      </trkpt>
      <trkpt lat="45.37268" lon="-72.4941967">
        <ele>242.68</ele>
      </trkpt>
      <trkpt lat="45.37213" lon="-72.49487">
        <ele>242.92</ele>
      </trkpt>
      <trkpt lat="45.37268" lon="-72.49543">
        <ele>238.88</ele>
      </trkpt>
      <trkpt lat="45.37325" lon="-72.49633">
        <ele>236.18</ele>
      </trkpt>
      <trkpt lat="45.373615" lon="-72.496935">
        <ele>233.7</ele>
      </trkpt>
      <trkpt lat="45.37398" lon="-72.49754">
        <ele>231.38</ele>
      </trkpt>
      <trkpt lat="45.37434" lon="-72.49811">
        <ele>229.82</ele>
      </trkpt>
      <trkpt lat="45.37481" lon="-72.49877">
        <ele>225.37</ele>
      </trkpt>
      <trkpt lat="45.37528" lon="-72.49943">
        <ele>221.53</ele>
      </trkpt>
      <trkpt lat="45.37528" lon="-72.49943">
        <ele>221.53</ele>
      </trkpt>
      <trkpt lat="45.37563" lon="-72.49993">
        <ele>217.98</ele>
      </trkpt>
      <trkpt lat="45.37595" lon="-72.50045">
        <ele>212.25</ele>
      </trkpt>
      <trkpt lat="45.37651" lon="-72.50143">
        <ele>206.2</ele>
      </trkpt>
      <trkpt lat="45.37701" lon="-72.50204">
        <ele>202.46</ele>
      </trkpt>
      <trkpt lat="45.37758" lon="-72.50258">
        <ele>202.27</ele>
      </trkpt>
      <trkpt lat="45.37824" lon="-72.50312">
        <ele>203.79</ele>
      </trkpt>
      <trkpt lat="45.37849" lon="-72.50335">
        <ele>206.96</ele>
      </trkpt>
      <trkpt lat="45.37858" lon="-72.50345">
        <ele>207.67</ele>
      </trkpt>
      <trkpt lat="45.3786" lon="-72.50363">
        <ele>208.19</ele>
      </trkpt>
      <trkpt lat="45.37855" lon="-72.504">
        <ele>209.1</ele>
      </trkpt>
      <trkpt lat="45.37859" lon="-72.50437">
        <ele>209.31</ele>
      </trkpt>
      <trkpt lat="45.37914" lon="-72.50437">
        <ele>209.17</ele>
      </trkpt>
      <trkpt lat="45.37969" lon="-72.50437">
        <ele>209.44</ele>
      </trkpt>
      <trkpt lat="45.37991" lon="-72.50435">
        <ele>209.58</ele>
      </trkpt>
      <trkpt lat="45.38005" lon="-72.5043">
        <ele>209.81</ele>
      </trkpt>
      <trkpt lat="45.38015" lon="-72.50419">
        <ele>209.81</ele>
      </trkpt>
      <trkpt lat="45.38042" lon="-72.50453">
        <ele>210.39</ele>
      </trkpt>
      <trkpt lat="45.38037" lon="-72.50465">
        <ele>210.46</ele>
      </trkpt>
      <trkpt lat="45.38037" lon="-72.50468">
        <ele>210.46</ele>
      </trkpt>
      <trkpt lat="45.38066" lon="-72.50502">
        <ele>208.32</ele>
      </trkpt>
      <trkpt lat="45.38093" lon="-72.50511">
        <ele>206.97</ele>
      </trkpt>
      <trkpt lat="45.381" lon="-72.50515">
        <ele>206.47</ele>
      </trkpt>
      <trkpt lat="45.38145" lon="-72.50488">
        <ele>205.76</ele>
      </trkpt>
      <trkpt lat="45.381885" lon="-72.504565">
        <ele>205.26</ele>
      </trkpt>
      <trkpt lat="45.38232" lon="-72.50425">
        <ele>204.23</ele>
      </trkpt>
      <trkpt lat="45.3828833" lon="-72.5038633">
        <ele>203.02</ele>
      </trkpt>
      <trkpt lat="45.3834467" lon="-72.5034767">
        <ele>201.89</ele>
      </trkpt>
      <trkpt lat="45.38401" lon="-72.50309">
        <ele>201.16</ele>
      </trkpt>
      <trkpt lat="45.38444" lon="-72.50282">
        <ele>200.94</ele>
      </trkpt>
      <trkpt lat="45.38517" lon="-72.50246">
        <ele>199.85</ele>
      </trkpt>
      <trkpt lat="45.3859" lon="-72.5021">
        <ele>197.98</ele>
      </trkpt>
      <trkpt lat="45.3859" lon="-72.5021">
        <ele>197.98</ele>
      </trkpt>
      <trkpt lat="45.38651" lon="-72.5018">
        <ele>197.06</ele>
      </trkpt>
      <trkpt lat="45.387245" lon="-72.50148">
        <ele>196.95</ele>
      </trkpt>
      <trkpt lat="45.38798" lon="-72.50116">
        <ele>197.68</ele>
      </trkpt>
      <trkpt lat="45.38816" lon="-72.50104">
        <ele>198.19</ele>
      </trkpt>
      <trkpt lat="45.38828" lon="-72.50089">
        <ele>197.74</ele>
      </trkpt>
      <trkpt lat="45.3887" lon="-72.5008">
        <ele>197.2</ele>
      </trkpt>
      <trkpt lat="45.38951" lon="-72.5004">
        <ele>197.47</ele>
      </trkpt>
      <trkpt lat="45.39032" lon="-72.5000875">
        <ele>197.32</ele>
      </trkpt>
      <trkpt lat="45.39113" lon="-72.499775">
        <ele>197.48</ele>
      </trkpt>
      <trkpt lat="45.39194" lon="-72.4994625">
        <ele>198.62</ele>
      </trkpt>
      <trkpt lat="45.39275" lon="-72.49915">
        <ele>199.53</ele>
      </trkpt>
      <trkpt lat="45.39316" lon="-72.49903">
        <ele>200.02</ele>
      </trkpt>
      <trkpt lat="45.39339" lon="-72.49898">
        <ele>200.07</ele>
      </trkpt>
      <trkpt lat="45.3937" lon="-72.49898">
        <ele>200.42</ele>
      </trkpt>
      <trkpt lat="45.3941" lon="-72.49906">
        <ele>200.16</ele>
      </trkpt>
      <trkpt lat="45.39426" lon="-72.49911">
        <ele>200.08</ele>
      </trkpt>
      <trkpt lat="45.3946" lon="-72.49928">
        <ele>199.66</ele>
      </trkpt>
      <trkpt lat="45.3949" lon="-72.49951">
        <ele>199.06</ele>
      </trkpt>
      <trkpt lat="45.39531" lon="-72.49996">
        <ele>197.81</ele>
      </trkpt>
      <trkpt lat="45.39544" lon="-72.50014">
        <ele>197.16</ele>
      </trkpt>
      <trkpt lat="45.39568" lon="-72.50058">
        <ele>196.43</ele>
      </trkpt>
      <trkpt lat="45.39596" lon="-72.50129">
        <ele>196.12</ele>
      </trkpt>
      <trkpt lat="45.3961867" lon="-72.5021433">
        <ele>195.33</ele>
      </trkpt>
      <trkpt lat="45.3964133" lon="-72.5029967">
        <ele>194.39</ele>
      </trkpt>
      <trkpt lat="45.39664" lon="-72.50385">
        <ele>193.51</ele>
      </trkpt>
      <trkpt lat="45.39679" lon="-72.50434">
        <ele>193.24</ele>
      </trkpt>
      <trkpt lat="45.39718" lon="-72.50546">
        <ele>192.53</ele>
      </trkpt>
      <trkpt lat="45.39743" lon="-72.50609">
        <ele>192.27</ele>
      </trkpt>
      <trkpt lat="45.39779" lon="-72.50685">
        <ele>191.94</ele>
      </trkpt>
      <trkpt lat="45.3981" lon="-72.50746">
        <ele>191.51</ele>
      </trkpt>
      <trkpt lat="45.3981" lon="-72.50746">
        <ele>191.51</ele>
      </trkpt>
      <trkpt lat="45.39858" lon="-72.50828">
        <ele>190.52</ele>
      </trkpt>
      <trkpt lat="45.3991133" lon="-72.5090867">
        <ele>188.75</ele>
      </trkpt>
      <trkpt lat="45.3996467" lon="-72.5098933">
        <ele>186.57</ele>
      </trkpt>
      <trkpt lat="45.40018" lon="-72.5107">
        <ele>185.29</ele>
      </trkpt>
      <trkpt lat="45.40047" lon="-72.51098">
        <ele>185</ele>
      </trkpt>
      <trkpt lat="45.40053" lon="-72.5111">
        <ele>185.21</ele>
      </trkpt>
      <trkpt lat="45.40054" lon="-72.51124">
        <ele>185.31</ele>
      </trkpt>
      <trkpt lat="45.400125" lon="-72.510975">
        <ele>185.35</ele>
      </trkpt>
      <trkpt lat="45.39971" lon="-72.51071">
        <ele>186.25</ele>
      </trkpt>
      <trkpt lat="45.39971" lon="-72.51071">
        <ele>186.25</ele>
      </trkpt>
      <trkpt lat="45.39891" lon="-72.51021">
        <ele>189.16</ele>
      </trkpt>
      <trkpt lat="45.3989567" lon="-72.5114267">
        <ele>192.91</ele>
      </trkpt>
      <trkpt lat="45.3990033" lon="-72.5126433">
        <ele>197.35</ele>
      </trkpt>
      <trkpt lat="45.39905" lon="-72.51386">
        <ele>194.27</ele>
      </trkpt>
      <trkpt lat="45.3990975" lon="-72.5148275">
        <ele>193.24</ele>
      </trkpt>
      <trkpt lat="45.399145" lon="-72.515795">
        <ele>195.02</ele>
      </trkpt>
      <trkpt lat="45.3991925" lon="-72.5167625">
        <ele>198.88</ele>
      </trkpt>
      <trkpt lat="45.39924" lon="-72.51773">
        <ele>203.7</ele>
      </trkpt>
      <trkpt lat="45.39924" lon="-72.51772">
        <ele>203.7</ele>
      </trkpt>
      <trkpt lat="45.399285" lon="-72.518865">
        <ele>205.59</ele>
      </trkpt>
      <trkpt lat="45.39933" lon="-72.52001">
        <ele>209.14</ele>
      </trkpt>
      <trkpt lat="45.399385" lon="-72.5212362">
        <ele>212.13</ele>
      </trkpt>
      <trkpt lat="45.3994401" lon="-72.5224625">
        <ele>208.98</ele>
      </trkpt>
      <trkpt lat="45.3994951" lon="-72.5236887">
        <ele>204.42</ele>
      </trkpt>
      <trkpt lat="45.3995501" lon="-72.524915">
        <ele>200.31</ele>
      </trkpt>
      <trkpt lat="45.3996051" lon="-72.5261412">
        <ele>199.18</ele>
      </trkpt>
      <trkpt lat="45.3996601" lon="-72.5273675">
        <ele>196.64</ele>
      </trkpt>
      <trkpt lat="45.399715" lon="-72.5285937">
        <ele>190.57</ele>
      </trkpt>
      <trkpt lat="45.39977" lon="-72.52982">
        <ele>187.99</ele>
      </trkpt>
      <trkpt lat="45.3998201" lon="-72.5310394">
        <ele>195.82</ele>
      </trkpt>
      <trkpt lat="45.3998702" lon="-72.5322589">
        <ele>200.57</ele>
      </trkpt>
      <trkpt lat="45.3999203" lon="-72.5334783">
        <ele>204.7</ele>
      </trkpt>
      <trkpt lat="45.3999704" lon="-72.5346977">
        <ele>207.14</ele>
      </trkpt>
      <trkpt lat="45.4000204" lon="-72.5359172">
        <ele>210.41</ele>
      </trkpt>
      <trkpt lat="45.4000705" lon="-72.5371366">
        <ele>212.19</ele>
      </trkpt>
      <trkpt lat="45.4001205" lon="-72.538356">
        <ele>214.42</ele>
      </trkpt>
      <trkpt lat="45.4001705" lon="-72.5395755">
        <ele>217</ele>
      </trkpt>
      <trkpt lat="45.4002205" lon="-72.5407949">
        <ele>217.89</ele>
      </trkpt>
      <trkpt lat="45.4002705" lon="-72.5420144">
        <ele>218.57</ele>
      </trkpt>
      <trkpt lat="45.4003205" lon="-72.5432338">
        <ele>219.33</ele>
      </trkpt>
      <trkpt lat="45.4003705" lon="-72.5444533">
        <ele>219.24</ele>
      </trkpt>
      <trkpt lat="45.4004204" lon="-72.5456727">
        <ele>220.53</ele>
      </trkpt>
      <trkpt lat="45.4004704" lon="-72.5468922">
        <ele>219.8</ele>
      </trkpt>
      <trkpt lat="45.4005203" lon="-72.5481116">
        <ele>220.29</ele>
      </trkpt>
      <trkpt lat="45.4005702" lon="-72.5493311">
        <ele>221.09</ele>
      </trkpt>
      <trkpt lat="45.4006201" lon="-72.5505505">
        <ele>222.06</ele>
      </trkpt>
      <trkpt lat="45.40067" lon="-72.55177">
        <ele>220.97</ele>
      </trkpt>
      <trkpt lat="45.40045" lon="-72.55189">
        <ele>220.92</ele>
      </trkpt>
      <trkpt lat="45.39998" lon="-72.55217">
        <ele>220.5</ele>
      </trkpt>
      <trkpt lat="45.39964" lon="-72.55244">
        <ele>219.5</ele>
      </trkpt>
      <trkpt lat="45.39932" lon="-72.55275">
        <ele>218.3</ele>
      </trkpt>
      <trkpt lat="45.3988067" lon="-72.5533767">
        <ele>216.73</ele>
      </trkpt>
      <trkpt lat="45.3982933" lon="-72.5540033">
        <ele>215.47</ele>
      </trkpt>
      <trkpt lat="45.39778" lon="-72.55463">
        <ele>213.89</ele>
      </trkpt>
      <trkpt lat="45.39778" lon="-72.55463">
        <ele>213.89</ele>
      </trkpt>
      <trkpt lat="45.3971733" lon="-72.5553767">
        <ele>212.9</ele>
      </trkpt>
      <trkpt lat="45.3965667" lon="-72.5561233">
        <ele>211.66</ele>
      </trkpt>
      <trkpt lat="45.39596" lon="-72.55687">
        <ele>211.45</ele>
      </trkpt>
      <trkpt lat="45.39576" lon="-72.55717">
        <ele>211.32</ele>
      </trkpt>
      <trkpt lat="45.39533" lon="-72.55797">
        <ele>209.98</ele>
      </trkpt>
      <trkpt lat="45.39521" lon="-72.55811">
        <ele>209.8</ele>
      </trkpt>
      <trkpt lat="45.39501" lon="-72.55825">
        <ele>210.11</ele>
      </trkpt>
      <trkpt lat="45.39482" lon="-72.55834">
        <ele>210.62</ele>
      </trkpt>
      <trkpt lat="45.3946" lon="-72.55838">
        <ele>210.83</ele>
      </trkpt>
      <trkpt lat="45.39413" lon="-72.55842">
        <ele>210.94</ele>
      </trkpt>
      <trkpt lat="45.39371" lon="-72.55843">
        <ele>210.83</ele>
      </trkpt>
      <trkpt lat="45.3929" lon="-72.55835">
        <ele>211.8</ele>
      </trkpt>
      <trkpt lat="45.39207" lon="-72.55838">
        <ele>214.9</ele>
      </trkpt>
      <trkpt lat="45.39138" lon="-72.55844">
        <ele>216.6</ele>
      </trkpt>
      <trkpt lat="45.39049" lon="-72.55857">
        <ele>217.24</ele>
      </trkpt>
      <trkpt lat="45.3896" lon="-72.5587">
        <ele>216.51</ele>
      </trkpt>
      <trkpt lat="45.38927" lon="-72.5587">
        <ele>216.59</ele>
      </trkpt>
      <trkpt lat="45.3884883" lon="-72.5585433">
        <ele>217.06</ele>
      </trkpt>
      <trkpt lat="45.3877067" lon="-72.5583866">
        <ele>215.18</ele>
      </trkpt>
      <trkpt lat="45.386925" lon="-72.55823">
        <ele>212.73</ele>
      </trkpt>
      <trkpt lat="45.3861433" lon="-72.5580733">
        <ele>209.93</ele>
      </trkpt>
      <trkpt lat="45.3853617" lon="-72.5579167">
        <ele>212.43</ele>
      </trkpt>
      <trkpt lat="45.38458" lon="-72.55776">
        <ele>224.23</ele>
      </trkpt>
      <trkpt lat="45.3837817" lon="-72.5575783">
        <ele>233.94</ele>
      </trkpt>
      <trkpt lat="45.3829833" lon="-72.5573966">
        <ele>240.66</ele>
      </trkpt>
      <trkpt lat="45.382185" lon="-72.557215">
        <ele>244.37</ele>
      </trkpt>
      <trkpt lat="45.3813867" lon="-72.5570333">
        <ele>248.69</ele>
      </trkpt>
      <trkpt lat="45.3805883" lon="-72.5568517">
        <ele>249.76</ele>
      </trkpt>
      <trkpt lat="45.37979" lon="-72.55667">
        <ele>250.58</ele>
      </trkpt>
      <trkpt lat="45.379235" lon="-72.556565">
        <ele>252.25</ele>
      </trkpt>
      <trkpt lat="45.37868" lon="-72.55646">
        <ele>253.63</ele>
      </trkpt>
      <trkpt lat="45.37783" lon="-72.55623">
        <ele>258.08</ele>
      </trkpt>
      <trkpt lat="45.37783" lon="-72.55623">
        <ele>258.08</ele>
      </trkpt>
      <trkpt lat="45.37731" lon="-72.5561">
        <ele>259</ele>
      </trkpt>
      <trkpt lat="45.3764417" lon="-72.5559217">
        <ele>258.33</ele>
      </trkpt>
      <trkpt lat="45.3755733" lon="-72.5557433">
        <ele>256.1</ele>
      </trkpt>
      <trkpt lat="45.374705" lon="-72.555565">
        <ele>254.55</ele>
      </trkpt>
      <trkpt lat="45.3738367" lon="-72.5553866">
        <ele>253.41</ele>
      </trkpt>
      <trkpt lat="45.3729683" lon="-72.5552083">
        <ele>253.54</ele>
      </trkpt>
      <trkpt lat="45.3721" lon="-72.55503">
        <ele>253.96</ele>
      </trkpt>
      <trkpt lat="45.37172" lon="-72.55492">
        <ele>255.17</ele>
      </trkpt>
      <trkpt lat="45.37166" lon="-72.55551">
        <ele>256.16</ele>
      </trkpt>
      <trkpt lat="45.37165" lon="-72.55583">
        <ele>256.39</ele>
      </trkpt>
      <trkpt lat="45.37168" lon="-72.556575">
        <ele>256.46</ele>
      </trkpt>
      <trkpt lat="45.37171" lon="-72.55732">
        <ele>254.99</ele>
      </trkpt>
      <trkpt lat="45.37164" lon="-72.558015">
        <ele>250.38</ele>
      </trkpt>
      <trkpt lat="45.37157" lon="-72.55871">
        <ele>246.47</ele>
      </trkpt>
      <trkpt lat="45.37156" lon="-72.55928">
        <ele>245.47</ele>
      </trkpt>
      <trkpt lat="45.371625" lon="-72.560315">
        <ele>248.52</ele>
      </trkpt>
      <trkpt lat="45.37169" lon="-72.56135">
        <ele>257.12</ele>
      </trkpt>
      <trkpt lat="45.37176" lon="-72.562265">
        <ele>257.36</ele>
      </trkpt>
      <trkpt lat="45.37183" lon="-72.56318">
        <ele>256.76</ele>
      </trkpt>
      <trkpt lat="45.37183" lon="-72.56318">
        <ele>256.76</ele>
      </trkpt>
      <trkpt lat="45.3719" lon="-72.56407">
        <ele>255.87</ele>
      </trkpt>
      <trkpt lat="45.37197" lon="-72.56496">
        <ele>251.84</ele>
      </trkpt>
      <trkpt lat="45.3720333" lon="-72.5658667">
        <ele>250.42</ele>
      </trkpt>
      <trkpt lat="45.3720967" lon="-72.5667733">
        <ele>250.36</ele>
      </trkpt>
      <trkpt lat="45.37216" lon="-72.56768">
        <ele>250.39</ele>
      </trkpt>
      <trkpt lat="45.37224" lon="-72.56823">
        <ele>250.38</ele>
      </trkpt>
      <trkpt lat="45.37237" lon="-72.56872">
        <ele>250.19</ele>
      </trkpt>
      <trkpt lat="45.372765" lon="-72.569815">
        <ele>251.73</ele>
      </trkpt>
      <trkpt lat="45.37316" lon="-72.57091">
        <ele>254.06</ele>
      </trkpt>
      <trkpt lat="45.37333" lon="-72.57087">
        <ele>254.47</ele>
      </trkpt>
      <trkpt lat="45.37381" lon="-72.57084">
        <ele>255.46</ele>
      </trkpt>
      <trkpt lat="45.37432" lon="-72.57083">
        <ele>256.6</ele>
      </trkpt>
      <trkpt lat="45.37503" lon="-72.57092">
        <ele>257.83</ele>
      </trkpt>
      <trkpt lat="45.37577" lon="-72.57103">
        <ele>257.31</ele>
      </trkpt>
      <trkpt lat="45.37651" lon="-72.57114">
        <ele>257.5</ele>
      </trkpt>
      <trkpt lat="45.37736" lon="-72.57128">
        <ele>252.56</ele>
      </trkpt>
      <trkpt lat="45.378174" lon="-72.571432">
        <ele>241.48</ele>
      </trkpt>
      <trkpt lat="45.378988" lon="-72.571584">
        <ele>234.92</ele>
      </trkpt>
      <trkpt lat="45.379802" lon="-72.571736">
        <ele>232.31</ele>
      </trkpt>
      <trkpt lat="45.380616" lon="-72.571888">
        <ele>229.51</ele>
      </trkpt>
      <trkpt lat="45.38143" lon="-72.57204">
        <ele>230.54</ele>
      </trkpt>
      <trkpt lat="45.3820867" lon="-72.5721533">
        <ele>233.85</ele>
      </trkpt>
      <trkpt lat="45.3827433" lon="-72.5722667">
        <ele>240.26</ele>
      </trkpt>
      <trkpt lat="45.3834" lon="-72.57238">
        <ele>244.48</ele>
      </trkpt>
    </trkseg>
  </trk>
</gpx>