<?xml version='1.0' encoding='utf-8'?>
<gpx xmlns="http://www.topografix.com/GPX/1/1" xmlns:xsi="http://www.w3.org/2001/XMLSchema-instance" version="1.1" creator="Gravelle Estrie" xsi:schemaLocation="http://www.topografix.com/GPX/1/1 http://www.topografix.com/GPX/1/1/gpx.xsd">
  <metadata>
    <name>Petit Lumberjack</name>
  </metadata>
  <trk>
    <name>Petit Lumberjack</name>
    <trkseg>
      <trkpt lat="45.22199" lon="-72.53261">
        <ele>200.8</ele>
      </trkpt>
      <trkpt lat="45.22195" lon="-72.53177">
        <ele>202.7</ele>
      </trkpt>
      <trkpt lat="45.22121" lon="-72.53182">
        <ele>202.7</ele>
      </trkpt>
      <trkpt lat="45.22047" lon="-72.53187">
        <ele>203.1</ele>
      </trkpt>
      <trkpt lat="45.21973" lon="-72.53192">
        <ele>203.4</ele>
      </trkpt>
      <trkpt lat="45.21952" lon="-72.53187">
        <ele>203.2</ele>
      </trkpt>
      <trkpt lat="45.21913" lon="-72.5317">
        <ele>203</ele>
      </trkpt>
      <trkpt lat="45.21855" lon="-72.53136">
        <ele>203.2</ele>
      </trkpt>
      <trkpt lat="45.21796" lon="-72.531014">
        <ele>203.3</ele>
      </trkpt>
      <trkpt lat="45.21737" lon="-72.53067">
        <ele>202.3</ele>
      </trkpt>
      <trkpt lat="45.21725" lon="-72.53058">
        <ele>202.3</ele>
      </trkpt>
      <trkpt lat="45.21689" lon="-72.52997">
        <ele>203.2</ele>
      </trkpt>
      <trkpt lat="45.21624" lon="-72.530767">
        <ele>201</ele>
      </trkpt>
      <trkpt lat="45.21559" lon="-72.531565">
        <ele>201.4</ele>
      </trkpt>
      <trkpt lat="45.21494" lon="-72.532362">
        <ele>201.7</ele>
      </trkpt>
      <trkpt lat="45.21429" lon="-72.53316">
        <ele>202.3</ele>
      </trkpt>
      <trkpt lat="45.21428" lon="-72.53316">
        <ele>202.3</ele>
      </trkpt>
      <trkpt lat="45.213925" lon="-72.5336">
        <ele>203.1</ele>
      </trkpt>
      <trkpt lat="45.21357" lon="-72.53404">
        <ele>205.1</ele>
      </trkpt>
      <trkpt lat="45.21349" lon="-72.53408">
        <ele>205.5</ele>
      </trkpt>
      <trkpt lat="45.21345" lon="-72.53408">
        <ele>205.5</ele>
      </trkpt>
      <trkpt lat="45.21333" lon="-72.53403">
        <ele>205.7</ele>
      </trkpt>
      <trkpt lat="45.21271" lon="-72.53389">
        <ele>203.2</ele>
      </trkpt>
      <trkpt lat="45.21196" lon="-72.53354">
        <ele>205.4</ele>
      </trkpt>
      <trkpt lat="45.211755" lon="-72.534745">
        <ele>206</ele>
      </trkpt>
      <trkpt lat="45.21155" lon="-72.53595">
        <ele>207.3</ele>
      </trkpt>
      <trkpt lat="45.210834" lon="-72.535924">
        <ele>208.4</ele>
      </trkpt>
      <trkpt lat="45.21012" lon="-72.5359">
        <ele>212</ele>
      </trkpt>
      <trkpt lat="45.20936" lon="-72.53589">
        <ele>217</ele>
      </trkpt>
      <trkpt lat="45.208617" lon="-72.535879">
        <ele>216.7</ele>
      </trkpt>
      <trkpt lat="45.207875" lon="-72.535869">
        <ele>216.6</ele>
      </trkpt>
      <trkpt lat="45.207132" lon="-72.535859">
        <ele>216.6</ele>
      </trkpt>
      <trkpt lat="45.20639" lon="-72.53585">
        <ele>217.5</ele>
      </trkpt>
      <trkpt lat="45.205735" lon="-72.535829">
        <ele>221.1</ele>
      </trkpt>
      <trkpt lat="45.20508" lon="-72.53581">
        <ele>228.2</ele>
      </trkpt>
      <trkpt lat="45.204239" lon="-72.53584">
        <ele>241.3</ele>
      </trkpt>
      <trkpt lat="45.2034" lon="-72.53587">
        <ele>250.7</ele>
      </trkpt>
      <trkpt lat="45.20279" lon="-72.53577">
        <ele>260.1</ele>
      </trkpt>
      <trkpt lat="45.20271" lon="-72.53577">
        <ele>261</ele>
      </trkpt>
      <trkpt lat="45.20211" lon="-72.53592">
        <ele>264.1</ele>
      </trkpt>
      <trkpt lat="45.20183" lon="-72.53595">
        <ele>265.1</ele>
      </trkpt>
      <trkpt lat="45.20141" lon="-72.53582">
        <ele>265.7</ele>
      </trkpt>
      <trkpt lat="45.20109" lon="-72.53578">
        <ele>265.3</ele>
      </trkpt>
      <trkpt lat="45.20045" lon="-72.53579">
        <ele>258.1</ele>
      </trkpt>
      <trkpt lat="45.19981" lon="-72.5358">
        <ele>249.9</ele>
      </trkpt>
      <trkpt lat="45.1998" lon="-72.5358">
        <ele>249.9</ele>
      </trkpt>
      <trkpt lat="45.199339" lon="-72.53581">
        <ele>249.2</ele>
      </trkpt>
      <trkpt lat="45.19888" lon="-72.53582">
        <ele>251</ele>
      </trkpt>
      <trkpt lat="45.1987" lon="-72.53586">
        <ele>252.3</ele>
      </trkpt>
      <trkpt lat="45.19846" lon="-72.53601">
        <ele>255.7</ele>
      </trkpt>
      <trkpt lat="45.19834" lon="-72.53618">
        <ele>257.2</ele>
      </trkpt>
      <trkpt lat="45.198" lon="-72.53676">
        <ele>259.5</ele>
      </trkpt>
      <trkpt lat="45.19782" lon="-72.53695">
        <ele>259.9</ele>
      </trkpt>
      <trkpt lat="45.19762" lon="-72.53708">
        <ele>260.8</ele>
      </trkpt>
      <trkpt lat="45.19743" lon="-72.53712">
        <ele>262.3</ele>
      </trkpt>
      <trkpt lat="45.19722" lon="-72.53712">
        <ele>264</ele>
      </trkpt>
      <trkpt lat="45.19711" lon="-72.53712">
        <ele>265</ele>
      </trkpt>
      <trkpt lat="45.19682" lon="-72.53698">
        <ele>270.6</ele>
      </trkpt>
      <trkpt lat="45.19661" lon="-72.53684">
        <ele>271.7</ele>
      </trkpt>
      <trkpt lat="45.19613" lon="-72.53636">
        <ele>277.7</ele>
      </trkpt>
      <trkpt lat="45.19586" lon="-72.53613">
        <ele>280.8</ele>
      </trkpt>
      <trkpt lat="45.19574" lon="-72.53612">
        <ele>282.6</ele>
      </trkpt>
      <trkpt lat="45.194985" lon="-72.536104">
        <ele>288.4</ele>
      </trkpt>
      <trkpt lat="45.19423" lon="-72.53609">
        <ele>289.7</ele>
      </trkpt>
      <trkpt lat="45.19374" lon="-72.53606">
        <ele>291.6</ele>
      </trkpt>
      <trkpt lat="45.19391" lon="-72.53567">
        <ele>293.5</ele>
      </trkpt>
      <trkpt lat="45.19391" lon="-72.53568">
        <ele>293.5</ele>
      </trkpt>
      <trkpt lat="45.19374" lon="-72.53606">
        <ele>291.6</ele>
      </trkpt>
      <trkpt lat="45.19325" lon="-72.53703">
        <ele>289.2</ele>
      </trkpt>
      <trkpt lat="45.192685" lon="-72.53783">
        <ele>289.1</ele>
      </trkpt>
      <trkpt lat="45.19212" lon="-72.53863">
        <ele>288.1</ele>
      </trkpt>
      <trkpt lat="45.191576" lon="-72.539543">
        <ele>284</ele>
      </trkpt>
      <trkpt lat="45.191033" lon="-72.540456">
        <ele>280.8</ele>
      </trkpt>
      <trkpt lat="45.19049" lon="-72.54137">
        <ele>274.9</ele>
      </trkpt>
      <trkpt lat="45.19038" lon="-72.54173">
        <ele>271.7</ele>
      </trkpt>
      <trkpt lat="45.190215" lon="-72.542645">
        <ele>264.6</ele>
      </trkpt>
      <trkpt lat="45.19005" lon="-72.54356">
        <ele>260.3</ele>
      </trkpt>
      <trkpt lat="45.18986" lon="-72.54423">
        <ele>257.6</ele>
      </trkpt>
      <trkpt lat="45.189535" lon="-72.54499">
        <ele>254.8</ele>
      </trkpt>
      <trkpt lat="45.18921" lon="-72.54575">
        <ele>250.6</ele>
      </trkpt>
      <trkpt lat="45.18867" lon="-72.54665">
        <ele>240.9</ele>
      </trkpt>
      <trkpt lat="45.18867" lon="-72.54666">
        <ele>240.9</ele>
      </trkpt>
      <trkpt lat="45.188265" lon="-72.54734">
        <ele>233.5</ele>
      </trkpt>
      <trkpt lat="45.18786" lon="-72.54802">
        <ele>230.5</ele>
      </trkpt>
      <trkpt lat="45.18786" lon="-72.549043">
        <ele>230.5</ele>
      </trkpt>
      <trkpt lat="45.18786" lon="-72.550066">
        <ele>230</ele>
      </trkpt>
      <trkpt lat="45.18786" lon="-72.55109">
        <ele>227.7</ele>
      </trkpt>
      <trkpt lat="45.18784" lon="-72.55234">
        <ele>226.4</ele>
      </trkpt>
      <trkpt lat="45.187773" lon="-72.553373">
        <ele>226.4</ele>
      </trkpt>
      <trkpt lat="45.187706" lon="-72.554406">
        <ele>222.7</ele>
      </trkpt>
      <trkpt lat="45.18764" lon="-72.55544">
        <ele>217</ele>
      </trkpt>
      <trkpt lat="45.18758" lon="-72.5561">
        <ele>215.9</ele>
      </trkpt>
      <trkpt lat="45.18756" lon="-72.55655">
        <ele>215.1</ele>
      </trkpt>
      <trkpt lat="45.18757" lon="-72.55718">
        <ele>212.5</ele>
      </trkpt>
      <trkpt lat="45.18759" lon="-72.55749">
        <ele>211.9</ele>
      </trkpt>
      <trkpt lat="45.18773" lon="-72.5582">
        <ele>210.2</ele>
      </trkpt>
      <trkpt lat="45.18801" lon="-72.55908">
        <ele>209.7</ele>
      </trkpt>
      <trkpt lat="45.188395" lon="-72.560229">
        <ele>208.9</ele>
      </trkpt>
      <trkpt lat="45.18878" lon="-72.56138">
        <ele>208.7</ele>
      </trkpt>
      <trkpt lat="45.18844" lon="-72.5616">
        <ele>207.8</ele>
      </trkpt>
      <trkpt lat="45.18793" lon="-72.56177">
        <ele>207.2</ele>
      </trkpt>
      <trkpt lat="45.18719" lon="-72.562007">
        <ele>206.3</ele>
      </trkpt>
      <trkpt lat="45.18645" lon="-72.562245">
        <ele>205.9</ele>
      </trkpt>
      <trkpt lat="45.18571" lon="-72.562482">
        <ele>205.5</ele>
      </trkpt>
      <trkpt lat="45.18497" lon="-72.56272">
        <ele>205.2</ele>
      </trkpt>
      <trkpt lat="45.184313" lon="-72.562903">
        <ele>206.7</ele>
      </trkpt>
      <trkpt lat="45.183656" lon="-72.563086">
        <ele>211</ele>
      </trkpt>
      <trkpt lat="45.183" lon="-72.56327">
        <ele>215.5</ele>
      </trkpt>
      <trkpt lat="45.18299" lon="-72.56327">
        <ele>215.5</ele>
      </trkpt>
      <trkpt lat="45.18236" lon="-72.563426">
        <ele>214.7</ele>
      </trkpt>
      <trkpt lat="45.18173" lon="-72.563583">
        <ele>211</ele>
      </trkpt>
      <trkpt lat="45.1811" lon="-72.56374">
        <ele>210</ele>
      </trkpt>
      <trkpt lat="45.18063" lon="-72.56388">
        <ele>209.6</ele>
      </trkpt>
      <trkpt lat="45.17994" lon="-72.56399">
        <ele>209.5</ele>
      </trkpt>
      <trkpt lat="45.179156" lon="-72.56403">
        <ele>208.1</ele>
      </trkpt>
      <trkpt lat="45.178373" lon="-72.56407">
        <ele>207</ele>
      </trkpt>
      <trkpt lat="45.17759" lon="-72.56411">
        <ele>207.2</ele>
      </trkpt>
      <trkpt lat="45.17728" lon="-72.56407">
        <ele>205.7</ele>
      </trkpt>
      <trkpt lat="45.17659" lon="-72.56394">
        <ele>201.6</ele>
      </trkpt>
      <trkpt lat="45.17618" lon="-72.56384">
        <ele>201.7</ele>
      </trkpt>
      <trkpt lat="45.17547" lon="-72.56354">
        <ele>204.9</ele>
      </trkpt>
      <trkpt lat="45.17534" lon="-72.56351">
        <ele>206.1</ele>
      </trkpt>
      <trkpt lat="45.17496" lon="-72.56349">
        <ele>210.3</ele>
      </trkpt>
      <trkpt lat="45.17475" lon="-72.56353">
        <ele>211.9</ele>
      </trkpt>
      <trkpt lat="45.174085" lon="-72.56383">
        <ele>212.6</ele>
      </trkpt>
      <trkpt lat="45.17342" lon="-72.56413">
        <ele>213.4</ele>
      </trkpt>
      <trkpt lat="45.172755" lon="-72.56443">
        <ele>213.8</ele>
      </trkpt>
      <trkpt lat="45.17209" lon="-72.56473">
        <ele>214.1</ele>
      </trkpt>
      <trkpt lat="45.17152" lon="-72.56505">
        <ele>214.6</ele>
      </trkpt>
      <trkpt lat="45.17132" lon="-72.56519">
        <ele>214.4</ele>
      </trkpt>
      <trkpt lat="45.17098" lon="-72.56554">
        <ele>211.7</ele>
      </trkpt>
      <trkpt lat="45.1706" lon="-72.56578">
        <ele>206.4</ele>
      </trkpt>
      <trkpt lat="45.16991" lon="-72.56608">
        <ele>204</ele>
      </trkpt>
      <trkpt lat="45.169266" lon="-72.566273">
        <ele>205.3</ele>
      </trkpt>
      <trkpt lat="45.168623" lon="-72.566466">
        <ele>208.8</ele>
      </trkpt>
      <trkpt lat="45.16798" lon="-72.56666">
        <ele>213</ele>
      </trkpt>
      <trkpt lat="45.167519" lon="-72.56682">
        <ele>217</ele>
      </trkpt>
      <trkpt lat="45.16706" lon="-72.56698">
        <ele>221.4</ele>
      </trkpt>
      <trkpt lat="45.16671" lon="-72.5672">
        <ele>223.6</ele>
      </trkpt>
      <trkpt lat="45.16619" lon="-72.5676">
        <ele>226.6</ele>
      </trkpt>
      <trkpt lat="45.165585" lon="-72.567915">
        <ele>228.6</ele>
      </trkpt>
      <trkpt lat="45.16498" lon="-72.56823">
        <ele>229.4</ele>
      </trkpt>
      <trkpt lat="45.164327" lon="-72.56861">
        <ele>230.9</ele>
      </trkpt>
      <trkpt lat="45.163675" lon="-72.56899">
        <ele>231.9</ele>
      </trkpt>
      <trkpt lat="45.163022" lon="-72.56937">
        <ele>232.6</ele>
      </trkpt>
      <trkpt lat="45.16237" lon="-72.56975">
        <ele>232.3</ele>
      </trkpt>
      <trkpt lat="45.1619" lon="-72.57">
        <ele>232.4</ele>
      </trkpt>
      <trkpt lat="45.16143" lon="-72.57025">
        <ele>233.4</ele>
      </trkpt>
      <trkpt lat="45.16114" lon="-72.57043">
        <ele>234.6</ele>
      </trkpt>
      <trkpt lat="45.1608" lon="-72.57056">
        <ele>235.6</ele>
      </trkpt>
      <trkpt lat="45.16079" lon="-72.57056">
        <ele>235.7</ele>
      </trkpt>
      <trkpt lat="45.16001" lon="-72.57083">
        <ele>235.6</ele>
      </trkpt>
      <trkpt lat="45.1596" lon="-72.57085">
        <ele>235.2</ele>
      </trkpt>
      <trkpt lat="45.158839" lon="-72.570822">
        <ele>233.7</ele>
      </trkpt>
      <trkpt lat="45.158079" lon="-72.570794">
        <ele>232.6</ele>
      </trkpt>
      <trkpt lat="45.157319" lon="-72.570767">
        <ele>237.3</ele>
      </trkpt>
      <trkpt lat="45.15656" lon="-72.57074">
        <ele>242.5</ele>
      </trkpt>
      <trkpt lat="45.155824" lon="-72.570727">
        <ele>243.7</ele>
      </trkpt>
      <trkpt lat="45.155089" lon="-72.570714">
        <ele>246.1</ele>
      </trkpt>
      <trkpt lat="45.154354" lon="-72.570702">
        <ele>248.1</ele>
      </trkpt>
      <trkpt lat="45.15362" lon="-72.57069">
        <ele>250.3</ele>
      </trkpt>
      <trkpt lat="45.153165" lon="-72.570649">
        <ele>250.3</ele>
      </trkpt>
      <trkpt lat="45.15271" lon="-72.57061">
        <ele>251.1</ele>
      </trkpt>
      <trkpt lat="45.15204" lon="-72.570589">
        <ele>254.8</ele>
      </trkpt>
      <trkpt lat="45.15137" lon="-72.57057">
        <ele>257.3</ele>
      </trkpt>
      <trkpt lat="45.15103" lon="-72.5706">
        <ele>257.7</ele>
      </trkpt>
      <trkpt lat="45.15077" lon="-72.57065">
        <ele>256.9</ele>
      </trkpt>
      <trkpt lat="45.15064" lon="-72.57073">
        <ele>256.9</ele>
      </trkpt>
      <trkpt lat="45.15053" lon="-72.57083">
        <ele>255.9</ele>
      </trkpt>
      <trkpt lat="45.15035" lon="-72.57115">
        <ele>255</ele>
      </trkpt>
      <trkpt lat="45.149927" lon="-72.571985">
        <ele>253.8</ele>
      </trkpt>
      <trkpt lat="45.149505" lon="-72.57282">
        <ele>251.5</ele>
      </trkpt>
      <trkpt lat="45.149082" lon="-72.573655">
        <ele>248.6</ele>
      </trkpt>
      <trkpt lat="45.14866" lon="-72.57449">
        <ele>245.2</ele>
      </trkpt>
      <trkpt lat="45.14838" lon="-72.575055">
        <ele>243.6</ele>
      </trkpt>
      <trkpt lat="45.1481" lon="-72.57562">
        <ele>241.7</ele>
      </trkpt>
      <trkpt lat="45.1481" lon="-72.57563">
        <ele>241.6</ele>
      </trkpt>
      <trkpt lat="45.147595" lon="-72.57666">
        <ele>238</ele>
      </trkpt>
      <trkpt lat="45.14709" lon="-72.57769">
        <ele>235.6</ele>
      </trkpt>
      <trkpt lat="45.1469" lon="-72.57804">
        <ele>235.8</ele>
      </trkpt>
      <trkpt lat="45.14681" lon="-72.57808">
        <ele>235.6</ele>
      </trkpt>
      <trkpt lat="45.14606" lon="-72.57807">
        <ele>236.3</ele>
      </trkpt>
      <trkpt lat="45.145182" lon="-72.57809">
        <ele>234.1</ele>
      </trkpt>
      <trkpt lat="45.144304" lon="-72.57811">
        <ele>233.1</ele>
      </trkpt>
      <trkpt lat="45.143426" lon="-72.57813">
        <ele>232.6</ele>
      </trkpt>
      <trkpt lat="45.142548" lon="-72.57815">
        <ele>233.5</ele>
      </trkpt>
      <trkpt lat="45.14167" lon="-72.57817">
        <ele>239.2</ele>
      </trkpt>
      <trkpt lat="45.141184" lon="-72.578154">
        <ele>240.9</ele>
      </trkpt>
      <trkpt lat="45.1407" lon="-72.57814">
        <ele>241.5</ele>
      </trkpt>
      <trkpt lat="45.140083" lon="-72.578176">
        <ele>241.3</ele>
      </trkpt>
      <trkpt lat="45.139466" lon="-72.578213">
        <ele>239.5</ele>
      </trkpt>
      <trkpt lat="45.13885" lon="-72.57825">
        <ele>237.6</ele>
      </trkpt>
      <trkpt lat="45.1384" lon="-72.57831">
        <ele>233</ele>
      </trkpt>
      <trkpt lat="45.13752" lon="-72.57826">
        <ele>226.1</ele>
      </trkpt>
      <trkpt lat="45.1373" lon="-72.57816">
        <ele>225.7</ele>
      </trkpt>
      <trkpt lat="45.13696" lon="-72.5779">
        <ele>226.2</ele>
      </trkpt>
      <trkpt lat="45.1368" lon="-72.57777">
        <ele>227.3</ele>
      </trkpt>
      <trkpt lat="45.13673" lon="-72.57768">
        <ele>227.7</ele>
      </trkpt>
      <trkpt lat="45.13658" lon="-72.57732">
        <ele>230.9</ele>
      </trkpt>
      <trkpt lat="45.13631" lon="-72.57701">
        <ele>236.7</ele>
      </trkpt>
      <trkpt lat="45.13608" lon="-72.57683">
        <ele>241.2</ele>
      </trkpt>
      <trkpt lat="45.1358" lon="-72.57666">
        <ele>244</ele>
      </trkpt>
      <trkpt lat="45.1355" lon="-72.57657">
        <ele>247.9</ele>
      </trkpt>
      <trkpt lat="45.13464" lon="-72.5766">
        <ele>254.6</ele>
      </trkpt>
      <trkpt lat="45.13447" lon="-72.57661">
        <ele>255.7</ele>
      </trkpt>
      <trkpt lat="45.13435" lon="-72.57669">
        <ele>256.6</ele>
      </trkpt>
      <trkpt lat="45.1342" lon="-72.57683">
        <ele>257.1</ele>
      </trkpt>
      <trkpt lat="45.13361" lon="-72.57758">
        <ele>259.6</ele>
      </trkpt>
      <trkpt lat="45.13339" lon="-72.5779">
        <ele>260</ele>
      </trkpt>
      <trkpt lat="45.13332" lon="-72.57796">
        <ele>260.3</ele>
      </trkpt>
      <trkpt lat="45.13294" lon="-72.57809">
        <ele>261.6</ele>
      </trkpt>
      <trkpt lat="45.1327" lon="-72.57816">
        <ele>263.4</ele>
      </trkpt>
      <trkpt lat="45.132194" lon="-72.578185">
        <ele>268.6</ele>
      </trkpt>
      <trkpt lat="45.13169" lon="-72.57821">
        <ele>272</ele>
      </trkpt>
      <trkpt lat="45.13156" lon="-72.57822">
        <ele>272.8</ele>
      </trkpt>
      <trkpt lat="45.13128" lon="-72.57836">
        <ele>273.8</ele>
      </trkpt>
      <trkpt lat="45.13118" lon="-72.57844">
        <ele>273.9</ele>
      </trkpt>
      <trkpt lat="45.1309" lon="-72.57877">
        <ele>273.6</ele>
      </trkpt>
      <trkpt lat="45.13089" lon="-72.57878">
        <ele>273.6</ele>
      </trkpt>
      <trkpt lat="45.1304" lon="-72.579395">
        <ele>273.4</ele>
      </trkpt>
      <trkpt lat="45.12991" lon="-72.58001">
        <ele>276.2</ele>
      </trkpt>
      <trkpt lat="45.129525" lon="-72.580655">
        <ele>276.7</ele>
      </trkpt>
      <trkpt lat="45.12914" lon="-72.5813">
        <ele>275.1</ele>
      </trkpt>
      <trkpt lat="45.12865" lon="-72.58204">
        <ele>276.2</ele>
      </trkpt>
      <trkpt lat="45.12816" lon="-72.58278">
        <ele>275.5</ele>
      </trkpt>
      <trkpt lat="45.1278" lon="-72.583255">
        <ele>277.2</ele>
      </trkpt>
      <trkpt lat="45.12744" lon="-72.58373">
        <ele>276.7</ele>
      </trkpt>
      <trkpt lat="45.127035" lon="-72.584335">
        <ele>276.1</ele>
      </trkpt>
      <trkpt lat="45.12663" lon="-72.58494">
        <ele>275.5</ele>
      </trkpt>
      <trkpt lat="45.1263" lon="-72.5856">
        <ele>273.8</ele>
      </trkpt>
      <trkpt lat="45.12613" lon="-72.58627">
        <ele>271.1</ele>
      </trkpt>
      <trkpt lat="45.1259" lon="-72.586905">
        <ele>270.3</ele>
      </trkpt>
      <trkpt lat="45.12567" lon="-72.58754">
        <ele>270.9</ele>
      </trkpt>
      <trkpt lat="45.12549" lon="-72.58794">
        <ele>271.5</ele>
      </trkpt>
      <trkpt lat="45.12495" lon="-72.58868">
        <ele>268.8</ele>
      </trkpt>
      <trkpt lat="45.12441" lon="-72.58942">
        <ele>268.3</ele>
      </trkpt>
      <trkpt lat="45.12421" lon="-72.58976">
        <ele>268.8</ele>
      </trkpt>
      <trkpt lat="45.12415" lon="-72.5899">
        <ele>269</ele>
      </trkpt>
      <trkpt lat="45.123825" lon="-72.590435">
        <ele>266.4</ele>
      </trkpt>
      <trkpt lat="45.1235" lon="-72.59097">
        <ele>264.8</ele>
      </trkpt>
      <trkpt lat="45.12302" lon="-72.59169">
        <ele>264.6</ele>
      </trkpt>
      <trkpt lat="45.12272" lon="-72.59218">
        <ele>263.9</ele>
      </trkpt>
      <trkpt lat="45.12238" lon="-72.59263">
        <ele>263.2</ele>
      </trkpt>
      <trkpt lat="45.121805" lon="-72.59355">
        <ele>262.6</ele>
      </trkpt>
      <trkpt lat="45.12123" lon="-72.59447">
        <ele>259.1</ele>
      </trkpt>
      <trkpt lat="45.12091" lon="-72.59513">
        <ele>256.7</ele>
      </trkpt>
      <trkpt lat="45.1207" lon="-72.59559">
        <ele>254.1</ele>
      </trkpt>
      <trkpt lat="45.12043" lon="-72.5964">
        <ele>249.2</ele>
      </trkpt>
      <trkpt lat="45.120076" lon="-72.597326">
        <ele>244.7</ele>
      </trkpt>
      <trkpt lat="45.119723" lon="-72.598253">
        <ele>240.3</ele>
      </trkpt>
      <trkpt lat="45.11937" lon="-72.59918">
        <ele>237.6</ele>
      </trkpt>
      <trkpt lat="45.11913" lon="-72.59971">
        <ele>236.3</ele>
      </trkpt>
      <trkpt lat="45.11875" lon="-72.60034">
        <ele>235.1</ele>
      </trkpt>
      <trkpt lat="45.11837" lon="-72.60097">
        <ele>234.3</ele>
      </trkpt>
      <trkpt lat="45.11802" lon="-72.60145">
        <ele>233.2</ele>
      </trkpt>
      <trkpt lat="45.11732" lon="-72.60224">
        <ele>232.6</ele>
      </trkpt>
      <trkpt lat="45.11691" lon="-72.60267">
        <ele>232.9</ele>
      </trkpt>
      <trkpt lat="45.1163" lon="-72.60321">
        <ele>230.3</ele>
      </trkpt>
      <trkpt lat="45.11556" lon="-72.603695">
        <ele>225.8</ele>
      </trkpt>
      <trkpt lat="45.11482" lon="-72.60418">
        <ele>223.5</ele>
      </trkpt>
      <trkpt lat="45.11462" lon="-72.60434">
        <ele>221.3</ele>
      </trkpt>
      <trkpt lat="45.11443" lon="-72.60455">
        <ele>217.8</ele>
      </trkpt>
      <trkpt lat="45.11418" lon="-72.60494">
        <ele>215</ele>
      </trkpt>
      <trkpt lat="45.11393" lon="-72.60543">
        <ele>213.5</ele>
      </trkpt>
      <trkpt lat="45.11351" lon="-72.60634">
        <ele>214.7</ele>
      </trkpt>
      <trkpt lat="45.11333" lon="-72.60669">
        <ele>215.7</ele>
      </trkpt>
      <trkpt lat="45.11295" lon="-72.60724">
        <ele>216</ele>
      </trkpt>
      <trkpt lat="45.11253" lon="-72.60791">
        <ele>212.7</ele>
      </trkpt>
      <trkpt lat="45.112153" lon="-72.60864">
        <ele>205.4</ele>
      </trkpt>
      <trkpt lat="45.111776" lon="-72.60937">
        <ele>196.1</ele>
      </trkpt>
      <trkpt lat="45.1114" lon="-72.6101">
        <ele>191.9</ele>
      </trkpt>
      <trkpt lat="45.111855" lon="-72.610055">
        <ele>191.5</ele>
      </trkpt>
      <trkpt lat="45.11231" lon="-72.61001">
        <ele>191.2</ele>
      </trkpt>
      <trkpt lat="45.1132" lon="-72.60987">
        <ele>189.1</ele>
      </trkpt>
      <trkpt lat="45.11368" lon="-72.60974">
        <ele>189</ele>
      </trkpt>
      <trkpt lat="45.1144" lon="-72.60964">
        <ele>188.8</ele>
      </trkpt>
      <trkpt lat="45.11525" lon="-72.60946">
        <ele>184</ele>
      </trkpt>
      <trkpt lat="45.1144" lon="-72.60964">
        <ele>188.8</ele>
      </trkpt>
      <trkpt lat="45.11368" lon="-72.60974">
        <ele>189</ele>
      </trkpt>
      <trkpt lat="45.1132" lon="-72.60987">
        <ele>189.1</ele>
      </trkpt>
      <trkpt lat="45.11231" lon="-72.61001">
        <ele>191.2</ele>
      </trkpt>
      <trkpt lat="45.111855" lon="-72.610055">
        <ele>191.5</ele>
      </trkpt>
      <trkpt lat="45.1114" lon="-72.6101">
        <ele>191.8</ele>
      </trkpt>
      <trkpt lat="45.110937" lon="-72.61105">
        <ele>186.4</ele>
      </trkpt>
      <trkpt lat="45.110475" lon="-72.612">
        <ele>180.6</ele>
      </trkpt>
      <trkpt lat="45.110012" lon="-72.61295">
        <ele>180</ele>
      </trkpt>
      <trkpt lat="45.10955" lon="-72.6139">
        <ele>180.4</ele>
      </trkpt>
      <trkpt lat="45.10935" lon="-72.6143">
        <ele>180.3</ele>
      </trkpt>
      <trkpt lat="45.10905" lon="-72.61503">
        <ele>179.7</ele>
      </trkpt>
      <trkpt lat="45.10905" lon="-72.61504">
        <ele>179.7</ele>
      </trkpt>
      <trkpt lat="45.108745" lon="-72.615755">
        <ele>179.8</ele>
      </trkpt>
      <trkpt lat="45.10844" lon="-72.61647">
        <ele>179.5</ele>
      </trkpt>
      <trkpt lat="45.107625" lon="-72.615974">
        <ele>180.6</ele>
      </trkpt>
      <trkpt lat="45.10681" lon="-72.61548">
        <ele>181.5</ele>
      </trkpt>
      <trkpt lat="45.10639" lon="-72.61525">
        <ele>181.2</ele>
      </trkpt>
      <trkpt lat="45.10622" lon="-72.61516">
        <ele>180.9</ele>
      </trkpt>
      <trkpt lat="45.10592" lon="-72.61507">
        <ele>180</ele>
      </trkpt>
      <trkpt lat="45.10554" lon="-72.61507">
        <ele>179.2</ele>
      </trkpt>
      <trkpt lat="45.10531" lon="-72.6151">
        <ele>179</ele>
      </trkpt>
      <trkpt lat="45.10517" lon="-72.61516">
        <ele>178.6</ele>
      </trkpt>
      <trkpt lat="45.10485" lon="-72.61538">
        <ele>177.7</ele>
      </trkpt>
      <trkpt lat="45.1047" lon="-72.61556">
        <ele>177.5</ele>
      </trkpt>
      <trkpt lat="45.10435" lon="-72.616055">
        <ele>176.5</ele>
      </trkpt>
      <trkpt lat="45.104" lon="-72.61655">
        <ele>175.3</ele>
      </trkpt>
      <trkpt lat="45.103505" lon="-72.617297">
        <ele>173.7</ele>
      </trkpt>
      <trkpt lat="45.10301" lon="-72.618045">
        <ele>172.7</ele>
      </trkpt>
      <trkpt lat="45.102515" lon="-72.618792">
        <ele>171.3</ele>
      </trkpt>
      <trkpt lat="45.10202" lon="-72.61954">
        <ele>170.3</ele>
      </trkpt>
      <trkpt lat="45.10168" lon="-72.61995">
        <ele>169.2</ele>
      </trkpt>
      <trkpt lat="45.10148" lon="-72.62017">
        <ele>169</ele>
      </trkpt>
      <trkpt lat="45.101025" lon="-72.62057">
        <ele>168.3</ele>
      </trkpt>
      <trkpt lat="45.10057" lon="-72.62097">
        <ele>167.8</ele>
      </trkpt>
      <trkpt lat="45.099917" lon="-72.621505">
        <ele>167.3</ele>
      </trkpt>
      <trkpt lat="45.099265" lon="-72.62204">
        <ele>166.4</ele>
      </trkpt>
      <trkpt lat="45.098612" lon="-72.622575">
        <ele>166.7</ele>
      </trkpt>
      <trkpt lat="45.09796" lon="-72.62311">
        <ele>167.5</ele>
      </trkpt>
      <trkpt lat="45.097335" lon="-72.623545">
        <ele>166.4</ele>
      </trkpt>
      <trkpt lat="45.09671" lon="-72.62398">
        <ele>165</ele>
      </trkpt>
      <trkpt lat="45.09632" lon="-72.62423">
        <ele>164.3</ele>
      </trkpt>
      <trkpt lat="45.095726" lon="-72.624606">
        <ele>163.3</ele>
      </trkpt>
      <trkpt lat="45.095133" lon="-72.624983">
        <ele>162.9</ele>
      </trkpt>
      <trkpt lat="45.09454" lon="-72.62536">
        <ele>162.5</ele>
      </trkpt>
      <trkpt lat="45.09405" lon="-72.62559">
        <ele>162.1</ele>
      </trkpt>
      <trkpt lat="45.09373" lon="-72.62568">
        <ele>161.9</ele>
      </trkpt>
      <trkpt lat="45.09291" lon="-72.62584">
        <ele>162.1</ele>
      </trkpt>
      <trkpt lat="45.09209" lon="-72.626">
        <ele>162.6</ele>
      </trkpt>
      <trkpt lat="45.091405" lon="-72.626155">
        <ele>162.5</ele>
      </trkpt>
      <trkpt lat="45.09072" lon="-72.62631">
        <ele>162.6</ele>
      </trkpt>
      <trkpt lat="45.09065" lon="-72.62666">
        <ele>161.7</ele>
      </trkpt>
      <trkpt lat="45.09056" lon="-72.62732">
        <ele>160.9</ele>
      </trkpt>
      <trkpt lat="45.09047" lon="-72.62798">
        <ele>161.6</ele>
      </trkpt>
      <trkpt lat="45.090375" lon="-72.628615">
        <ele>162.7</ele>
      </trkpt>
      <trkpt lat="45.09028" lon="-72.62925">
        <ele>163.9</ele>
      </trkpt>
      <trkpt lat="45.09007" lon="-72.63046">
        <ele>168</ele>
      </trkpt>
      <trkpt lat="45.089935" lon="-72.63134">
        <ele>169.3</ele>
      </trkpt>
      <trkpt lat="45.0898" lon="-72.63222">
        <ele>169.5</ele>
      </trkpt>
      <trkpt lat="45.089715" lon="-72.632915">
        <ele>170</ele>
      </trkpt>
      <trkpt lat="45.08963" lon="-72.63361">
        <ele>171.1</ele>
      </trkpt>
      <trkpt lat="45.089555" lon="-72.634345">
        <ele>173.7</ele>
      </trkpt>
      <trkpt lat="45.08948" lon="-72.63508">
        <ele>177</ele>
      </trkpt>
      <trkpt lat="45.089415" lon="-72.636085">
        <ele>180.1</ele>
      </trkpt>
      <trkpt lat="45.08935" lon="-72.63709">
        <ele>181.8</ele>
      </trkpt>
      <trkpt lat="45.089335" lon="-72.63803">
        <ele>181.9</ele>
      </trkpt>
      <trkpt lat="45.08932" lon="-72.63897">
        <ele>179.9</ele>
      </trkpt>
      <trkpt lat="45.08927" lon="-72.64023">
        <ele>181.5</ele>
      </trkpt>
      <trkpt lat="45.08927" lon="-72.641502">
        <ele>184.3</ele>
      </trkpt>
      <trkpt lat="45.08927" lon="-72.642774">
        <ele>192.1</ele>
      </trkpt>
      <trkpt lat="45.08927" lon="-72.644047">
        <ele>199.5</ele>
      </trkpt>
      <trkpt lat="45.08927" lon="-72.64532">
        <ele>208.8</ele>
      </trkpt>
      <trkpt lat="45.0893" lon="-72.64568">
        <ele>210.2</ele>
      </trkpt>
      <trkpt lat="45.08942" lon="-72.64635">
        <ele>211.3</ele>
      </trkpt>
      <trkpt lat="45.08946" lon="-72.64649">
        <ele>211.2</ele>
      </trkpt>
      <trkpt lat="45.089705" lon="-72.647294">
        <ele>206.9</ele>
      </trkpt>
      <trkpt lat="45.08995" lon="-72.6481">
        <ele>200.1</ele>
      </trkpt>
      <trkpt lat="45.09011" lon="-72.64874">
        <ele>200</ele>
      </trkpt>
      <trkpt lat="45.09014" lon="-72.64939">
        <ele>202.8</ele>
      </trkpt>
      <trkpt lat="45.09014" lon="-72.65003">
        <ele>204.8</ele>
      </trkpt>
      <trkpt lat="45.09014" lon="-72.651115">
        <ele>200.1</ele>
      </trkpt>
      <trkpt lat="45.09014" lon="-72.6522">
        <ele>190.1</ele>
      </trkpt>
      <trkpt lat="45.09014" lon="-72.653285">
        <ele>178.1</ele>
      </trkpt>
      <trkpt lat="45.09014" lon="-72.65437">
        <ele>168.3</ele>
      </trkpt>
      <trkpt lat="45.09007" lon="-72.655">
        <ele>160.3</ele>
      </trkpt>
      <trkpt lat="45.08992" lon="-72.655785">
        <ele>156.5</ele>
      </trkpt>
      <trkpt lat="45.08977" lon="-72.65657">
        <ele>158.7</ele>
      </trkpt>
      <trkpt lat="45.08969" lon="-72.65716">
        <ele>160.5</ele>
      </trkpt>
      <trkpt lat="45.08958" lon="-72.6576">
        <ele>161.6</ele>
      </trkpt>
      <trkpt lat="45.09015" lon="-72.65778">
        <ele>157.8</ele>
      </trkpt>
      <trkpt lat="45.090945" lon="-72.658094">
        <ele>156.6</ele>
      </trkpt>
      <trkpt lat="45.09174" lon="-72.658409">
        <ele>159.6</ele>
      </trkpt>
      <trkpt lat="45.092535" lon="-72.658724">
        <ele>162</ele>
      </trkpt>
      <trkpt lat="45.09333" lon="-72.65904">
        <ele>165.8</ele>
      </trkpt>
      <trkpt lat="45.0939" lon="-72.65925">
        <ele>167.5</ele>
      </trkpt>
      <trkpt lat="45.09476" lon="-72.65952">
        <ele>171.9</ele>
      </trkpt>
      <trkpt lat="45.09561" lon="-72.659679">
        <ele>178</ele>
      </trkpt>
      <trkpt lat="45.09646" lon="-72.65984">
        <ele>183.2</ele>
      </trkpt>
      <trkpt lat="45.0972" lon="-72.66006">
        <ele>183.1</ele>
      </trkpt>
      <trkpt lat="45.09776" lon="-72.66019">
        <ele>184</ele>
      </trkpt>
      <trkpt lat="45.098545" lon="-72.660302">
        <ele>185.9</ele>
      </trkpt>
      <trkpt lat="45.09933" lon="-72.660414">
        <ele>188.9</ele>
      </trkpt>
      <trkpt lat="45.100115" lon="-72.660527">
        <ele>189.8</ele>
      </trkpt>
      <trkpt lat="45.1009" lon="-72.66064">
        <ele>189.3</ele>
      </trkpt>
      <trkpt lat="45.10132" lon="-72.66073">
        <ele>186.8</ele>
      </trkpt>
      <trkpt lat="45.10172" lon="-72.66091">
        <ele>185.1</ele>
      </trkpt>
      <trkpt lat="45.102275" lon="-72.661269">
        <ele>183.3</ele>
      </trkpt>
      <trkpt lat="45.10283" lon="-72.66163">
        <ele>181.4</ele>
      </trkpt>
      <trkpt lat="45.10334" lon="-72.662">
        <ele>180.7</ele>
      </trkpt>
      <trkpt lat="45.103875" lon="-72.662394">
        <ele>181.1</ele>
      </trkpt>
      <trkpt lat="45.10441" lon="-72.66279">
        <ele>179.9</ele>
      </trkpt>
      <trkpt lat="45.10518" lon="-72.66341">
        <ele>178.6</ele>
      </trkpt>
      <trkpt lat="45.10561" lon="-72.66368">
        <ele>176.9</ele>
      </trkpt>
      <trkpt lat="45.10603" lon="-72.66381">
        <ele>176.5</ele>
      </trkpt>
      <trkpt lat="45.10634" lon="-72.66382">
        <ele>176.6</ele>
      </trkpt>
      <trkpt lat="45.10699" lon="-72.66377">
        <ele>177.8</ele>
      </trkpt>
      <trkpt lat="45.1071" lon="-72.66377">
        <ele>177.9</ele>
      </trkpt>
      <trkpt lat="45.10732" lon="-72.66391">
        <ele>177.8</ele>
      </trkpt>
      <trkpt lat="45.10787" lon="-72.664386">
        <ele>179.3</ele>
      </trkpt>
      <trkpt lat="45.10842" lon="-72.664863">
        <ele>180.8</ele>
      </trkpt>
      <trkpt lat="45.10897" lon="-72.66534">
        <ele>181.1</ele>
      </trkpt>
      <trkpt lat="45.109525" lon="-72.665874">
        <ele>180.9</ele>
      </trkpt>
      <trkpt lat="45.11008" lon="-72.66641">
        <ele>180.5</ele>
      </trkpt>
      <trkpt lat="45.110765" lon="-72.667104">
        <ele>178.8</ele>
      </trkpt>
      <trkpt lat="45.11145" lon="-72.6678">
        <ele>179.9</ele>
      </trkpt>
      <trkpt lat="45.11168" lon="-72.66797">
        <ele>181.5</ele>
      </trkpt>
      <trkpt lat="45.11236" lon="-72.668534">
        <ele>182.6</ele>
      </trkpt>
      <trkpt lat="45.11304" lon="-72.669099">
        <ele>185.4</ele>
      </trkpt>
      <trkpt lat="45.11372" lon="-72.669664">
        <ele>189.1</ele>
      </trkpt>
      <trkpt lat="45.1144" lon="-72.67023">
        <ele>188</ele>
      </trkpt>
      <trkpt lat="45.1146" lon="-72.67031">
        <ele>189</ele>
      </trkpt>
      <trkpt lat="45.11481" lon="-72.67035">
        <ele>191</ele>
      </trkpt>
      <trkpt lat="45.11514" lon="-72.67035">
        <ele>193.5</ele>
      </trkpt>
      <trkpt lat="45.11527" lon="-72.67032">
        <ele>197.7</ele>
      </trkpt>
      <trkpt lat="45.11539" lon="-72.6703">
        <ele>197.7</ele>
      </trkpt>
      <trkpt lat="45.11565" lon="-72.67018">
        <ele>201.7</ele>
      </trkpt>
      <trkpt lat="45.11591" lon="-72.67">
        <ele>203.2</ele>
      </trkpt>
      <trkpt lat="45.11644" lon="-72.66951">
        <ele>211.1</ele>
      </trkpt>
      <trkpt lat="45.11697" lon="-72.66902">
        <ele>217.1</ele>
      </trkpt>
      <trkpt lat="45.117395" lon="-72.66861">
        <ele>221</ele>
      </trkpt>
      <trkpt lat="45.11782" lon="-72.6682">
        <ele>224</ele>
      </trkpt>
      <trkpt lat="45.11823" lon="-72.66785">
        <ele>226.6</ele>
      </trkpt>
      <trkpt lat="45.11864" lon="-72.6675">
        <ele>228.8</ele>
      </trkpt>
      <trkpt lat="45.11901" lon="-72.66726">
        <ele>229.4</ele>
      </trkpt>
      <trkpt lat="45.11936" lon="-72.66694">
        <ele>228.5</ele>
      </trkpt>
      <trkpt lat="45.11941" lon="-72.66753">
        <ele>231.4</ele>
      </trkpt>
      <trkpt lat="45.1194" lon="-72.66806">
        <ele>237.1</ele>
      </trkpt>
      <trkpt lat="45.11926" lon="-72.66928">
        <ele>239.9</ele>
      </trkpt>
      <trkpt lat="45.11926" lon="-72.66941">
        <ele>239.3</ele>
      </trkpt>
      <trkpt lat="45.1193" lon="-72.66968">
        <ele>238.1</ele>
      </trkpt>
      <trkpt lat="45.11939" lon="-72.67">
        <ele>236.8</ele>
      </trkpt>
      <trkpt lat="45.11948" lon="-72.67022">
        <ele>234</ele>
      </trkpt>
      <trkpt lat="45.11992" lon="-72.67103">
        <ele>229.1</ele>
      </trkpt>
      <trkpt lat="45.120235" lon="-72.671659">
        <ele>226.8</ele>
      </trkpt>
      <trkpt lat="45.12055" lon="-72.67229">
        <ele>225.4</ele>
      </trkpt>
      <trkpt lat="45.12072" lon="-72.67259">
        <ele>224.3</ele>
      </trkpt>
      <trkpt lat="45.1212" lon="-72.67327">
        <ele>220.3</ele>
      </trkpt>
      <trkpt lat="45.12148" lon="-72.67371">
        <ele>215.8</ele>
      </trkpt>
      <trkpt lat="45.1217" lon="-72.67411">
        <ele>212.5</ele>
      </trkpt>
      <trkpt lat="45.122275" lon="-72.674739">
        <ele>209.6</ele>
      </trkpt>
      <trkpt lat="45.12285" lon="-72.67537">
        <ele>208.5</ele>
      </trkpt>
      <trkpt lat="45.123405" lon="-72.675919">
        <ele>209.2</ele>
      </trkpt>
      <trkpt lat="45.12396" lon="-72.67647">
        <ele>208.1</ele>
      </trkpt>
      <trkpt lat="45.12451" lon="-72.67706">
        <ele>204.1</ele>
      </trkpt>
      <trkpt lat="45.12518" lon="-72.67783">
        <ele>197.5</ele>
      </trkpt>
      <trkpt lat="45.12581" lon="-72.678504">
        <ele>196.4</ele>
      </trkpt>
      <trkpt lat="45.12644" lon="-72.67918">
        <ele>198.1</ele>
      </trkpt>
      <trkpt lat="45.12689" lon="-72.67994">
        <ele>201.8</ele>
      </trkpt>
      <trkpt lat="45.127423" lon="-72.680953">
        <ele>206.7</ele>
      </trkpt>
      <trkpt lat="45.127956" lon="-72.681966">
        <ele>211.8</ele>
      </trkpt>
      <trkpt lat="45.12849" lon="-72.68298">
        <ele>220</ele>
      </trkpt>
      <trkpt lat="45.12859" lon="-72.68327">
        <ele>221</ele>
      </trkpt>
      <trkpt lat="45.12859" lon="-72.68328">
        <ele>221</ele>
      </trkpt>
      <trkpt lat="45.12866" lon="-72.68353">
        <ele>220.8</ele>
      </trkpt>
      <trkpt lat="45.12866" lon="-72.68405">
        <ele>218.2</ele>
      </trkpt>
      <trkpt lat="45.12873" lon="-72.68509">
        <ele>213</ele>
      </trkpt>
      <trkpt lat="45.128855" lon="-72.686274">
        <ele>211.7</ele>
      </trkpt>
      <trkpt lat="45.12898" lon="-72.68746">
        <ele>209.7</ele>
      </trkpt>
      <trkpt lat="45.12913" lon="-72.68822">
        <ele>209.5</ele>
      </trkpt>
      <trkpt lat="45.1292" lon="-72.6884">
        <ele>209.6</ele>
      </trkpt>
      <trkpt lat="45.12935" lon="-72.68867">
        <ele>210.2</ele>
      </trkpt>
      <trkpt lat="45.12981" lon="-72.68929">
        <ele>213.3</ele>
      </trkpt>
      <trkpt lat="45.12994" lon="-72.68939">
        <ele>214.6</ele>
      </trkpt>
      <trkpt lat="45.13016" lon="-72.68952">
        <ele>216.8</ele>
      </trkpt>
      <trkpt lat="45.13048" lon="-72.68961">
        <ele>219.8</ele>
      </trkpt>
      <trkpt lat="45.131255" lon="-72.689629">
        <ele>227.5</ele>
      </trkpt>
      <trkpt lat="45.13203" lon="-72.68965">
        <ele>230.5</ele>
      </trkpt>
      <trkpt lat="45.132605" lon="-72.68954">
        <ele>227.8</ele>
      </trkpt>
      <trkpt lat="45.13318" lon="-72.68943">
        <ele>226.4</ele>
      </trkpt>
      <trkpt lat="45.13377" lon="-72.68938">
        <ele>223.6</ele>
      </trkpt>
      <trkpt lat="45.13392" lon="-72.68938">
        <ele>222.7</ele>
      </trkpt>
      <trkpt lat="45.13406" lon="-72.68943">
        <ele>221.7</ele>
      </trkpt>
      <trkpt lat="45.13444" lon="-72.6897">
        <ele>218.8</ele>
      </trkpt>
      <trkpt lat="45.134975" lon="-72.690169">
        <ele>216.4</ele>
      </trkpt>
      <trkpt lat="45.13551" lon="-72.69064">
        <ele>215.6</ele>
      </trkpt>
      <trkpt lat="45.136165" lon="-72.691064">
        <ele>209.5</ele>
      </trkpt>
      <trkpt lat="45.13682" lon="-72.69149">
        <ele>202</ele>
      </trkpt>
      <trkpt lat="45.13744" lon="-72.69189">
        <ele>194.9</ele>
      </trkpt>
      <trkpt lat="45.13765" lon="-72.69199">
        <ele>193.3</ele>
      </trkpt>
      <trkpt lat="45.13794" lon="-72.69208">
        <ele>192.6</ele>
      </trkpt>
      <trkpt lat="45.13815" lon="-72.69211">
        <ele>193.6</ele>
      </trkpt>
      <trkpt lat="45.13886" lon="-72.69204">
        <ele>200.6</ele>
      </trkpt>
      <trkpt lat="45.13921" lon="-72.69139">
        <ele>204.7</ele>
      </trkpt>
      <trkpt lat="45.13945" lon="-72.69081">
        <ele>209</ele>
      </trkpt>
      <trkpt lat="45.13969" lon="-72.69023">
        <ele>212.5</ele>
      </trkpt>
      <trkpt lat="45.13999" lon="-72.68934">
        <ele>218</ele>
      </trkpt>
      <trkpt lat="45.140235" lon="-72.688665">
        <ele>221.4</ele>
      </trkpt>
      <trkpt lat="45.14048" lon="-72.68799">
        <ele>225.3</ele>
      </trkpt>
      <trkpt lat="45.14064" lon="-72.68764">
        <ele>226.6</ele>
      </trkpt>
      <trkpt lat="45.14078" lon="-72.68741">
        <ele>227.4</ele>
      </trkpt>
      <trkpt lat="45.14137" lon="-72.68661">
        <ele>229.1</ele>
      </trkpt>
      <trkpt lat="45.14163" lon="-72.68621">
        <ele>232</ele>
      </trkpt>
      <trkpt lat="45.14163" lon="-72.68622">
        <ele>232</ele>
      </trkpt>
      <trkpt lat="45.14182" lon="-72.68593">
        <ele>233.8</ele>
      </trkpt>
      <trkpt lat="45.14215" lon="-72.68553">
        <ele>235.9</ele>
      </trkpt>
      <trkpt lat="45.142775" lon="-72.6849">
        <ele>237.6</ele>
      </trkpt>
      <trkpt lat="45.1434" lon="-72.68427">
        <ele>236.6</ele>
      </trkpt>
      <trkpt lat="45.14383" lon="-72.68393">
        <ele>237.2</ele>
      </trkpt>
      <trkpt lat="45.14426" lon="-72.68359">
        <ele>238.3</ele>
      </trkpt>
      <trkpt lat="45.14447" lon="-72.684399">
        <ele>235.3</ele>
      </trkpt>
      <trkpt lat="45.14468" lon="-72.685209">
        <ele>233.4</ele>
      </trkpt>
      <trkpt lat="45.14489" lon="-72.68602">
        <ele>231.3</ele>
      </trkpt>
      <trkpt lat="45.1449" lon="-72.68602">
        <ele>231.3</ele>
      </trkpt>
      <trkpt lat="45.14497" lon="-72.68629">
        <ele>229.8</ele>
      </trkpt>
      <trkpt lat="45.1452" lon="-72.687029">
        <ele>225.9</ele>
      </trkpt>
      <trkpt lat="45.14543" lon="-72.68777">
        <ele>224.3</ele>
      </trkpt>
      <trkpt lat="45.145737" lon="-72.688709">
        <ele>222.8</ele>
      </trkpt>
      <trkpt lat="45.146045" lon="-72.689649">
        <ele>221.2</ele>
      </trkpt>
      <trkpt lat="45.146352" lon="-72.690589">
        <ele>217.1</ele>
      </trkpt>
      <trkpt lat="45.14666" lon="-72.69153">
        <ele>211.6</ele>
      </trkpt>
      <trkpt lat="45.147467" lon="-72.691477">
        <ele>201.7</ele>
      </trkpt>
      <trkpt lat="45.148274" lon="-72.691424">
        <ele>193.7</ele>
      </trkpt>
      <trkpt lat="45.149081" lon="-72.691371">
        <ele>190</ele>
      </trkpt>
      <trkpt lat="45.149888" lon="-72.691318">
        <ele>189.8</ele>
      </trkpt>
      <trkpt lat="45.150695" lon="-72.691265">
        <ele>194.3</ele>
      </trkpt>
      <trkpt lat="45.151502" lon="-72.691212">
        <ele>197.6</ele>
      </trkpt>
      <trkpt lat="45.15231" lon="-72.69116">
        <ele>196.7</ele>
      </trkpt>
      <trkpt lat="45.1523" lon="-72.69116">
        <ele>196.7</ele>
      </trkpt>
      <trkpt lat="45.15313" lon="-72.691107">
        <ele>193.8</ele>
      </trkpt>
      <trkpt lat="45.15396" lon="-72.691055">
        <ele>191.8</ele>
      </trkpt>
      <trkpt lat="45.15479" lon="-72.691002">
        <ele>191.1</ele>
      </trkpt>
      <trkpt lat="45.15562" lon="-72.69095">
        <ele>190.9</ele>
      </trkpt>
      <trkpt lat="45.15645" lon="-72.690897">
        <ele>190.1</ele>
      </trkpt>
      <trkpt lat="45.15728" lon="-72.690845">
        <ele>190.3</ele>
      </trkpt>
      <trkpt lat="45.15811" lon="-72.690792">
        <ele>193.4</ele>
      </trkpt>
      <trkpt lat="45.15894" lon="-72.69074">
        <ele>198.7</ele>
      </trkpt>
      <trkpt lat="45.15977" lon="-72.690687">
        <ele>203.1</ele>
      </trkpt>
      <trkpt lat="45.1606" lon="-72.690635">
        <ele>207.2</ele>
      </trkpt>
      <trkpt lat="45.16143" lon="-72.690582">
        <ele>213.2</ele>
      </trkpt>
      <trkpt lat="45.16226" lon="-72.69053">
        <ele>216</ele>
      </trkpt>
      <trkpt lat="45.163125" lon="-72.69045">
        <ele>215.9</ele>
      </trkpt>
      <trkpt lat="45.16399" lon="-72.69037">
        <ele>213.6</ele>
      </trkpt>
      <trkpt lat="45.16439" lon="-72.69029">
        <ele>212.4</ele>
      </trkpt>
      <trkpt lat="45.16521" lon="-72.69023">
        <ele>207.7</ele>
      </trkpt>
      <trkpt lat="45.16603" lon="-72.69017">
        <ele>205.8</ele>
      </trkpt>
      <trkpt lat="45.16685" lon="-72.69011">
        <ele>200.6</ele>
      </trkpt>
      <trkpt lat="45.16767" lon="-72.69005">
        <ele>195.5</ele>
      </trkpt>
      <trkpt lat="45.168414" lon="-72.690015">
        <ele>187.4</ele>
      </trkpt>
      <trkpt lat="45.169159" lon="-72.68998">
        <ele>180.9</ele>
      </trkpt>
      <trkpt lat="45.169904" lon="-72.689945">
        <ele>175.6</ele>
      </trkpt>
      <trkpt lat="45.17065" lon="-72.68991">
        <ele>172.7</ele>
      </trkpt>
      <trkpt lat="45.171393" lon="-72.68986">
        <ele>167.1</ele>
      </trkpt>
      <trkpt lat="45.172136" lon="-72.68981">
        <ele>162</ele>
      </trkpt>
      <trkpt lat="45.17288" lon="-72.68976">
        <ele>154.9</ele>
      </trkpt>
      <trkpt lat="45.17287" lon="-72.68976">
        <ele>155</ele>
      </trkpt>
      <trkpt lat="45.17363" lon="-72.6897">
        <ele>147.1</ele>
      </trkpt>
      <trkpt lat="45.17426" lon="-72.689615">
        <ele>144.2</ele>
      </trkpt>
      <trkpt lat="45.17489" lon="-72.68953">
        <ele>143.9</ele>
      </trkpt>
      <trkpt lat="45.17484" lon="-72.68929">
        <ele>143.5</ele>
      </trkpt>
      <trkpt lat="45.17476" lon="-72.688189">
        <ele>141.5</ele>
      </trkpt>
      <trkpt lat="45.17468" lon="-72.68709">
        <ele>140.2</ele>
      </trkpt>
      <trkpt lat="45.174575" lon="-72.685974">
        <ele>138.4</ele>
      </trkpt>
      <trkpt lat="45.17447" lon="-72.68486">
        <ele>137.3</ele>
      </trkpt>
      <trkpt lat="45.17441" lon="-72.683779">
        <ele>136.9</ele>
      </trkpt>
      <trkpt lat="45.17435" lon="-72.6827">
        <ele>136</ele>
      </trkpt>
      <trkpt lat="45.17427" lon="-72.681969">
        <ele>134.1</ele>
      </trkpt>
      <trkpt lat="45.17419" lon="-72.68124">
        <ele>133.3</ele>
      </trkpt>
      <trkpt lat="45.17403" lon="-72.6802">
        <ele>133</ele>
      </trkpt>
      <trkpt lat="45.17397" lon="-72.67959">
        <ele>133.7</ele>
      </trkpt>
      <trkpt lat="45.17394" lon="-72.67923">
        <ele>134.9</ele>
      </trkpt>
      <trkpt lat="45.17389" lon="-72.678183">
        <ele>140.7</ele>
      </trkpt>
      <trkpt lat="45.17384" lon="-72.677136">
        <ele>137.8</ele>
      </trkpt>
      <trkpt lat="45.17379" lon="-72.67609">
        <ele>135.1</ele>
      </trkpt>
      <trkpt lat="45.17371" lon="-72.67541">
        <ele>135.9</ele>
      </trkpt>
      <trkpt lat="45.173641" lon="-72.674351">
        <ele>138.8</ele>
      </trkpt>
      <trkpt lat="45.173573" lon="-72.673293">
        <ele>140.3</ele>
      </trkpt>
      <trkpt lat="45.173505" lon="-72.672234">
        <ele>140.6</ele>
      </trkpt>
      <trkpt lat="45.173436" lon="-72.671176">
        <ele>142.9</ele>
      </trkpt>
      <trkpt lat="45.173368" lon="-72.670118">
        <ele>146.2</ele>
      </trkpt>
      <trkpt lat="45.1733" lon="-72.66906">
        <ele>148.3</ele>
      </trkpt>
      <trkpt lat="45.17328" lon="-72.668074">
        <ele>148.7</ele>
      </trkpt>
      <trkpt lat="45.17326" lon="-72.66709">
        <ele>148.9</ele>
      </trkpt>
      <trkpt lat="45.17329" lon="-72.66683">
        <ele>148.4</ele>
      </trkpt>
      <trkpt lat="45.17335" lon="-72.66665">
        <ele>147.6</ele>
      </trkpt>
      <trkpt lat="45.173802" lon="-72.665897">
        <ele>144.2</ele>
      </trkpt>
      <trkpt lat="45.174255" lon="-72.665145">
        <ele>140.5</ele>
      </trkpt>
      <trkpt lat="45.174707" lon="-72.664392">
        <ele>136.6</ele>
      </trkpt>
      <trkpt lat="45.17516" lon="-72.66364">
        <ele>130.3</ele>
      </trkpt>
      <trkpt lat="45.17571" lon="-72.66278">
        <ele>127.2</ele>
      </trkpt>
      <trkpt lat="45.17605" lon="-72.66212">
        <ele>128</ele>
      </trkpt>
      <trkpt lat="45.17661" lon="-72.662239">
        <ele>127</ele>
      </trkpt>
      <trkpt lat="45.17717" lon="-72.66236">
        <ele>127.5</ele>
      </trkpt>
      <trkpt lat="45.177619" lon="-72.662439">
        <ele>127.6</ele>
      </trkpt>
      <trkpt lat="45.17807" lon="-72.66252">
        <ele>127.6</ele>
      </trkpt>
      <trkpt lat="45.17849" lon="-72.66198">
        <ele>125.5</ele>
      </trkpt>
      <trkpt lat="45.17894" lon="-72.66132">
        <ele>127.8</ele>
      </trkpt>
      <trkpt lat="45.17905" lon="-72.66113">
        <ele>130.5</ele>
      </trkpt>
      <trkpt lat="45.17921" lon="-72.66055">
        <ele>132.8</ele>
      </trkpt>
      <trkpt lat="45.17925" lon="-72.66023">
        <ele>133.1</ele>
      </trkpt>
      <trkpt lat="45.17927" lon="-72.65979">
        <ele>133.2</ele>
      </trkpt>
      <trkpt lat="45.17927" lon="-72.65988">
        <ele>133.2</ele>
      </trkpt>
      <trkpt lat="45.179267" lon="-72.658817">
        <ele>133.5</ele>
      </trkpt>
      <trkpt lat="45.179265" lon="-72.657754">
        <ele>134.7</ele>
      </trkpt>
      <trkpt lat="45.179262" lon="-72.656692">
        <ele>138.5</ele>
      </trkpt>
      <trkpt lat="45.17926" lon="-72.65563">
        <ele>143.5</ele>
      </trkpt>
      <trkpt lat="45.17929" lon="-72.655">
        <ele>146</ele>
      </trkpt>
      <trkpt lat="45.17934" lon="-72.65464">
        <ele>146.3</ele>
      </trkpt>
      <trkpt lat="45.17956" lon="-72.653686">
        <ele>144.7</ele>
      </trkpt>
      <trkpt lat="45.17978" lon="-72.652733">
        <ele>142.4</ele>
      </trkpt>
      <trkpt lat="45.18" lon="-72.65178">
        <ele>141.7</ele>
      </trkpt>
      <trkpt lat="45.180615" lon="-72.651755">
        <ele>137.1</ele>
      </trkpt>
      <trkpt lat="45.18123" lon="-72.65173">
        <ele>135.2</ele>
      </trkpt>
      <trkpt lat="45.181755" lon="-72.65169">
        <ele>137.3</ele>
      </trkpt>
      <trkpt lat="45.18228" lon="-72.65165">
        <ele>141.9</ele>
      </trkpt>
      <trkpt lat="45.182744" lon="-72.651645">
        <ele>146.5</ele>
      </trkpt>
      <trkpt lat="45.18321" lon="-72.65164">
        <ele>152.1</ele>
      </trkpt>
      <trkpt lat="45.1835" lon="-72.6516">
        <ele>155.6</ele>
      </trkpt>
      <trkpt lat="45.18387" lon="-72.65164">
        <ele>159.6</ele>
      </trkpt>
      <trkpt lat="45.18399" lon="-72.65168">
        <ele>160</ele>
      </trkpt>
      <trkpt lat="45.18406" lon="-72.65168">
        <ele>160.4</ele>
      </trkpt>
      <trkpt lat="45.1844" lon="-72.65178">
        <ele>161.9</ele>
      </trkpt>
      <trkpt lat="45.18463" lon="-72.65174">
        <ele>162.5</ele>
      </trkpt>
      <trkpt lat="45.18473" lon="-72.65169">
        <ele>162.7</ele>
      </trkpt>
      <trkpt lat="45.18505" lon="-72.6516">
        <ele>163.9</ele>
      </trkpt>
      <trkpt lat="45.18546" lon="-72.65155">
        <ele>165.9</ele>
      </trkpt>
      <trkpt lat="45.18631" lon="-72.651506">
        <ele>165.3</ele>
      </trkpt>
      <trkpt lat="45.18716" lon="-72.651463">
        <ele>158.9</ele>
      </trkpt>
      <trkpt lat="45.18801" lon="-72.65142">
        <ele>153</ele>
      </trkpt>
      <trkpt lat="45.188" lon="-72.65142">
        <ele>153</ele>
      </trkpt>
      <trkpt lat="45.188858" lon="-72.651368">
        <ele>152.1</ele>
      </trkpt>
      <trkpt lat="45.189717" lon="-72.651317">
        <ele>152.9</ele>
      </trkpt>
      <trkpt lat="45.190575" lon="-72.651265">
        <ele>154.9</ele>
      </trkpt>
      <trkpt lat="45.191434" lon="-72.651214">
        <ele>159.6</ele>
      </trkpt>
      <trkpt lat="45.192292" lon="-72.651162">
        <ele>163.8</ele>
      </trkpt>
      <trkpt lat="45.193151" lon="-72.651111">
        <ele>165.3</ele>
      </trkpt>
      <trkpt lat="45.19401" lon="-72.65106">
        <ele>166.5</ele>
      </trkpt>
      <trkpt lat="45.194773" lon="-72.651021">
        <ele>166.2</ele>
      </trkpt>
      <trkpt lat="45.195536" lon="-72.650983">
        <ele>167.5</ele>
      </trkpt>
      <trkpt lat="45.1963" lon="-72.650945">
        <ele>169.1</ele>
      </trkpt>
      <trkpt lat="45.197063" lon="-72.650906">
        <ele>171.3</ele>
      </trkpt>
      <trkpt lat="45.197826" lon="-72.650868">
        <ele>172.2</ele>
      </trkpt>
      <trkpt lat="45.19859" lon="-72.65083">
        <ele>173</ele>
      </trkpt>
      <trkpt lat="45.19924" lon="-72.650773">
        <ele>174.5</ele>
      </trkpt>
      <trkpt lat="45.19989" lon="-72.650716">
        <ele>177.8</ele>
      </trkpt>
      <trkpt lat="45.20054" lon="-72.65066">
        <ele>182.7</ele>
      </trkpt>
      <trkpt lat="45.201373" lon="-72.650643">
        <ele>183.6</ele>
      </trkpt>
      <trkpt lat="45.202206" lon="-72.650626">
        <ele>185.3</ele>
      </trkpt>
      <trkpt lat="45.20304" lon="-72.65061">
        <ele>188.6</ele>
      </trkpt>
      <trkpt lat="45.203817" lon="-72.65056">
        <ele>186.6</ele>
      </trkpt>
      <trkpt lat="45.204594" lon="-72.65051">
        <ele>185.2</ele>
      </trkpt>
      <trkpt lat="45.205372" lon="-72.65046">
        <ele>183</ele>
      </trkpt>
      <trkpt lat="45.20615" lon="-72.65041">
        <ele>183.2</ele>
      </trkpt>
      <trkpt lat="45.20614" lon="-72.65041">
        <ele>183.2</ele>
      </trkpt>
      <trkpt lat="45.20642" lon="-72.65039">
        <ele>183.8</ele>
      </trkpt>
      <trkpt lat="45.20682" lon="-72.65042">
        <ele>184.3</ele>
      </trkpt>
      <trkpt lat="45.20743" lon="-72.650405">
        <ele>185.9</ele>
      </trkpt>
      <trkpt lat="45.20804" lon="-72.65039">
        <ele>189.3</ele>
      </trkpt>
      <trkpt lat="45.20826" lon="-72.65042">
        <ele>189.7</ele>
      </trkpt>
      <trkpt lat="45.20858" lon="-72.65039">
        <ele>189.9</ele>
      </trkpt>
      <trkpt lat="45.20873" lon="-72.65035">
        <ele>189.7</ele>
      </trkpt>
      <trkpt lat="45.20958" lon="-72.650255">
        <ele>186.8</ele>
      </trkpt>
      <trkpt lat="45.21043" lon="-72.65016">
        <ele>181.6</ele>
      </trkpt>
      <trkpt lat="45.21061" lon="-72.65011">
        <ele>180.7</ele>
      </trkpt>
      <trkpt lat="45.21068" lon="-72.65007">
        <ele>180.7</ele>
      </trkpt>
      <trkpt lat="45.21098" lon="-72.64981">
        <ele>179.7</ele>
      </trkpt>
      <trkpt lat="45.21116" lon="-72.64971">
        <ele>179.2</ele>
      </trkpt>
      <trkpt lat="45.211925" lon="-72.649265">
        <ele>176.7</ele>
      </trkpt>
      <trkpt lat="45.21269" lon="-72.64882">
        <ele>171.6</ele>
      </trkpt>
      <trkpt lat="45.213455" lon="-72.648375">
        <ele>165.1</ele>
      </trkpt>
      <trkpt lat="45.21422" lon="-72.64793">
        <ele>164.8</ele>
      </trkpt>
      <trkpt lat="45.214873" lon="-72.647543">
        <ele>169.7</ele>
      </trkpt>
      <trkpt lat="45.215526" lon="-72.647156">
        <ele>175.2</ele>
      </trkpt>
      <trkpt lat="45.21618" lon="-72.64677">
        <ele>181.6</ele>
      </trkpt>
      <trkpt lat="45.216873" lon="-72.64638">
        <ele>185.3</ele>
      </trkpt>
      <trkpt lat="45.217566" lon="-72.64599">
        <ele>187.8</ele>
      </trkpt>
      <trkpt lat="45.21826" lon="-72.6456">
        <ele>190.5</ele>
      </trkpt>
      <trkpt lat="45.21896" lon="-72.64524">
        <ele>192.3</ele>
      </trkpt>
      <trkpt lat="45.21966" lon="-72.64488">
        <ele>193.7</ele>
      </trkpt>
      <trkpt lat="45.22036" lon="-72.64452">
        <ele>198.8</ele>
      </trkpt>
      <trkpt lat="45.22095" lon="-72.64422">
        <ele>202.3</ele>
      </trkpt>
      <trkpt lat="45.22094" lon="-72.64422">
        <ele>202.3</ele>
      </trkpt>
      <trkpt lat="45.22171" lon="-72.643845">
        <ele>208.9</ele>
      </trkpt>
      <trkpt lat="45.22248" lon="-72.64347">
        <ele>214.6</ele>
      </trkpt>
      <trkpt lat="45.22267" lon="-72.64242">
        <ele>215</ele>
      </trkpt>
      <trkpt lat="45.2228" lon="-72.6418">
        <ele>217.7</ele>
      </trkpt>
      <trkpt lat="45.22293" lon="-72.6413">
        <ele>221</ele>
      </trkpt>
      <trkpt lat="45.22315" lon="-72.64071">
        <ele>225.1</ele>
      </trkpt>
      <trkpt lat="45.22329" lon="-72.64041">
        <ele>226.9</ele>
      </trkpt>
      <trkpt lat="45.22386" lon="-72.63952">
        <ele>229.4</ele>
      </trkpt>
      <trkpt lat="45.22433" lon="-72.638885">
        <ele>228.2</ele>
      </trkpt>
      <trkpt lat="45.2248" lon="-72.63825">
        <ele>229.1</ele>
      </trkpt>
      <trkpt lat="45.22488" lon="-72.63812">
        <ele>228.9</ele>
      </trkpt>
      <trkpt lat="45.22497" lon="-72.63781">
        <ele>228.4</ele>
      </trkpt>
      <trkpt lat="45.22499" lon="-72.63767">
        <ele>227.5</ele>
      </trkpt>
      <trkpt lat="45.22498" lon="-72.63699">
        <ele>226.7</ele>
      </trkpt>
      <trkpt lat="45.224925" lon="-72.635779">
        <ele>225.6</ele>
      </trkpt>
      <trkpt lat="45.22487" lon="-72.63457">
        <ele>224.2</ele>
      </trkpt>
      <trkpt lat="45.22483" lon="-72.633814">
        <ele>224</ele>
      </trkpt>
      <trkpt lat="45.22479" lon="-72.63306">
        <ele>223.3</ele>
      </trkpt>
      <trkpt lat="45.22477" lon="-72.632415">
        <ele>222.8</ele>
      </trkpt>
      <trkpt lat="45.22475" lon="-72.63177">
        <ele>221.4</ele>
      </trkpt>
      <trkpt lat="45.224711" lon="-72.630671">
        <ele>218.7</ele>
      </trkpt>
      <trkpt lat="45.224673" lon="-72.629573">
        <ele>219.8</ele>
      </trkpt>
      <trkpt lat="45.224635" lon="-72.628474">
        <ele>218.7</ele>
      </trkpt>
      <trkpt lat="45.224596" lon="-72.627376">
        <ele>217.7</ele>
      </trkpt>
      <trkpt lat="45.224558" lon="-72.626278">
        <ele>216.1</ele>
      </trkpt>
      <trkpt lat="45.22452" lon="-72.62518">
        <ele>214.4</ele>
      </trkpt>
      <trkpt lat="45.22447" lon="-72.624034">
        <ele>214.7</ele>
      </trkpt>
      <trkpt lat="45.22442" lon="-72.62289">
        <ele>215.5</ele>
      </trkpt>
      <trkpt lat="45.224366" lon="-72.621666">
        <ele>217.1</ele>
      </trkpt>
      <trkpt lat="45.224312" lon="-72.620442">
        <ele>217</ele>
      </trkpt>
      <trkpt lat="45.224258" lon="-72.619218">
        <ele>214.7</ele>
      </trkpt>
      <trkpt lat="45.224204" lon="-72.617994">
        <ele>214.1</ele>
      </trkpt>
      <trkpt lat="45.224151" lon="-72.61677">
        <ele>216.3</ele>
      </trkpt>
      <trkpt lat="45.224097" lon="-72.615546">
        <ele>216.7</ele>
      </trkpt>
      <trkpt lat="45.224043" lon="-72.614323">
        <ele>215.1</ele>
      </trkpt>
      <trkpt lat="45.223989" lon="-72.613099">
        <ele>214.4</ele>
      </trkpt>
      <trkpt lat="45.223935" lon="-72.611875">
        <ele>211.6</ele>
      </trkpt>
      <trkpt lat="45.223881" lon="-72.610651">
        <ele>210</ele>
      </trkpt>
      <trkpt lat="45.223827" lon="-72.609427">
        <ele>209.6</ele>
      </trkpt>
      <trkpt lat="45.223773" lon="-72.608203">
        <ele>211</ele>
      </trkpt>
      <trkpt lat="45.22372" lon="-72.60698">
        <ele>213.8</ele>
      </trkpt>
      <trkpt lat="45.223662" lon="-72.605858">
        <ele>215.5</ele>
      </trkpt>
      <trkpt lat="45.223605" lon="-72.604737">
        <ele>213</ele>
      </trkpt>
      <trkpt lat="45.223548" lon="-72.603615">
        <ele>210</ele>
      </trkpt>
      <trkpt lat="45.223491" lon="-72.602494">
        <ele>210.1</ele>
      </trkpt>
      <trkpt lat="45.223434" lon="-72.601372">
        <ele>212.9</ele>
      </trkpt>
      <trkpt lat="45.223377" lon="-72.600251">
        <ele>218.2</ele>
      </trkpt>
      <trkpt lat="45.22332" lon="-72.59913">
        <ele>221.1</ele>
      </trkpt>
      <trkpt lat="45.223278" lon="-72.597868">
        <ele>221.2</ele>
      </trkpt>
      <trkpt lat="45.223236" lon="-72.596607">
        <ele>219.4</ele>
      </trkpt>
      <trkpt lat="45.223194" lon="-72.595346">
        <ele>218.1</ele>
      </trkpt>
      <trkpt lat="45.223152" lon="-72.594084">
        <ele>216</ele>
      </trkpt>
      <trkpt lat="45.223111" lon="-72.592823">
        <ele>213.1</ele>
      </trkpt>
      <trkpt lat="45.223069" lon="-72.591562">
        <ele>210.5</ele>
      </trkpt>
      <trkpt lat="45.223027" lon="-72.590301">
        <ele>207.4</ele>
      </trkpt>
      <trkpt lat="45.222985" lon="-72.589039">
        <ele>202.9</ele>
      </trkpt>
      <trkpt lat="45.222943" lon="-72.587778">
        <ele>200.7</ele>
      </trkpt>
      <trkpt lat="45.222901" lon="-72.586517">
        <ele>201.1</ele>
      </trkpt>
      <trkpt lat="45.222859" lon="-72.585256">
        <ele>203.4</ele>
      </trkpt>
      <trkpt lat="45.222817" lon="-72.583994">
        <ele>207.3</ele>
      </trkpt>
      <trkpt lat="45.222775" lon="-72.582733">
        <ele>211.3</ele>
      </trkpt>
      <trkpt lat="45.222733" lon="-72.581472">
        <ele>217.2</ele>
      </trkpt>
      <trkpt lat="45.222691" lon="-72.580211">
        <ele>221.6</ele>
      </trkpt>
      <trkpt lat="45.22265" lon="-72.57895">
        <ele>225.5</ele>
      </trkpt>
      <trkpt lat="45.222625" lon="-72.578199">
        <ele>229.2</ele>
      </trkpt>
      <trkpt lat="45.2226" lon="-72.57745">
        <ele>232.6</ele>
      </trkpt>
      <trkpt lat="45.222595" lon="-72.576669">
        <ele>237.8</ele>
      </trkpt>
      <trkpt lat="45.22259" lon="-72.57589">
        <ele>245</ele>
      </trkpt>
      <trkpt lat="45.222605" lon="-72.574731">
        <ele>252.7</ele>
      </trkpt>
      <trkpt lat="45.22262" lon="-72.573572">
        <ele>259.8</ele>
      </trkpt>
      <trkpt lat="45.222635" lon="-72.572413">
        <ele>268</ele>
      </trkpt>
      <trkpt lat="45.22265" lon="-72.571255">
        <ele>274.3</ele>
      </trkpt>
      <trkpt lat="45.222665" lon="-72.570096">
        <ele>280.4</ele>
      </trkpt>
      <trkpt lat="45.22268" lon="-72.568937">
        <ele>283.9</ele>
      </trkpt>
      <trkpt lat="45.222695" lon="-72.567778">
        <ele>286.8</ele>
      </trkpt>
      <trkpt lat="45.22271" lon="-72.56662">
        <ele>287.5</ele>
      </trkpt>
      <trkpt lat="45.222731" lon="-72.565508">
        <ele>282.3</ele>
      </trkpt>
      <trkpt lat="45.222753" lon="-72.564396">
        <ele>273.8</ele>
      </trkpt>
      <trkpt lat="45.222775" lon="-72.563285">
        <ele>267.7</ele>
      </trkpt>
      <trkpt lat="45.222796" lon="-72.562173">
        <ele>264.2</ele>
      </trkpt>
      <trkpt lat="45.222818" lon="-72.561061">
        <ele>259.9</ele>
      </trkpt>
      <trkpt lat="45.22284" lon="-72.55995">
        <ele>257.5</ele>
      </trkpt>
      <trkpt lat="45.22283" lon="-72.559055">
        <ele>259.4</ele>
      </trkpt>
      <trkpt lat="45.22282" lon="-72.55816">
        <ele>264.4</ele>
      </trkpt>
      <trkpt lat="45.22287" lon="-72.55762">
        <ele>267.7</ele>
      </trkpt>
      <trkpt lat="45.22288" lon="-72.55695">
        <ele>270.1</ele>
      </trkpt>
      <trkpt lat="45.222864" lon="-72.555911">
        <ele>271.9</ele>
      </trkpt>
      <trkpt lat="45.222848" lon="-72.554873">
        <ele>275.6</ele>
      </trkpt>
      <trkpt lat="45.222832" lon="-72.553835">
        <ele>276.9</ele>
      </trkpt>
      <trkpt lat="45.222816" lon="-72.552797">
        <ele>275.2</ele>
      </trkpt>
      <trkpt lat="45.2228" lon="-72.55176">
        <ele>273.4</ele>
      </trkpt>
      <trkpt lat="45.222755" lon="-72.551114">
        <ele>267.1</ele>
      </trkpt>
      <trkpt lat="45.22271" lon="-72.55047">
        <ele>262.2</ele>
      </trkpt>
      <trkpt lat="45.222696" lon="-72.549359">
        <ele>257.9</ele>
      </trkpt>
      <trkpt lat="45.222683" lon="-72.548249">
        <ele>254.8</ele>
      </trkpt>
      <trkpt lat="45.22267" lon="-72.54714">
        <ele>252.8</ele>
      </trkpt>
      <trkpt lat="45.222635" lon="-72.545894">
        <ele>255.8</ele>
      </trkpt>
      <trkpt lat="45.2226" lon="-72.54465">
        <ele>254.8</ele>
      </trkpt>
      <trkpt lat="45.22258" lon="-72.54459">
        <ele>254</ele>
      </trkpt>
      <trkpt lat="45.22242" lon="-72.54426">
        <ele>252.2</ele>
      </trkpt>
      <trkpt lat="45.22198" lon="-72.543529">
        <ele>248.1</ele>
      </trkpt>
      <trkpt lat="45.22154" lon="-72.5428">
        <ele>244.4</ele>
      </trkpt>
      <trkpt lat="45.22139" lon="-72.5424">
        <ele>242.6</ele>
      </trkpt>
      <trkpt lat="45.22136" lon="-72.54209">
        <ele>239.8</ele>
      </trkpt>
      <trkpt lat="45.22141" lon="-72.54174">
        <ele>238.4</ele>
      </trkpt>
      <trkpt lat="45.22148" lon="-72.54159">
        <ele>235.5</ele>
      </trkpt>
      <trkpt lat="45.22159" lon="-72.54145">
        <ele>235.5</ele>
      </trkpt>
      <trkpt lat="45.22193" lon="-72.5411">
        <ele>231.2</ele>
      </trkpt>
      <trkpt lat="45.22203" lon="-72.54096">
        <ele>230.1</ele>
      </trkpt>
      <trkpt lat="45.22232" lon="-72.54042">
        <ele>226.3</ele>
      </trkpt>
      <trkpt lat="45.22248" lon="-72.54007">
        <ele>220.9</ele>
      </trkpt>
      <trkpt lat="45.22259" lon="-72.53977">
        <ele>219.5</ele>
      </trkpt>
      <trkpt lat="45.22263" lon="-72.53954">
        <ele>217</ele>
      </trkpt>
      <trkpt lat="45.22247" lon="-72.53882">
        <ele>213.6</ele>
      </trkpt>
      <trkpt lat="45.222426" lon="-72.537866">
        <ele>211.5</ele>
      </trkpt>
      <trkpt lat="45.222383" lon="-72.536913">
        <ele>204.6</ele>
      </trkpt>
      <trkpt lat="45.22234" lon="-72.53596">
        <ele>200.1</ele>
      </trkpt>
      <trkpt lat="45.222325" lon="-72.534969">
        <ele>199.8</ele>
      </trkpt>
      <trkpt lat="45.22231" lon="-72.53398">
        <ele>200.9</ele>
      </trkpt>
      <trkpt lat="45.22235" lon="-72.533">
        <ele>202.2</ele>
      </trkpt>
      <trkpt lat="45.22233" lon="-72.53259">
        <ele>202.3</ele>
      </trkpt>
    </trkseg>
  </trk>
</gpx>