<?xml version='1.0' encoding='utf-8'?>
<gpx xmlns="http://www.topografix.com/GPX/1/1" xmlns:xsi="http://www.w3.org/2001/XMLSchema-instance" version="1.1" creator="Gravelle Estrie" xsi:schemaLocation="http://www.topografix.com/GPX/1/1 http://www.topografix.com/GPX/1/1/gpx.xsd">
  <metadata>
    <name>Porc Épic</name>
  </metadata>
  <trk>
    <name>Porc Épic</name>
    <trkseg>
      <trkpt lat="45.05026" lon="-72.39203">
        <ele>192.5</ele>
      </trkpt>
      <trkpt lat="45.05066" lon="-72.39204">
        <ele>193.7</ele>
      </trkpt>
      <trkpt lat="45.05155" lon="-72.39211">
        <ele>194.3</ele>
      </trkpt>
      <trkpt lat="45.05206" lon="-72.39215">
        <ele>193.6</ele>
      </trkpt>
      <trkpt lat="45.0523" lon="-72.3922">
        <ele>192.3</ele>
      </trkpt>
      <trkpt lat="45.05282" lon="-72.3924">
        <ele>191.4</ele>
      </trkpt>
      <trkpt lat="45.05353" lon="-72.39271">
        <ele>190.8</ele>
      </trkpt>
      <trkpt lat="45.05402" lon="-72.39286">
        <ele>190.3</ele>
      </trkpt>
      <trkpt lat="45.05457" lon="-72.392909">
        <ele>190.7</ele>
      </trkpt>
      <trkpt lat="45.05512" lon="-72.39296">
        <ele>192</ele>
      </trkpt>
      <trkpt lat="45.05557" lon="-72.39292">
        <ele>193.3</ele>
      </trkpt>
      <trkpt lat="45.05584" lon="-72.39283">
        <ele>194.6</ele>
      </trkpt>
      <trkpt lat="45.056365" lon="-72.39258">
        <ele>195.6</ele>
      </trkpt>
      <trkpt lat="45.05689" lon="-72.39233">
        <ele>196.7</ele>
      </trkpt>
      <trkpt lat="45.057435" lon="-72.3921">
        <ele>196.6</ele>
      </trkpt>
      <trkpt lat="45.05798" lon="-72.39187">
        <ele>196.1</ele>
      </trkpt>
      <trkpt lat="45.058445" lon="-72.39169">
        <ele>194.5</ele>
      </trkpt>
      <trkpt lat="45.05891" lon="-72.39151">
        <ele>193.4</ele>
      </trkpt>
      <trkpt lat="45.059415" lon="-72.39135">
        <ele>192</ele>
      </trkpt>
      <trkpt lat="45.05992" lon="-72.39119">
        <ele>191.1</ele>
      </trkpt>
      <trkpt lat="45.060772" lon="-72.39096">
        <ele>189</ele>
      </trkpt>
      <trkpt lat="45.061625" lon="-72.39073">
        <ele>184.6</ele>
      </trkpt>
      <trkpt lat="45.062477" lon="-72.3905">
        <ele>183.7</ele>
      </trkpt>
      <trkpt lat="45.06333" lon="-72.39027">
        <ele>184.5</ele>
      </trkpt>
      <trkpt lat="45.06402" lon="-72.390113">
        <ele>183.5</ele>
      </trkpt>
      <trkpt lat="45.06471" lon="-72.389956">
        <ele>183.4</ele>
      </trkpt>
      <trkpt lat="45.0654" lon="-72.3898">
        <ele>186.1</ele>
      </trkpt>
      <trkpt lat="45.066" lon="-72.38967">
        <ele>188.4</ele>
      </trkpt>
      <trkpt lat="45.0666" lon="-72.38954">
        <ele>189.4</ele>
      </trkpt>
      <trkpt lat="45.06748" lon="-72.38932">
        <ele>189.1</ele>
      </trkpt>
      <trkpt lat="45.06836" lon="-72.3891">
        <ele>190</ele>
      </trkpt>
      <trkpt lat="45.06924" lon="-72.38888">
        <ele>191.2</ele>
      </trkpt>
      <trkpt lat="45.06963" lon="-72.38883">
        <ele>191.9</ele>
      </trkpt>
      <trkpt lat="45.07049" lon="-72.38875">
        <ele>193.2</ele>
      </trkpt>
      <trkpt lat="45.07086" lon="-72.38875">
        <ele>193.4</ele>
      </trkpt>
      <trkpt lat="45.07135" lon="-72.38879">
        <ele>193.5</ele>
      </trkpt>
      <trkpt lat="45.07158" lon="-72.38882">
        <ele>193.7</ele>
      </trkpt>
      <trkpt lat="45.072173" lon="-72.388956">
        <ele>192.7</ele>
      </trkpt>
      <trkpt lat="45.072766" lon="-72.389093">
        <ele>190.2</ele>
      </trkpt>
      <trkpt lat="45.07336" lon="-72.38923">
        <ele>188.8</ele>
      </trkpt>
      <trkpt lat="45.07334" lon="-72.38905">
        <ele>188.1</ele>
      </trkpt>
      <trkpt lat="45.0733" lon="-72.38896">
        <ele>188.1</ele>
      </trkpt>
      <trkpt lat="45.07324" lon="-72.38889">
        <ele>188.1</ele>
      </trkpt>
      <trkpt lat="45.07289" lon="-72.3887">
        <ele>186.5</ele>
      </trkpt>
      <trkpt lat="45.0728" lon="-72.38861">
        <ele>186</ele>
      </trkpt>
      <trkpt lat="45.07261" lon="-72.38813">
        <ele>183.7</ele>
      </trkpt>
      <trkpt lat="45.07259" lon="-72.38803">
        <ele>183.6</ele>
      </trkpt>
      <trkpt lat="45.0726" lon="-72.38783">
        <ele>183.4</ele>
      </trkpt>
      <trkpt lat="45.0726" lon="-72.38784">
        <ele>183.4</ele>
      </trkpt>
      <trkpt lat="45.07266" lon="-72.38758">
        <ele>183.5</ele>
      </trkpt>
      <trkpt lat="45.07299" lon="-72.38702">
        <ele>184</ele>
      </trkpt>
      <trkpt lat="45.07339" lon="-72.38622">
        <ele>184.4</ele>
      </trkpt>
      <trkpt lat="45.07378" lon="-72.385376">
        <ele>187.1</ele>
      </trkpt>
      <trkpt lat="45.07417" lon="-72.384533">
        <ele>189.6</ele>
      </trkpt>
      <trkpt lat="45.07456" lon="-72.38369">
        <ele>190.6</ele>
      </trkpt>
      <trkpt lat="45.07474" lon="-72.38325">
        <ele>191.7</ele>
      </trkpt>
      <trkpt lat="45.07495" lon="-72.38217">
        <ele>194.7</ele>
      </trkpt>
      <trkpt lat="45.07504" lon="-72.3819">
        <ele>195</ele>
      </trkpt>
      <trkpt lat="45.07515" lon="-72.38167">
        <ele>195.2</ele>
      </trkpt>
      <trkpt lat="45.07562" lon="-72.38091">
        <ele>197.5</ele>
      </trkpt>
      <trkpt lat="45.07583" lon="-72.38041">
        <ele>198.2</ele>
      </trkpt>
      <trkpt lat="45.07613" lon="-72.37984">
        <ele>198</ele>
      </trkpt>
      <trkpt lat="45.07632" lon="-72.37943">
        <ele>198.9</ele>
      </trkpt>
      <trkpt lat="45.07648" lon="-72.37916">
        <ele>198.9</ele>
      </trkpt>
      <trkpt lat="45.07662" lon="-72.37882">
        <ele>198</ele>
      </trkpt>
      <trkpt lat="45.07673" lon="-72.37849">
        <ele>197.3</ele>
      </trkpt>
      <trkpt lat="45.07683" lon="-72.3778">
        <ele>197.5</ele>
      </trkpt>
      <trkpt lat="45.07694" lon="-72.37723">
        <ele>199.8</ele>
      </trkpt>
      <trkpt lat="45.07712" lon="-72.37608">
        <ele>200.3</ele>
      </trkpt>
      <trkpt lat="45.07715" lon="-72.37572">
        <ele>200.8</ele>
      </trkpt>
      <trkpt lat="45.077175" lon="-72.374895">
        <ele>202.4</ele>
      </trkpt>
      <trkpt lat="45.0772" lon="-72.37407">
        <ele>202.7</ele>
      </trkpt>
      <trkpt lat="45.07724" lon="-72.3737">
        <ele>203.5</ele>
      </trkpt>
      <trkpt lat="45.07737" lon="-72.37321">
        <ele>206.6</ele>
      </trkpt>
      <trkpt lat="45.07765" lon="-72.37258">
        <ele>208.9</ele>
      </trkpt>
      <trkpt lat="45.07786" lon="-72.37228">
        <ele>209.3</ele>
      </trkpt>
      <trkpt lat="45.07835" lon="-72.37169">
        <ele>212</ele>
      </trkpt>
      <trkpt lat="45.07848" lon="-72.37147">
        <ele>213.8</ele>
      </trkpt>
      <trkpt lat="45.07853" lon="-72.37133">
        <ele>214.6</ele>
      </trkpt>
      <trkpt lat="45.07852" lon="-72.37066">
        <ele>220.2</ele>
      </trkpt>
      <trkpt lat="45.07854" lon="-72.37035">
        <ele>221.5</ele>
      </trkpt>
      <trkpt lat="45.07868" lon="-72.36919">
        <ele>230.3</ele>
      </trkpt>
      <trkpt lat="45.07878" lon="-72.36887">
        <ele>232</ele>
      </trkpt>
      <trkpt lat="45.07885" lon="-72.36878">
        <ele>232.5</ele>
      </trkpt>
      <trkpt lat="45.07898" lon="-72.36868">
        <ele>232.9</ele>
      </trkpt>
      <trkpt lat="45.07952" lon="-72.36841">
        <ele>233.8</ele>
      </trkpt>
      <trkpt lat="45.0801" lon="-72.36793">
        <ele>237.2</ele>
      </trkpt>
      <trkpt lat="45.08044" lon="-72.3676">
        <ele>238.8</ele>
      </trkpt>
      <trkpt lat="45.08109" lon="-72.36691">
        <ele>243.4</ele>
      </trkpt>
      <trkpt lat="45.08165" lon="-72.366235">
        <ele>246.1</ele>
      </trkpt>
      <trkpt lat="45.08221" lon="-72.36556">
        <ele>248.9</ele>
      </trkpt>
      <trkpt lat="45.08252" lon="-72.36529">
        <ele>250.3</ele>
      </trkpt>
      <trkpt lat="45.08294" lon="-72.36474">
        <ele>250.9</ele>
      </trkpt>
      <trkpt lat="45.08325" lon="-72.36417">
        <ele>251.2</ele>
      </trkpt>
      <trkpt lat="45.08336" lon="-72.36381">
        <ele>251.9</ele>
      </trkpt>
      <trkpt lat="45.08348" lon="-72.36319">
        <ele>253.4</ele>
      </trkpt>
      <trkpt lat="45.08368" lon="-72.36255">
        <ele>257</ele>
      </trkpt>
      <trkpt lat="45.08385" lon="-72.3621">
        <ele>259.7</ele>
      </trkpt>
      <trkpt lat="45.084" lon="-72.3618">
        <ele>260.8</ele>
      </trkpt>
      <trkpt lat="45.08427" lon="-72.36143">
        <ele>262.1</ele>
      </trkpt>
      <trkpt lat="45.08457" lon="-72.36108">
        <ele>262.2</ele>
      </trkpt>
      <trkpt lat="45.08474" lon="-72.36094">
        <ele>262</ele>
      </trkpt>
      <trkpt lat="45.08494" lon="-72.3608">
        <ele>262</ele>
      </trkpt>
      <trkpt lat="45.08537" lon="-72.36018">
        <ele>263.3</ele>
      </trkpt>
      <trkpt lat="45.0858" lon="-72.35956">
        <ele>266.3</ele>
      </trkpt>
      <trkpt lat="45.08593" lon="-72.35933">
        <ele>266.8</ele>
      </trkpt>
      <trkpt lat="45.08604" lon="-72.35906">
        <ele>267.7</ele>
      </trkpt>
      <trkpt lat="45.08621" lon="-72.35854">
        <ele>269.5</ele>
      </trkpt>
      <trkpt lat="45.08624" lon="-72.35846">
        <ele>269.7</ele>
      </trkpt>
      <trkpt lat="45.08645" lon="-72.35794">
        <ele>271.8</ele>
      </trkpt>
      <trkpt lat="45.08671" lon="-72.35756">
        <ele>274.1</ele>
      </trkpt>
      <trkpt lat="45.08692" lon="-72.35733">
        <ele>276.1</ele>
      </trkpt>
      <trkpt lat="45.08703" lon="-72.35724">
        <ele>276.7</ele>
      </trkpt>
      <trkpt lat="45.08723" lon="-72.35714">
        <ele>278.5</ele>
      </trkpt>
      <trkpt lat="45.08746" lon="-72.35696">
        <ele>280</ele>
      </trkpt>
      <trkpt lat="45.08762" lon="-72.35677">
        <ele>281.6</ele>
      </trkpt>
      <trkpt lat="45.08791" lon="-72.35621">
        <ele>284.4</ele>
      </trkpt>
      <trkpt lat="45.08818" lon="-72.35547">
        <ele>289.9</ele>
      </trkpt>
      <trkpt lat="45.08842" lon="-72.35459">
        <ele>295.1</ele>
      </trkpt>
      <trkpt lat="45.08882" lon="-72.35356">
        <ele>300.9</ele>
      </trkpt>
      <trkpt lat="45.08898" lon="-72.35298">
        <ele>306.4</ele>
      </trkpt>
      <trkpt lat="45.089065" lon="-72.352355">
        <ele>311.1</ele>
      </trkpt>
      <trkpt lat="45.08915" lon="-72.35173">
        <ele>312.8</ele>
      </trkpt>
      <trkpt lat="45.08922" lon="-72.35159">
        <ele>313.3</ele>
      </trkpt>
      <trkpt lat="45.08974" lon="-72.35085">
        <ele>319.5</ele>
      </trkpt>
      <trkpt lat="45.09026" lon="-72.35011">
        <ele>324</ele>
      </trkpt>
      <trkpt lat="45.0904" lon="-72.34984">
        <ele>326.3</ele>
      </trkpt>
      <trkpt lat="45.090555" lon="-72.34906">
        <ele>330</ele>
      </trkpt>
      <trkpt lat="45.09071" lon="-72.34828">
        <ele>331.1</ele>
      </trkpt>
      <trkpt lat="45.09077" lon="-72.34806">
        <ele>330.8</ele>
      </trkpt>
      <trkpt lat="45.09111" lon="-72.34718">
        <ele>327.7</ele>
      </trkpt>
      <trkpt lat="45.091353" lon="-72.34635">
        <ele>326.5</ele>
      </trkpt>
      <trkpt lat="45.091596" lon="-72.34552">
        <ele>325.2</ele>
      </trkpt>
      <trkpt lat="45.09184" lon="-72.34469">
        <ele>325.7</ele>
      </trkpt>
      <trkpt lat="45.09217" lon="-72.34402">
        <ele>329.3</ele>
      </trkpt>
      <trkpt lat="45.0925" lon="-72.34335">
        <ele>335</ele>
      </trkpt>
      <trkpt lat="45.09296" lon="-72.34261">
        <ele>336.4</ele>
      </trkpt>
      <trkpt lat="45.09342" lon="-72.34187">
        <ele>341.7</ele>
      </trkpt>
      <trkpt lat="45.09362" lon="-72.34147">
        <ele>343.9</ele>
      </trkpt>
      <trkpt lat="45.09369" lon="-72.34129">
        <ele>345.8</ele>
      </trkpt>
      <trkpt lat="45.09385" lon="-72.34052">
        <ele>347.2</ele>
      </trkpt>
      <trkpt lat="45.0939" lon="-72.33968">
        <ele>349.3</ele>
      </trkpt>
      <trkpt lat="45.09393" lon="-72.338915">
        <ele>354</ele>
      </trkpt>
      <trkpt lat="45.09396" lon="-72.33815">
        <ele>358.2</ele>
      </trkpt>
      <trkpt lat="45.09393" lon="-72.33772">
        <ele>360</ele>
      </trkpt>
      <trkpt lat="45.09383" lon="-72.33735">
        <ele>363.3</ele>
      </trkpt>
      <trkpt lat="45.09356" lon="-72.33669">
        <ele>365.3</ele>
      </trkpt>
      <trkpt lat="45.09344" lon="-72.33658">
        <ele>365.6</ele>
      </trkpt>
      <trkpt lat="45.09338" lon="-72.33654">
        <ele>365.9</ele>
      </trkpt>
      <trkpt lat="45.09321" lon="-72.33655">
        <ele>367.3</ele>
      </trkpt>
      <trkpt lat="45.09306" lon="-72.33654">
        <ele>369</ele>
      </trkpt>
      <trkpt lat="45.09291" lon="-72.33633">
        <ele>370.3</ele>
      </trkpt>
      <trkpt lat="45.0929" lon="-72.33615">
        <ele>370.6</ele>
      </trkpt>
      <trkpt lat="45.09291" lon="-72.33595">
        <ele>371.2</ele>
      </trkpt>
      <trkpt lat="45.09296" lon="-72.3356">
        <ele>373</ele>
      </trkpt>
      <trkpt lat="45.09308" lon="-72.33519">
        <ele>376</ele>
      </trkpt>
      <trkpt lat="45.0932" lon="-72.33493">
        <ele>376.7</ele>
      </trkpt>
      <trkpt lat="45.09326" lon="-72.33476">
        <ele>378.7</ele>
      </trkpt>
      <trkpt lat="45.09333" lon="-72.33417">
        <ele>381.9</ele>
      </trkpt>
      <trkpt lat="45.09334" lon="-72.33373">
        <ele>382.2</ele>
      </trkpt>
      <trkpt lat="45.09331" lon="-72.332719">
        <ele>383.1</ele>
      </trkpt>
      <trkpt lat="45.09328" lon="-72.33171">
        <ele>381.5</ele>
      </trkpt>
      <trkpt lat="45.093265" lon="-72.330984">
        <ele>379</ele>
      </trkpt>
      <trkpt lat="45.09325" lon="-72.33026">
        <ele>375</ele>
      </trkpt>
      <trkpt lat="45.093245" lon="-72.329174">
        <ele>369.3</ele>
      </trkpt>
      <trkpt lat="45.09324" lon="-72.32809">
        <ele>365.8</ele>
      </trkpt>
      <trkpt lat="45.093222" lon="-72.327027">
        <ele>359.7</ele>
      </trkpt>
      <trkpt lat="45.093205" lon="-72.325964">
        <ele>355.2</ele>
      </trkpt>
      <trkpt lat="45.093187" lon="-72.324902">
        <ele>349.4</ele>
      </trkpt>
      <trkpt lat="45.09317" lon="-72.32384">
        <ele>344.7</ele>
      </trkpt>
      <trkpt lat="45.09319" lon="-72.32337">
        <ele>342.2</ele>
      </trkpt>
      <trkpt lat="45.09327" lon="-72.32262">
        <ele>337.8</ele>
      </trkpt>
      <trkpt lat="45.09349" lon="-72.32173">
        <ele>330.3</ele>
      </trkpt>
      <trkpt lat="45.09359" lon="-72.32141">
        <ele>328</ele>
      </trkpt>
      <trkpt lat="45.09359" lon="-72.32124">
        <ele>327</ele>
      </trkpt>
      <trkpt lat="45.09345" lon="-72.32016">
        <ele>318.2</ele>
      </trkpt>
      <trkpt lat="45.093453" lon="-72.319303">
        <ele>313.2</ele>
      </trkpt>
      <trkpt lat="45.093456" lon="-72.318446">
        <ele>308.2</ele>
      </trkpt>
      <trkpt lat="45.09346" lon="-72.31759">
        <ele>304.8</ele>
      </trkpt>
      <trkpt lat="45.09348" lon="-72.31654">
        <ele>300.3</ele>
      </trkpt>
      <trkpt lat="45.0935" lon="-72.31549">
        <ele>291.2</ele>
      </trkpt>
      <trkpt lat="45.09352" lon="-72.31444">
        <ele>286.9</ele>
      </trkpt>
      <trkpt lat="45.09354" lon="-72.31339">
        <ele>285.6</ele>
      </trkpt>
      <trkpt lat="45.0936" lon="-72.31246">
        <ele>284.9</ele>
      </trkpt>
      <trkpt lat="45.09367" lon="-72.31188">
        <ele>284.6</ele>
      </trkpt>
      <trkpt lat="45.09375" lon="-72.31152">
        <ele>284.6</ele>
      </trkpt>
      <trkpt lat="45.0941" lon="-72.31062">
        <ele>278.7</ele>
      </trkpt>
      <trkpt lat="45.09421" lon="-72.30946">
        <ele>271.3</ele>
      </trkpt>
      <trkpt lat="45.09433" lon="-72.30879">
        <ele>270.1</ele>
      </trkpt>
      <trkpt lat="45.09458" lon="-72.30767">
        <ele>271.5</ele>
      </trkpt>
      <trkpt lat="45.09475" lon="-72.30663">
        <ele>272.9</ele>
      </trkpt>
      <trkpt lat="45.0949" lon="-72.30601">
        <ele>272.3</ele>
      </trkpt>
      <trkpt lat="45.09439" lon="-72.3061">
        <ele>269.3</ele>
      </trkpt>
      <trkpt lat="45.09375" lon="-72.30611">
        <ele>265.4</ele>
      </trkpt>
      <trkpt lat="45.093036" lon="-72.306046">
        <ele>263.6</ele>
      </trkpt>
      <trkpt lat="45.092323" lon="-72.305983">
        <ele>262.1</ele>
      </trkpt>
      <trkpt lat="45.09161" lon="-72.30592">
        <ele>258.9</ele>
      </trkpt>
      <trkpt lat="45.0913" lon="-72.30588">
        <ele>257.7</ele>
      </trkpt>
      <trkpt lat="45.091" lon="-72.30579">
        <ele>256.9</ele>
      </trkpt>
      <trkpt lat="45.090213" lon="-72.305353">
        <ele>256.2</ele>
      </trkpt>
      <trkpt lat="45.089426" lon="-72.304916">
        <ele>254.2</ele>
      </trkpt>
      <trkpt lat="45.08864" lon="-72.30448">
        <ele>251.1</ele>
      </trkpt>
      <trkpt lat="45.08802" lon="-72.30404">
        <ele>251.1</ele>
      </trkpt>
      <trkpt lat="45.08767" lon="-72.30392">
        <ele>252.1</ele>
      </trkpt>
      <trkpt lat="45.08699" lon="-72.303779">
        <ele>260.3</ele>
      </trkpt>
      <trkpt lat="45.08631" lon="-72.30364">
        <ele>266.3</ele>
      </trkpt>
      <trkpt lat="45.08599" lon="-72.3035">
        <ele>271</ele>
      </trkpt>
      <trkpt lat="45.08574" lon="-72.30336">
        <ele>273.1</ele>
      </trkpt>
      <trkpt lat="45.08524" lon="-72.30292">
        <ele>277</ele>
      </trkpt>
      <trkpt lat="45.0848" lon="-72.30265">
        <ele>282.1</ele>
      </trkpt>
      <trkpt lat="45.08445" lon="-72.30248">
        <ele>284.4</ele>
      </trkpt>
      <trkpt lat="45.083696" lon="-72.302109">
        <ele>289.4</ele>
      </trkpt>
      <trkpt lat="45.082943" lon="-72.301739">
        <ele>291.8</ele>
      </trkpt>
      <trkpt lat="45.08219" lon="-72.30137">
        <ele>293.7</ele>
      </trkpt>
      <trkpt lat="45.08152" lon="-72.30104">
        <ele>295.2</ele>
      </trkpt>
      <trkpt lat="45.08123" lon="-72.30095">
        <ele>295.9</ele>
      </trkpt>
      <trkpt lat="45.08053" lon="-72.30086">
        <ele>298.5</ele>
      </trkpt>
      <trkpt lat="45.07984" lon="-72.30104">
        <ele>301.3</ele>
      </trkpt>
      <trkpt lat="45.07953" lon="-72.3012">
        <ele>302</ele>
      </trkpt>
      <trkpt lat="45.078713" lon="-72.301673">
        <ele>302.7</ele>
      </trkpt>
      <trkpt lat="45.077896" lon="-72.302146">
        <ele>304.2</ele>
      </trkpt>
      <trkpt lat="45.07708" lon="-72.30262">
        <ele>307</ele>
      </trkpt>
      <trkpt lat="45.07682" lon="-72.30279">
        <ele>309.1</ele>
      </trkpt>
      <trkpt lat="45.07608" lon="-72.30338">
        <ele>315.8</ele>
      </trkpt>
      <trkpt lat="45.07534" lon="-72.30386">
        <ele>318.2</ele>
      </trkpt>
      <trkpt lat="45.07467" lon="-72.30408">
        <ele>317.5</ele>
      </trkpt>
      <trkpt lat="45.07422" lon="-72.30435">
        <ele>316.2</ele>
      </trkpt>
      <trkpt lat="45.073665" lon="-72.304735">
        <ele>316.1</ele>
      </trkpt>
      <trkpt lat="45.07311" lon="-72.30512">
        <ele>316.1</ele>
      </trkpt>
      <trkpt lat="45.072417" lon="-72.30555">
        <ele>316.5</ele>
      </trkpt>
      <trkpt lat="45.071725" lon="-72.30598">
        <ele>315.9</ele>
      </trkpt>
      <trkpt lat="45.071032" lon="-72.30641">
        <ele>315.9</ele>
      </trkpt>
      <trkpt lat="45.07034" lon="-72.30684">
        <ele>317.3</ele>
      </trkpt>
      <trkpt lat="45.06986" lon="-72.307165">
        <ele>318.4</ele>
      </trkpt>
      <trkpt lat="45.06938" lon="-72.30749">
        <ele>319.3</ele>
      </trkpt>
      <trkpt lat="45.06898" lon="-72.3078">
        <ele>319.7</ele>
      </trkpt>
      <trkpt lat="45.068505" lon="-72.308115">
        <ele>320.3</ele>
      </trkpt>
      <trkpt lat="45.06803" lon="-72.30843">
        <ele>320.5</ele>
      </trkpt>
      <trkpt lat="45.06802" lon="-72.30844">
        <ele>320.5</ele>
      </trkpt>
      <trkpt lat="45.06776" lon="-72.30861">
        <ele>320.4</ele>
      </trkpt>
      <trkpt lat="45.067112" lon="-72.308992">
        <ele>318.9</ele>
      </trkpt>
      <trkpt lat="45.066465" lon="-72.309375">
        <ele>317.6</ele>
      </trkpt>
      <trkpt lat="45.065817" lon="-72.309757">
        <ele>317</ele>
      </trkpt>
      <trkpt lat="45.06517" lon="-72.31014">
        <ele>316.6</ele>
      </trkpt>
      <trkpt lat="45.06494" lon="-72.31026">
        <ele>316.4</ele>
      </trkpt>
      <trkpt lat="45.06473" lon="-72.31035">
        <ele>316.4</ele>
      </trkpt>
      <trkpt lat="45.06407" lon="-72.31052">
        <ele>316.5</ele>
      </trkpt>
      <trkpt lat="45.063585" lon="-72.310595">
        <ele>316.8</ele>
      </trkpt>
      <trkpt lat="45.0631" lon="-72.31067">
        <ele>317.1</ele>
      </trkpt>
      <trkpt lat="45.06246" lon="-72.3108">
        <ele>316.6</ele>
      </trkpt>
      <trkpt lat="45.06187" lon="-72.31098">
        <ele>315.8</ele>
      </trkpt>
      <trkpt lat="45.06128" lon="-72.31116">
        <ele>314.7</ele>
      </trkpt>
      <trkpt lat="45.06069" lon="-72.31134">
        <ele>314.9</ele>
      </trkpt>
      <trkpt lat="45.06022" lon="-72.31147">
        <ele>315.1</ele>
      </trkpt>
      <trkpt lat="45.0601" lon="-72.31147">
        <ele>315.4</ele>
      </trkpt>
      <trkpt lat="45.05983" lon="-72.31147">
        <ele>315.7</ele>
      </trkpt>
      <trkpt lat="45.05929" lon="-72.31138">
        <ele>317.4</ele>
      </trkpt>
      <trkpt lat="45.05876" lon="-72.31121">
        <ele>318.3</ele>
      </trkpt>
      <trkpt lat="45.058143" lon="-72.311089">
        <ele>318.8</ele>
      </trkpt>
      <trkpt lat="45.057526" lon="-72.310969">
        <ele>319</ele>
      </trkpt>
      <trkpt lat="45.05691" lon="-72.31085">
        <ele>319.8</ele>
      </trkpt>
      <trkpt lat="45.0567" lon="-72.3108">
        <ele>320.2</ele>
      </trkpt>
      <trkpt lat="45.056195" lon="-72.310594">
        <ele>320.7</ele>
      </trkpt>
      <trkpt lat="45.05569" lon="-72.31039">
        <ele>321.7</ele>
      </trkpt>
      <trkpt lat="45.05521" lon="-72.31005">
        <ele>324.2</ele>
      </trkpt>
      <trkpt lat="45.0547" lon="-72.30963">
        <ele>327.7</ele>
      </trkpt>
      <trkpt lat="45.05459" lon="-72.30955">
        <ele>327.9</ele>
      </trkpt>
      <trkpt lat="45.05435" lon="-72.3095">
        <ele>327.8</ele>
      </trkpt>
      <trkpt lat="45.05378" lon="-72.30923">
        <ele>327</ele>
      </trkpt>
      <trkpt lat="45.053123" lon="-72.308849">
        <ele>327.4</ele>
      </trkpt>
      <trkpt lat="45.052466" lon="-72.308469">
        <ele>327.8</ele>
      </trkpt>
      <trkpt lat="45.05181" lon="-72.30809">
        <ele>327.8</ele>
      </trkpt>
      <trkpt lat="45.05182" lon="-72.309084">
        <ele>320.3</ele>
      </trkpt>
      <trkpt lat="45.05183" lon="-72.31008">
        <ele>316.1</ele>
      </trkpt>
      <trkpt lat="45.051865" lon="-72.311139">
        <ele>314.2</ele>
      </trkpt>
      <trkpt lat="45.0519" lon="-72.3122">
        <ele>310.7</ele>
      </trkpt>
      <trkpt lat="45.05185" lon="-72.31308">
        <ele>304.6</ele>
      </trkpt>
      <trkpt lat="45.05168" lon="-72.31362">
        <ele>302.4</ele>
      </trkpt>
      <trkpt lat="45.0514" lon="-72.31441">
        <ele>298</ele>
      </trkpt>
      <trkpt lat="45.05112" lon="-72.3152">
        <ele>297</ele>
      </trkpt>
      <trkpt lat="45.05111" lon="-72.31521">
        <ele>297</ele>
      </trkpt>
      <trkpt lat="45.050754" lon="-72.316272">
        <ele>296.1</ele>
      </trkpt>
      <trkpt lat="45.050398" lon="-72.317334">
        <ele>293.4</ele>
      </trkpt>
      <trkpt lat="45.050042" lon="-72.318396">
        <ele>295.5</ele>
      </trkpt>
      <trkpt lat="45.049686" lon="-72.319458">
        <ele>300.5</ele>
      </trkpt>
      <trkpt lat="45.04933" lon="-72.32052">
        <ele>302.6</ele>
      </trkpt>
      <trkpt lat="45.049013" lon="-72.321393">
        <ele>303</ele>
      </trkpt>
      <trkpt lat="45.048696" lon="-72.322266">
        <ele>304.2</ele>
      </trkpt>
      <trkpt lat="45.04838" lon="-72.32314">
        <ele>306.3</ele>
      </trkpt>
      <trkpt lat="45.04813" lon="-72.32383">
        <ele>306.8</ele>
      </trkpt>
      <trkpt lat="45.04797" lon="-72.32446">
        <ele>306.3</ele>
      </trkpt>
      <trkpt lat="45.04792" lon="-72.32481">
        <ele>306.1</ele>
      </trkpt>
      <trkpt lat="45.047855" lon="-72.32582">
        <ele>304.8</ele>
      </trkpt>
      <trkpt lat="45.04779" lon="-72.32683">
        <ele>302.1</ele>
      </trkpt>
      <trkpt lat="45.04775" lon="-72.32768">
        <ele>299.7</ele>
      </trkpt>
      <trkpt lat="45.04771" lon="-72.32853">
        <ele>298.8</ele>
      </trkpt>
      <trkpt lat="45.04767" lon="-72.32938">
        <ele>298.7</ele>
      </trkpt>
      <trkpt lat="45.04765" lon="-72.32956">
        <ele>298.7</ele>
      </trkpt>
      <trkpt lat="45.04757" lon="-72.32984">
        <ele>298.8</ele>
      </trkpt>
      <trkpt lat="45.04742" lon="-72.33019">
        <ele>298.6</ele>
      </trkpt>
      <trkpt lat="45.04723" lon="-72.33055">
        <ele>298.3</ele>
      </trkpt>
      <trkpt lat="45.046915" lon="-72.33113">
        <ele>297.4</ele>
      </trkpt>
      <trkpt lat="45.0466" lon="-72.33171">
        <ele>296.9</ele>
      </trkpt>
      <trkpt lat="45.04617" lon="-72.33245">
        <ele>293.3</ele>
      </trkpt>
      <trkpt lat="45.04574" lon="-72.33319">
        <ele>291.1</ele>
      </trkpt>
      <trkpt lat="45.04531" lon="-72.33393">
        <ele>289.1</ele>
      </trkpt>
      <trkpt lat="45.04532" lon="-72.33392">
        <ele>289.1</ele>
      </trkpt>
      <trkpt lat="45.04476" lon="-72.33489">
        <ele>286.2</ele>
      </trkpt>
      <trkpt lat="45.04437" lon="-72.33578">
        <ele>281.4</ele>
      </trkpt>
      <trkpt lat="45.04427" lon="-72.33619">
        <ele>279.9</ele>
      </trkpt>
      <trkpt lat="45.044145" lon="-72.336815">
        <ele>277.8</ele>
      </trkpt>
      <trkpt lat="45.04402" lon="-72.33744">
        <ele>277.2</ele>
      </trkpt>
      <trkpt lat="45.04394" lon="-72.33771">
        <ele>276.8</ele>
      </trkpt>
      <trkpt lat="45.04375" lon="-72.33824">
        <ele>276</ele>
      </trkpt>
      <trkpt lat="45.04356" lon="-72.33869">
        <ele>275.6</ele>
      </trkpt>
      <trkpt lat="45.04334" lon="-72.33909">
        <ele>275.3</ele>
      </trkpt>
      <trkpt lat="45.04321" lon="-72.33923">
        <ele>275.2</ele>
      </trkpt>
      <trkpt lat="45.04286" lon="-72.33949">
        <ele>274.2</ele>
      </trkpt>
      <trkpt lat="45.042125" lon="-72.339945">
        <ele>272.4</ele>
      </trkpt>
      <trkpt lat="45.04139" lon="-72.3404">
        <ele>269.4</ele>
      </trkpt>
      <trkpt lat="45.040756" lon="-72.34083">
        <ele>266.4</ele>
      </trkpt>
      <trkpt lat="45.040123" lon="-72.34126">
        <ele>264</ele>
      </trkpt>
      <trkpt lat="45.03949" lon="-72.34169">
        <ele>263.6</ele>
      </trkpt>
      <trkpt lat="45.03945" lon="-72.34168">
        <ele>263.6</ele>
      </trkpt>
      <trkpt lat="45.03956" lon="-72.34269">
        <ele>260.8</ele>
      </trkpt>
      <trkpt lat="45.03979" lon="-72.34388">
        <ele>257</ele>
      </trkpt>
      <trkpt lat="45.039985" lon="-72.344509">
        <ele>255.2</ele>
      </trkpt>
      <trkpt lat="45.04018" lon="-72.34514">
        <ele>254.7</ele>
      </trkpt>
      <trkpt lat="45.040385" lon="-72.345944">
        <ele>253.7</ele>
      </trkpt>
      <trkpt lat="45.04059" lon="-72.34675">
        <ele>251.3</ele>
      </trkpt>
      <trkpt lat="45.040907" lon="-72.347702">
        <ele>247.6</ele>
      </trkpt>
      <trkpt lat="45.041225" lon="-72.348654">
        <ele>244.6</ele>
      </trkpt>
      <trkpt lat="45.041542" lon="-72.349607">
        <ele>239.5</ele>
      </trkpt>
      <trkpt lat="45.04186" lon="-72.35056">
        <ele>234.7</ele>
      </trkpt>
      <trkpt lat="45.04214" lon="-72.3515">
        <ele>232.6</ele>
      </trkpt>
      <trkpt lat="45.04218" lon="-72.35175">
        <ele>232</ele>
      </trkpt>
      <trkpt lat="45.041715" lon="-72.351734">
        <ele>230.8</ele>
      </trkpt>
      <trkpt lat="45.04125" lon="-72.35172">
        <ele>231.6</ele>
      </trkpt>
      <trkpt lat="45.040504" lon="-72.35172">
        <ele>233.9</ele>
      </trkpt>
      <trkpt lat="45.039759" lon="-72.35172">
        <ele>235.9</ele>
      </trkpt>
      <trkpt lat="45.039014" lon="-72.35172">
        <ele>238.6</ele>
      </trkpt>
      <trkpt lat="45.03827" lon="-72.35172">
        <ele>240.9</ele>
      </trkpt>
      <trkpt lat="45.037765" lon="-72.351745">
        <ele>243.2</ele>
      </trkpt>
      <trkpt lat="45.03726" lon="-72.35177">
        <ele>244.9</ele>
      </trkpt>
      <trkpt lat="45.03689" lon="-72.35172">
        <ele>246.8</ele>
      </trkpt>
      <trkpt lat="45.03629" lon="-72.35168">
        <ele>247.6</ele>
      </trkpt>
      <trkpt lat="45.035474" lon="-72.35168">
        <ele>247.5</ele>
      </trkpt>
      <trkpt lat="45.03466" lon="-72.35168">
        <ele>245.5</ele>
      </trkpt>
      <trkpt lat="45.034199" lon="-72.351705">
        <ele>244.5</ele>
      </trkpt>
      <trkpt lat="45.03374" lon="-72.35173">
        <ele>243.3</ele>
      </trkpt>
      <trkpt lat="45.033035" lon="-72.35175">
        <ele>241.4</ele>
      </trkpt>
      <trkpt lat="45.03233" lon="-72.35177">
        <ele>240.6</ele>
      </trkpt>
      <trkpt lat="45.031656" lon="-72.35177">
        <ele>240.6</ele>
      </trkpt>
      <trkpt lat="45.030983" lon="-72.35177">
        <ele>240.7</ele>
      </trkpt>
      <trkpt lat="45.03031" lon="-72.35177">
        <ele>241.3</ele>
      </trkpt>
      <trkpt lat="45.029532" lon="-72.351782">
        <ele>241.6</ele>
      </trkpt>
      <trkpt lat="45.028754" lon="-72.351794">
        <ele>241.9</ele>
      </trkpt>
      <trkpt lat="45.027976" lon="-72.351806">
        <ele>240.8</ele>
      </trkpt>
      <trkpt lat="45.027198" lon="-72.351818">
        <ele>238</ele>
      </trkpt>
      <trkpt lat="45.02642" lon="-72.35183">
        <ele>228.7</ele>
      </trkpt>
      <trkpt lat="45.02599" lon="-72.35181">
        <ele>227.6</ele>
      </trkpt>
      <trkpt lat="45.025167" lon="-72.35185">
        <ele>228.2</ele>
      </trkpt>
      <trkpt lat="45.024345" lon="-72.35189">
        <ele>235.2</ele>
      </trkpt>
      <trkpt lat="45.023522" lon="-72.35193">
        <ele>238.8</ele>
      </trkpt>
      <trkpt lat="45.0227" lon="-72.35197">
        <ele>239.4</ele>
      </trkpt>
      <trkpt lat="45.02186" lon="-72.35204">
        <ele>238.3</ele>
      </trkpt>
      <trkpt lat="45.02121" lon="-72.35208">
        <ele>239.9</ele>
      </trkpt>
      <trkpt lat="45.02108" lon="-72.35211">
        <ele>240</ele>
      </trkpt>
      <trkpt lat="45.02092" lon="-72.35235">
        <ele>239.3</ele>
      </trkpt>
      <trkpt lat="45.020525" lon="-72.35319">
        <ele>238.2</ele>
      </trkpt>
      <trkpt lat="45.02013" lon="-72.35403">
        <ele>238</ele>
      </trkpt>
      <trkpt lat="45.019646" lon="-72.355096">
        <ele>234.2</ele>
      </trkpt>
      <trkpt lat="45.019163" lon="-72.356163">
        <ele>227.6</ele>
      </trkpt>
      <trkpt lat="45.01868" lon="-72.35723">
        <ele>218.9</ele>
      </trkpt>
      <trkpt lat="45.01821" lon="-72.358202">
        <ele>214.7</ele>
      </trkpt>
      <trkpt lat="45.01774" lon="-72.359175">
        <ele>210.9</ele>
      </trkpt>
      <trkpt lat="45.01727" lon="-72.360147">
        <ele>207.5</ele>
      </trkpt>
      <trkpt lat="45.0168" lon="-72.36112">
        <ele>204.4</ele>
      </trkpt>
      <trkpt lat="45.016383" lon="-72.362016">
        <ele>201.1</ele>
      </trkpt>
      <trkpt lat="45.015966" lon="-72.362913">
        <ele>198.6</ele>
      </trkpt>
      <trkpt lat="45.01555" lon="-72.36381">
        <ele>195.8</ele>
      </trkpt>
      <trkpt lat="45.01548" lon="-72.36425">
        <ele>194.8</ele>
      </trkpt>
      <trkpt lat="45.01543" lon="-72.36525">
        <ele>193.8</ele>
      </trkpt>
      <trkpt lat="45.01543" lon="-72.36627">
        <ele>193.1</ele>
      </trkpt>
      <trkpt lat="45.01537" lon="-72.36658">
        <ele>193.1</ele>
      </trkpt>
      <trkpt lat="45.0152" lon="-72.36712">
        <ele>192.9</ele>
      </trkpt>
      <trkpt lat="45.01505" lon="-72.36748">
        <ele>192.5</ele>
      </trkpt>
      <trkpt lat="45.014715" lon="-72.36809">
        <ele>191.9</ele>
      </trkpt>
      <trkpt lat="45.01438" lon="-72.3687">
        <ele>191.5</ele>
      </trkpt>
      <trkpt lat="45.01422" lon="-72.36905">
        <ele>191.2</ele>
      </trkpt>
      <trkpt lat="45.01406" lon="-72.36958">
        <ele>190.5</ele>
      </trkpt>
      <trkpt lat="45.01395" lon="-72.37029">
        <ele>190.2</ele>
      </trkpt>
      <trkpt lat="45.01385" lon="-72.37066">
        <ele>190</ele>
      </trkpt>
      <trkpt lat="45.013565" lon="-72.3716">
        <ele>188.3</ele>
      </trkpt>
      <trkpt lat="45.01328" lon="-72.37254">
        <ele>189.8</ele>
      </trkpt>
      <trkpt lat="45.013" lon="-72.37311">
        <ele>189.2</ele>
      </trkpt>
      <trkpt lat="45.01277" lon="-72.37348">
        <ele>187.2</ele>
      </trkpt>
      <trkpt lat="45.01255" lon="-72.37375">
        <ele>183.8</ele>
      </trkpt>
      <trkpt lat="45.01239" lon="-72.37389">
        <ele>181.3</ele>
      </trkpt>
      <trkpt lat="45.01225" lon="-72.37414">
        <ele>178.2</ele>
      </trkpt>
      <trkpt lat="45.01221" lon="-72.37424">
        <ele>177.6</ele>
      </trkpt>
      <trkpt lat="45.01221" lon="-72.37453">
        <ele>175.9</ele>
      </trkpt>
      <trkpt lat="45.01231" lon="-72.37491">
        <ele>176.1</ele>
      </trkpt>
      <trkpt lat="45.0125" lon="-72.37536">
        <ele>176.6</ele>
      </trkpt>
      <trkpt lat="45.01268" lon="-72.37563">
        <ele>177.1</ele>
      </trkpt>
      <trkpt lat="45.01278" lon="-72.37571">
        <ele>177.7</ele>
      </trkpt>
      <trkpt lat="45.0129" lon="-72.37576">
        <ele>178</ele>
      </trkpt>
      <trkpt lat="45.01316" lon="-72.37585">
        <ele>178.5</ele>
      </trkpt>
      <trkpt lat="45.01351" lon="-72.37589">
        <ele>178.5</ele>
      </trkpt>
      <trkpt lat="45.01425" lon="-72.37572">
        <ele>177.2</ele>
      </trkpt>
      <trkpt lat="45.01506" lon="-72.37563">
        <ele>182.9</ele>
      </trkpt>
      <trkpt lat="45.01545" lon="-72.37563">
        <ele>185.2</ele>
      </trkpt>
      <trkpt lat="45.01565" lon="-72.37568">
        <ele>188.3</ele>
      </trkpt>
      <trkpt lat="45.01613" lon="-72.3759">
        <ele>191.2</ele>
      </trkpt>
      <trkpt lat="45.01654" lon="-72.37616">
        <ele>192.1</ele>
      </trkpt>
      <trkpt lat="45.01681" lon="-72.37631">
        <ele>192.5</ele>
      </trkpt>
      <trkpt lat="45.01754" lon="-72.37693">
        <ele>192.2</ele>
      </trkpt>
      <trkpt lat="45.01777" lon="-72.37706">
        <ele>191.6</ele>
      </trkpt>
      <trkpt lat="45.01858" lon="-72.377599">
        <ele>189.5</ele>
      </trkpt>
      <trkpt lat="45.01939" lon="-72.37814">
        <ele>190.4</ele>
      </trkpt>
      <trkpt lat="45.01996" lon="-72.378579">
        <ele>192.5</ele>
      </trkpt>
      <trkpt lat="45.02053" lon="-72.37902">
        <ele>191.5</ele>
      </trkpt>
      <trkpt lat="45.02099" lon="-72.379494">
        <ele>191.4</ele>
      </trkpt>
      <trkpt lat="45.02145" lon="-72.37997">
        <ele>191.9</ele>
      </trkpt>
      <trkpt lat="45.02188" lon="-72.38036">
        <ele>193.3</ele>
      </trkpt>
      <trkpt lat="45.02222" lon="-72.3806">
        <ele>193.5</ele>
      </trkpt>
      <trkpt lat="45.02272" lon="-72.38083">
        <ele>194.4</ele>
      </trkpt>
      <trkpt lat="45.02289" lon="-72.3809">
        <ele>195</ele>
      </trkpt>
      <trkpt lat="45.02312" lon="-72.38089">
        <ele>195.3</ele>
      </trkpt>
      <trkpt lat="45.02361" lon="-72.38092">
        <ele>195.2</ele>
      </trkpt>
      <trkpt lat="45.02392" lon="-72.381">
        <ele>195.4</ele>
      </trkpt>
      <trkpt lat="45.024385" lon="-72.381229">
        <ele>196.9</ele>
      </trkpt>
      <trkpt lat="45.02485" lon="-72.38146">
        <ele>197</ele>
      </trkpt>
      <trkpt lat="45.02515" lon="-72.38172">
        <ele>196.8</ele>
      </trkpt>
      <trkpt lat="45.0253" lon="-72.38189">
        <ele>196.9</ele>
      </trkpt>
      <trkpt lat="45.02571" lon="-72.38221">
        <ele>197.1</ele>
      </trkpt>
      <trkpt lat="45.026235" lon="-72.382499">
        <ele>198.4</ele>
      </trkpt>
      <trkpt lat="45.02676" lon="-72.38279">
        <ele>198.3</ele>
      </trkpt>
      <trkpt lat="45.027205" lon="-72.382944">
        <ele>198</ele>
      </trkpt>
      <trkpt lat="45.02765" lon="-72.3831">
        <ele>199</ele>
      </trkpt>
      <trkpt lat="45.02811" lon="-72.383199">
        <ele>199.6</ele>
      </trkpt>
      <trkpt lat="45.02857" lon="-72.3833">
        <ele>199.8</ele>
      </trkpt>
      <trkpt lat="45.02854" lon="-72.38418">
        <ele>194.1</ele>
      </trkpt>
      <trkpt lat="45.028526" lon="-72.385086">
        <ele>191.1</ele>
      </trkpt>
      <trkpt lat="45.028513" lon="-72.385993">
        <ele>189.2</ele>
      </trkpt>
      <trkpt lat="45.0285" lon="-72.3869">
        <ele>188.7</ele>
      </trkpt>
      <trkpt lat="45.02849" lon="-72.38709">
        <ele>188.3</ele>
      </trkpt>
      <trkpt lat="45.02827" lon="-72.38808">
        <ele>187.1</ele>
      </trkpt>
      <trkpt lat="45.02827" lon="-72.38807">
        <ele>187.1</ele>
      </trkpt>
      <trkpt lat="45.028023" lon="-72.389193">
        <ele>187.2</ele>
      </trkpt>
      <trkpt lat="45.027776" lon="-72.390316">
        <ele>187.2</ele>
      </trkpt>
      <trkpt lat="45.02753" lon="-72.39144">
        <ele>186.8</ele>
      </trkpt>
      <trkpt lat="45.02751" lon="-72.39206">
        <ele>186.4</ele>
      </trkpt>
      <trkpt lat="45.027556" lon="-72.393313">
        <ele>186.1</ele>
      </trkpt>
      <trkpt lat="45.027603" lon="-72.394566">
        <ele>185.4</ele>
      </trkpt>
      <trkpt lat="45.02765" lon="-72.39582">
        <ele>186.5</ele>
      </trkpt>
      <trkpt lat="45.02766" lon="-72.39636">
        <ele>186.6</ele>
      </trkpt>
      <trkpt lat="45.027555" lon="-72.39698">
        <ele>186.9</ele>
      </trkpt>
      <trkpt lat="45.02745" lon="-72.3976">
        <ele>186.7</ele>
      </trkpt>
      <trkpt lat="45.027313" lon="-72.398706">
        <ele>186.5</ele>
      </trkpt>
      <trkpt lat="45.027176" lon="-72.399813">
        <ele>185.5</ele>
      </trkpt>
      <trkpt lat="45.02704" lon="-72.40092">
        <ele>184.9</ele>
      </trkpt>
      <trkpt lat="45.02694" lon="-72.40184">
        <ele>185.2</ele>
      </trkpt>
      <trkpt lat="45.02684" lon="-72.40276">
        <ele>185.3</ele>
      </trkpt>
      <trkpt lat="45.0268" lon="-72.40374">
        <ele>185.1</ele>
      </trkpt>
      <trkpt lat="45.0267" lon="-72.40486">
        <ele>184.1</ele>
      </trkpt>
      <trkpt lat="45.026537" lon="-72.406037">
        <ele>184.6</ele>
      </trkpt>
      <trkpt lat="45.026375" lon="-72.407215">
        <ele>184.8</ele>
      </trkpt>
      <trkpt lat="45.026212" lon="-72.408392">
        <ele>183.6</ele>
      </trkpt>
      <trkpt lat="45.02605" lon="-72.40957">
        <ele>184.9</ele>
      </trkpt>
      <trkpt lat="45.025935" lon="-72.41076">
        <ele>185</ele>
      </trkpt>
      <trkpt lat="45.02582" lon="-72.41195">
        <ele>184.5</ele>
      </trkpt>
      <trkpt lat="45.02575" lon="-72.412795">
        <ele>184.4</ele>
      </trkpt>
      <trkpt lat="45.02568" lon="-72.41364">
        <ele>184.5</ele>
      </trkpt>
      <trkpt lat="45.02568" lon="-72.41431">
        <ele>184.2</ele>
      </trkpt>
      <trkpt lat="45.02573" lon="-72.41462">
        <ele>184.1</ele>
      </trkpt>
      <trkpt lat="45.02594" lon="-72.415573">
        <ele>183.7</ele>
      </trkpt>
      <trkpt lat="45.02615" lon="-72.416526">
        <ele>183.9</ele>
      </trkpt>
      <trkpt lat="45.02636" lon="-72.41748">
        <ele>184.2</ele>
      </trkpt>
      <trkpt lat="45.02641" lon="-72.41807">
        <ele>184.4</ele>
      </trkpt>
      <trkpt lat="45.026515" lon="-72.419049">
        <ele>184.3</ele>
      </trkpt>
      <trkpt lat="45.02662" lon="-72.42003">
        <ele>183.9</ele>
      </trkpt>
      <trkpt lat="45.02671" lon="-72.420774">
        <ele>183.6</ele>
      </trkpt>
      <trkpt lat="45.0268" lon="-72.42152">
        <ele>183.4</ele>
      </trkpt>
      <trkpt lat="45.02688" lon="-72.42237">
        <ele>183.1</ele>
      </trkpt>
      <trkpt lat="45.027" lon="-72.42303">
        <ele>182.4</ele>
      </trkpt>
      <trkpt lat="45.027216" lon="-72.423823">
        <ele>181.1</ele>
      </trkpt>
      <trkpt lat="45.027433" lon="-72.424616">
        <ele>180.9</ele>
      </trkpt>
      <trkpt lat="45.02765" lon="-72.42541">
        <ele>180.9</ele>
      </trkpt>
      <trkpt lat="45.02776" lon="-72.42564">
        <ele>180</ele>
      </trkpt>
      <trkpt lat="45.02789" lon="-72.42585">
        <ele>178.6</ele>
      </trkpt>
      <trkpt lat="45.02813" lon="-72.42603">
        <ele>175.3</ele>
      </trkpt>
      <trkpt lat="45.02858" lon="-72.42631">
        <ele>171.2</ele>
      </trkpt>
      <trkpt lat="45.02905" lon="-72.426604">
        <ele>165.6</ele>
      </trkpt>
      <trkpt lat="45.02952" lon="-72.4269">
        <ele>161.5</ele>
      </trkpt>
      <trkpt lat="45.030155" lon="-72.426215">
        <ele>161.1</ele>
      </trkpt>
      <trkpt lat="45.03079" lon="-72.42553">
        <ele>160.8</ele>
      </trkpt>
      <trkpt lat="45.030935" lon="-72.426209">
        <ele>159.7</ele>
      </trkpt>
      <trkpt lat="45.03108" lon="-72.42689">
        <ele>159.1</ele>
      </trkpt>
      <trkpt lat="45.03114" lon="-72.42747">
        <ele>158.8</ele>
      </trkpt>
      <trkpt lat="45.03116" lon="-72.42802">
        <ele>158.3</ele>
      </trkpt>
      <trkpt lat="45.03107" lon="-72.42873">
        <ele>158.2</ele>
      </trkpt>
      <trkpt lat="45.03097" lon="-72.42913">
        <ele>158.4</ele>
      </trkpt>
      <trkpt lat="45.03085" lon="-72.42949">
        <ele>158.8</ele>
      </trkpt>
      <trkpt lat="45.03069" lon="-72.42989">
        <ele>159.1</ele>
      </trkpt>
      <trkpt lat="45.03035" lon="-72.43056">
        <ele>160.3</ele>
      </trkpt>
      <trkpt lat="45.03018" lon="-72.43096">
        <ele>161</ele>
      </trkpt>
      <trkpt lat="45.02992" lon="-72.43177">
        <ele>162.2</ele>
      </trkpt>
      <trkpt lat="45.02984" lon="-72.43222">
        <ele>163</ele>
      </trkpt>
      <trkpt lat="45.02982" lon="-72.43267">
        <ele>163.9</ele>
      </trkpt>
      <trkpt lat="45.02987" lon="-72.43316">
        <ele>164.6</ele>
      </trkpt>
      <trkpt lat="45.02995" lon="-72.43365">
        <ele>166</ele>
      </trkpt>
      <trkpt lat="45.03004" lon="-72.434">
        <ele>166.8</ele>
      </trkpt>
      <trkpt lat="45.03019" lon="-72.43438">
        <ele>167.3</ele>
      </trkpt>
      <trkpt lat="45.0305" lon="-72.434979">
        <ele>168.6</ele>
      </trkpt>
      <trkpt lat="45.03081" lon="-72.43558">
        <ele>169.8</ele>
      </trkpt>
      <trkpt lat="45.03128" lon="-72.43634">
        <ele>170.9</ele>
      </trkpt>
      <trkpt lat="45.0319" lon="-72.43725">
        <ele>169.5</ele>
      </trkpt>
      <trkpt lat="45.032355" lon="-72.437864">
        <ele>168.3</ele>
      </trkpt>
      <trkpt lat="45.03281" lon="-72.43848">
        <ele>167.5</ele>
      </trkpt>
      <trkpt lat="45.03349" lon="-72.439264">
        <ele>167.6</ele>
      </trkpt>
      <trkpt lat="45.03417" lon="-72.44005">
        <ele>166.9</ele>
      </trkpt>
      <trkpt lat="45.03444" lon="-72.44037">
        <ele>167</ele>
      </trkpt>
      <trkpt lat="45.0346" lon="-72.44063">
        <ele>167.4</ele>
      </trkpt>
      <trkpt lat="45.03477" lon="-72.44099">
        <ele>168.1</ele>
      </trkpt>
      <trkpt lat="45.03489" lon="-72.44132">
        <ele>169.4</ele>
      </trkpt>
      <trkpt lat="45.0352" lon="-72.44243">
        <ele>172.2</ele>
      </trkpt>
      <trkpt lat="45.035545" lon="-72.443459">
        <ele>171.3</ele>
      </trkpt>
      <trkpt lat="45.03589" lon="-72.44449">
        <ele>165.6</ele>
      </trkpt>
      <trkpt lat="45.03597" lon="-72.44484">
        <ele>163</ele>
      </trkpt>
      <trkpt lat="45.036085" lon="-72.445574">
        <ele>160</ele>
      </trkpt>
      <trkpt lat="45.0362" lon="-72.44631">
        <ele>158.9</ele>
      </trkpt>
      <trkpt lat="45.03631" lon="-72.44687">
        <ele>159</ele>
      </trkpt>
      <trkpt lat="45.03646" lon="-72.4474">
        <ele>159.6</ele>
      </trkpt>
      <trkpt lat="45.03667" lon="-72.44794">
        <ele>161.6</ele>
      </trkpt>
      <trkpt lat="45.03685" lon="-72.44834">
        <ele>164.3</ele>
      </trkpt>
      <trkpt lat="45.03708" lon="-72.44873">
        <ele>167.8</ele>
      </trkpt>
      <trkpt lat="45.03761" lon="-72.449499">
        <ele>172.1</ele>
      </trkpt>
      <trkpt lat="45.03814" lon="-72.45027">
        <ele>176.8</ele>
      </trkpt>
      <trkpt lat="45.03869" lon="-72.45089">
        <ele>181.8</ele>
      </trkpt>
      <trkpt lat="45.03907" lon="-72.451244">
        <ele>183.9</ele>
      </trkpt>
      <trkpt lat="45.03945" lon="-72.4516">
        <ele>184.6</ele>
      </trkpt>
      <trkpt lat="45.0396" lon="-72.45175">
        <ele>184.1</ele>
      </trkpt>
      <trkpt lat="45.03981" lon="-72.45206">
        <ele>182.9</ele>
      </trkpt>
      <trkpt lat="45.04012" lon="-72.45268">
        <ele>178.5</ele>
      </trkpt>
      <trkpt lat="45.04047" lon="-72.45364">
        <ele>175.9</ele>
      </trkpt>
      <trkpt lat="45.04086" lon="-72.45473">
        <ele>175.9</ele>
      </trkpt>
      <trkpt lat="45.04137" lon="-72.455674">
        <ele>176.4</ele>
      </trkpt>
      <trkpt lat="45.04188" lon="-72.45662">
        <ele>176.8</ele>
      </trkpt>
      <trkpt lat="45.042195" lon="-72.457159">
        <ele>177.8</ele>
      </trkpt>
      <trkpt lat="45.04251" lon="-72.4577">
        <ele>178.4</ele>
      </trkpt>
      <trkpt lat="45.04281" lon="-72.45818">
        <ele>178.5</ele>
      </trkpt>
      <trkpt lat="45.04313" lon="-72.45854">
        <ele>178.7</ele>
      </trkpt>
      <trkpt lat="45.0434" lon="-72.45881">
        <ele>179.6</ele>
      </trkpt>
      <trkpt lat="45.04407" lon="-72.45935">
        <ele>182.3</ele>
      </trkpt>
      <trkpt lat="45.04447" lon="-72.45957">
        <ele>184.7</ele>
      </trkpt>
      <trkpt lat="45.04486" lon="-72.45975">
        <ele>187.3</ele>
      </trkpt>
      <trkpt lat="45.04521" lon="-72.45981">
        <ele>188.6</ele>
      </trkpt>
      <trkpt lat="45.04585" lon="-72.45989">
        <ele>190.8</ele>
      </trkpt>
      <trkpt lat="45.04658" lon="-72.46003">
        <ele>191.6</ele>
      </trkpt>
      <trkpt lat="45.04677" lon="-72.46013">
        <ele>191.6</ele>
      </trkpt>
      <trkpt lat="45.04713" lon="-72.46038">
        <ele>190.8</ele>
      </trkpt>
      <trkpt lat="45.04752" lon="-72.46075">
        <ele>187.9</ele>
      </trkpt>
      <trkpt lat="45.048025" lon="-72.461434">
        <ele>184.1</ele>
      </trkpt>
      <trkpt lat="45.04853" lon="-72.46212">
        <ele>178.6</ele>
      </trkpt>
      <trkpt lat="45.04889" lon="-72.46252">
        <ele>175.6</ele>
      </trkpt>
      <trkpt lat="45.049436" lon="-72.462973">
        <ele>170.5</ele>
      </trkpt>
      <trkpt lat="45.049983" lon="-72.463426">
        <ele>162.7</ele>
      </trkpt>
      <trkpt lat="45.05053" lon="-72.46388">
        <ele>159.2</ele>
      </trkpt>
      <trkpt lat="45.05092" lon="-72.46433">
        <ele>158.6</ele>
      </trkpt>
      <trkpt lat="45.05106" lon="-72.46455">
        <ele>158.7</ele>
      </trkpt>
      <trkpt lat="45.05128" lon="-72.46505">
        <ele>159.4</ele>
      </trkpt>
      <trkpt lat="45.0514" lon="-72.46543">
        <ele>159.9</ele>
      </trkpt>
      <trkpt lat="45.05149" lon="-72.46579">
        <ele>161.8</ele>
      </trkpt>
      <trkpt lat="45.05164" lon="-72.466564">
        <ele>164.8</ele>
      </trkpt>
      <trkpt lat="45.05179" lon="-72.46734">
        <ele>167.8</ele>
      </trkpt>
      <trkpt lat="45.05211" lon="-72.46727">
        <ele>168.3</ele>
      </trkpt>
      <trkpt lat="45.05254" lon="-72.46718">
        <ele>168.9</ele>
      </trkpt>
      <trkpt lat="45.05267" lon="-72.46714">
        <ele>169.2</ele>
      </trkpt>
      <trkpt lat="45.05333" lon="-72.46666">
        <ele>170.5</ele>
      </trkpt>
      <trkpt lat="45.05354" lon="-72.4666">
        <ele>170.9</ele>
      </trkpt>
      <trkpt lat="45.05392" lon="-72.46664">
        <ele>171.8</ele>
      </trkpt>
      <trkpt lat="45.0542" lon="-72.46672">
        <ele>172</ele>
      </trkpt>
      <trkpt lat="45.05468" lon="-72.46687">
        <ele>172.5</ele>
      </trkpt>
      <trkpt lat="45.05513" lon="-72.46727">
        <ele>173.8</ele>
      </trkpt>
      <trkpt lat="45.05522" lon="-72.46731">
        <ele>174.4</ele>
      </trkpt>
      <trkpt lat="45.05582" lon="-72.46741">
        <ele>177.3</ele>
      </trkpt>
      <trkpt lat="45.05593" lon="-72.46746">
        <ele>178.1</ele>
      </trkpt>
      <trkpt lat="45.05597" lon="-72.46753">
        <ele>178.1</ele>
      </trkpt>
      <trkpt lat="45.05616" lon="-72.46809">
        <ele>181.3</ele>
      </trkpt>
      <trkpt lat="45.05629" lon="-72.46839">
        <ele>182.4</ele>
      </trkpt>
      <trkpt lat="45.05642" lon="-72.46853">
        <ele>182.7</ele>
      </trkpt>
      <trkpt lat="45.05655" lon="-72.46854">
        <ele>182.9</ele>
      </trkpt>
      <trkpt lat="45.05669" lon="-72.46852">
        <ele>183.6</ele>
      </trkpt>
      <trkpt lat="45.057185" lon="-72.46826">
        <ele>185.6</ele>
      </trkpt>
      <trkpt lat="45.05768" lon="-72.468">
        <ele>190.5</ele>
      </trkpt>
      <trkpt lat="45.05811" lon="-72.4677">
        <ele>192.3</ele>
      </trkpt>
      <trkpt lat="45.05854" lon="-72.4674">
        <ele>195.8</ele>
      </trkpt>
      <trkpt lat="45.05882" lon="-72.46727">
        <ele>197.9</ele>
      </trkpt>
      <trkpt lat="45.059473" lon="-72.467196">
        <ele>203.8</ele>
      </trkpt>
      <trkpt lat="45.060126" lon="-72.467123">
        <ele>208.4</ele>
      </trkpt>
      <trkpt lat="45.06078" lon="-72.46705">
        <ele>211.9</ele>
      </trkpt>
      <trkpt lat="45.06133" lon="-72.467184">
        <ele>215.5</ele>
      </trkpt>
      <trkpt lat="45.06188" lon="-72.46732">
        <ele>216.3</ele>
      </trkpt>
      <trkpt lat="45.06241" lon="-72.46723">
        <ele>215.9</ele>
      </trkpt>
      <trkpt lat="45.06309" lon="-72.46698">
        <ele>217</ele>
      </trkpt>
      <trkpt lat="45.06343" lon="-72.46691">
        <ele>218.1</ele>
      </trkpt>
      <trkpt lat="45.06367" lon="-72.46674">
        <ele>218.7</ele>
      </trkpt>
      <trkpt lat="45.06389" lon="-72.46648">
        <ele>219.1</ele>
      </trkpt>
      <trkpt lat="45.064" lon="-72.46633">
        <ele>219.8</ele>
      </trkpt>
      <trkpt lat="45.0641" lon="-72.46607">
        <ele>220.8</ele>
      </trkpt>
      <trkpt lat="45.06433" lon="-72.4653">
        <ele>223.9</ele>
      </trkpt>
      <trkpt lat="45.0647" lon="-72.46449">
        <ele>229.4</ele>
      </trkpt>
      <trkpt lat="45.065" lon="-72.464">
        <ele>234.3</ele>
      </trkpt>
      <trkpt lat="45.06557" lon="-72.46342">
        <ele>236.1</ele>
      </trkpt>
      <trkpt lat="45.06577" lon="-72.46333">
        <ele>236.1</ele>
      </trkpt>
      <trkpt lat="45.06628" lon="-72.46329">
        <ele>236.9</ele>
      </trkpt>
      <trkpt lat="45.06711" lon="-72.46315">
        <ele>237.5</ele>
      </trkpt>
      <trkpt lat="45.06794" lon="-72.46301">
        <ele>240.2</ele>
      </trkpt>
      <trkpt lat="45.06828" lon="-72.46283">
        <ele>243.6</ele>
      </trkpt>
      <trkpt lat="45.06883" lon="-72.46259">
        <ele>247.8</ele>
      </trkpt>
      <trkpt lat="45.06938" lon="-72.46235">
        <ele>249.8</ele>
      </trkpt>
      <trkpt lat="45.06963" lon="-72.46226">
        <ele>250.2</ele>
      </trkpt>
      <trkpt lat="45.07044" lon="-72.46217">
        <ele>247.4</ele>
      </trkpt>
      <trkpt lat="45.07112" lon="-72.46196">
        <ele>243.7</ele>
      </trkpt>
      <trkpt lat="45.07106" lon="-72.46182">
        <ele>242.3</ele>
      </trkpt>
      <trkpt lat="45.0708" lon="-72.46145">
        <ele>240.3</ele>
      </trkpt>
      <trkpt lat="45.0705" lon="-72.46092">
        <ele>238.1</ele>
      </trkpt>
      <trkpt lat="45.07035" lon="-72.46055">
        <ele>237.9</ele>
      </trkpt>
      <trkpt lat="45.07031" lon="-72.46047">
        <ele>237.8</ele>
      </trkpt>
      <trkpt lat="45.07009" lon="-72.45969">
        <ele>238.5</ele>
      </trkpt>
      <trkpt lat="45.06989" lon="-72.45891">
        <ele>241.4</ele>
      </trkpt>
      <trkpt lat="45.06967" lon="-72.45792">
        <ele>248.7</ele>
      </trkpt>
      <trkpt lat="45.06932" lon="-72.45716">
        <ele>254.7</ele>
      </trkpt>
      <trkpt lat="45.06882" lon="-72.45622">
        <ele>259.4</ele>
      </trkpt>
      <trkpt lat="45.06877" lon="-72.45608">
        <ele>259.7</ele>
      </trkpt>
      <trkpt lat="45.06877" lon="-72.45582">
        <ele>260.5</ele>
      </trkpt>
      <trkpt lat="45.06882" lon="-72.45554">
        <ele>261.3</ele>
      </trkpt>
      <trkpt lat="45.06894" lon="-72.45528">
        <ele>262.5</ele>
      </trkpt>
      <trkpt lat="45.06916" lon="-72.45487">
        <ele>266.4</ele>
      </trkpt>
      <trkpt lat="45.0693" lon="-72.45451">
        <ele>269.6</ele>
      </trkpt>
      <trkpt lat="45.06934" lon="-72.4542">
        <ele>273.9</ele>
      </trkpt>
      <trkpt lat="45.06931" lon="-72.45393">
        <ele>275</ele>
      </trkpt>
      <trkpt lat="45.06923" lon="-72.45362">
        <ele>279</ele>
      </trkpt>
      <trkpt lat="45.06925" lon="-72.45308">
        <ele>283.2</ele>
      </trkpt>
      <trkpt lat="45.06933" lon="-72.45241">
        <ele>287.2</ele>
      </trkpt>
      <trkpt lat="45.0695" lon="-72.45157">
        <ele>292.5</ele>
      </trkpt>
      <trkpt lat="45.0697" lon="-72.45107">
        <ele>294.7</ele>
      </trkpt>
      <trkpt lat="45.06991" lon="-72.450085">
        <ele>300.3</ele>
      </trkpt>
      <trkpt lat="45.07012" lon="-72.4491">
        <ele>307.5</ele>
      </trkpt>
      <trkpt lat="45.07015" lon="-72.44807">
        <ele>311.7</ele>
      </trkpt>
      <trkpt lat="45.07008" lon="-72.44714">
        <ele>314.7</ele>
      </trkpt>
      <trkpt lat="45.07007" lon="-72.44677">
        <ele>318.5</ele>
      </trkpt>
      <trkpt lat="45.070185" lon="-72.445985">
        <ele>323.7</ele>
      </trkpt>
      <trkpt lat="45.0703" lon="-72.4452">
        <ele>326.7</ele>
      </trkpt>
      <trkpt lat="45.07033" lon="-72.44435">
        <ele>331.4</ele>
      </trkpt>
      <trkpt lat="45.07028" lon="-72.44377">
        <ele>336.1</ele>
      </trkpt>
      <trkpt lat="45.0702" lon="-72.4435">
        <ele>339.3</ele>
      </trkpt>
      <trkpt lat="45.07" lon="-72.44297">
        <ele>342.3</ele>
      </trkpt>
      <trkpt lat="45.06995" lon="-72.44278">
        <ele>345</ele>
      </trkpt>
      <trkpt lat="45.06996" lon="-72.44243">
        <ele>346.7</ele>
      </trkpt>
      <trkpt lat="45.07008" lon="-72.44216">
        <ele>347.1</ele>
      </trkpt>
      <trkpt lat="45.07022" lon="-72.44193">
        <ele>347.5</ele>
      </trkpt>
      <trkpt lat="45.07065" lon="-72.44104">
        <ele>350.4</ele>
      </trkpt>
      <trkpt lat="45.07095" lon="-72.4405">
        <ele>351.9</ele>
      </trkpt>
      <trkpt lat="45.07104" lon="-72.44028">
        <ele>351.9</ele>
      </trkpt>
      <trkpt lat="45.07108" lon="-72.44006">
        <ele>351.8</ele>
      </trkpt>
      <trkpt lat="45.07106" lon="-72.43973">
        <ele>351.8</ele>
      </trkpt>
      <trkpt lat="45.07099" lon="-72.4394">
        <ele>351.6</ele>
      </trkpt>
      <trkpt lat="45.070805" lon="-72.438739">
        <ele>351.3</ele>
      </trkpt>
      <trkpt lat="45.07062" lon="-72.43808">
        <ele>350.9</ele>
      </trkpt>
      <trkpt lat="45.07056" lon="-72.43764">
        <ele>351.3</ele>
      </trkpt>
      <trkpt lat="45.07054" lon="-72.43714">
        <ele>350.4</ele>
      </trkpt>
      <trkpt lat="45.07065" lon="-72.43629">
        <ele>347.2</ele>
      </trkpt>
      <trkpt lat="45.07079" lon="-72.43581">
        <ele>343.9</ele>
      </trkpt>
      <trkpt lat="45.071185" lon="-72.435095">
        <ele>338.3</ele>
      </trkpt>
      <trkpt lat="45.07158" lon="-72.43438">
        <ele>336.4</ele>
      </trkpt>
      <trkpt lat="45.07168" lon="-72.43414">
        <ele>336.3</ele>
      </trkpt>
      <trkpt lat="45.07182" lon="-72.43351">
        <ele>334.8</ele>
      </trkpt>
      <trkpt lat="45.07181" lon="-72.43324">
        <ele>334</ele>
      </trkpt>
      <trkpt lat="45.07178" lon="-72.43302">
        <ele>334</ele>
      </trkpt>
      <trkpt lat="45.07159" lon="-72.432">
        <ele>332.2</ele>
      </trkpt>
      <trkpt lat="45.0715" lon="-72.43118">
        <ele>330.2</ele>
      </trkpt>
      <trkpt lat="45.07153" lon="-72.43073">
        <ele>329.7</ele>
      </trkpt>
      <trkpt lat="45.07166" lon="-72.42985">
        <ele>329.5</ele>
      </trkpt>
      <trkpt lat="45.07165" lon="-72.42971">
        <ele>329.4</ele>
      </trkpt>
      <trkpt lat="45.07153" lon="-72.42909">
        <ele>329.3</ele>
      </trkpt>
      <trkpt lat="45.07131" lon="-72.42859">
        <ele>328</ele>
      </trkpt>
      <trkpt lat="45.07123" lon="-72.42806">
        <ele>325.9</ele>
      </trkpt>
      <trkpt lat="45.0712" lon="-72.4277">
        <ele>325</ele>
      </trkpt>
      <trkpt lat="45.07119" lon="-72.42681">
        <ele>322.3</ele>
      </trkpt>
      <trkpt lat="45.07113" lon="-72.42564">
        <ele>319</ele>
      </trkpt>
      <trkpt lat="45.07105" lon="-72.42519">
        <ele>316.7</ele>
      </trkpt>
      <trkpt lat="45.07096" lon="-72.42483">
        <ele>315.4</ele>
      </trkpt>
      <trkpt lat="45.0709" lon="-72.42429">
        <ele>311.9</ele>
      </trkpt>
      <trkpt lat="45.07064" lon="-72.42313">
        <ele>308.8</ele>
      </trkpt>
      <trkpt lat="45.07044" lon="-72.42241">
        <ele>306.9</ele>
      </trkpt>
      <trkpt lat="45.07021" lon="-72.42193">
        <ele>304.9</ele>
      </trkpt>
      <trkpt lat="45.07004" lon="-72.42102">
        <ele>297.9</ele>
      </trkpt>
      <trkpt lat="45.06997" lon="-72.4208">
        <ele>297.3</ele>
      </trkpt>
      <trkpt lat="45.06977" lon="-72.42044">
        <ele>295.7</ele>
      </trkpt>
      <trkpt lat="45.06949" lon="-72.42">
        <ele>293.4</ele>
      </trkpt>
      <trkpt lat="45.06935" lon="-72.41964">
        <ele>290.2</ele>
      </trkpt>
      <trkpt lat="45.06927" lon="-72.41933">
        <ele>289</ele>
      </trkpt>
      <trkpt lat="45.06919" lon="-72.4187">
        <ele>286.9</ele>
      </trkpt>
      <trkpt lat="45.06919" lon="-72.41811">
        <ele>284.4</ele>
      </trkpt>
      <trkpt lat="45.0692" lon="-72.41745">
        <ele>282.7</ele>
      </trkpt>
      <trkpt lat="45.06927" lon="-72.41673">
        <ele>280.2</ele>
      </trkpt>
      <trkpt lat="45.06931" lon="-72.41606">
        <ele>278</ele>
      </trkpt>
      <trkpt lat="45.06928" lon="-72.41565">
        <ele>278</ele>
      </trkpt>
      <trkpt lat="45.06913" lon="-72.41471">
        <ele>274.4</ele>
      </trkpt>
      <trkpt lat="45.06903" lon="-72.41386">
        <ele>273.5</ele>
      </trkpt>
      <trkpt lat="45.06892" lon="-72.41342">
        <ele>273.5</ele>
      </trkpt>
      <trkpt lat="45.06845" lon="-72.41239">
        <ele>270.5</ele>
      </trkpt>
      <trkpt lat="45.06834" lon="-72.41202">
        <ele>268.4</ele>
      </trkpt>
      <trkpt lat="45.06828" lon="-72.41167">
        <ele>264.7</ele>
      </trkpt>
      <trkpt lat="45.06821" lon="-72.41095">
        <ele>260.5</ele>
      </trkpt>
      <trkpt lat="45.06808" lon="-72.41033">
        <ele>257</ele>
      </trkpt>
      <trkpt lat="45.0678" lon="-72.409469">
        <ele>252.5</ele>
      </trkpt>
      <trkpt lat="45.06752" lon="-72.40861">
        <ele>248</ele>
      </trkpt>
      <trkpt lat="45.06713" lon="-72.408">
        <ele>245.4</ele>
      </trkpt>
      <trkpt lat="45.06706" lon="-72.40796">
        <ele>244.6</ele>
      </trkpt>
      <trkpt lat="45.06647" lon="-72.40782">
        <ele>243</ele>
      </trkpt>
      <trkpt lat="45.0662" lon="-72.40773">
        <ele>242.7</ele>
      </trkpt>
      <trkpt lat="45.06578" lon="-72.4075">
        <ele>241.4</ele>
      </trkpt>
      <trkpt lat="45.06493" lon="-72.40715">
        <ele>240.7</ele>
      </trkpt>
      <trkpt lat="45.06454" lon="-72.40696">
        <ele>239.8</ele>
      </trkpt>
      <trkpt lat="45.06377" lon="-72.406539">
        <ele>235.9</ele>
      </trkpt>
      <trkpt lat="45.063" lon="-72.40612">
        <ele>229.2</ele>
      </trkpt>
      <trkpt lat="45.0628" lon="-72.40594">
        <ele>228</ele>
      </trkpt>
      <trkpt lat="45.06266" lon="-72.40576">
        <ele>227.2</ele>
      </trkpt>
      <trkpt lat="45.0624" lon="-72.40557">
        <ele>225.7</ele>
      </trkpt>
      <trkpt lat="45.06209" lon="-72.4054">
        <ele>222</ele>
      </trkpt>
      <trkpt lat="45.06168" lon="-72.40509">
        <ele>218</ele>
      </trkpt>
      <trkpt lat="45.0613" lon="-72.40464">
        <ele>213.1</ele>
      </trkpt>
      <trkpt lat="45.06103" lon="-72.40419">
        <ele>210.9</ele>
      </trkpt>
      <trkpt lat="45.06083" lon="-72.40374">
        <ele>209.2</ele>
      </trkpt>
      <trkpt lat="45.06064" lon="-72.40339">
        <ele>208.5</ele>
      </trkpt>
      <trkpt lat="45.06041" lon="-72.40308">
        <ele>208</ele>
      </trkpt>
      <trkpt lat="45.06007" lon="-72.40283">
        <ele>207.3</ele>
      </trkpt>
      <trkpt lat="45.05982" lon="-72.40267">
        <ele>206.8</ele>
      </trkpt>
      <trkpt lat="45.0596" lon="-72.40249">
        <ele>206.8</ele>
      </trkpt>
      <trkpt lat="45.0593" lon="-72.40209">
        <ele>206.2</ele>
      </trkpt>
      <trkpt lat="45.05877" lon="-72.40142">
        <ele>205.3</ele>
      </trkpt>
      <trkpt lat="45.05849" lon="-72.40101">
        <ele>204.6</ele>
      </trkpt>
      <trkpt lat="45.0581" lon="-72.4002">
        <ele>203.7</ele>
      </trkpt>
      <trkpt lat="45.058" lon="-72.39989">
        <ele>203.1</ele>
      </trkpt>
      <trkpt lat="45.05778" lon="-72.39871">
        <ele>201</ele>
      </trkpt>
      <trkpt lat="45.05779" lon="-72.39871">
        <ele>201</ele>
      </trkpt>
      <trkpt lat="45.05776" lon="-72.39819">
        <ele>200.5</ele>
      </trkpt>
      <trkpt lat="45.057804" lon="-72.39716">
        <ele>198.4</ele>
      </trkpt>
      <trkpt lat="45.057848" lon="-72.39613">
        <ele>197.4</ele>
      </trkpt>
      <trkpt lat="45.057892" lon="-72.3951">
        <ele>197.2</ele>
      </trkpt>
      <trkpt lat="45.057936" lon="-72.39407">
        <ele>197.4</ele>
      </trkpt>
      <trkpt lat="45.05798" lon="-72.39304">
        <ele>196.2</ele>
      </trkpt>
      <trkpt lat="45.05798" lon="-72.39187">
        <ele>196.1</ele>
      </trkpt>
      <trkpt lat="45.057435" lon="-72.3921">
        <ele>196.6</ele>
      </trkpt>
      <trkpt lat="45.05689" lon="-72.39233">
        <ele>196.7</ele>
      </trkpt>
      <trkpt lat="45.056365" lon="-72.39258">
        <ele>195.6</ele>
      </trkpt>
      <trkpt lat="45.05584" lon="-72.39283">
        <ele>194.6</ele>
      </trkpt>
      <trkpt lat="45.05557" lon="-72.39292">
        <ele>193.3</ele>
      </trkpt>
      <trkpt lat="45.05512" lon="-72.39296">
        <ele>192</ele>
      </trkpt>
      <trkpt lat="45.054569" lon="-72.392909">
        <ele>190.7</ele>
      </trkpt>
      <trkpt lat="45.05402" lon="-72.39286">
        <ele>190.4</ele>
      </trkpt>
      <trkpt lat="45.05353" lon="-72.39271">
        <ele>190.8</ele>
      </trkpt>
      <trkpt lat="45.05304" lon="-72.392499">
        <ele>191.1</ele>
      </trkpt>
      <trkpt lat="45.05255" lon="-72.39229">
        <ele>191.8</ele>
      </trkpt>
      <trkpt lat="45.0523" lon="-72.3922">
        <ele>192.6</ele>
      </trkpt>
      <trkpt lat="45.05206" lon="-72.39215">
        <ele>193.6</ele>
      </trkpt>
      <trkpt lat="45.051359" lon="-72.392094">
        <ele>194.2</ele>
      </trkpt>
      <trkpt lat="45.05066" lon="-72.39204">
        <ele>193.7</ele>
      </trkpt>
      <trkpt lat="45.05046" lon="-72.39204">
        <ele>193.1</ele>
      </trkpt>
    </trkseg>
  </trk>
</gpx>