<?xml version='1.0' encoding='utf-8'?>
<gpx xmlns="http://www.topografix.com/GPX/1/1" xmlns:xsi="http://www.w3.org/2001/XMLSchema-instance" version="1.1" creator="Gravelle Estrie" xsi:schemaLocation="http://www.topografix.com/GPX/1/1 http://www.topografix.com/GPX/1/1/gpx.xsd">
  <metadata>
    <name>Pork Épic 59km</name>
  </metadata>
  <trk>
    <name>Pork Épic 59km</name>
    <trkseg>
      <trkpt lat="45.04974" lon="-72.39202">
        <ele>190.7</ele>
      </trkpt>
      <trkpt lat="45.04888" lon="-72.39219">
        <ele>184.8</ele>
      </trkpt>
      <trkpt lat="45.04871" lon="-72.39228">
        <ele>180.8</ele>
      </trkpt>
      <trkpt lat="45.04807" lon="-72.39264">
        <ele>174.7</ele>
      </trkpt>
      <trkpt lat="45.047405" lon="-72.39307">
        <ele>165.3</ele>
      </trkpt>
      <trkpt lat="45.04674" lon="-72.3935">
        <ele>158.9</ele>
      </trkpt>
      <trkpt lat="45.04644" lon="-72.3938">
        <ele>157.5</ele>
      </trkpt>
      <trkpt lat="45.04618" lon="-72.39413">
        <ele>157.1</ele>
      </trkpt>
      <trkpt lat="45.04598" lon="-72.39448">
        <ele>157.3</ele>
      </trkpt>
      <trkpt lat="45.04581" lon="-72.39489">
        <ele>157.9</ele>
      </trkpt>
      <trkpt lat="45.045566" lon="-72.39572">
        <ele>158.7</ele>
      </trkpt>
      <trkpt lat="45.045323" lon="-72.39655">
        <ele>159.2</ele>
      </trkpt>
      <trkpt lat="45.04508" lon="-72.39738">
        <ele>159.5</ele>
      </trkpt>
      <trkpt lat="45.04496" lon="-72.3977">
        <ele>159.5</ele>
      </trkpt>
      <trkpt lat="45.04466" lon="-72.39834">
        <ele>158.5</ele>
      </trkpt>
      <trkpt lat="45.04416" lon="-72.399275">
        <ele>157.9</ele>
      </trkpt>
      <trkpt lat="45.04366" lon="-72.40021">
        <ele>164.6</ele>
      </trkpt>
      <trkpt lat="45.04326" lon="-72.40111">
        <ele>169.3</ele>
      </trkpt>
      <trkpt lat="45.042908" lon="-72.402142">
        <ele>167.5</ele>
      </trkpt>
      <trkpt lat="45.042556" lon="-72.403174">
        <ele>163.7</ele>
      </trkpt>
      <trkpt lat="45.042204" lon="-72.404206">
        <ele>161.5</ele>
      </trkpt>
      <trkpt lat="45.041852" lon="-72.405238">
        <ele>160.2</ele>
      </trkpt>
      <trkpt lat="45.0415" lon="-72.40627">
        <ele>160.4</ele>
      </trkpt>
      <trkpt lat="45.04125" lon="-72.40698">
        <ele>161.1</ele>
      </trkpt>
      <trkpt lat="45.041" lon="-72.40769">
        <ele>162.4</ele>
      </trkpt>
      <trkpt lat="45.04076" lon="-72.40823">
        <ele>164</ele>
      </trkpt>
      <trkpt lat="45.040315" lon="-72.40909">
        <ele>166.4</ele>
      </trkpt>
      <trkpt lat="45.03987" lon="-72.40995">
        <ele>166.5</ele>
      </trkpt>
      <trkpt lat="45.039425" lon="-72.41081">
        <ele>167.7</ele>
      </trkpt>
      <trkpt lat="45.03898" lon="-72.41167">
        <ele>170.7</ele>
      </trkpt>
      <trkpt lat="45.03887" lon="-72.41192">
        <ele>171.3</ele>
      </trkpt>
      <trkpt lat="45.03887" lon="-72.41193">
        <ele>171.3</ele>
      </trkpt>
      <trkpt lat="45.038615" lon="-72.41254">
        <ele>172.1</ele>
      </trkpt>
      <trkpt lat="45.03836" lon="-72.41315">
        <ele>173.2</ele>
      </trkpt>
      <trkpt lat="45.03893" lon="-72.41341">
        <ele>176.5</ele>
      </trkpt>
      <trkpt lat="45.039606" lon="-72.413589">
        <ele>182.4</ele>
      </trkpt>
      <trkpt lat="45.040283" lon="-72.413769">
        <ele>190.3</ele>
      </trkpt>
      <trkpt lat="45.04096" lon="-72.41395">
        <ele>195</ele>
      </trkpt>
      <trkpt lat="45.041455" lon="-72.414084">
        <ele>198.6</ele>
      </trkpt>
      <trkpt lat="45.04195" lon="-72.41422">
        <ele>201.9</ele>
      </trkpt>
      <trkpt lat="45.04267" lon="-72.414473">
        <ele>206</ele>
      </trkpt>
      <trkpt lat="45.04339" lon="-72.414726">
        <ele>215.5</ele>
      </trkpt>
      <trkpt lat="45.04411" lon="-72.41498">
        <ele>223.9</ele>
      </trkpt>
      <trkpt lat="45.04441" lon="-72.41503">
        <ele>225.9</ele>
      </trkpt>
      <trkpt lat="45.04455" lon="-72.41502">
        <ele>226.6</ele>
      </trkpt>
      <trkpt lat="45.04493" lon="-72.41489">
        <ele>228.4</ele>
      </trkpt>
      <trkpt lat="45.04579" lon="-72.414626">
        <ele>229.6</ele>
      </trkpt>
      <trkpt lat="45.04665" lon="-72.414363">
        <ele>233.2</ele>
      </trkpt>
      <trkpt lat="45.04751" lon="-72.4141">
        <ele>239</ele>
      </trkpt>
      <trkpt lat="45.0475" lon="-72.4141">
        <ele>239</ele>
      </trkpt>
      <trkpt lat="45.04795" lon="-72.41398">
        <ele>241.2</ele>
      </trkpt>
      <trkpt lat="45.0484" lon="-72.41386">
        <ele>242.7</ele>
      </trkpt>
      <trkpt lat="45.04898" lon="-72.41374">
        <ele>245.2</ele>
      </trkpt>
      <trkpt lat="45.04956" lon="-72.41362">
        <ele>247.8</ele>
      </trkpt>
      <trkpt lat="45.04958" lon="-72.41387">
        <ele>249</ele>
      </trkpt>
      <trkpt lat="45.049617" lon="-72.415079">
        <ele>254</ele>
      </trkpt>
      <trkpt lat="45.049655" lon="-72.416289">
        <ele>257.3</ele>
      </trkpt>
      <trkpt lat="45.049692" lon="-72.417499">
        <ele>261.4</ele>
      </trkpt>
      <trkpt lat="45.04973" lon="-72.41871">
        <ele>265.8</ele>
      </trkpt>
      <trkpt lat="45.04977" lon="-72.419604">
        <ele>272.6</ele>
      </trkpt>
      <trkpt lat="45.04981" lon="-72.4205">
        <ele>278.1</ele>
      </trkpt>
      <trkpt lat="45.049865" lon="-72.421424">
        <ele>281</ele>
      </trkpt>
      <trkpt lat="45.04992" lon="-72.42235">
        <ele>285.2</ele>
      </trkpt>
      <trkpt lat="45.05041" lon="-72.422584">
        <ele>288.4</ele>
      </trkpt>
      <trkpt lat="45.0509" lon="-72.42282">
        <ele>290.8</ele>
      </trkpt>
      <trkpt lat="45.051475" lon="-72.423109">
        <ele>293.7</ele>
      </trkpt>
      <trkpt lat="45.05205" lon="-72.4234">
        <ele>295.4</ele>
      </trkpt>
      <trkpt lat="45.05225" lon="-72.42358">
        <ele>295.7</ele>
      </trkpt>
      <trkpt lat="45.05246" lon="-72.42381">
        <ele>296</ele>
      </trkpt>
      <trkpt lat="45.05282" lon="-72.42417">
        <ele>296.5</ele>
      </trkpt>
      <trkpt lat="45.053395" lon="-72.424569">
        <ele>297.3</ele>
      </trkpt>
      <trkpt lat="45.05397" lon="-72.42497">
        <ele>298.8</ele>
      </trkpt>
      <trkpt lat="45.05411" lon="-72.42506">
        <ele>299.3</ele>
      </trkpt>
      <trkpt lat="45.05452" lon="-72.42541">
        <ele>301.7</ele>
      </trkpt>
      <trkpt lat="45.05491" lon="-72.42587">
        <ele>305.6</ele>
      </trkpt>
      <trkpt lat="45.05516" lon="-72.42612">
        <ele>307</ele>
      </trkpt>
      <trkpt lat="45.05529" lon="-72.42617">
        <ele>307.9</ele>
      </trkpt>
      <trkpt lat="45.05585" lon="-72.426644">
        <ele>311.1</ele>
      </trkpt>
      <trkpt lat="45.05641" lon="-72.42712">
        <ele>315.2</ele>
      </trkpt>
      <trkpt lat="45.056855" lon="-72.427449">
        <ele>317.8</ele>
      </trkpt>
      <trkpt lat="45.0573" lon="-72.42778">
        <ele>319.2</ele>
      </trkpt>
      <trkpt lat="45.05784" lon="-72.428094">
        <ele>320.6</ele>
      </trkpt>
      <trkpt lat="45.05838" lon="-72.42841">
        <ele>321.6</ele>
      </trkpt>
      <trkpt lat="45.058975" lon="-72.428744">
        <ele>322.2</ele>
      </trkpt>
      <trkpt lat="45.05957" lon="-72.42908">
        <ele>322.8</ele>
      </trkpt>
      <trkpt lat="45.060035" lon="-72.429289">
        <ele>324</ele>
      </trkpt>
      <trkpt lat="45.0605" lon="-72.4295">
        <ele>323.8</ele>
      </trkpt>
      <trkpt lat="45.06067" lon="-72.42954">
        <ele>322.2</ele>
      </trkpt>
      <trkpt lat="45.06076" lon="-72.42953">
        <ele>321.7</ele>
      </trkpt>
      <trkpt lat="45.06082" lon="-72.42944">
        <ele>320.6</ele>
      </trkpt>
      <trkpt lat="45.06093" lon="-72.42918">
        <ele>317.5</ele>
      </trkpt>
      <trkpt lat="45.06113" lon="-72.42859">
        <ele>313.4</ele>
      </trkpt>
      <trkpt lat="45.06128" lon="-72.4277">
        <ele>312.3</ele>
      </trkpt>
      <trkpt lat="45.06144" lon="-72.42689">
        <ele>313.5</ele>
      </trkpt>
      <trkpt lat="45.06174" lon="-72.42591">
        <ele>310</ele>
      </trkpt>
      <trkpt lat="45.061855" lon="-72.425235">
        <ele>307</ele>
      </trkpt>
      <trkpt lat="45.06197" lon="-72.42456">
        <ele>303.1</ele>
      </trkpt>
      <trkpt lat="45.06206" lon="-72.42433">
        <ele>303</ele>
      </trkpt>
      <trkpt lat="45.0622" lon="-72.42403">
        <ele>303</ele>
      </trkpt>
      <trkpt lat="45.06269" lon="-72.42322">
        <ele>300.3</ele>
      </trkpt>
      <trkpt lat="45.06306" lon="-72.42272">
        <ele>300.4</ele>
      </trkpt>
      <trkpt lat="45.06317" lon="-72.42259">
        <ele>301</ele>
      </trkpt>
      <trkpt lat="45.06325" lon="-72.42255">
        <ele>301.1</ele>
      </trkpt>
      <trkpt lat="45.06341" lon="-72.42254">
        <ele>301.3</ele>
      </trkpt>
      <trkpt lat="45.064049" lon="-72.422556">
        <ele>302.4</ele>
      </trkpt>
      <trkpt lat="45.064689" lon="-72.422573">
        <ele>304.9</ele>
      </trkpt>
      <trkpt lat="45.06533" lon="-72.42259">
        <ele>304.4</ele>
      </trkpt>
      <trkpt lat="45.06578" lon="-72.422594">
        <ele>305</ele>
      </trkpt>
      <trkpt lat="45.06623" lon="-72.4226">
        <ele>307.4</ele>
      </trkpt>
      <trkpt lat="45.06665" lon="-72.42259">
        <ele>309.9</ele>
      </trkpt>
      <trkpt lat="45.06705" lon="-72.42246">
        <ele>312.3</ele>
      </trkpt>
      <trkpt lat="45.06728" lon="-72.42237">
        <ele>316.4</ele>
      </trkpt>
      <trkpt lat="45.06786" lon="-72.42205">
        <ele>318</ele>
      </trkpt>
      <trkpt lat="45.06798" lon="-72.422">
        <ele>317.5</ele>
      </trkpt>
      <trkpt lat="45.06816" lon="-72.42197">
        <ele>315.9</ele>
      </trkpt>
      <trkpt lat="45.068645" lon="-72.421989">
        <ele>313.9</ele>
      </trkpt>
      <trkpt lat="45.06913" lon="-72.42201">
        <ele>309.9</ele>
      </trkpt>
      <trkpt lat="45.06962" lon="-72.42193">
        <ele>305.4</ele>
      </trkpt>
      <trkpt lat="45.06961" lon="-72.42193">
        <ele>305.5</ele>
      </trkpt>
      <trkpt lat="45.06969" lon="-72.42192">
        <ele>305.5</ele>
      </trkpt>
      <trkpt lat="45.07017" lon="-72.42173">
        <ele>301.1</ele>
      </trkpt>
      <trkpt lat="45.07004" lon="-72.42102">
        <ele>297.2</ele>
      </trkpt>
      <trkpt lat="45.06997" lon="-72.4208">
        <ele>296.7</ele>
      </trkpt>
      <trkpt lat="45.06977" lon="-72.42044">
        <ele>294.8</ele>
      </trkpt>
      <trkpt lat="45.06949" lon="-72.42">
        <ele>291.7</ele>
      </trkpt>
      <trkpt lat="45.06935" lon="-72.41964">
        <ele>289.5</ele>
      </trkpt>
      <trkpt lat="45.06927" lon="-72.41933">
        <ele>288.9</ele>
      </trkpt>
      <trkpt lat="45.06919" lon="-72.4187">
        <ele>286.8</ele>
      </trkpt>
      <trkpt lat="45.06919" lon="-72.41811">
        <ele>284.4</ele>
      </trkpt>
      <trkpt lat="45.0692" lon="-72.41745">
        <ele>282.5</ele>
      </trkpt>
      <trkpt lat="45.06927" lon="-72.41673">
        <ele>279.9</ele>
      </trkpt>
      <trkpt lat="45.06931" lon="-72.41606">
        <ele>278</ele>
      </trkpt>
      <trkpt lat="45.06928" lon="-72.41565">
        <ele>278</ele>
      </trkpt>
      <trkpt lat="45.06913" lon="-72.41471">
        <ele>274.2</ele>
      </trkpt>
      <trkpt lat="45.06903" lon="-72.41386">
        <ele>273.6</ele>
      </trkpt>
      <trkpt lat="45.06892" lon="-72.41342">
        <ele>273.8</ele>
      </trkpt>
      <trkpt lat="45.06845" lon="-72.41239">
        <ele>269</ele>
      </trkpt>
      <trkpt lat="45.06834" lon="-72.41202">
        <ele>266.1</ele>
      </trkpt>
      <trkpt lat="45.06828" lon="-72.41167">
        <ele>262.7</ele>
      </trkpt>
      <trkpt lat="45.06821" lon="-72.41095">
        <ele>259.1</ele>
      </trkpt>
      <trkpt lat="45.06808" lon="-72.41033">
        <ele>255.2</ele>
      </trkpt>
      <trkpt lat="45.0678" lon="-72.409469">
        <ele>250.5</ele>
      </trkpt>
      <trkpt lat="45.06752" lon="-72.40861">
        <ele>246.9</ele>
      </trkpt>
      <trkpt lat="45.06713" lon="-72.408">
        <ele>244.1</ele>
      </trkpt>
      <trkpt lat="45.06706" lon="-72.40796">
        <ele>244.1</ele>
      </trkpt>
      <trkpt lat="45.06647" lon="-72.40782">
        <ele>242.4</ele>
      </trkpt>
      <trkpt lat="45.0662" lon="-72.40773">
        <ele>241.7</ele>
      </trkpt>
      <trkpt lat="45.06578" lon="-72.4075">
        <ele>240.6</ele>
      </trkpt>
      <trkpt lat="45.06493" lon="-72.40715">
        <ele>239.9</ele>
      </trkpt>
      <trkpt lat="45.06454" lon="-72.40696">
        <ele>238.6</ele>
      </trkpt>
      <trkpt lat="45.06377" lon="-72.406539">
        <ele>233.7</ele>
      </trkpt>
      <trkpt lat="45.063" lon="-72.40612">
        <ele>228.5</ele>
      </trkpt>
      <trkpt lat="45.0628" lon="-72.40594">
        <ele>227.2</ele>
      </trkpt>
      <trkpt lat="45.06266" lon="-72.40576">
        <ele>226.1</ele>
      </trkpt>
      <trkpt lat="45.0624" lon="-72.40557">
        <ele>222.6</ele>
      </trkpt>
      <trkpt lat="45.06209" lon="-72.4054">
        <ele>220.8</ele>
      </trkpt>
      <trkpt lat="45.06168" lon="-72.40509">
        <ele>216.1</ele>
      </trkpt>
      <trkpt lat="45.0613" lon="-72.40464">
        <ele>211.8</ele>
      </trkpt>
      <trkpt lat="45.06103" lon="-72.40419">
        <ele>209.7</ele>
      </trkpt>
      <trkpt lat="45.06083" lon="-72.40374">
        <ele>208.5</ele>
      </trkpt>
      <trkpt lat="45.06064" lon="-72.40339">
        <ele>207.6</ele>
      </trkpt>
      <trkpt lat="45.06041" lon="-72.40308">
        <ele>207.2</ele>
      </trkpt>
      <trkpt lat="45.06007" lon="-72.40283">
        <ele>206.4</ele>
      </trkpt>
      <trkpt lat="45.05982" lon="-72.40267">
        <ele>206.1</ele>
      </trkpt>
      <trkpt lat="45.0596" lon="-72.40249">
        <ele>205.9</ele>
      </trkpt>
      <trkpt lat="45.0593" lon="-72.40209">
        <ele>205.5</ele>
      </trkpt>
      <trkpt lat="45.05877" lon="-72.40142">
        <ele>204.5</ele>
      </trkpt>
      <trkpt lat="45.05849" lon="-72.40101">
        <ele>203.9</ele>
      </trkpt>
      <trkpt lat="45.0581" lon="-72.4002">
        <ele>202.9</ele>
      </trkpt>
      <trkpt lat="45.058" lon="-72.39989">
        <ele>202.6</ele>
      </trkpt>
      <trkpt lat="45.05789" lon="-72.399269">
        <ele>201.2</ele>
      </trkpt>
      <trkpt lat="45.05778" lon="-72.39865">
        <ele>200.1</ele>
      </trkpt>
      <trkpt lat="45.05776" lon="-72.39819">
        <ele>199.7</ele>
      </trkpt>
      <trkpt lat="45.057807" lon="-72.397052">
        <ele>197.7</ele>
      </trkpt>
      <trkpt lat="45.057855" lon="-72.395915">
        <ele>196.6</ele>
      </trkpt>
      <trkpt lat="45.057902" lon="-72.394777">
        <ele>197</ele>
      </trkpt>
      <trkpt lat="45.05795" lon="-72.39364">
        <ele>196.2</ele>
      </trkpt>
      <trkpt lat="45.05795" lon="-72.39365">
        <ele>196.2</ele>
      </trkpt>
      <trkpt lat="45.05798" lon="-72.39304">
        <ele>195.6</ele>
      </trkpt>
      <trkpt lat="45.05798" lon="-72.39187">
        <ele>195.8</ele>
      </trkpt>
      <trkpt lat="45.058445" lon="-72.39169">
        <ele>194</ele>
      </trkpt>
      <trkpt lat="45.05891" lon="-72.39151">
        <ele>192.7</ele>
      </trkpt>
      <trkpt lat="45.059415" lon="-72.39135">
        <ele>191.8</ele>
      </trkpt>
      <trkpt lat="45.05992" lon="-72.39119">
        <ele>190.8</ele>
      </trkpt>
      <trkpt lat="45.060772" lon="-72.39096">
        <ele>188.6</ele>
      </trkpt>
      <trkpt lat="45.061625" lon="-72.39073">
        <ele>184.3</ele>
      </trkpt>
      <trkpt lat="45.062477" lon="-72.3905">
        <ele>183.4</ele>
      </trkpt>
      <trkpt lat="45.06333" lon="-72.39027">
        <ele>184</ele>
      </trkpt>
      <trkpt lat="45.06402" lon="-72.390113">
        <ele>183.2</ele>
      </trkpt>
      <trkpt lat="45.06471" lon="-72.389956">
        <ele>182.9</ele>
      </trkpt>
      <trkpt lat="45.0654" lon="-72.3898">
        <ele>185.7</ele>
      </trkpt>
      <trkpt lat="45.066" lon="-72.38967">
        <ele>187.9</ele>
      </trkpt>
      <trkpt lat="45.0666" lon="-72.38954">
        <ele>189.1</ele>
      </trkpt>
      <trkpt lat="45.06748" lon="-72.38932">
        <ele>188.8</ele>
      </trkpt>
      <trkpt lat="45.06836" lon="-72.3891">
        <ele>189.8</ele>
      </trkpt>
      <trkpt lat="45.06924" lon="-72.38888">
        <ele>191</ele>
      </trkpt>
      <trkpt lat="45.06963" lon="-72.38883">
        <ele>191.8</ele>
      </trkpt>
      <trkpt lat="45.07049" lon="-72.38875">
        <ele>192.9</ele>
      </trkpt>
      <trkpt lat="45.07086" lon="-72.38875">
        <ele>193.1</ele>
      </trkpt>
      <trkpt lat="45.07135" lon="-72.38879">
        <ele>193.3</ele>
      </trkpt>
      <trkpt lat="45.07158" lon="-72.38882">
        <ele>193.5</ele>
      </trkpt>
      <trkpt lat="45.072173" lon="-72.388956">
        <ele>192.6</ele>
      </trkpt>
      <trkpt lat="45.072766" lon="-72.389093">
        <ele>190.8</ele>
      </trkpt>
      <trkpt lat="45.07336" lon="-72.38923">
        <ele>188.6</ele>
      </trkpt>
      <trkpt lat="45.07334" lon="-72.38905">
        <ele>188.2</ele>
      </trkpt>
      <trkpt lat="45.0733" lon="-72.38896">
        <ele>188.2</ele>
      </trkpt>
      <trkpt lat="45.07324" lon="-72.38889">
        <ele>187.5</ele>
      </trkpt>
      <trkpt lat="45.07289" lon="-72.3887">
        <ele>186</ele>
      </trkpt>
      <trkpt lat="45.0728" lon="-72.38861">
        <ele>185.4</ele>
      </trkpt>
      <trkpt lat="45.07261" lon="-72.38813">
        <ele>183.1</ele>
      </trkpt>
      <trkpt lat="45.07259" lon="-72.38803">
        <ele>183.1</ele>
      </trkpt>
      <trkpt lat="45.07259" lon="-72.38789">
        <ele>183</ele>
      </trkpt>
      <trkpt lat="45.07266" lon="-72.38758">
        <ele>183.1</ele>
      </trkpt>
      <trkpt lat="45.07299" lon="-72.38702">
        <ele>183.3</ele>
      </trkpt>
      <trkpt lat="45.07339" lon="-72.38622">
        <ele>183.8</ele>
      </trkpt>
      <trkpt lat="45.07358" lon="-72.38581">
        <ele>185.3</ele>
      </trkpt>
      <trkpt lat="45.07358" lon="-72.38582">
        <ele>185.3</ele>
      </trkpt>
      <trkpt lat="45.07407" lon="-72.384755">
        <ele>188.3</ele>
      </trkpt>
      <trkpt lat="45.07456" lon="-72.38369">
        <ele>190</ele>
      </trkpt>
      <trkpt lat="45.07474" lon="-72.38325">
        <ele>191.2</ele>
      </trkpt>
      <trkpt lat="45.07495" lon="-72.38217">
        <ele>194.2</ele>
      </trkpt>
      <trkpt lat="45.07504" lon="-72.3819">
        <ele>194.3</ele>
      </trkpt>
      <trkpt lat="45.07515" lon="-72.38167">
        <ele>194.6</ele>
      </trkpt>
      <trkpt lat="45.07562" lon="-72.38091">
        <ele>197</ele>
      </trkpt>
      <trkpt lat="45.07583" lon="-72.38041">
        <ele>197.7</ele>
      </trkpt>
      <trkpt lat="45.07613" lon="-72.37984">
        <ele>197.5</ele>
      </trkpt>
      <trkpt lat="45.07632" lon="-72.37943">
        <ele>198.5</ele>
      </trkpt>
      <trkpt lat="45.07648" lon="-72.37916">
        <ele>198.3</ele>
      </trkpt>
      <trkpt lat="45.07662" lon="-72.37882">
        <ele>197.4</ele>
      </trkpt>
      <trkpt lat="45.07673" lon="-72.37849">
        <ele>196.7</ele>
      </trkpt>
      <trkpt lat="45.076925" lon="-72.377285">
        <ele>199.1</ele>
      </trkpt>
      <trkpt lat="45.07712" lon="-72.37608">
        <ele>199.4</ele>
      </trkpt>
      <trkpt lat="45.07715" lon="-72.37572">
        <ele>199.7</ele>
      </trkpt>
      <trkpt lat="45.077175" lon="-72.374895">
        <ele>200.9</ele>
      </trkpt>
      <trkpt lat="45.0772" lon="-72.37407">
        <ele>201.1</ele>
      </trkpt>
      <trkpt lat="45.07724" lon="-72.3737">
        <ele>202.2</ele>
      </trkpt>
      <trkpt lat="45.07737" lon="-72.37321">
        <ele>204.7</ele>
      </trkpt>
      <trkpt lat="45.07765" lon="-72.37258">
        <ele>207</ele>
      </trkpt>
      <trkpt lat="45.07786" lon="-72.37228">
        <ele>207.5</ele>
      </trkpt>
      <trkpt lat="45.07835" lon="-72.37169">
        <ele>210.9</ele>
      </trkpt>
      <trkpt lat="45.07848" lon="-72.37147">
        <ele>213.3</ele>
      </trkpt>
      <trkpt lat="45.07853" lon="-72.37133">
        <ele>214.6</ele>
      </trkpt>
      <trkpt lat="45.07852" lon="-72.37066">
        <ele>218.7</ele>
      </trkpt>
      <trkpt lat="45.07854" lon="-72.37035">
        <ele>221.4</ele>
      </trkpt>
      <trkpt lat="45.07868" lon="-72.36919">
        <ele>229.4</ele>
      </trkpt>
      <trkpt lat="45.07878" lon="-72.36887">
        <ele>231.1</ele>
      </trkpt>
      <trkpt lat="45.07885" lon="-72.36878">
        <ele>231.4</ele>
      </trkpt>
      <trkpt lat="45.07898" lon="-72.36868">
        <ele>231.8</ele>
      </trkpt>
      <trkpt lat="45.07952" lon="-72.36841">
        <ele>233.3</ele>
      </trkpt>
      <trkpt lat="45.0801" lon="-72.36793">
        <ele>237</ele>
      </trkpt>
      <trkpt lat="45.08044" lon="-72.3676">
        <ele>238.4</ele>
      </trkpt>
      <trkpt lat="45.08109" lon="-72.36691">
        <ele>242.7</ele>
      </trkpt>
      <trkpt lat="45.08165" lon="-72.366235">
        <ele>245.5</ele>
      </trkpt>
      <trkpt lat="45.08221" lon="-72.36556">
        <ele>248.7</ele>
      </trkpt>
      <trkpt lat="45.08252" lon="-72.36529">
        <ele>249.8</ele>
      </trkpt>
      <trkpt lat="45.08294" lon="-72.36474">
        <ele>250.2</ele>
      </trkpt>
      <trkpt lat="45.08325" lon="-72.36417">
        <ele>250.3</ele>
      </trkpt>
      <trkpt lat="45.08336" lon="-72.36381">
        <ele>251.2</ele>
      </trkpt>
      <trkpt lat="45.08348" lon="-72.36319">
        <ele>252.8</ele>
      </trkpt>
      <trkpt lat="45.08368" lon="-72.36255">
        <ele>256.4</ele>
      </trkpt>
      <trkpt lat="45.08385" lon="-72.3621">
        <ele>259.4</ele>
      </trkpt>
      <trkpt lat="45.084" lon="-72.3618">
        <ele>260.9</ele>
      </trkpt>
      <trkpt lat="45.08427" lon="-72.36143">
        <ele>261.5</ele>
      </trkpt>
      <trkpt lat="45.08457" lon="-72.36108">
        <ele>261.2</ele>
      </trkpt>
      <trkpt lat="45.08474" lon="-72.36094">
        <ele>261.2</ele>
      </trkpt>
      <trkpt lat="45.08494" lon="-72.3608">
        <ele>261.2</ele>
      </trkpt>
      <trkpt lat="45.08537" lon="-72.36018">
        <ele>262.5</ele>
      </trkpt>
      <trkpt lat="45.0858" lon="-72.35956">
        <ele>265.3</ele>
      </trkpt>
      <trkpt lat="45.08593" lon="-72.35933">
        <ele>266</ele>
      </trkpt>
      <trkpt lat="45.08604" lon="-72.35906">
        <ele>267.1</ele>
      </trkpt>
      <trkpt lat="45.08624" lon="-72.35846">
        <ele>268.7</ele>
      </trkpt>
      <trkpt lat="45.08645" lon="-72.35794">
        <ele>271.6</ele>
      </trkpt>
      <trkpt lat="45.08671" lon="-72.35756">
        <ele>273.8</ele>
      </trkpt>
      <trkpt lat="45.08712" lon="-72.357879">
        <ele>273.2</ele>
      </trkpt>
      <trkpt lat="45.08753" lon="-72.3582">
        <ele>272.3</ele>
      </trkpt>
      <trkpt lat="45.08712" lon="-72.357879">
        <ele>273.4</ele>
      </trkpt>
      <trkpt lat="45.08671" lon="-72.35756">
        <ele>273.8</ele>
      </trkpt>
      <trkpt lat="45.08692" lon="-72.35733">
        <ele>274.9</ele>
      </trkpt>
      <trkpt lat="45.08703" lon="-72.35724">
        <ele>277.6</ele>
      </trkpt>
      <trkpt lat="45.08723" lon="-72.35714">
        <ele>278.5</ele>
      </trkpt>
      <trkpt lat="45.08746" lon="-72.35696">
        <ele>279.3</ele>
      </trkpt>
      <trkpt lat="45.08762" lon="-72.35677">
        <ele>280.6</ele>
      </trkpt>
      <trkpt lat="45.08791" lon="-72.35621">
        <ele>284.9</ele>
      </trkpt>
      <trkpt lat="45.08818" lon="-72.35547">
        <ele>290.5</ele>
      </trkpt>
      <trkpt lat="45.08842" lon="-72.35459">
        <ele>295.4</ele>
      </trkpt>
      <trkpt lat="45.08882" lon="-72.35356">
        <ele>300.5</ele>
      </trkpt>
      <trkpt lat="45.08898" lon="-72.35298">
        <ele>306.3</ele>
      </trkpt>
      <trkpt lat="45.089065" lon="-72.352355">
        <ele>310.8</ele>
      </trkpt>
      <trkpt lat="45.08915" lon="-72.35173">
        <ele>313</ele>
      </trkpt>
      <trkpt lat="45.08922" lon="-72.35159">
        <ele>313.3</ele>
      </trkpt>
      <trkpt lat="45.08974" lon="-72.35085">
        <ele>318.4</ele>
      </trkpt>
      <trkpt lat="45.09026" lon="-72.35011">
        <ele>324.1</ele>
      </trkpt>
      <trkpt lat="45.0904" lon="-72.34984">
        <ele>326.1</ele>
      </trkpt>
      <trkpt lat="45.090555" lon="-72.34906">
        <ele>330.1</ele>
      </trkpt>
      <trkpt lat="45.09071" lon="-72.34828">
        <ele>331.3</ele>
      </trkpt>
      <trkpt lat="45.09077" lon="-72.34806">
        <ele>330.8</ele>
      </trkpt>
      <trkpt lat="45.09111" lon="-72.34718">
        <ele>327.4</ele>
      </trkpt>
      <trkpt lat="45.091353" lon="-72.34635">
        <ele>326.8</ele>
      </trkpt>
      <trkpt lat="45.091596" lon="-72.34552">
        <ele>325.5</ele>
      </trkpt>
      <trkpt lat="45.09184" lon="-72.34469">
        <ele>324.9</ele>
      </trkpt>
      <trkpt lat="45.09217" lon="-72.34402">
        <ele>329.4</ele>
      </trkpt>
      <trkpt lat="45.0925" lon="-72.34335">
        <ele>336.1</ele>
      </trkpt>
      <trkpt lat="45.09296" lon="-72.34261">
        <ele>337</ele>
      </trkpt>
      <trkpt lat="45.09342" lon="-72.34187">
        <ele>343.2</ele>
      </trkpt>
      <trkpt lat="45.09362" lon="-72.34147">
        <ele>346.7</ele>
      </trkpt>
      <trkpt lat="45.09369" lon="-72.34129">
        <ele>346.7</ele>
      </trkpt>
      <trkpt lat="45.09385" lon="-72.34052">
        <ele>347.4</ele>
      </trkpt>
      <trkpt lat="45.0939" lon="-72.33968">
        <ele>349.7</ele>
      </trkpt>
      <trkpt lat="45.09393" lon="-72.338915">
        <ele>355.1</ele>
      </trkpt>
      <trkpt lat="45.09396" lon="-72.33815">
        <ele>358.7</ele>
      </trkpt>
      <trkpt lat="45.09393" lon="-72.33772">
        <ele>361.2</ele>
      </trkpt>
      <trkpt lat="45.09383" lon="-72.33735">
        <ele>364.6</ele>
      </trkpt>
      <trkpt lat="45.09356" lon="-72.33669">
        <ele>365.8</ele>
      </trkpt>
      <trkpt lat="45.09344" lon="-72.33658">
        <ele>366.1</ele>
      </trkpt>
      <trkpt lat="45.09338" lon="-72.33654">
        <ele>366.5</ele>
      </trkpt>
      <trkpt lat="45.09321" lon="-72.33655">
        <ele>367.5</ele>
      </trkpt>
      <trkpt lat="45.09306" lon="-72.33654">
        <ele>368.7</ele>
      </trkpt>
      <trkpt lat="45.09291" lon="-72.33633">
        <ele>370.3</ele>
      </trkpt>
      <trkpt lat="45.0929" lon="-72.33615">
        <ele>370.5</ele>
      </trkpt>
      <trkpt lat="45.09291" lon="-72.33595">
        <ele>371.5</ele>
      </trkpt>
      <trkpt lat="45.09296" lon="-72.3356">
        <ele>373.1</ele>
      </trkpt>
      <trkpt lat="45.09308" lon="-72.33519">
        <ele>376.3</ele>
      </trkpt>
      <trkpt lat="45.0932" lon="-72.33493">
        <ele>378.4</ele>
      </trkpt>
      <trkpt lat="45.09326" lon="-72.33476">
        <ele>379.4</ele>
      </trkpt>
      <trkpt lat="45.09333" lon="-72.33417">
        <ele>382.4</ele>
      </trkpt>
      <trkpt lat="45.09334" lon="-72.33373">
        <ele>382.5</ele>
      </trkpt>
      <trkpt lat="45.09331" lon="-72.332719">
        <ele>383.6</ele>
      </trkpt>
      <trkpt lat="45.09328" lon="-72.33171">
        <ele>381.5</ele>
      </trkpt>
      <trkpt lat="45.093266" lon="-72.330503">
        <ele>376.7</ele>
      </trkpt>
      <trkpt lat="45.093253" lon="-72.329296">
        <ele>369.4</ele>
      </trkpt>
      <trkpt lat="45.09324" lon="-72.32809">
        <ele>365.4</ele>
      </trkpt>
      <trkpt lat="45.093222" lon="-72.327027">
        <ele>359.6</ele>
      </trkpt>
      <trkpt lat="45.093205" lon="-72.325964">
        <ele>354.1</ele>
      </trkpt>
      <trkpt lat="45.093187" lon="-72.324902">
        <ele>349.4</ele>
      </trkpt>
      <trkpt lat="45.09317" lon="-72.32384">
        <ele>343.9</ele>
      </trkpt>
      <trkpt lat="45.09319" lon="-72.32337">
        <ele>340.7</ele>
      </trkpt>
      <trkpt lat="45.09327" lon="-72.32262">
        <ele>335.6</ele>
      </trkpt>
      <trkpt lat="45.09349" lon="-72.32173">
        <ele>327.7</ele>
      </trkpt>
      <trkpt lat="45.09359" lon="-72.32141">
        <ele>325.9</ele>
      </trkpt>
      <trkpt lat="45.09359" lon="-72.32124">
        <ele>323.4</ele>
      </trkpt>
      <trkpt lat="45.09345" lon="-72.32016">
        <ele>316.7</ele>
      </trkpt>
      <trkpt lat="45.093453" lon="-72.319303">
        <ele>312.8</ele>
      </trkpt>
      <trkpt lat="45.093456" lon="-72.318446">
        <ele>307.6</ele>
      </trkpt>
      <trkpt lat="45.09346" lon="-72.31759">
        <ele>304.4</ele>
      </trkpt>
      <trkpt lat="45.09348" lon="-72.316375">
        <ele>298.3</ele>
      </trkpt>
      <trkpt lat="45.0935" lon="-72.31516">
        <ele>290.2</ele>
      </trkpt>
      <trkpt lat="45.09352" lon="-72.314275">
        <ele>287</ele>
      </trkpt>
      <trkpt lat="45.09354" lon="-72.31339">
        <ele>286.9</ele>
      </trkpt>
      <trkpt lat="45.0936" lon="-72.31246">
        <ele>285.7</ele>
      </trkpt>
      <trkpt lat="45.09367" lon="-72.31188">
        <ele>285.4</ele>
      </trkpt>
      <trkpt lat="45.09375" lon="-72.31152">
        <ele>285.3</ele>
      </trkpt>
      <trkpt lat="45.0941" lon="-72.31062">
        <ele>279.9</ele>
      </trkpt>
      <trkpt lat="45.09421" lon="-72.30946">
        <ele>271.8</ele>
      </trkpt>
      <trkpt lat="45.09433" lon="-72.30879">
        <ele>270.9</ele>
      </trkpt>
      <trkpt lat="45.09458" lon="-72.30767">
        <ele>273.8</ele>
      </trkpt>
      <trkpt lat="45.09475" lon="-72.30663">
        <ele>273</ele>
      </trkpt>
      <trkpt lat="45.0949" lon="-72.30601">
        <ele>271.9</ele>
      </trkpt>
      <trkpt lat="45.09439" lon="-72.3061">
        <ele>268.6</ele>
      </trkpt>
      <trkpt lat="45.09385" lon="-72.30611">
        <ele>265.6</ele>
      </trkpt>
      <trkpt lat="45.093103" lon="-72.306046">
        <ele>263.5</ele>
      </trkpt>
      <trkpt lat="45.092356" lon="-72.305983">
        <ele>262.2</ele>
      </trkpt>
      <trkpt lat="45.09161" lon="-72.30592">
        <ele>258.9</ele>
      </trkpt>
      <trkpt lat="45.0913" lon="-72.30588">
        <ele>257.6</ele>
      </trkpt>
      <trkpt lat="45.091" lon="-72.30579">
        <ele>256.7</ele>
      </trkpt>
      <trkpt lat="45.090366" lon="-72.305436">
        <ele>255.8</ele>
      </trkpt>
      <trkpt lat="45.089733" lon="-72.305083">
        <ele>255.2</ele>
      </trkpt>
      <trkpt lat="45.0891" lon="-72.30473">
        <ele>252.7</ele>
      </trkpt>
      <trkpt lat="45.08864" lon="-72.30448">
        <ele>250.7</ele>
      </trkpt>
      <trkpt lat="45.08833" lon="-72.30426">
        <ele>250.6</ele>
      </trkpt>
      <trkpt lat="45.08883" lon="-72.30377">
        <ele>247.7</ele>
      </trkpt>
      <trkpt lat="45.08907" lon="-72.30356">
        <ele>246.9</ele>
      </trkpt>
      <trkpt lat="45.08939" lon="-72.30345">
        <ele>246.6</ele>
      </trkpt>
      <trkpt lat="45.08948" lon="-72.30337">
        <ele>246.6</ele>
      </trkpt>
      <trkpt lat="45.08982" lon="-72.30274">
        <ele>247.3</ele>
      </trkpt>
      <trkpt lat="45.09" lon="-72.30211">
        <ele>248.8</ele>
      </trkpt>
      <trkpt lat="45.090085" lon="-72.301445">
        <ele>249.3</ele>
      </trkpt>
      <trkpt lat="45.09017" lon="-72.30078">
        <ele>248.4</ele>
      </trkpt>
      <trkpt lat="45.09022" lon="-72.30059">
        <ele>248.1</ele>
      </trkpt>
      <trkpt lat="45.09034" lon="-72.30023">
        <ele>247.3</ele>
      </trkpt>
      <trkpt lat="45.09041" lon="-72.30014">
        <ele>246.6</ele>
      </trkpt>
      <trkpt lat="45.09086" lon="-72.29979">
        <ele>243</ele>
      </trkpt>
      <trkpt lat="45.09122" lon="-72.29935">
        <ele>237.7</ele>
      </trkpt>
      <trkpt lat="45.09155" lon="-72.29903">
        <ele>234.9</ele>
      </trkpt>
      <trkpt lat="45.09191" lon="-72.29872">
        <ele>231.6</ele>
      </trkpt>
      <trkpt lat="45.09208" lon="-72.29854">
        <ele>230.2</ele>
      </trkpt>
      <trkpt lat="45.09214" lon="-72.2984">
        <ele>230.2</ele>
      </trkpt>
      <trkpt lat="45.09221" lon="-72.29803">
        <ele>227.7</ele>
      </trkpt>
      <trkpt lat="45.09229" lon="-72.29773">
        <ele>227.1</ele>
      </trkpt>
      <trkpt lat="45.09228" lon="-72.29764">
        <ele>227.1</ele>
      </trkpt>
      <trkpt lat="45.09241" lon="-72.29741">
        <ele>224.9</ele>
      </trkpt>
      <trkpt lat="45.09247" lon="-72.29706">
        <ele>222.4</ele>
      </trkpt>
      <trkpt lat="45.0925" lon="-72.29652">
        <ele>217.8</ele>
      </trkpt>
      <trkpt lat="45.09248" lon="-72.29607">
        <ele>215.6</ele>
      </trkpt>
      <trkpt lat="45.09244" lon="-72.29575">
        <ele>213.7</ele>
      </trkpt>
      <trkpt lat="45.09237" lon="-72.29553">
        <ele>212</ele>
      </trkpt>
      <trkpt lat="45.09207" lon="-72.29513">
        <ele>209.4</ele>
      </trkpt>
      <trkpt lat="45.09207" lon="-72.29504">
        <ele>209.2</ele>
      </trkpt>
      <trkpt lat="45.0921" lon="-72.295">
        <ele>208.9</ele>
      </trkpt>
      <trkpt lat="45.0922" lon="-72.295">
        <ele>208.6</ele>
      </trkpt>
      <trkpt lat="45.09197" lon="-72.29438">
        <ele>208.4</ele>
      </trkpt>
      <trkpt lat="45.0922" lon="-72.295">
        <ele>208.6</ele>
      </trkpt>
      <trkpt lat="45.0921" lon="-72.295">
        <ele>208.9</ele>
      </trkpt>
      <trkpt lat="45.09207" lon="-72.29504">
        <ele>209.2</ele>
      </trkpt>
      <trkpt lat="45.09207" lon="-72.29513">
        <ele>209.7</ele>
      </trkpt>
      <trkpt lat="45.09237" lon="-72.29553">
        <ele>212</ele>
      </trkpt>
      <trkpt lat="45.09244" lon="-72.29575">
        <ele>213.7</ele>
      </trkpt>
      <trkpt lat="45.09248" lon="-72.29607">
        <ele>215.6</ele>
      </trkpt>
      <trkpt lat="45.0925" lon="-72.29652">
        <ele>217.8</ele>
      </trkpt>
      <trkpt lat="45.09247" lon="-72.29706">
        <ele>222.4</ele>
      </trkpt>
      <trkpt lat="45.09241" lon="-72.29741">
        <ele>225.7</ele>
      </trkpt>
      <trkpt lat="45.09228" lon="-72.29764">
        <ele>227.1</ele>
      </trkpt>
      <trkpt lat="45.09229" lon="-72.29773">
        <ele>227.1</ele>
      </trkpt>
      <trkpt lat="45.09221" lon="-72.29803">
        <ele>227.7</ele>
      </trkpt>
      <trkpt lat="45.09214" lon="-72.2984">
        <ele>230.2</ele>
      </trkpt>
      <trkpt lat="45.09208" lon="-72.29854">
        <ele>230.9</ele>
      </trkpt>
      <trkpt lat="45.09191" lon="-72.29872">
        <ele>232.6</ele>
      </trkpt>
      <trkpt lat="45.09155" lon="-72.29903">
        <ele>234.9</ele>
      </trkpt>
      <trkpt lat="45.09122" lon="-72.29935">
        <ele>237.7</ele>
      </trkpt>
      <trkpt lat="45.09086" lon="-72.29979">
        <ele>243</ele>
      </trkpt>
      <trkpt lat="45.09041" lon="-72.30014">
        <ele>247.1</ele>
      </trkpt>
      <trkpt lat="45.09034" lon="-72.30023">
        <ele>247.3</ele>
      </trkpt>
      <trkpt lat="45.09022" lon="-72.30059">
        <ele>248.4</ele>
      </trkpt>
      <trkpt lat="45.09017" lon="-72.30078">
        <ele>248.7</ele>
      </trkpt>
      <trkpt lat="45.090085" lon="-72.301445">
        <ele>249.3</ele>
      </trkpt>
      <trkpt lat="45.09" lon="-72.30211">
        <ele>248.8</ele>
      </trkpt>
      <trkpt lat="45.08982" lon="-72.30274">
        <ele>247.3</ele>
      </trkpt>
      <trkpt lat="45.08948" lon="-72.30337">
        <ele>246.6</ele>
      </trkpt>
      <trkpt lat="45.08939" lon="-72.30345">
        <ele>246.6</ele>
      </trkpt>
      <trkpt lat="45.08907" lon="-72.30356">
        <ele>246.9</ele>
      </trkpt>
      <trkpt lat="45.08883" lon="-72.30377">
        <ele>247.7</ele>
      </trkpt>
      <trkpt lat="45.08833" lon="-72.30426">
        <ele>250.6</ele>
      </trkpt>
      <trkpt lat="45.08802" lon="-72.30404">
        <ele>250.7</ele>
      </trkpt>
      <trkpt lat="45.08787" lon="-72.30399">
        <ele>251.1</ele>
      </trkpt>
      <trkpt lat="45.08767" lon="-72.30392">
        <ele>251.9</ele>
      </trkpt>
      <trkpt lat="45.08699" lon="-72.303779">
        <ele>259.6</ele>
      </trkpt>
      <trkpt lat="45.08631" lon="-72.30364">
        <ele>268.6</ele>
      </trkpt>
      <trkpt lat="45.08599" lon="-72.3035">
        <ele>270.9</ele>
      </trkpt>
      <trkpt lat="45.08574" lon="-72.30336">
        <ele>273.5</ele>
      </trkpt>
      <trkpt lat="45.08524" lon="-72.30292">
        <ele>277.7</ele>
      </trkpt>
      <trkpt lat="45.0848" lon="-72.30265">
        <ele>280.4</ele>
      </trkpt>
      <trkpt lat="45.08445" lon="-72.30248">
        <ele>285.5</ele>
      </trkpt>
      <trkpt lat="45.083696" lon="-72.302109">
        <ele>289.8</ele>
      </trkpt>
      <trkpt lat="45.082943" lon="-72.301739">
        <ele>292.3</ele>
      </trkpt>
      <trkpt lat="45.08219" lon="-72.30137">
        <ele>294.1</ele>
      </trkpt>
      <trkpt lat="45.08152" lon="-72.30104">
        <ele>295.6</ele>
      </trkpt>
      <trkpt lat="45.08123" lon="-72.30095">
        <ele>297</ele>
      </trkpt>
      <trkpt lat="45.08053" lon="-72.30086">
        <ele>298.7</ele>
      </trkpt>
      <trkpt lat="45.07984" lon="-72.30104">
        <ele>301.8</ele>
      </trkpt>
      <trkpt lat="45.07953" lon="-72.3012">
        <ele>302.4</ele>
      </trkpt>
      <trkpt lat="45.078713" lon="-72.301673">
        <ele>302.9</ele>
      </trkpt>
      <trkpt lat="45.077896" lon="-72.302146">
        <ele>304.5</ele>
      </trkpt>
      <trkpt lat="45.07708" lon="-72.30262">
        <ele>307.3</ele>
      </trkpt>
      <trkpt lat="45.07682" lon="-72.30279">
        <ele>309.2</ele>
      </trkpt>
      <trkpt lat="45.07608" lon="-72.30338">
        <ele>316.1</ele>
      </trkpt>
      <trkpt lat="45.07568" lon="-72.30365">
        <ele>318</ele>
      </trkpt>
      <trkpt lat="45.07534" lon="-72.30386">
        <ele>318.4</ele>
      </trkpt>
      <trkpt lat="45.07467" lon="-72.30408">
        <ele>317.6</ele>
      </trkpt>
      <trkpt lat="45.07422" lon="-72.30435">
        <ele>316.5</ele>
      </trkpt>
      <trkpt lat="45.073665" lon="-72.304735">
        <ele>316.1</ele>
      </trkpt>
      <trkpt lat="45.07311" lon="-72.30512">
        <ele>316.1</ele>
      </trkpt>
      <trkpt lat="45.072417" lon="-72.30555">
        <ele>316.3</ele>
      </trkpt>
      <trkpt lat="45.071725" lon="-72.30598">
        <ele>315.7</ele>
      </trkpt>
      <trkpt lat="45.071032" lon="-72.30641">
        <ele>315.6</ele>
      </trkpt>
      <trkpt lat="45.07034" lon="-72.30684">
        <ele>317.2</ele>
      </trkpt>
      <trkpt lat="45.06986" lon="-72.307165">
        <ele>318</ele>
      </trkpt>
      <trkpt lat="45.06938" lon="-72.30749">
        <ele>319.4</ele>
      </trkpt>
      <trkpt lat="45.06898" lon="-72.3078">
        <ele>319.9</ele>
      </trkpt>
      <trkpt lat="45.06837" lon="-72.308205">
        <ele>320.8</ele>
      </trkpt>
      <trkpt lat="45.06776" lon="-72.30861">
        <ele>320.6</ele>
      </trkpt>
      <trkpt lat="45.067112" lon="-72.308992">
        <ele>319.2</ele>
      </trkpt>
      <trkpt lat="45.066465" lon="-72.309375">
        <ele>317.6</ele>
      </trkpt>
      <trkpt lat="45.065817" lon="-72.309757">
        <ele>317</ele>
      </trkpt>
      <trkpt lat="45.06517" lon="-72.31014">
        <ele>316.6</ele>
      </trkpt>
      <trkpt lat="45.06494" lon="-72.31026">
        <ele>316.5</ele>
      </trkpt>
      <trkpt lat="45.06473" lon="-72.31035">
        <ele>316.3</ele>
      </trkpt>
      <trkpt lat="45.06407" lon="-72.31052">
        <ele>316.3</ele>
      </trkpt>
      <trkpt lat="45.063585" lon="-72.310595">
        <ele>316.9</ele>
      </trkpt>
      <trkpt lat="45.0631" lon="-72.31067">
        <ele>316.9</ele>
      </trkpt>
      <trkpt lat="45.06246" lon="-72.3108">
        <ele>316.4</ele>
      </trkpt>
      <trkpt lat="45.06187" lon="-72.31098">
        <ele>315.8</ele>
      </trkpt>
      <trkpt lat="45.06128" lon="-72.31116">
        <ele>314.4</ele>
      </trkpt>
      <trkpt lat="45.06069" lon="-72.31134">
        <ele>314.4</ele>
      </trkpt>
      <trkpt lat="45.06022" lon="-72.31147">
        <ele>314.8</ele>
      </trkpt>
      <trkpt lat="45.05983" lon="-72.31147">
        <ele>315.3</ele>
      </trkpt>
      <trkpt lat="45.05929" lon="-72.31138">
        <ele>317.2</ele>
      </trkpt>
      <trkpt lat="45.05876" lon="-72.31121">
        <ele>318</ele>
      </trkpt>
      <trkpt lat="45.05795" lon="-72.31105">
        <ele>318.7</ele>
      </trkpt>
      <trkpt lat="45.05725" lon="-72.31093">
        <ele>319.1</ele>
      </trkpt>
      <trkpt lat="45.0567" lon="-72.3108">
        <ele>319.8</ele>
      </trkpt>
      <trkpt lat="45.056195" lon="-72.310594">
        <ele>320.2</ele>
      </trkpt>
      <trkpt lat="45.05569" lon="-72.31039">
        <ele>321.2</ele>
      </trkpt>
      <trkpt lat="45.05521" lon="-72.31005">
        <ele>323.9</ele>
      </trkpt>
      <trkpt lat="45.0547" lon="-72.30963">
        <ele>327.2</ele>
      </trkpt>
      <trkpt lat="45.05459" lon="-72.30955">
        <ele>327.6</ele>
      </trkpt>
      <trkpt lat="45.05435" lon="-72.3095">
        <ele>327.5</ele>
      </trkpt>
      <trkpt lat="45.05378" lon="-72.30923">
        <ele>326.7</ele>
      </trkpt>
      <trkpt lat="45.05315" lon="-72.308869">
        <ele>327.1</ele>
      </trkpt>
      <trkpt lat="45.05252" lon="-72.30851">
        <ele>327.5</ele>
      </trkpt>
      <trkpt lat="45.052085" lon="-72.308244">
        <ele>327.3</ele>
      </trkpt>
      <trkpt lat="45.05165" lon="-72.30798">
        <ele>327.4</ele>
      </trkpt>
      <trkpt lat="45.05118" lon="-72.30762">
        <ele>327.2</ele>
      </trkpt>
      <trkpt lat="45.050655" lon="-72.307284">
        <ele>325.8</ele>
      </trkpt>
      <trkpt lat="45.05013" lon="-72.30695">
        <ele>325.2</ele>
      </trkpt>
      <trkpt lat="45.0495" lon="-72.30658">
        <ele>329</ele>
      </trkpt>
      <trkpt lat="45.049025" lon="-72.306359">
        <ele>326.7</ele>
      </trkpt>
      <trkpt lat="45.04855" lon="-72.30614">
        <ele>324.6</ele>
      </trkpt>
      <trkpt lat="45.04774" lon="-72.305812">
        <ele>330.3</ele>
      </trkpt>
      <trkpt lat="45.04693" lon="-72.305484">
        <ele>334.9</ele>
      </trkpt>
      <trkpt lat="45.04612" lon="-72.305157">
        <ele>336.8</ele>
      </trkpt>
      <trkpt lat="45.04531" lon="-72.30483">
        <ele>343.4</ele>
      </trkpt>
      <trkpt lat="45.04452" lon="-72.304469">
        <ele>355</ele>
      </trkpt>
      <trkpt lat="45.04373" lon="-72.30411">
        <ele>364.7</ele>
      </trkpt>
      <trkpt lat="45.04351" lon="-72.30404">
        <ele>366.7</ele>
      </trkpt>
      <trkpt lat="45.04285" lon="-72.30395">
        <ele>371.7</ele>
      </trkpt>
      <trkpt lat="45.04272" lon="-72.30391">
        <ele>372.4</ele>
      </trkpt>
      <trkpt lat="45.04262" lon="-72.3039">
        <ele>373.2</ele>
      </trkpt>
      <trkpt lat="45.042023" lon="-72.303646">
        <ele>375</ele>
      </trkpt>
      <trkpt lat="45.041426" lon="-72.303393">
        <ele>375.7</ele>
      </trkpt>
      <trkpt lat="45.04083" lon="-72.30314">
        <ele>376.7</ele>
      </trkpt>
      <trkpt lat="45.04037" lon="-72.302934">
        <ele>377.8</ele>
      </trkpt>
      <trkpt lat="45.03991" lon="-72.30273">
        <ele>379.1</ele>
      </trkpt>
      <trkpt lat="45.03962" lon="-72.30256">
        <ele>379.4</ele>
      </trkpt>
      <trkpt lat="45.03913" lon="-72.30225">
        <ele>379.8</ele>
      </trkpt>
      <trkpt lat="45.03862" lon="-72.3018">
        <ele>379</ele>
      </trkpt>
      <trkpt lat="45.03817" lon="-72.301439">
        <ele>379.2</ele>
      </trkpt>
      <trkpt lat="45.03772" lon="-72.30108">
        <ele>381.2</ele>
      </trkpt>
      <trkpt lat="45.037" lon="-72.300569">
        <ele>387.5</ele>
      </trkpt>
      <trkpt lat="45.03628" lon="-72.30006">
        <ele>387.7</ele>
      </trkpt>
      <trkpt lat="45.035696" lon="-72.299673">
        <ele>388.5</ele>
      </trkpt>
      <trkpt lat="45.035113" lon="-72.299286">
        <ele>388.5</ele>
      </trkpt>
      <trkpt lat="45.03453" lon="-72.2989">
        <ele>388.5</ele>
      </trkpt>
      <trkpt lat="45.03398" lon="-72.29858">
        <ele>387.7</ele>
      </trkpt>
      <trkpt lat="45.03336" lon="-72.29799">
        <ele>383.4</ele>
      </trkpt>
      <trkpt lat="45.032683" lon="-72.297219">
        <ele>373.8</ele>
      </trkpt>
      <trkpt lat="45.032006" lon="-72.296449">
        <ele>369.6</ele>
      </trkpt>
      <trkpt lat="45.03133" lon="-72.29568">
        <ele>368.2</ele>
      </trkpt>
      <trkpt lat="45.03095" lon="-72.29532">
        <ele>369</ele>
      </trkpt>
      <trkpt lat="45.03068" lon="-72.29513">
        <ele>369.4</ele>
      </trkpt>
      <trkpt lat="45.03051" lon="-72.29503">
        <ele>369.5</ele>
      </trkpt>
      <trkpt lat="45.02972" lon="-72.29463">
        <ele>370.5</ele>
      </trkpt>
      <trkpt lat="45.02951" lon="-72.29456">
        <ele>370</ele>
      </trkpt>
      <trkpt lat="45.02944" lon="-72.29459">
        <ele>369.9</ele>
      </trkpt>
      <trkpt lat="45.02929" lon="-72.29455">
        <ele>369.9</ele>
      </trkpt>
      <trkpt lat="45.02852" lon="-72.294573">
        <ele>372.1</ele>
      </trkpt>
      <trkpt lat="45.02775" lon="-72.294596">
        <ele>376.9</ele>
      </trkpt>
      <trkpt lat="45.02698" lon="-72.29462">
        <ele>378.9</ele>
      </trkpt>
      <trkpt lat="45.027298" lon="-72.295594">
        <ele>372.5</ele>
      </trkpt>
      <trkpt lat="45.027616" lon="-72.296569">
        <ele>369.3</ele>
      </trkpt>
      <trkpt lat="45.027935" lon="-72.297544">
        <ele>366.4</ele>
      </trkpt>
      <trkpt lat="45.028253" lon="-72.298519">
        <ele>363.6</ele>
      </trkpt>
      <trkpt lat="45.028571" lon="-72.299494">
        <ele>361.2</ele>
      </trkpt>
      <trkpt lat="45.02889" lon="-72.30047">
        <ele>359.2</ele>
      </trkpt>
      <trkpt lat="45.029165" lon="-72.301339">
        <ele>360</ele>
      </trkpt>
      <trkpt lat="45.02944" lon="-72.30221">
        <ele>359.2</ele>
      </trkpt>
      <trkpt lat="45.02973" lon="-72.3034">
        <ele>354.3</ele>
      </trkpt>
      <trkpt lat="45.029978" lon="-72.304431">
        <ele>348</ele>
      </trkpt>
      <trkpt lat="45.030226" lon="-72.305463">
        <ele>343</ele>
      </trkpt>
      <trkpt lat="45.030474" lon="-72.306495">
        <ele>341.4</ele>
      </trkpt>
      <trkpt lat="45.030722" lon="-72.307527">
        <ele>338</ele>
      </trkpt>
      <trkpt lat="45.03097" lon="-72.30856">
        <ele>336.2</ele>
      </trkpt>
      <trkpt lat="45.031185" lon="-72.309364">
        <ele>334.5</ele>
      </trkpt>
      <trkpt lat="45.0314" lon="-72.31017">
        <ele>331.1</ele>
      </trkpt>
      <trkpt lat="45.03174" lon="-72.311179">
        <ele>323</ele>
      </trkpt>
      <trkpt lat="45.03208" lon="-72.31219">
        <ele>318.9</ele>
      </trkpt>
      <trkpt lat="45.032392" lon="-72.313274">
        <ele>314.1</ele>
      </trkpt>
      <trkpt lat="45.032705" lon="-72.314359">
        <ele>311.7</ele>
      </trkpt>
      <trkpt lat="45.033017" lon="-72.315444">
        <ele>311</ele>
      </trkpt>
      <trkpt lat="45.03333" lon="-72.31653">
        <ele>309.4</ele>
      </trkpt>
      <trkpt lat="45.033545" lon="-72.317114">
        <ele>308.5</ele>
      </trkpt>
      <trkpt lat="45.03376" lon="-72.3177">
        <ele>307.8</ele>
      </trkpt>
      <trkpt lat="45.03399" lon="-72.31819">
        <ele>306.3</ele>
      </trkpt>
      <trkpt lat="45.03413" lon="-72.31895">
        <ele>303.8</ele>
      </trkpt>
      <trkpt lat="45.03417" lon="-72.31981">
        <ele>302.2</ele>
      </trkpt>
      <trkpt lat="45.034155" lon="-72.32052">
        <ele>300.8</ele>
      </trkpt>
      <trkpt lat="45.03414" lon="-72.32123">
        <ele>300.4</ele>
      </trkpt>
      <trkpt lat="45.03411" lon="-72.32185">
        <ele>299.9</ele>
      </trkpt>
      <trkpt lat="45.034016" lon="-72.32276">
        <ele>298.4</ele>
      </trkpt>
      <trkpt lat="45.033923" lon="-72.32367">
        <ele>298.1</ele>
      </trkpt>
      <trkpt lat="45.03383" lon="-72.32458">
        <ele>298.2</ele>
      </trkpt>
      <trkpt lat="45.03382" lon="-72.32486">
        <ele>298.1</ele>
      </trkpt>
      <trkpt lat="45.0339" lon="-72.32534">
        <ele>297.9</ele>
      </trkpt>
      <trkpt lat="45.0341" lon="-72.32571">
        <ele>297.4</ele>
      </trkpt>
      <trkpt lat="45.03427" lon="-72.32589">
        <ele>297.2</ele>
      </trkpt>
      <trkpt lat="45.03472" lon="-72.32634">
        <ele>296.1</ele>
      </trkpt>
      <trkpt lat="45.03491" lon="-72.32656">
        <ele>295.7</ele>
      </trkpt>
      <trkpt lat="45.03528" lon="-72.32723">
        <ele>294.6</ele>
      </trkpt>
      <trkpt lat="45.03559" lon="-72.327904">
        <ele>294.3</ele>
      </trkpt>
      <trkpt lat="45.0359" lon="-72.32858">
        <ele>293.9</ele>
      </trkpt>
      <trkpt lat="45.0362" lon="-72.32943">
        <ele>293.8</ele>
      </trkpt>
      <trkpt lat="45.03639" lon="-72.330279">
        <ele>293.2</ele>
      </trkpt>
      <trkpt lat="45.03658" lon="-72.33113">
        <ele>291.7</ele>
      </trkpt>
      <trkpt lat="45.036786" lon="-72.332109">
        <ele>289.4</ele>
      </trkpt>
      <trkpt lat="45.036993" lon="-72.333089">
        <ele>288.4</ele>
      </trkpt>
      <trkpt lat="45.0372" lon="-72.33407">
        <ele>287.6</ele>
      </trkpt>
      <trkpt lat="45.0374" lon="-72.33489">
        <ele>285.9</ele>
      </trkpt>
      <trkpt lat="45.03765" lon="-72.33569">
        <ele>284.4</ele>
      </trkpt>
      <trkpt lat="45.0378" lon="-72.3361">
        <ele>284</ele>
      </trkpt>
      <trkpt lat="45.03797" lon="-72.33636">
        <ele>283.8</ele>
      </trkpt>
      <trkpt lat="45.03826" lon="-72.33676">
        <ele>282.3</ele>
      </trkpt>
      <trkpt lat="45.03866" lon="-72.33721">
        <ele>280</ele>
      </trkpt>
      <trkpt lat="45.03885" lon="-72.33748">
        <ele>278.7</ele>
      </trkpt>
      <trkpt lat="45.03907" lon="-72.33784">
        <ele>276.9</ele>
      </trkpt>
      <trkpt lat="45.03921" lon="-72.33815">
        <ele>276.2</ele>
      </trkpt>
      <trkpt lat="45.03938" lon="-72.33866">
        <ele>275</ele>
      </trkpt>
      <trkpt lat="45.03941" lon="-72.33887">
        <ele>274.9</ele>
      </trkpt>
      <trkpt lat="45.03938" lon="-72.339655">
        <ele>270</ele>
      </trkpt>
      <trkpt lat="45.03935" lon="-72.34044">
        <ele>266</ele>
      </trkpt>
      <trkpt lat="45.039455" lon="-72.341564">
        <ele>263</ele>
      </trkpt>
      <trkpt lat="45.03956" lon="-72.34269">
        <ele>260.9</ele>
      </trkpt>
      <trkpt lat="45.03979" lon="-72.34388">
        <ele>256</ele>
      </trkpt>
      <trkpt lat="45.0401" lon="-72.3449">
        <ele>255</ele>
      </trkpt>
      <trkpt lat="45.04018" lon="-72.34514">
        <ele>254.9</ele>
      </trkpt>
      <trkpt lat="45.040385" lon="-72.345944">
        <ele>253.6</ele>
      </trkpt>
      <trkpt lat="45.04059" lon="-72.34675">
        <ele>251.8</ele>
      </trkpt>
      <trkpt lat="45.040907" lon="-72.347702">
        <ele>247.6</ele>
      </trkpt>
      <trkpt lat="45.041225" lon="-72.348654">
        <ele>244.7</ele>
      </trkpt>
      <trkpt lat="45.041542" lon="-72.349607">
        <ele>240</ele>
      </trkpt>
      <trkpt lat="45.04186" lon="-72.35056">
        <ele>235.5</ele>
      </trkpt>
      <trkpt lat="45.04214" lon="-72.3515">
        <ele>231.5</ele>
      </trkpt>
      <trkpt lat="45.04218" lon="-72.35175">
        <ele>231</ele>
      </trkpt>
      <trkpt lat="45.041715" lon="-72.351734">
        <ele>230.2</ele>
      </trkpt>
      <trkpt lat="45.04125" lon="-72.35172">
        <ele>231</ele>
      </trkpt>
      <trkpt lat="45.040504" lon="-72.35172">
        <ele>233.4</ele>
      </trkpt>
      <trkpt lat="45.039759" lon="-72.35172">
        <ele>235.2</ele>
      </trkpt>
      <trkpt lat="45.039014" lon="-72.35172">
        <ele>237.5</ele>
      </trkpt>
      <trkpt lat="45.03827" lon="-72.35172">
        <ele>241</ele>
      </trkpt>
      <trkpt lat="45.037765" lon="-72.351745">
        <ele>242.2</ele>
      </trkpt>
      <trkpt lat="45.03726" lon="-72.35177">
        <ele>244.3</ele>
      </trkpt>
      <trkpt lat="45.03689" lon="-72.35172">
        <ele>246.2</ele>
      </trkpt>
      <trkpt lat="45.03629" lon="-72.35168">
        <ele>246.8</ele>
      </trkpt>
      <trkpt lat="45.035474" lon="-72.35168">
        <ele>246.3</ele>
      </trkpt>
      <trkpt lat="45.03466" lon="-72.35168">
        <ele>244</ele>
      </trkpt>
      <trkpt lat="45.034199" lon="-72.351705">
        <ele>242.4</ele>
      </trkpt>
      <trkpt lat="45.03374" lon="-72.35173">
        <ele>241.2</ele>
      </trkpt>
      <trkpt lat="45.033035" lon="-72.35175">
        <ele>239.4</ele>
      </trkpt>
      <trkpt lat="45.03233" lon="-72.35177">
        <ele>238.7</ele>
      </trkpt>
      <trkpt lat="45.031656" lon="-72.35177">
        <ele>238.9</ele>
      </trkpt>
      <trkpt lat="45.030983" lon="-72.35177">
        <ele>238.9</ele>
      </trkpt>
      <trkpt lat="45.03031" lon="-72.35177">
        <ele>239.1</ele>
      </trkpt>
      <trkpt lat="45.029785" lon="-72.35178">
        <ele>239.4</ele>
      </trkpt>
      <trkpt lat="45.02926" lon="-72.35179">
        <ele>239.6</ele>
      </trkpt>
      <trkpt lat="45.02925" lon="-72.35179">
        <ele>239.6</ele>
      </trkpt>
      <trkpt lat="45.028542" lon="-72.3518">
        <ele>239.4</ele>
      </trkpt>
      <trkpt lat="45.027834" lon="-72.35181">
        <ele>238.2</ele>
      </trkpt>
      <trkpt lat="45.027127" lon="-72.35182">
        <ele>235</ele>
      </trkpt>
      <trkpt lat="45.02642" lon="-72.35183">
        <ele>226.5</ele>
      </trkpt>
      <trkpt lat="45.02599" lon="-72.35181">
        <ele>225.8</ele>
      </trkpt>
      <trkpt lat="45.025167" lon="-72.35185">
        <ele>227.1</ele>
      </trkpt>
      <trkpt lat="45.024345" lon="-72.35189">
        <ele>234.1</ele>
      </trkpt>
      <trkpt lat="45.023522" lon="-72.35193">
        <ele>237.8</ele>
      </trkpt>
      <trkpt lat="45.0227" lon="-72.35197">
        <ele>238.2</ele>
      </trkpt>
      <trkpt lat="45.02186" lon="-72.35204">
        <ele>237.3</ele>
      </trkpt>
      <trkpt lat="45.02121" lon="-72.35208">
        <ele>238.8</ele>
      </trkpt>
      <trkpt lat="45.02108" lon="-72.35211">
        <ele>239.1</ele>
      </trkpt>
      <trkpt lat="45.02092" lon="-72.35235">
        <ele>238</ele>
      </trkpt>
      <trkpt lat="45.020525" lon="-72.35319">
        <ele>236.9</ele>
      </trkpt>
      <trkpt lat="45.02013" lon="-72.35403">
        <ele>236.7</ele>
      </trkpt>
      <trkpt lat="45.019646" lon="-72.355096">
        <ele>232.2</ele>
      </trkpt>
      <trkpt lat="45.019163" lon="-72.356163">
        <ele>226.4</ele>
      </trkpt>
      <trkpt lat="45.01868" lon="-72.35723">
        <ele>218.3</ele>
      </trkpt>
      <trkpt lat="45.01821" lon="-72.358202">
        <ele>214.2</ele>
      </trkpt>
      <trkpt lat="45.01774" lon="-72.359175">
        <ele>211.2</ele>
      </trkpt>
      <trkpt lat="45.01727" lon="-72.360147">
        <ele>207.6</ele>
      </trkpt>
      <trkpt lat="45.0168" lon="-72.36112">
        <ele>204.5</ele>
      </trkpt>
      <trkpt lat="45.016383" lon="-72.362016">
        <ele>200.5</ele>
      </trkpt>
      <trkpt lat="45.015966" lon="-72.362913">
        <ele>197</ele>
      </trkpt>
      <trkpt lat="45.01555" lon="-72.36381">
        <ele>194.3</ele>
      </trkpt>
      <trkpt lat="45.01548" lon="-72.36425">
        <ele>193.4</ele>
      </trkpt>
      <trkpt lat="45.01543" lon="-72.36525">
        <ele>192.6</ele>
      </trkpt>
      <trkpt lat="45.01543" lon="-72.36627">
        <ele>191.7</ele>
      </trkpt>
      <trkpt lat="45.01537" lon="-72.36658">
        <ele>191.6</ele>
      </trkpt>
      <trkpt lat="45.0152" lon="-72.36712">
        <ele>191.4</ele>
      </trkpt>
      <trkpt lat="45.01505" lon="-72.36748">
        <ele>191.2</ele>
      </trkpt>
      <trkpt lat="45.01488" lon="-72.36778">
        <ele>190.6</ele>
      </trkpt>
      <trkpt lat="45.01488" lon="-72.36779">
        <ele>190.6</ele>
      </trkpt>
      <trkpt lat="45.01438" lon="-72.3687">
        <ele>189.8</ele>
      </trkpt>
      <trkpt lat="45.01422" lon="-72.36905">
        <ele>189</ele>
      </trkpt>
      <trkpt lat="45.01406" lon="-72.36958">
        <ele>188.7</ele>
      </trkpt>
      <trkpt lat="45.01395" lon="-72.37029">
        <ele>188.2</ele>
      </trkpt>
      <trkpt lat="45.01385" lon="-72.37066">
        <ele>187.6</ele>
      </trkpt>
      <trkpt lat="45.013565" lon="-72.3716">
        <ele>186</ele>
      </trkpt>
      <trkpt lat="45.01328" lon="-72.37254">
        <ele>187.6</ele>
      </trkpt>
      <trkpt lat="45.013" lon="-72.37311">
        <ele>187.2</ele>
      </trkpt>
      <trkpt lat="45.01277" lon="-72.37348">
        <ele>184.2</ele>
      </trkpt>
      <trkpt lat="45.01255" lon="-72.37375">
        <ele>182.5</ele>
      </trkpt>
      <trkpt lat="45.01239" lon="-72.37389">
        <ele>179.9</ele>
      </trkpt>
      <trkpt lat="45.01225" lon="-72.37414">
        <ele>176.9</ele>
      </trkpt>
      <trkpt lat="45.01221" lon="-72.37424">
        <ele>175.9</ele>
      </trkpt>
      <trkpt lat="45.01221" lon="-72.37453">
        <ele>174.5</ele>
      </trkpt>
      <trkpt lat="45.01231" lon="-72.37491">
        <ele>174.5</ele>
      </trkpt>
      <trkpt lat="45.0125" lon="-72.37536">
        <ele>175.2</ele>
      </trkpt>
      <trkpt lat="45.01268" lon="-72.37563">
        <ele>175.7</ele>
      </trkpt>
      <trkpt lat="45.01278" lon="-72.37571">
        <ele>176.6</ele>
      </trkpt>
      <trkpt lat="45.0129" lon="-72.37576">
        <ele>177</ele>
      </trkpt>
      <trkpt lat="45.01316" lon="-72.37585">
        <ele>177.5</ele>
      </trkpt>
      <trkpt lat="45.01351" lon="-72.37589">
        <ele>177.3</ele>
      </trkpt>
      <trkpt lat="45.01425" lon="-72.37572">
        <ele>175.3</ele>
      </trkpt>
      <trkpt lat="45.01506" lon="-72.37563">
        <ele>181.7</ele>
      </trkpt>
      <trkpt lat="45.01545" lon="-72.37563">
        <ele>185.3</ele>
      </trkpt>
      <trkpt lat="45.01565" lon="-72.37568">
        <ele>186</ele>
      </trkpt>
      <trkpt lat="45.01613" lon="-72.3759">
        <ele>189.9</ele>
      </trkpt>
      <trkpt lat="45.01681" lon="-72.37631">
        <ele>191.5</ele>
      </trkpt>
      <trkpt lat="45.01754" lon="-72.37693">
        <ele>190.8</ele>
      </trkpt>
      <trkpt lat="45.01777" lon="-72.37706">
        <ele>190.3</ele>
      </trkpt>
      <trkpt lat="45.01858" lon="-72.377599">
        <ele>187.9</ele>
      </trkpt>
      <trkpt lat="45.01939" lon="-72.37814">
        <ele>189.5</ele>
      </trkpt>
      <trkpt lat="45.01996" lon="-72.378579">
        <ele>191.3</ele>
      </trkpt>
      <trkpt lat="45.02053" lon="-72.37902">
        <ele>190.1</ele>
      </trkpt>
      <trkpt lat="45.02099" lon="-72.379494">
        <ele>190.1</ele>
      </trkpt>
      <trkpt lat="45.02145" lon="-72.37997">
        <ele>190.8</ele>
      </trkpt>
      <trkpt lat="45.02188" lon="-72.38036">
        <ele>192.3</ele>
      </trkpt>
      <trkpt lat="45.02222" lon="-72.3806">
        <ele>192.5</ele>
      </trkpt>
      <trkpt lat="45.02272" lon="-72.38083">
        <ele>193.2</ele>
      </trkpt>
      <trkpt lat="45.02289" lon="-72.3809">
        <ele>193.9</ele>
      </trkpt>
      <trkpt lat="45.02312" lon="-72.38089">
        <ele>194.5</ele>
      </trkpt>
      <trkpt lat="45.02361" lon="-72.38092">
        <ele>194.2</ele>
      </trkpt>
      <trkpt lat="45.02392" lon="-72.381">
        <ele>194.9</ele>
      </trkpt>
      <trkpt lat="45.024385" lon="-72.381229">
        <ele>196</ele>
      </trkpt>
      <trkpt lat="45.02485" lon="-72.38146">
        <ele>196</ele>
      </trkpt>
      <trkpt lat="45.02515" lon="-72.38172">
        <ele>195.9</ele>
      </trkpt>
      <trkpt lat="45.0253" lon="-72.38189">
        <ele>195.9</ele>
      </trkpt>
      <trkpt lat="45.02571" lon="-72.38221">
        <ele>196.7</ele>
      </trkpt>
      <trkpt lat="45.026235" lon="-72.382499">
        <ele>197.6</ele>
      </trkpt>
      <trkpt lat="45.02676" lon="-72.38279">
        <ele>197.7</ele>
      </trkpt>
      <trkpt lat="45.027205" lon="-72.382944">
        <ele>197.4</ele>
      </trkpt>
      <trkpt lat="45.02765" lon="-72.3831">
        <ele>198.4</ele>
      </trkpt>
      <trkpt lat="45.02811" lon="-72.383199">
        <ele>198.9</ele>
      </trkpt>
      <trkpt lat="45.02857" lon="-72.3833">
        <ele>198.6</ele>
      </trkpt>
      <trkpt lat="45.02854" lon="-72.38418">
        <ele>192.8</ele>
      </trkpt>
      <trkpt lat="45.02852" lon="-72.38502">
        <ele>190.1</ele>
      </trkpt>
      <trkpt lat="45.02852" lon="-72.38503">
        <ele>190.1</ele>
      </trkpt>
      <trkpt lat="45.02851" lon="-72.385965">
        <ele>188.2</ele>
      </trkpt>
      <trkpt lat="45.0285" lon="-72.3869">
        <ele>187.7</ele>
      </trkpt>
      <trkpt lat="45.02849" lon="-72.38709">
        <ele>187.4</ele>
      </trkpt>
      <trkpt lat="45.02825" lon="-72.388177">
        <ele>186.3</ele>
      </trkpt>
      <trkpt lat="45.02801" lon="-72.389265">
        <ele>186.6</ele>
      </trkpt>
      <trkpt lat="45.02777" lon="-72.390352">
        <ele>186.3</ele>
      </trkpt>
      <trkpt lat="45.02753" lon="-72.39144">
        <ele>185.9</ele>
      </trkpt>
      <trkpt lat="45.02751" lon="-72.39206">
        <ele>185.7</ele>
      </trkpt>
      <trkpt lat="45.027556" lon="-72.393313">
        <ele>185.2</ele>
      </trkpt>
      <trkpt lat="45.027603" lon="-72.394566">
        <ele>184.4</ele>
      </trkpt>
      <trkpt lat="45.02765" lon="-72.39582">
        <ele>185.5</ele>
      </trkpt>
      <trkpt lat="45.02766" lon="-72.39636">
        <ele>186</ele>
      </trkpt>
      <trkpt lat="45.027555" lon="-72.39698">
        <ele>185.9</ele>
      </trkpt>
      <trkpt lat="45.02745" lon="-72.3976">
        <ele>185.7</ele>
      </trkpt>
      <trkpt lat="45.027313" lon="-72.398706">
        <ele>185.2</ele>
      </trkpt>
      <trkpt lat="45.027176" lon="-72.399813">
        <ele>184.1</ele>
      </trkpt>
      <trkpt lat="45.02704" lon="-72.40092">
        <ele>183.7</ele>
      </trkpt>
      <trkpt lat="45.02694" lon="-72.40184">
        <ele>184.1</ele>
      </trkpt>
      <trkpt lat="45.02684" lon="-72.40276">
        <ele>184.2</ele>
      </trkpt>
      <trkpt lat="45.0268" lon="-72.40374">
        <ele>183.8</ele>
      </trkpt>
      <trkpt lat="45.0267" lon="-72.40486">
        <ele>182.9</ele>
      </trkpt>
      <trkpt lat="45.026537" lon="-72.406037">
        <ele>183.4</ele>
      </trkpt>
      <trkpt lat="45.026375" lon="-72.407215">
        <ele>183.7</ele>
      </trkpt>
      <trkpt lat="45.026212" lon="-72.408392">
        <ele>182.5</ele>
      </trkpt>
      <trkpt lat="45.02605" lon="-72.40957">
        <ele>183.8</ele>
      </trkpt>
      <trkpt lat="45.025935" lon="-72.41076">
        <ele>183.9</ele>
      </trkpt>
      <trkpt lat="45.02582" lon="-72.41195">
        <ele>183.6</ele>
      </trkpt>
      <trkpt lat="45.02575" lon="-72.412795">
        <ele>183.7</ele>
      </trkpt>
      <trkpt lat="45.02568" lon="-72.41364">
        <ele>183.9</ele>
      </trkpt>
      <trkpt lat="45.02568" lon="-72.41431">
        <ele>183.5</ele>
      </trkpt>
      <trkpt lat="45.02573" lon="-72.41462">
        <ele>183</ele>
      </trkpt>
      <trkpt lat="45.02594" lon="-72.415573">
        <ele>183</ele>
      </trkpt>
      <trkpt lat="45.02615" lon="-72.416526">
        <ele>183.3</ele>
      </trkpt>
      <trkpt lat="45.02636" lon="-72.41748">
        <ele>183.6</ele>
      </trkpt>
      <trkpt lat="45.02641" lon="-72.41807">
        <ele>183.9</ele>
      </trkpt>
      <trkpt lat="45.026515" lon="-72.419049">
        <ele>183.8</ele>
      </trkpt>
      <trkpt lat="45.02662" lon="-72.42003">
        <ele>183.5</ele>
      </trkpt>
      <trkpt lat="45.02671" lon="-72.420774">
        <ele>183.3</ele>
      </trkpt>
      <trkpt lat="45.0268" lon="-72.42152">
        <ele>183.1</ele>
      </trkpt>
      <trkpt lat="45.02688" lon="-72.42237">
        <ele>182.8</ele>
      </trkpt>
      <trkpt lat="45.027" lon="-72.42303">
        <ele>182.4</ele>
      </trkpt>
      <trkpt lat="45.02727" lon="-72.424034">
        <ele>180.9</ele>
      </trkpt>
      <trkpt lat="45.02754" lon="-72.42504">
        <ele>181.2</ele>
      </trkpt>
      <trkpt lat="45.02765" lon="-72.42541">
        <ele>181.3</ele>
      </trkpt>
      <trkpt lat="45.02776" lon="-72.42564">
        <ele>180.5</ele>
      </trkpt>
      <trkpt lat="45.02789" lon="-72.42585">
        <ele>178.7</ele>
      </trkpt>
      <trkpt lat="45.02813" lon="-72.42603">
        <ele>176.5</ele>
      </trkpt>
      <trkpt lat="45.028825" lon="-72.426464">
        <ele>168.2</ele>
      </trkpt>
      <trkpt lat="45.02952" lon="-72.4269">
        <ele>161</ele>
      </trkpt>
      <trkpt lat="45.030155" lon="-72.426215">
        <ele>160.8</ele>
      </trkpt>
      <trkpt lat="45.03079" lon="-72.42553">
        <ele>160.3</ele>
      </trkpt>
      <trkpt lat="45.030935" lon="-72.426209">
        <ele>159.1</ele>
      </trkpt>
      <trkpt lat="45.03108" lon="-72.42689">
        <ele>158.7</ele>
      </trkpt>
      <trkpt lat="45.03114" lon="-72.42747">
        <ele>158.6</ele>
      </trkpt>
      <trkpt lat="45.03116" lon="-72.42802">
        <ele>158.1</ele>
      </trkpt>
      <trkpt lat="45.03107" lon="-72.42873">
        <ele>157.9</ele>
      </trkpt>
      <trkpt lat="45.03097" lon="-72.42913">
        <ele>158.1</ele>
      </trkpt>
      <trkpt lat="45.03085" lon="-72.42949">
        <ele>158.6</ele>
      </trkpt>
      <trkpt lat="45.03069" lon="-72.42989">
        <ele>159</ele>
      </trkpt>
      <trkpt lat="45.03035" lon="-72.43056">
        <ele>160</ele>
      </trkpt>
      <trkpt lat="45.03018" lon="-72.43096">
        <ele>161</ele>
      </trkpt>
      <trkpt lat="45.02992" lon="-72.43177">
        <ele>162.4</ele>
      </trkpt>
      <trkpt lat="45.02984" lon="-72.43222">
        <ele>163.2</ele>
      </trkpt>
      <trkpt lat="45.02982" lon="-72.43267">
        <ele>163.8</ele>
      </trkpt>
      <trkpt lat="45.02987" lon="-72.43316">
        <ele>165</ele>
      </trkpt>
      <trkpt lat="45.02991" lon="-72.43345">
        <ele>165.2</ele>
      </trkpt>
      <trkpt lat="45.02995" lon="-72.43365">
        <ele>165.3</ele>
      </trkpt>
      <trkpt lat="45.03004" lon="-72.434">
        <ele>165.3</ele>
      </trkpt>
      <trkpt lat="45.03019" lon="-72.43438">
        <ele>167.6</ele>
      </trkpt>
      <trkpt lat="45.0305" lon="-72.434979">
        <ele>168.5</ele>
      </trkpt>
      <trkpt lat="45.03081" lon="-72.43558">
        <ele>169.5</ele>
      </trkpt>
      <trkpt lat="45.03128" lon="-72.43634">
        <ele>170.5</ele>
      </trkpt>
      <trkpt lat="45.0319" lon="-72.43725">
        <ele>169.1</ele>
      </trkpt>
      <trkpt lat="45.032355" lon="-72.437864">
        <ele>167.8</ele>
      </trkpt>
      <trkpt lat="45.03281" lon="-72.43848">
        <ele>167</ele>
      </trkpt>
      <trkpt lat="45.03349" lon="-72.439264">
        <ele>167.2</ele>
      </trkpt>
      <trkpt lat="45.03417" lon="-72.44005">
        <ele>166.4</ele>
      </trkpt>
      <trkpt lat="45.03444" lon="-72.44037">
        <ele>166.3</ele>
      </trkpt>
      <trkpt lat="45.0346" lon="-72.44063">
        <ele>166.6</ele>
      </trkpt>
      <trkpt lat="45.03477" lon="-72.44099">
        <ele>167.4</ele>
      </trkpt>
      <trkpt lat="45.03489" lon="-72.44132">
        <ele>168.2</ele>
      </trkpt>
      <trkpt lat="45.0352" lon="-72.44243">
        <ele>171.6</ele>
      </trkpt>
      <trkpt lat="45.035545" lon="-72.443459">
        <ele>171</ele>
      </trkpt>
      <trkpt lat="45.03589" lon="-72.44449">
        <ele>164.3</ele>
      </trkpt>
      <trkpt lat="45.03597" lon="-72.44484">
        <ele>162.6</ele>
      </trkpt>
      <trkpt lat="45.036085" lon="-72.445574">
        <ele>159.6</ele>
      </trkpt>
      <trkpt lat="45.0362" lon="-72.44631">
        <ele>158.3</ele>
      </trkpt>
      <trkpt lat="45.03631" lon="-72.44687">
        <ele>158.1</ele>
      </trkpt>
      <trkpt lat="45.03646" lon="-72.4474">
        <ele>158.5</ele>
      </trkpt>
      <trkpt lat="45.03667" lon="-72.44794">
        <ele>159.6</ele>
      </trkpt>
      <trkpt lat="45.03685" lon="-72.44834">
        <ele>162.3</ele>
      </trkpt>
      <trkpt lat="45.03708" lon="-72.44873">
        <ele>165.2</ele>
      </trkpt>
      <trkpt lat="45.03761" lon="-72.449499">
        <ele>171</ele>
      </trkpt>
      <trkpt lat="45.03814" lon="-72.45027">
        <ele>176.7</ele>
      </trkpt>
      <trkpt lat="45.03869" lon="-72.45089">
        <ele>182.1</ele>
      </trkpt>
      <trkpt lat="45.03907" lon="-72.451244">
        <ele>184</ele>
      </trkpt>
      <trkpt lat="45.03945" lon="-72.4516">
        <ele>184.7</ele>
      </trkpt>
      <trkpt lat="45.0396" lon="-72.45175">
        <ele>184.2</ele>
      </trkpt>
      <trkpt lat="45.03981" lon="-72.45206">
        <ele>182.5</ele>
      </trkpt>
      <trkpt lat="45.04012" lon="-72.45268">
        <ele>178.2</ele>
      </trkpt>
      <trkpt lat="45.04049" lon="-72.453704">
        <ele>175.9</ele>
      </trkpt>
      <trkpt lat="45.04086" lon="-72.45473">
        <ele>175.3</ele>
      </trkpt>
      <trkpt lat="45.04137" lon="-72.455674">
        <ele>175.5</ele>
      </trkpt>
      <trkpt lat="45.04188" lon="-72.45662">
        <ele>176.1</ele>
      </trkpt>
      <trkpt lat="45.042195" lon="-72.457159">
        <ele>177</ele>
      </trkpt>
      <trkpt lat="45.04251" lon="-72.4577">
        <ele>177.6</ele>
      </trkpt>
      <trkpt lat="45.04281" lon="-72.45818">
        <ele>177.5</ele>
      </trkpt>
      <trkpt lat="45.04313" lon="-72.45854">
        <ele>177.9</ele>
      </trkpt>
      <trkpt lat="45.0434" lon="-72.45881">
        <ele>178.5</ele>
      </trkpt>
      <trkpt lat="45.04407" lon="-72.45935">
        <ele>182.2</ele>
      </trkpt>
      <trkpt lat="45.04447" lon="-72.45957">
        <ele>184.3</ele>
      </trkpt>
      <trkpt lat="45.04486" lon="-72.45975">
        <ele>186.9</ele>
      </trkpt>
      <trkpt lat="45.04521" lon="-72.45981">
        <ele>187.7</ele>
      </trkpt>
      <trkpt lat="45.04585" lon="-72.45989">
        <ele>190.6</ele>
      </trkpt>
      <trkpt lat="45.04658" lon="-72.46003">
        <ele>191.4</ele>
      </trkpt>
      <trkpt lat="45.04677" lon="-72.46013">
        <ele>191.4</ele>
      </trkpt>
      <trkpt lat="45.04713" lon="-72.46038">
        <ele>190.6</ele>
      </trkpt>
      <trkpt lat="45.04752" lon="-72.46075">
        <ele>189.2</ele>
      </trkpt>
      <trkpt lat="45.048025" lon="-72.461434">
        <ele>184.8</ele>
      </trkpt>
      <trkpt lat="45.04853" lon="-72.46212">
        <ele>179.3</ele>
      </trkpt>
      <trkpt lat="45.04889" lon="-72.46252">
        <ele>175.4</ele>
      </trkpt>
      <trkpt lat="45.049436" lon="-72.462973">
        <ele>170.1</ele>
      </trkpt>
      <trkpt lat="45.049983" lon="-72.463426">
        <ele>162.4</ele>
      </trkpt>
      <trkpt lat="45.05053" lon="-72.46388">
        <ele>158.6</ele>
      </trkpt>
      <trkpt lat="45.05092" lon="-72.46433">
        <ele>157.7</ele>
      </trkpt>
      <trkpt lat="45.05106" lon="-72.46455">
        <ele>157.9</ele>
      </trkpt>
      <trkpt lat="45.05128" lon="-72.46505">
        <ele>158.8</ele>
      </trkpt>
      <trkpt lat="45.0514" lon="-72.46543">
        <ele>159.8</ele>
      </trkpt>
      <trkpt lat="45.05149" lon="-72.46579">
        <ele>161.4</ele>
      </trkpt>
      <trkpt lat="45.05164" lon="-72.466564">
        <ele>165</ele>
      </trkpt>
      <trkpt lat="45.05179" lon="-72.46734">
        <ele>167.7</ele>
      </trkpt>
      <trkpt lat="45.05211" lon="-72.46727">
        <ele>167.8</ele>
      </trkpt>
      <trkpt lat="45.05254" lon="-72.46718">
        <ele>168.6</ele>
      </trkpt>
      <trkpt lat="45.05267" lon="-72.46714">
        <ele>169</ele>
      </trkpt>
      <trkpt lat="45.05333" lon="-72.46666">
        <ele>170.2</ele>
      </trkpt>
      <trkpt lat="45.05354" lon="-72.4666">
        <ele>170.6</ele>
      </trkpt>
      <trkpt lat="45.05357" lon="-72.4666">
        <ele>170.6</ele>
      </trkpt>
      <trkpt lat="45.05392" lon="-72.46664">
        <ele>171.3</ele>
      </trkpt>
      <trkpt lat="45.05444" lon="-72.46678">
        <ele>171.7</ele>
      </trkpt>
      <trkpt lat="45.05468" lon="-72.46687">
        <ele>172</ele>
      </trkpt>
      <trkpt lat="45.05513" lon="-72.46727">
        <ele>173.4</ele>
      </trkpt>
      <trkpt lat="45.05522" lon="-72.46731">
        <ele>173.4</ele>
      </trkpt>
      <trkpt lat="45.05582" lon="-72.46741">
        <ele>177.5</ele>
      </trkpt>
      <trkpt lat="45.05593" lon="-72.46746">
        <ele>177.5</ele>
      </trkpt>
      <trkpt lat="45.05597" lon="-72.46753">
        <ele>178.1</ele>
      </trkpt>
      <trkpt lat="45.05616" lon="-72.46809">
        <ele>180.8</ele>
      </trkpt>
      <trkpt lat="45.05629" lon="-72.46839">
        <ele>182.1</ele>
      </trkpt>
      <trkpt lat="45.05642" lon="-72.46853">
        <ele>182.4</ele>
      </trkpt>
      <trkpt lat="45.05655" lon="-72.46854">
        <ele>182.7</ele>
      </trkpt>
      <trkpt lat="45.05669" lon="-72.46852">
        <ele>182.9</ele>
      </trkpt>
      <trkpt lat="45.057185" lon="-72.46826">
        <ele>184.9</ele>
      </trkpt>
      <trkpt lat="45.05768" lon="-72.468">
        <ele>188.3</ele>
      </trkpt>
      <trkpt lat="45.05811" lon="-72.4677">
        <ele>191.4</ele>
      </trkpt>
      <trkpt lat="45.05854" lon="-72.4674">
        <ele>195.2</ele>
      </trkpt>
      <trkpt lat="45.05882" lon="-72.46727">
        <ele>197.6</ele>
      </trkpt>
      <trkpt lat="45.059473" lon="-72.467196">
        <ele>203.1</ele>
      </trkpt>
      <trkpt lat="45.060126" lon="-72.467123">
        <ele>206</ele>
      </trkpt>
      <trkpt lat="45.06078" lon="-72.46705">
        <ele>211.6</ele>
      </trkpt>
      <trkpt lat="45.06133" lon="-72.467184">
        <ele>215.3</ele>
      </trkpt>
      <trkpt lat="45.06188" lon="-72.46732">
        <ele>215.7</ele>
      </trkpt>
      <trkpt lat="45.06241" lon="-72.46723">
        <ele>214.9</ele>
      </trkpt>
      <trkpt lat="45.06309" lon="-72.46698">
        <ele>216.5</ele>
      </trkpt>
      <trkpt lat="45.06343" lon="-72.46691">
        <ele>217.4</ele>
      </trkpt>
      <trkpt lat="45.06367" lon="-72.46674">
        <ele>217.9</ele>
      </trkpt>
      <trkpt lat="45.06389" lon="-72.46648">
        <ele>218.7</ele>
      </trkpt>
      <trkpt lat="45.064" lon="-72.46633">
        <ele>219.4</ele>
      </trkpt>
      <trkpt lat="45.0641" lon="-72.46607">
        <ele>220.4</ele>
      </trkpt>
      <trkpt lat="45.06433" lon="-72.4653">
        <ele>223.6</ele>
      </trkpt>
      <trkpt lat="45.0647" lon="-72.46449">
        <ele>231.4</ele>
      </trkpt>
      <trkpt lat="45.065" lon="-72.464">
        <ele>234.3</ele>
      </trkpt>
      <trkpt lat="45.06557" lon="-72.46342">
        <ele>235.7</ele>
      </trkpt>
      <trkpt lat="45.06577" lon="-72.46333">
        <ele>236.3</ele>
      </trkpt>
      <trkpt lat="45.06628" lon="-72.46329">
        <ele>236.7</ele>
      </trkpt>
      <trkpt lat="45.06711" lon="-72.46315">
        <ele>237.1</ele>
      </trkpt>
      <trkpt lat="45.06794" lon="-72.46301">
        <ele>240.3</ele>
      </trkpt>
      <trkpt lat="45.06828" lon="-72.46283">
        <ele>243.1</ele>
      </trkpt>
      <trkpt lat="45.06883" lon="-72.46259">
        <ele>247.8</ele>
      </trkpt>
      <trkpt lat="45.06938" lon="-72.46235">
        <ele>250.4</ele>
      </trkpt>
      <trkpt lat="45.06963" lon="-72.46226">
        <ele>250.5</ele>
      </trkpt>
      <trkpt lat="45.07044" lon="-72.46217">
        <ele>247.4</ele>
      </trkpt>
      <trkpt lat="45.07112" lon="-72.46196">
        <ele>242.6</ele>
      </trkpt>
      <trkpt lat="45.07106" lon="-72.46182">
        <ele>242.6</ele>
      </trkpt>
      <trkpt lat="45.0708" lon="-72.46145">
        <ele>239.5</ele>
      </trkpt>
      <trkpt lat="45.0705" lon="-72.46092">
        <ele>237.5</ele>
      </trkpt>
      <trkpt lat="45.07035" lon="-72.46055">
        <ele>237.3</ele>
      </trkpt>
      <trkpt lat="45.07031" lon="-72.46047">
        <ele>237.2</ele>
      </trkpt>
      <trkpt lat="45.0701" lon="-72.459689">
        <ele>238</ele>
      </trkpt>
      <trkpt lat="45.06989" lon="-72.45891">
        <ele>242.1</ele>
      </trkpt>
      <trkpt lat="45.06967" lon="-72.45792">
        <ele>249.4</ele>
      </trkpt>
      <trkpt lat="45.06932" lon="-72.45716">
        <ele>254.3</ele>
      </trkpt>
      <trkpt lat="45.06882" lon="-72.45622">
        <ele>259.5</ele>
      </trkpt>
      <trkpt lat="45.06877" lon="-72.45608">
        <ele>259.9</ele>
      </trkpt>
      <trkpt lat="45.06877" lon="-72.45582">
        <ele>260.4</ele>
      </trkpt>
      <trkpt lat="45.06882" lon="-72.45554">
        <ele>261.4</ele>
      </trkpt>
      <trkpt lat="45.06894" lon="-72.45528">
        <ele>263.1</ele>
      </trkpt>
      <trkpt lat="45.06916" lon="-72.45487">
        <ele>266.8</ele>
      </trkpt>
      <trkpt lat="45.0693" lon="-72.45451">
        <ele>271.5</ele>
      </trkpt>
      <trkpt lat="45.06934" lon="-72.4542">
        <ele>274.5</ele>
      </trkpt>
      <trkpt lat="45.06931" lon="-72.45393">
        <ele>275.5</ele>
      </trkpt>
      <trkpt lat="45.06923" lon="-72.45362">
        <ele>279.4</ele>
      </trkpt>
      <trkpt lat="45.06925" lon="-72.45308">
        <ele>283.6</ele>
      </trkpt>
      <trkpt lat="45.06933" lon="-72.45241">
        <ele>287.6</ele>
      </trkpt>
      <trkpt lat="45.0695" lon="-72.45157">
        <ele>292.4</ele>
      </trkpt>
      <trkpt lat="45.0697" lon="-72.45107">
        <ele>294.5</ele>
      </trkpt>
      <trkpt lat="45.06991" lon="-72.450085">
        <ele>300.5</ele>
      </trkpt>
      <trkpt lat="45.07012" lon="-72.4491">
        <ele>307.8</ele>
      </trkpt>
      <trkpt lat="45.07015" lon="-72.44807">
        <ele>310.7</ele>
      </trkpt>
      <trkpt lat="45.07008" lon="-72.44714">
        <ele>314.1</ele>
      </trkpt>
      <trkpt lat="45.07007" lon="-72.44677">
        <ele>316</ele>
      </trkpt>
      <trkpt lat="45.070185" lon="-72.445985">
        <ele>323.1</ele>
      </trkpt>
      <trkpt lat="45.0703" lon="-72.4452">
        <ele>325.9</ele>
      </trkpt>
      <trkpt lat="45.07033" lon="-72.44435">
        <ele>330.8</ele>
      </trkpt>
      <trkpt lat="45.07028" lon="-72.44377">
        <ele>335.7</ele>
      </trkpt>
      <trkpt lat="45.0702" lon="-72.4435">
        <ele>340</ele>
      </trkpt>
      <trkpt lat="45.07" lon="-72.44297">
        <ele>343.1</ele>
      </trkpt>
      <trkpt lat="45.06995" lon="-72.44278">
        <ele>344.6</ele>
      </trkpt>
      <trkpt lat="45.06996" lon="-72.44243">
        <ele>346.1</ele>
      </trkpt>
      <trkpt lat="45.07008" lon="-72.44216">
        <ele>346.3</ele>
      </trkpt>
      <trkpt lat="45.07022" lon="-72.44193">
        <ele>346.6</ele>
      </trkpt>
      <trkpt lat="45.07065" lon="-72.44104">
        <ele>349.7</ele>
      </trkpt>
      <trkpt lat="45.07095" lon="-72.4405">
        <ele>351.3</ele>
      </trkpt>
      <trkpt lat="45.07104" lon="-72.44028">
        <ele>351.3</ele>
      </trkpt>
      <trkpt lat="45.07108" lon="-72.44006">
        <ele>351.2</ele>
      </trkpt>
      <trkpt lat="45.07106" lon="-72.43973">
        <ele>351.2</ele>
      </trkpt>
      <trkpt lat="45.07099" lon="-72.4394">
        <ele>350.8</ele>
      </trkpt>
      <trkpt lat="45.070805" lon="-72.438739">
        <ele>350.4</ele>
      </trkpt>
      <trkpt lat="45.07062" lon="-72.43808">
        <ele>350.2</ele>
      </trkpt>
      <trkpt lat="45.07056" lon="-72.43764">
        <ele>350.5</ele>
      </trkpt>
      <trkpt lat="45.07054" lon="-72.43714">
        <ele>349.6</ele>
      </trkpt>
      <trkpt lat="45.07065" lon="-72.43629">
        <ele>346.6</ele>
      </trkpt>
      <trkpt lat="45.07079" lon="-72.43581">
        <ele>341.9</ele>
      </trkpt>
      <trkpt lat="45.071185" lon="-72.435095">
        <ele>337.7</ele>
      </trkpt>
      <trkpt lat="45.07158" lon="-72.43438">
        <ele>336</ele>
      </trkpt>
      <trkpt lat="45.07168" lon="-72.43414">
        <ele>335.8</ele>
      </trkpt>
      <trkpt lat="45.07182" lon="-72.43351">
        <ele>334.4</ele>
      </trkpt>
      <trkpt lat="45.07181" lon="-72.43324">
        <ele>333.8</ele>
      </trkpt>
      <trkpt lat="45.07178" lon="-72.43302">
        <ele>333.1</ele>
      </trkpt>
      <trkpt lat="45.07159" lon="-72.432">
        <ele>331.7</ele>
      </trkpt>
      <trkpt lat="45.0715" lon="-72.43118">
        <ele>329.6</ele>
      </trkpt>
      <trkpt lat="45.07153" lon="-72.43073">
        <ele>329.1</ele>
      </trkpt>
      <trkpt lat="45.07166" lon="-72.42985">
        <ele>328.8</ele>
      </trkpt>
      <trkpt lat="45.07165" lon="-72.42971">
        <ele>328.8</ele>
      </trkpt>
      <trkpt lat="45.07153" lon="-72.42909">
        <ele>328.6</ele>
      </trkpt>
      <trkpt lat="45.07131" lon="-72.42859">
        <ele>327</ele>
      </trkpt>
      <trkpt lat="45.07123" lon="-72.42806">
        <ele>324.8</ele>
      </trkpt>
      <trkpt lat="45.0712" lon="-72.4277">
        <ele>324.1</ele>
      </trkpt>
      <trkpt lat="45.07119" lon="-72.42681">
        <ele>321.2</ele>
      </trkpt>
      <trkpt lat="45.07113" lon="-72.42564">
        <ele>317.2</ele>
      </trkpt>
      <trkpt lat="45.07105" lon="-72.42519">
        <ele>315.5</ele>
      </trkpt>
      <trkpt lat="45.07096" lon="-72.42483">
        <ele>313.6</ele>
      </trkpt>
      <trkpt lat="45.0709" lon="-72.42429">
        <ele>310.7</ele>
      </trkpt>
      <trkpt lat="45.07064" lon="-72.42315">
        <ele>307.6</ele>
      </trkpt>
      <trkpt lat="45.07044" lon="-72.42241">
        <ele>305.7</ele>
      </trkpt>
      <trkpt lat="45.07021" lon="-72.42193">
        <ele>302.1</ele>
      </trkpt>
      <trkpt lat="45.07004" lon="-72.42102">
        <ele>297.2</ele>
      </trkpt>
      <trkpt lat="45.06997" lon="-72.4208">
        <ele>296.7</ele>
      </trkpt>
      <trkpt lat="45.06977" lon="-72.42044">
        <ele>294.8</ele>
      </trkpt>
      <trkpt lat="45.06949" lon="-72.42">
        <ele>291.7</ele>
      </trkpt>
      <trkpt lat="45.06935" lon="-72.41964">
        <ele>289.8</ele>
      </trkpt>
      <trkpt lat="45.06927" lon="-72.41933">
        <ele>288.9</ele>
      </trkpt>
      <trkpt lat="45.06919" lon="-72.4187">
        <ele>286.8</ele>
      </trkpt>
      <trkpt lat="45.06919" lon="-72.41811">
        <ele>284.4</ele>
      </trkpt>
      <trkpt lat="45.0692" lon="-72.41745">
        <ele>282.5</ele>
      </trkpt>
      <trkpt lat="45.06927" lon="-72.41673">
        <ele>279.9</ele>
      </trkpt>
      <trkpt lat="45.06931" lon="-72.41606">
        <ele>278</ele>
      </trkpt>
      <trkpt lat="45.06928" lon="-72.41565">
        <ele>278</ele>
      </trkpt>
      <trkpt lat="45.06913" lon="-72.41471">
        <ele>274.2</ele>
      </trkpt>
      <trkpt lat="45.06903" lon="-72.41386">
        <ele>273.6</ele>
      </trkpt>
      <trkpt lat="45.06892" lon="-72.41342">
        <ele>273.8</ele>
      </trkpt>
      <trkpt lat="45.06845" lon="-72.41239">
        <ele>269</ele>
      </trkpt>
      <trkpt lat="45.06834" lon="-72.41202">
        <ele>266.1</ele>
      </trkpt>
      <trkpt lat="45.06828" lon="-72.41167">
        <ele>262.7</ele>
      </trkpt>
      <trkpt lat="45.06821" lon="-72.41095">
        <ele>259.1</ele>
      </trkpt>
      <trkpt lat="45.06808" lon="-72.41033">
        <ele>255.2</ele>
      </trkpt>
      <trkpt lat="45.0678" lon="-72.409469">
        <ele>250.5</ele>
      </trkpt>
      <trkpt lat="45.06752" lon="-72.40861">
        <ele>246.9</ele>
      </trkpt>
      <trkpt lat="45.06713" lon="-72.408">
        <ele>244.1</ele>
      </trkpt>
      <trkpt lat="45.06706" lon="-72.40796">
        <ele>244.1</ele>
      </trkpt>
      <trkpt lat="45.06647" lon="-72.40782">
        <ele>242.4</ele>
      </trkpt>
      <trkpt lat="45.0662" lon="-72.40773">
        <ele>241.7</ele>
      </trkpt>
      <trkpt lat="45.06578" lon="-72.4075">
        <ele>240.6</ele>
      </trkpt>
      <trkpt lat="45.06493" lon="-72.40715">
        <ele>239.9</ele>
      </trkpt>
      <trkpt lat="45.06454" lon="-72.40696">
        <ele>238.6</ele>
      </trkpt>
      <trkpt lat="45.06377" lon="-72.406539">
        <ele>233.7</ele>
      </trkpt>
      <trkpt lat="45.063" lon="-72.40612">
        <ele>228.5</ele>
      </trkpt>
      <trkpt lat="45.0628" lon="-72.40594">
        <ele>227.2</ele>
      </trkpt>
      <trkpt lat="45.06266" lon="-72.40576">
        <ele>226.1</ele>
      </trkpt>
      <trkpt lat="45.0624" lon="-72.40557">
        <ele>222.6</ele>
      </trkpt>
      <trkpt lat="45.06209" lon="-72.4054">
        <ele>220.8</ele>
      </trkpt>
      <trkpt lat="45.06168" lon="-72.40509">
        <ele>216.1</ele>
      </trkpt>
      <trkpt lat="45.0613" lon="-72.40464">
        <ele>211.8</ele>
      </trkpt>
      <trkpt lat="45.06103" lon="-72.40419">
        <ele>209.7</ele>
      </trkpt>
      <trkpt lat="45.06083" lon="-72.40374">
        <ele>208.5</ele>
      </trkpt>
      <trkpt lat="45.06064" lon="-72.40339">
        <ele>207.9</ele>
      </trkpt>
      <trkpt lat="45.06041" lon="-72.40308">
        <ele>207.2</ele>
      </trkpt>
      <trkpt lat="45.06007" lon="-72.40283">
        <ele>206.4</ele>
      </trkpt>
      <trkpt lat="45.05982" lon="-72.40267">
        <ele>206.1</ele>
      </trkpt>
      <trkpt lat="45.0596" lon="-72.40249">
        <ele>205.9</ele>
      </trkpt>
      <trkpt lat="45.0593" lon="-72.40209">
        <ele>205.5</ele>
      </trkpt>
      <trkpt lat="45.05877" lon="-72.40142">
        <ele>204.5</ele>
      </trkpt>
      <trkpt lat="45.05849" lon="-72.40101">
        <ele>203.9</ele>
      </trkpt>
      <trkpt lat="45.0581" lon="-72.4002">
        <ele>202.9</ele>
      </trkpt>
      <trkpt lat="45.058" lon="-72.39989">
        <ele>202.6</ele>
      </trkpt>
      <trkpt lat="45.05789" lon="-72.399269">
        <ele>201.2</ele>
      </trkpt>
      <trkpt lat="45.05778" lon="-72.39865">
        <ele>200.1</ele>
      </trkpt>
      <trkpt lat="45.05776" lon="-72.39819">
        <ele>199.7</ele>
      </trkpt>
      <trkpt lat="45.057804" lon="-72.39716">
        <ele>198.3</ele>
      </trkpt>
      <trkpt lat="45.057848" lon="-72.39613">
        <ele>196.8</ele>
      </trkpt>
      <trkpt lat="45.057892" lon="-72.3951">
        <ele>196.7</ele>
      </trkpt>
      <trkpt lat="45.057936" lon="-72.39407">
        <ele>196.9</ele>
      </trkpt>
      <trkpt lat="45.05798" lon="-72.39304">
        <ele>195.6</ele>
      </trkpt>
      <trkpt lat="45.05798" lon="-72.39187">
        <ele>195.8</ele>
      </trkpt>
      <trkpt lat="45.057435" lon="-72.3921">
        <ele>196.5</ele>
      </trkpt>
      <trkpt lat="45.05689" lon="-72.39233">
        <ele>196.3</ele>
      </trkpt>
      <trkpt lat="45.05643" lon="-72.39255">
        <ele>195.6</ele>
      </trkpt>
      <trkpt lat="45.05642" lon="-72.39255">
        <ele>195.6</ele>
      </trkpt>
      <trkpt lat="45.05584" lon="-72.39283">
        <ele>194.3</ele>
      </trkpt>
      <trkpt lat="45.05557" lon="-72.39292">
        <ele>193</ele>
      </trkpt>
      <trkpt lat="45.05512" lon="-72.39296">
        <ele>191.5</ele>
      </trkpt>
      <trkpt lat="45.05477" lon="-72.39293">
        <ele>190.7</ele>
      </trkpt>
      <trkpt lat="45.05447" lon="-72.39291">
        <ele>190.3</ele>
      </trkpt>
      <trkpt lat="45.05402" lon="-72.39286">
        <ele>190.2</ele>
      </trkpt>
      <trkpt lat="45.05353" lon="-72.39271">
        <ele>190.6</ele>
      </trkpt>
      <trkpt lat="45.05304" lon="-72.392499">
        <ele>190.7</ele>
      </trkpt>
      <trkpt lat="45.05255" lon="-72.39229">
        <ele>191.4</ele>
      </trkpt>
      <trkpt lat="45.0523" lon="-72.3922">
        <ele>192.4</ele>
      </trkpt>
      <trkpt lat="45.05206" lon="-72.39215">
        <ele>193.3</ele>
      </trkpt>
      <trkpt lat="45.051359" lon="-72.392094">
        <ele>194.1</ele>
      </trkpt>
      <trkpt lat="45.05066" lon="-72.39204">
        <ele>193.4</ele>
      </trkpt>
      <trkpt lat="45.050199" lon="-72.392029">
        <ele>192.7</ele>
      </trkpt>
      <trkpt lat="45.04974" lon="-72.39202">
        <ele>190.7</ele>
      </trkpt>
    </trkseg>
  </trk>
</gpx>