<?xml version='1.0' encoding='utf-8'?>
<gpx xmlns="http://www.topografix.com/GPX/1/1" xmlns:xsi="http://www.w3.org/2001/XMLSchema-instance" version="1.1" creator="Gravelle Estrie" xsi:schemaLocation="http://www.topografix.com/GPX/1/1 http://www.topografix.com/GPX/1/1/gpx.xsd">
  <metadata>
    <name>RAD courte 2025</name>
  </metadata>
  <trk>
    <name>RAD courte 2025</name>
    <trkseg>
      <trkpt lat="45.93099" lon="-71.96396">
        <ele>152.2</ele>
      </trkpt>
      <trkpt lat="45.930416" lon="-71.96459">
        <ele>149.5</ele>
      </trkpt>
      <trkpt lat="45.929843" lon="-71.96522">
        <ele>148.4</ele>
      </trkpt>
      <trkpt lat="45.92927" lon="-71.96585">
        <ele>148.1</ele>
      </trkpt>
      <trkpt lat="45.92895" lon="-71.96616">
        <ele>147.3</ele>
      </trkpt>
      <trkpt lat="45.92847" lon="-71.96651">
        <ele>147</ele>
      </trkpt>
      <trkpt lat="45.92798" lon="-71.96697">
        <ele>146.7</ele>
      </trkpt>
      <trkpt lat="45.92776" lon="-71.96724">
        <ele>146.9</ele>
      </trkpt>
      <trkpt lat="45.92795" lon="-71.96746">
        <ele>146.9</ele>
      </trkpt>
      <trkpt lat="45.927364" lon="-71.96811">
        <ele>145.5</ele>
      </trkpt>
      <trkpt lat="45.926778" lon="-71.96876">
        <ele>144.6</ele>
      </trkpt>
      <trkpt lat="45.926192" lon="-71.96941">
        <ele>143.8</ele>
      </trkpt>
      <trkpt lat="45.925606" lon="-71.97006">
        <ele>142.4</ele>
      </trkpt>
      <trkpt lat="45.92502" lon="-71.97071">
        <ele>141.6</ele>
      </trkpt>
      <trkpt lat="45.92488" lon="-71.9717">
        <ele>140.8</ele>
      </trkpt>
      <trkpt lat="45.92423" lon="-71.97165">
        <ele>140.6</ele>
      </trkpt>
      <trkpt lat="45.923675" lon="-71.971655">
        <ele>140.6</ele>
      </trkpt>
      <trkpt lat="45.92312" lon="-71.97166">
        <ele>140.5</ele>
      </trkpt>
      <trkpt lat="45.92233" lon="-71.97175">
        <ele>139.8</ele>
      </trkpt>
      <trkpt lat="45.921749" lon="-71.97186">
        <ele>139.6</ele>
      </trkpt>
      <trkpt lat="45.92117" lon="-71.97197">
        <ele>139.1</ele>
      </trkpt>
      <trkpt lat="45.92063" lon="-71.972125">
        <ele>138.8</ele>
      </trkpt>
      <trkpt lat="45.92009" lon="-71.97228">
        <ele>138.5</ele>
      </trkpt>
      <trkpt lat="45.919346" lon="-71.972536">
        <ele>138.5</ele>
      </trkpt>
      <trkpt lat="45.918603" lon="-71.972793">
        <ele>138.3</ele>
      </trkpt>
      <trkpt lat="45.91786" lon="-71.97305">
        <ele>138.1</ele>
      </trkpt>
      <trkpt lat="45.91786" lon="-71.97306">
        <ele>138.1</ele>
      </trkpt>
      <trkpt lat="45.917039" lon="-71.973348">
        <ele>138.3</ele>
      </trkpt>
      <trkpt lat="45.916218" lon="-71.973637">
        <ele>138.9</ele>
      </trkpt>
      <trkpt lat="45.915397" lon="-71.973925">
        <ele>139.6</ele>
      </trkpt>
      <trkpt lat="45.914576" lon="-71.974213">
        <ele>140</ele>
      </trkpt>
      <trkpt lat="45.913756" lon="-71.974502">
        <ele>140.4</ele>
      </trkpt>
      <trkpt lat="45.912935" lon="-71.97479">
        <ele>140.7</ele>
      </trkpt>
      <trkpt lat="45.912114" lon="-71.975079">
        <ele>141.5</ele>
      </trkpt>
      <trkpt lat="45.911293" lon="-71.975367">
        <ele>142.2</ele>
      </trkpt>
      <trkpt lat="45.910473" lon="-71.975656">
        <ele>143</ele>
      </trkpt>
      <trkpt lat="45.909652" lon="-71.975944">
        <ele>144.1</ele>
      </trkpt>
      <trkpt lat="45.908831" lon="-71.976233">
        <ele>144.9</ele>
      </trkpt>
      <trkpt lat="45.90801" lon="-71.976521">
        <ele>145.7</ele>
      </trkpt>
      <trkpt lat="45.90719" lon="-71.97681">
        <ele>146.1</ele>
      </trkpt>
      <trkpt lat="45.906745" lon="-71.97699">
        <ele>146.2</ele>
      </trkpt>
      <trkpt lat="45.9063" lon="-71.97717">
        <ele>145.7</ele>
      </trkpt>
      <trkpt lat="45.90574" lon="-71.97744">
        <ele>146</ele>
      </trkpt>
      <trkpt lat="45.90518" lon="-71.97771">
        <ele>146.7</ele>
      </trkpt>
      <trkpt lat="45.904525" lon="-71.978135">
        <ele>147.2</ele>
      </trkpt>
      <trkpt lat="45.90387" lon="-71.97856">
        <ele>147.4</ele>
      </trkpt>
      <trkpt lat="45.903295" lon="-71.979025">
        <ele>148</ele>
      </trkpt>
      <trkpt lat="45.90272" lon="-71.97949">
        <ele>148.5</ele>
      </trkpt>
      <trkpt lat="45.90206" lon="-71.98014">
        <ele>149.3</ele>
      </trkpt>
      <trkpt lat="45.9014" lon="-71.98079">
        <ele>149.8</ele>
      </trkpt>
      <trkpt lat="45.900705" lon="-71.981507">
        <ele>149.6</ele>
      </trkpt>
      <trkpt lat="45.90001" lon="-71.982225">
        <ele>149</ele>
      </trkpt>
      <trkpt lat="45.899315" lon="-71.982942">
        <ele>148.5</ele>
      </trkpt>
      <trkpt lat="45.89862" lon="-71.98366">
        <ele>147.2</ele>
      </trkpt>
      <trkpt lat="45.89824" lon="-71.98402">
        <ele>147.2</ele>
      </trkpt>
      <trkpt lat="45.89786" lon="-71.98438">
        <ele>146.7</ele>
      </trkpt>
      <trkpt lat="45.897425" lon="-71.98476">
        <ele>146.4</ele>
      </trkpt>
      <trkpt lat="45.89699" lon="-71.98514">
        <ele>145.8</ele>
      </trkpt>
      <trkpt lat="45.89641" lon="-71.985565">
        <ele>144.9</ele>
      </trkpt>
      <trkpt lat="45.89583" lon="-71.98599">
        <ele>144.3</ele>
      </trkpt>
      <trkpt lat="45.8954" lon="-71.98626">
        <ele>144</ele>
      </trkpt>
      <trkpt lat="45.89497" lon="-71.98653">
        <ele>143.9</ele>
      </trkpt>
      <trkpt lat="45.89417" lon="-71.986975">
        <ele>143.5</ele>
      </trkpt>
      <trkpt lat="45.89337" lon="-71.98742">
        <ele>143.4</ele>
      </trkpt>
      <trkpt lat="45.89285" lon="-71.987665">
        <ele>143.3</ele>
      </trkpt>
      <trkpt lat="45.89233" lon="-71.98791">
        <ele>143</ele>
      </trkpt>
      <trkpt lat="45.891715" lon="-71.988135">
        <ele>142.1</ele>
      </trkpt>
      <trkpt lat="45.8911" lon="-71.98836">
        <ele>141.3</ele>
      </trkpt>
      <trkpt lat="45.890415" lon="-71.98856">
        <ele>140.5</ele>
      </trkpt>
      <trkpt lat="45.88973" lon="-71.98876">
        <ele>139.8</ele>
      </trkpt>
      <trkpt lat="45.88898" lon="-71.988895">
        <ele>139.2</ele>
      </trkpt>
      <trkpt lat="45.88823" lon="-71.98903">
        <ele>139.2</ele>
      </trkpt>
      <trkpt lat="45.887729" lon="-71.9891">
        <ele>139.1</ele>
      </trkpt>
      <trkpt lat="45.88723" lon="-71.98917">
        <ele>139.2</ele>
      </trkpt>
      <trkpt lat="45.88691" lon="-71.98916">
        <ele>139.1</ele>
      </trkpt>
      <trkpt lat="45.886122" lon="-71.989153">
        <ele>138.1</ele>
      </trkpt>
      <trkpt lat="45.885334" lon="-71.989147">
        <ele>136.9</ele>
      </trkpt>
      <trkpt lat="45.884546" lon="-71.989141">
        <ele>136.2</ele>
      </trkpt>
      <trkpt lat="45.883758" lon="-71.989135">
        <ele>135.7</ele>
      </trkpt>
      <trkpt lat="45.88297" lon="-71.98913">
        <ele>136.6</ele>
      </trkpt>
      <trkpt lat="45.88279" lon="-71.98921">
        <ele>136.8</ele>
      </trkpt>
      <trkpt lat="45.88263" lon="-71.98917">
        <ele>136.4</ele>
      </trkpt>
      <trkpt lat="45.88215" lon="-71.98915">
        <ele>136.1</ele>
      </trkpt>
      <trkpt lat="45.881373" lon="-71.989153">
        <ele>135</ele>
      </trkpt>
      <trkpt lat="45.880596" lon="-71.989156">
        <ele>134.6</ele>
      </trkpt>
      <trkpt lat="45.87982" lon="-71.98916">
        <ele>134.1</ele>
      </trkpt>
      <trkpt lat="45.879043" lon="-71.989163">
        <ele>133.5</ele>
      </trkpt>
      <trkpt lat="45.878266" lon="-71.989166">
        <ele>133.4</ele>
      </trkpt>
      <trkpt lat="45.87749" lon="-71.98917">
        <ele>133.2</ele>
      </trkpt>
      <trkpt lat="45.87671" lon="-71.989178">
        <ele>133.2</ele>
      </trkpt>
      <trkpt lat="45.87593" lon="-71.989186">
        <ele>133.4</ele>
      </trkpt>
      <trkpt lat="45.87515" lon="-71.989194">
        <ele>133.3</ele>
      </trkpt>
      <trkpt lat="45.87437" lon="-71.989202">
        <ele>133.1</ele>
      </trkpt>
      <trkpt lat="45.87359" lon="-71.98921">
        <ele>132.9</ele>
      </trkpt>
      <trkpt lat="45.873075" lon="-71.989255">
        <ele>132.8</ele>
      </trkpt>
      <trkpt lat="45.87256" lon="-71.9893">
        <ele>132.7</ele>
      </trkpt>
      <trkpt lat="45.871935" lon="-71.989425">
        <ele>132.4</ele>
      </trkpt>
      <trkpt lat="45.87131" lon="-71.98955">
        <ele>132.2</ele>
      </trkpt>
      <trkpt lat="45.87103" lon="-71.98961">
        <ele>132.2</ele>
      </trkpt>
      <trkpt lat="45.87052" lon="-71.989795">
        <ele>131.4</ele>
      </trkpt>
      <trkpt lat="45.87001" lon="-71.98998">
        <ele>131.4</ele>
      </trkpt>
      <trkpt lat="45.869475" lon="-71.990245">
        <ele>131.6</ele>
      </trkpt>
      <trkpt lat="45.86894" lon="-71.99051">
        <ele>131.7</ele>
      </trkpt>
      <trkpt lat="45.868265" lon="-71.990935">
        <ele>131.8</ele>
      </trkpt>
      <trkpt lat="45.86759" lon="-71.99136">
        <ele>131.5</ele>
      </trkpt>
      <trkpt lat="45.86687" lon="-71.9919">
        <ele>130.9</ele>
      </trkpt>
      <trkpt lat="45.866405" lon="-71.992325">
        <ele>130.6</ele>
      </trkpt>
      <trkpt lat="45.86594" lon="-71.99275">
        <ele>130.5</ele>
      </trkpt>
      <trkpt lat="45.86555" lon="-71.99315">
        <ele>130.1</ele>
      </trkpt>
      <trkpt lat="45.86516" lon="-71.99355">
        <ele>129.4</ele>
      </trkpt>
      <trkpt lat="45.86475" lon="-71.994045">
        <ele>128.7</ele>
      </trkpt>
      <trkpt lat="45.86434" lon="-71.99454">
        <ele>128.4</ele>
      </trkpt>
      <trkpt lat="45.86398" lon="-71.995035">
        <ele>128.8</ele>
      </trkpt>
      <trkpt lat="45.86362" lon="-71.99553">
        <ele>128.7</ele>
      </trkpt>
      <trkpt lat="45.86301" lon="-71.99633">
        <ele>127.7</ele>
      </trkpt>
      <trkpt lat="45.86236" lon="-71.997045">
        <ele>128</ele>
      </trkpt>
      <trkpt lat="45.86171" lon="-71.99776">
        <ele>128</ele>
      </trkpt>
      <trkpt lat="45.86125" lon="-71.99817">
        <ele>128.2</ele>
      </trkpt>
      <trkpt lat="45.86079" lon="-71.99858">
        <ele>129</ele>
      </trkpt>
      <trkpt lat="45.860335" lon="-71.998935">
        <ele>129.5</ele>
      </trkpt>
      <trkpt lat="45.85988" lon="-71.99929">
        <ele>129.9</ele>
      </trkpt>
      <trkpt lat="45.85912" lon="-71.99982">
        <ele>130.4</ele>
      </trkpt>
      <trkpt lat="45.85847" lon="-72.00019">
        <ele>130.8</ele>
      </trkpt>
      <trkpt lat="45.85846" lon="-72.00019">
        <ele>130.8</ele>
      </trkpt>
      <trkpt lat="45.85819" lon="-72.00035">
        <ele>130.9</ele>
      </trkpt>
      <trkpt lat="45.85772" lon="-72.000555">
        <ele>131.2</ele>
      </trkpt>
      <trkpt lat="45.85725" lon="-72.00076">
        <ele>131.6</ele>
      </trkpt>
      <trkpt lat="45.856735" lon="-72.00095">
        <ele>132</ele>
      </trkpt>
      <trkpt lat="45.85622" lon="-72.00114">
        <ele>132</ele>
      </trkpt>
      <trkpt lat="45.85537" lon="-72.00139">
        <ele>131.9</ele>
      </trkpt>
      <trkpt lat="45.85463" lon="-72.00152">
        <ele>131.9</ele>
      </trkpt>
      <trkpt lat="45.854059" lon="-72.00156">
        <ele>131.8</ele>
      </trkpt>
      <trkpt lat="45.85349" lon="-72.0016">
        <ele>132.8</ele>
      </trkpt>
      <trkpt lat="45.85327" lon="-72.00143">
        <ele>132.2</ele>
      </trkpt>
      <trkpt lat="45.85316" lon="-72.00139">
        <ele>131.9</ele>
      </trkpt>
      <trkpt lat="45.85255" lon="-72.00144">
        <ele>129.5</ele>
      </trkpt>
      <trkpt lat="45.85233" lon="-72.00144">
        <ele>129.2</ele>
      </trkpt>
      <trkpt lat="45.85211" lon="-72.00139">
        <ele>128.9</ele>
      </trkpt>
      <trkpt lat="45.85195" lon="-72.00126">
        <ele>128.9</ele>
      </trkpt>
      <trkpt lat="45.85179" lon="-72.00107">
        <ele>129.1</ele>
      </trkpt>
      <trkpt lat="45.851395" lon="-72.000334">
        <ele>132.1</ele>
      </trkpt>
      <trkpt lat="45.851" lon="-71.9996">
        <ele>137.2</ele>
      </trkpt>
      <trkpt lat="45.85073" lon="-71.99924">
        <ele>139.7</ele>
      </trkpt>
      <trkpt lat="45.85039" lon="-71.99893">
        <ele>140.1</ele>
      </trkpt>
      <trkpt lat="45.85016" lon="-71.99875">
        <ele>139.7</ele>
      </trkpt>
      <trkpt lat="45.84994" lon="-71.99866">
        <ele>139.3</ele>
      </trkpt>
      <trkpt lat="45.8498" lon="-71.99863">
        <ele>139</ele>
      </trkpt>
      <trkpt lat="45.84992" lon="-71.99812">
        <ele>136.5</ele>
      </trkpt>
      <trkpt lat="45.84992" lon="-71.9979">
        <ele>135.9</ele>
      </trkpt>
      <trkpt lat="45.8499" lon="-71.99772">
        <ele>135.5</ele>
      </trkpt>
      <trkpt lat="45.84981" lon="-71.9974">
        <ele>135.5</ele>
      </trkpt>
      <trkpt lat="45.849525" lon="-71.996879">
        <ele>136.9</ele>
      </trkpt>
      <trkpt lat="45.84924" lon="-71.99636">
        <ele>139.7</ele>
      </trkpt>
      <trkpt lat="45.84874" lon="-71.995447">
        <ele>143.3</ele>
      </trkpt>
      <trkpt lat="45.84824" lon="-71.994535">
        <ele>144.7</ele>
      </trkpt>
      <trkpt lat="45.84774" lon="-71.993623">
        <ele>146.5</ele>
      </trkpt>
      <trkpt lat="45.84724" lon="-71.992711">
        <ele>150.7</ele>
      </trkpt>
      <trkpt lat="45.84674" lon="-71.9918">
        <ele>154.9</ele>
      </trkpt>
      <trkpt lat="45.84658" lon="-71.99146">
        <ele>157.2</ele>
      </trkpt>
      <trkpt lat="45.84654" lon="-71.99122">
        <ele>158.6</ele>
      </trkpt>
      <trkpt lat="45.84655" lon="-71.99077">
        <ele>160.3</ele>
      </trkpt>
      <trkpt lat="45.84663" lon="-71.99055">
        <ele>160.6</ele>
      </trkpt>
      <trkpt lat="45.84683" lon="-71.99028">
        <ele>160.6</ele>
      </trkpt>
      <trkpt lat="45.847412" lon="-71.989672">
        <ele>159.9</ele>
      </trkpt>
      <trkpt lat="45.847994" lon="-71.989064">
        <ele>158.7</ele>
      </trkpt>
      <trkpt lat="45.848576" lon="-71.988456">
        <ele>158.2</ele>
      </trkpt>
      <trkpt lat="45.849158" lon="-71.987848">
        <ele>158.3</ele>
      </trkpt>
      <trkpt lat="45.84974" lon="-71.98724">
        <ele>160</ele>
      </trkpt>
      <trkpt lat="45.85021" lon="-71.9867">
        <ele>161.4</ele>
      </trkpt>
      <trkpt lat="45.85037" lon="-71.98647">
        <ele>160.9</ele>
      </trkpt>
      <trkpt lat="45.85047" lon="-71.98624">
        <ele>160.3</ele>
      </trkpt>
      <trkpt lat="45.85058" lon="-71.98567">
        <ele>158.8</ele>
      </trkpt>
      <trkpt lat="45.850675" lon="-71.984955">
        <ele>156.2</ele>
      </trkpt>
      <trkpt lat="45.85077" lon="-71.98424">
        <ele>150.5</ele>
      </trkpt>
      <trkpt lat="45.850845" lon="-71.983235">
        <ele>148.6</ele>
      </trkpt>
      <trkpt lat="45.85092" lon="-71.98223">
        <ele>155.4</ele>
      </trkpt>
      <trkpt lat="45.85102" lon="-71.98165">
        <ele>158.9</ele>
      </trkpt>
      <trkpt lat="45.85115" lon="-71.98124">
        <ele>161.5</ele>
      </trkpt>
      <trkpt lat="45.85132" lon="-71.98079">
        <ele>163.4</ele>
      </trkpt>
      <trkpt lat="45.85143" lon="-71.98055">
        <ele>166</ele>
      </trkpt>
      <trkpt lat="45.85143" lon="-71.98056">
        <ele>165.9</ele>
      </trkpt>
      <trkpt lat="45.85184" lon="-71.97972">
        <ele>174.7</ele>
      </trkpt>
      <trkpt lat="45.85199" lon="-71.97936">
        <ele>180</ele>
      </trkpt>
      <trkpt lat="45.85213" lon="-71.97887">
        <ele>183.7</ele>
      </trkpt>
      <trkpt lat="45.852345" lon="-71.97795">
        <ele>186.8</ele>
      </trkpt>
      <trkpt lat="45.85256" lon="-71.97703">
        <ele>188.8</ele>
      </trkpt>
      <trkpt lat="45.85272" lon="-71.97652">
        <ele>189</ele>
      </trkpt>
      <trkpt lat="45.85315" lon="-71.975545">
        <ele>190.9</ele>
      </trkpt>
      <trkpt lat="45.85358" lon="-71.97457">
        <ele>190.1</ele>
      </trkpt>
      <trkpt lat="45.85387" lon="-71.9738">
        <ele>184.2</ele>
      </trkpt>
      <trkpt lat="45.85415" lon="-71.97282">
        <ele>180.2</ele>
      </trkpt>
      <trkpt lat="45.85424" lon="-71.97238">
        <ele>180.9</ele>
      </trkpt>
      <trkpt lat="45.85429" lon="-71.97184">
        <ele>182</ele>
      </trkpt>
      <trkpt lat="45.85428" lon="-71.971189">
        <ele>184.4</ele>
      </trkpt>
      <trkpt lat="45.85427" lon="-71.97054">
        <ele>183.4</ele>
      </trkpt>
      <trkpt lat="45.85416" lon="-71.96956">
        <ele>180.1</ele>
      </trkpt>
      <trkpt lat="45.85403" lon="-71.96906">
        <ele>180.2</ele>
      </trkpt>
      <trkpt lat="45.85378" lon="-71.968239">
        <ele>181.1</ele>
      </trkpt>
      <trkpt lat="45.85353" lon="-71.967419">
        <ele>180.3</ele>
      </trkpt>
      <trkpt lat="45.85328" lon="-71.9666">
        <ele>182.4</ele>
      </trkpt>
      <trkpt lat="45.85315" lon="-71.96628">
        <ele>183.7</ele>
      </trkpt>
      <trkpt lat="45.85297" lon="-71.96592">
        <ele>184.4</ele>
      </trkpt>
      <trkpt lat="45.852505" lon="-71.965184">
        <ele>185.7</ele>
      </trkpt>
      <trkpt lat="45.85204" lon="-71.96445">
        <ele>185.9</ele>
      </trkpt>
      <trkpt lat="45.851613" lon="-71.963379">
        <ele>187.4</ele>
      </trkpt>
      <trkpt lat="45.851186" lon="-71.962309">
        <ele>190.7</ele>
      </trkpt>
      <trkpt lat="45.85076" lon="-71.96124">
        <ele>193</ele>
      </trkpt>
      <trkpt lat="45.85045" lon="-71.960654">
        <ele>195.4</ele>
      </trkpt>
      <trkpt lat="45.85014" lon="-71.96007">
        <ele>198.5</ele>
      </trkpt>
      <trkpt lat="45.849656" lon="-71.959245">
        <ele>201.5</ele>
      </trkpt>
      <trkpt lat="45.849172" lon="-71.958421">
        <ele>204.5</ele>
      </trkpt>
      <trkpt lat="45.848688" lon="-71.957597">
        <ele>209.1</ele>
      </trkpt>
      <trkpt lat="45.848204" lon="-71.956773">
        <ele>211.4</ele>
      </trkpt>
      <trkpt lat="45.84772" lon="-71.95595">
        <ele>215.3</ele>
      </trkpt>
      <trkpt lat="45.84743" lon="-71.95521">
        <ele>218.2</ele>
      </trkpt>
      <trkpt lat="45.84727" lon="-71.95472">
        <ele>219.7</ele>
      </trkpt>
      <trkpt lat="45.846782" lon="-71.953872">
        <ele>220.5</ele>
      </trkpt>
      <trkpt lat="45.846295" lon="-71.953024">
        <ele>223.4</ele>
      </trkpt>
      <trkpt lat="45.845807" lon="-71.952177">
        <ele>229.7</ele>
      </trkpt>
      <trkpt lat="45.84532" lon="-71.95133">
        <ele>234.9</ele>
      </trkpt>
      <trkpt lat="45.844965" lon="-71.950679">
        <ele>237.1</ele>
      </trkpt>
      <trkpt lat="45.84461" lon="-71.95003">
        <ele>241.5</ele>
      </trkpt>
      <trkpt lat="45.84434" lon="-71.94937">
        <ele>242.9</ele>
      </trkpt>
      <trkpt lat="45.844115" lon="-71.948559">
        <ele>243.3</ele>
      </trkpt>
      <trkpt lat="45.84389" lon="-71.94775">
        <ele>249.2</ele>
      </trkpt>
      <trkpt lat="45.84368" lon="-71.94677">
        <ele>254.6</ele>
      </trkpt>
      <trkpt lat="45.84348" lon="-71.945944">
        <ele>263.3</ele>
      </trkpt>
      <trkpt lat="45.84328" lon="-71.94512">
        <ele>268.2</ele>
      </trkpt>
      <trkpt lat="45.843062" lon="-71.944105">
        <ele>271.3</ele>
      </trkpt>
      <trkpt lat="45.842844" lon="-71.943091">
        <ele>272.8</ele>
      </trkpt>
      <trkpt lat="45.842626" lon="-71.942077">
        <ele>272.8</ele>
      </trkpt>
      <trkpt lat="45.842408" lon="-71.941063">
        <ele>272.9</ele>
      </trkpt>
      <trkpt lat="45.84219" lon="-71.94005">
        <ele>272.5</ele>
      </trkpt>
      <trkpt lat="45.84202" lon="-71.93908">
        <ele>270.6</ele>
      </trkpt>
      <trkpt lat="45.841926" lon="-71.938223">
        <ele>268.5</ele>
      </trkpt>
      <trkpt lat="45.841833" lon="-71.937366">
        <ele>266.1</ele>
      </trkpt>
      <trkpt lat="45.84174" lon="-71.93651">
        <ele>263.4</ele>
      </trkpt>
      <trkpt lat="45.84162" lon="-71.935346">
        <ele>259.3</ele>
      </trkpt>
      <trkpt lat="45.8415" lon="-71.934183">
        <ele>255.2</ele>
      </trkpt>
      <trkpt lat="45.84138" lon="-71.93302">
        <ele>250.9</ele>
      </trkpt>
      <trkpt lat="45.84119" lon="-71.93178">
        <ele>250.9</ele>
      </trkpt>
      <trkpt lat="45.84099" lon="-71.931054">
        <ele>254.8</ele>
      </trkpt>
      <trkpt lat="45.84079" lon="-71.93033">
        <ele>257.1</ele>
      </trkpt>
      <trkpt lat="45.84064" lon="-71.92972">
        <ele>257.1</ele>
      </trkpt>
      <trkpt lat="45.84051" lon="-71.92894">
        <ele>257</ele>
      </trkpt>
      <trkpt lat="45.84049" lon="-71.92778">
        <ele>255.4</ele>
      </trkpt>
      <trkpt lat="45.84057" lon="-71.92698">
        <ele>248</ele>
      </trkpt>
      <trkpt lat="45.84075" lon="-71.92613">
        <ele>241.4</ele>
      </trkpt>
      <trkpt lat="45.84087" lon="-71.92564">
        <ele>235.6</ele>
      </trkpt>
      <trkpt lat="45.84127" lon="-71.92458">
        <ele>223.3</ele>
      </trkpt>
      <trkpt lat="45.84167" lon="-71.92352">
        <ele>212.4</ele>
      </trkpt>
      <trkpt lat="45.84207" lon="-71.92246">
        <ele>204.7</ele>
      </trkpt>
      <trkpt lat="45.84245" lon="-71.92134">
        <ele>204.5</ele>
      </trkpt>
      <trkpt lat="45.84283" lon="-71.92022">
        <ele>210.6</ele>
      </trkpt>
      <trkpt lat="45.84321" lon="-71.9191">
        <ele>207</ele>
      </trkpt>
      <trkpt lat="45.84336" lon="-71.91838">
        <ele>200.3</ele>
      </trkpt>
      <trkpt lat="45.84335" lon="-71.91838">
        <ele>200.2</ele>
      </trkpt>
      <trkpt lat="45.84359" lon="-71.91722">
        <ele>194.1</ele>
      </trkpt>
      <trkpt lat="45.84373" lon="-71.91672">
        <ele>194.9</ele>
      </trkpt>
      <trkpt lat="45.84358" lon="-71.91651">
        <ele>195</ele>
      </trkpt>
      <trkpt lat="45.84339" lon="-71.91619">
        <ele>195.8</ele>
      </trkpt>
      <trkpt lat="45.843035" lon="-71.915474">
        <ele>198.6</ele>
      </trkpt>
      <trkpt lat="45.84268" lon="-71.91476">
        <ele>202.8</ele>
      </trkpt>
      <trkpt lat="45.84233" lon="-71.91391">
        <ele>208.5</ele>
      </trkpt>
      <trkpt lat="45.84214" lon="-71.91373">
        <ele>209.6</ele>
      </trkpt>
      <trkpt lat="45.84202" lon="-71.91369">
        <ele>210.4</ele>
      </trkpt>
      <trkpt lat="45.84184" lon="-71.91372">
        <ele>210.4</ele>
      </trkpt>
      <trkpt lat="45.84125" lon="-71.91386">
        <ele>212.5</ele>
      </trkpt>
      <trkpt lat="45.84095" lon="-71.91387">
        <ele>212.9</ele>
      </trkpt>
      <trkpt lat="45.84032" lon="-71.91378">
        <ele>213.3</ele>
      </trkpt>
      <trkpt lat="45.84004" lon="-71.91365">
        <ele>213.5</ele>
      </trkpt>
      <trkpt lat="45.83929" lon="-71.913376">
        <ele>213</ele>
      </trkpt>
      <trkpt lat="45.83854" lon="-71.913103">
        <ele>218.7</ele>
      </trkpt>
      <trkpt lat="45.83779" lon="-71.91283">
        <ele>220.8</ele>
      </trkpt>
      <trkpt lat="45.83748" lon="-71.91269">
        <ele>221.6</ele>
      </trkpt>
      <trkpt lat="45.836915" lon="-71.912304">
        <ele>223.1</ele>
      </trkpt>
      <trkpt lat="45.83635" lon="-71.91192">
        <ele>223.8</ele>
      </trkpt>
      <trkpt lat="45.83602" lon="-71.91166">
        <ele>224.2</ele>
      </trkpt>
      <trkpt lat="45.835386" lon="-71.911036">
        <ele>225.8</ele>
      </trkpt>
      <trkpt lat="45.834753" lon="-71.910413">
        <ele>226.3</ele>
      </trkpt>
      <trkpt lat="45.83412" lon="-71.90979">
        <ele>226.5</ele>
      </trkpt>
      <trkpt lat="45.83393" lon="-71.90956">
        <ele>225.7</ele>
      </trkpt>
      <trkpt lat="45.83365" lon="-71.90916">
        <ele>225.6</ele>
      </trkpt>
      <trkpt lat="45.83351" lon="-71.90888">
        <ele>226</ele>
      </trkpt>
      <trkpt lat="45.83335" lon="-71.90853">
        <ele>226.8</ele>
      </trkpt>
      <trkpt lat="45.832956" lon="-71.907599">
        <ele>229.8</ele>
      </trkpt>
      <trkpt lat="45.832562" lon="-71.906669">
        <ele>231.9</ele>
      </trkpt>
      <trkpt lat="45.832168" lon="-71.905739">
        <ele>237</ele>
      </trkpt>
      <trkpt lat="45.831774" lon="-71.904809">
        <ele>245.4</ele>
      </trkpt>
      <trkpt lat="45.83138" lon="-71.90388">
        <ele>251.2</ele>
      </trkpt>
      <trkpt lat="45.83107" lon="-71.903174">
        <ele>253.4</ele>
      </trkpt>
      <trkpt lat="45.83076" lon="-71.90247">
        <ele>254.5</ele>
      </trkpt>
      <trkpt lat="45.831466" lon="-71.90172">
        <ele>261.2</ele>
      </trkpt>
      <trkpt lat="45.832172" lon="-71.90097">
        <ele>267.7</ele>
      </trkpt>
      <trkpt lat="45.832878" lon="-71.90022">
        <ele>272.2</ele>
      </trkpt>
      <trkpt lat="45.833585" lon="-71.89947">
        <ele>274.3</ele>
      </trkpt>
      <trkpt lat="45.834291" lon="-71.89872">
        <ele>280.9</ele>
      </trkpt>
      <trkpt lat="45.834997" lon="-71.89797">
        <ele>287.9</ele>
      </trkpt>
      <trkpt lat="45.835703" lon="-71.89722">
        <ele>296.7</ele>
      </trkpt>
      <trkpt lat="45.83641" lon="-71.89647">
        <ele>305.5</ele>
      </trkpt>
      <trkpt lat="45.83641" lon="-71.89648">
        <ele>305.4</ele>
      </trkpt>
      <trkpt lat="45.836946" lon="-71.895916">
        <ele>311.5</ele>
      </trkpt>
      <trkpt lat="45.837483" lon="-71.895353">
        <ele>315.8</ele>
      </trkpt>
      <trkpt lat="45.83802" lon="-71.89479">
        <ele>318.5</ele>
      </trkpt>
      <trkpt lat="45.83876" lon="-71.89407">
        <ele>324</ele>
      </trkpt>
      <trkpt lat="45.8395" lon="-71.89335">
        <ele>337.1</ele>
      </trkpt>
      <trkpt lat="45.839935" lon="-71.892845">
        <ele>341.6</ele>
      </trkpt>
      <trkpt lat="45.84037" lon="-71.89234">
        <ele>341.3</ele>
      </trkpt>
      <trkpt lat="45.8411" lon="-71.89162">
        <ele>336.1</ele>
      </trkpt>
      <trkpt lat="45.84183" lon="-71.8909">
        <ele>324.9</ele>
      </trkpt>
      <trkpt lat="45.84256" lon="-71.89018">
        <ele>316.3</ele>
      </trkpt>
      <trkpt lat="45.84321" lon="-71.889488">
        <ele>308.5</ele>
      </trkpt>
      <trkpt lat="45.84386" lon="-71.888797">
        <ele>305.9</ele>
      </trkpt>
      <trkpt lat="45.84451" lon="-71.888106">
        <ele>300.9</ele>
      </trkpt>
      <trkpt lat="45.84516" lon="-71.887415">
        <ele>298</ele>
      </trkpt>
      <trkpt lat="45.84581" lon="-71.886724">
        <ele>298.2</ele>
      </trkpt>
      <trkpt lat="45.84646" lon="-71.886033">
        <ele>299.7</ele>
      </trkpt>
      <trkpt lat="45.84711" lon="-71.885342">
        <ele>302.5</ele>
      </trkpt>
      <trkpt lat="45.84776" lon="-71.884651">
        <ele>306.3</ele>
      </trkpt>
      <trkpt lat="45.84841" lon="-71.88396">
        <ele>311</ele>
      </trkpt>
      <trkpt lat="45.84841" lon="-71.88397">
        <ele>310.9</ele>
      </trkpt>
      <trkpt lat="45.848795" lon="-71.88356">
        <ele>314.1</ele>
      </trkpt>
      <trkpt lat="45.84918" lon="-71.88315">
        <ele>317.7</ele>
      </trkpt>
      <trkpt lat="45.84869" lon="-71.882254">
        <ele>321.6</ele>
      </trkpt>
      <trkpt lat="45.8482" lon="-71.88136">
        <ele>326.8</ele>
      </trkpt>
      <trkpt lat="45.847732" lon="-71.880419">
        <ele>329.3</ele>
      </trkpt>
      <trkpt lat="45.847265" lon="-71.879479">
        <ele>328.1</ele>
      </trkpt>
      <trkpt lat="45.846797" lon="-71.878539">
        <ele>324.2</ele>
      </trkpt>
      <trkpt lat="45.84633" lon="-71.8776">
        <ele>319.5</ele>
      </trkpt>
      <trkpt lat="45.846005" lon="-71.876929">
        <ele>314.6</ele>
      </trkpt>
      <trkpt lat="45.84568" lon="-71.87626">
        <ele>311.8</ele>
      </trkpt>
      <trkpt lat="45.845248" lon="-71.875371">
        <ele>308.5</ele>
      </trkpt>
      <trkpt lat="45.844816" lon="-71.874483">
        <ele>308.1</ele>
      </trkpt>
      <trkpt lat="45.844385" lon="-71.873594">
        <ele>310.6</ele>
      </trkpt>
      <trkpt lat="45.843953" lon="-71.872706">
        <ele>313.3</ele>
      </trkpt>
      <trkpt lat="45.843521" lon="-71.871818">
        <ele>316.2</ele>
      </trkpt>
      <trkpt lat="45.84309" lon="-71.87093">
        <ele>319.6</ele>
      </trkpt>
      <trkpt lat="45.84283" lon="-71.870299">
        <ele>320.4</ele>
      </trkpt>
      <trkpt lat="45.84257" lon="-71.86967">
        <ele>320.4</ele>
      </trkpt>
      <trkpt lat="45.842265" lon="-71.868799">
        <ele>319</ele>
      </trkpt>
      <trkpt lat="45.84196" lon="-71.86793">
        <ele>316.8</ele>
      </trkpt>
      <trkpt lat="45.84175" lon="-71.86727">
        <ele>315.8</ele>
      </trkpt>
      <trkpt lat="45.8415" lon="-71.86649">
        <ele>314.6</ele>
      </trkpt>
      <trkpt lat="45.842101" lon="-71.86585">
        <ele>312.6</ele>
      </trkpt>
      <trkpt lat="45.842703" lon="-71.86521">
        <ele>311.7</ele>
      </trkpt>
      <trkpt lat="45.843305" lon="-71.86457">
        <ele>309.8</ele>
      </trkpt>
      <trkpt lat="45.843906" lon="-71.86393">
        <ele>309.5</ele>
      </trkpt>
      <trkpt lat="45.844508" lon="-71.86329">
        <ele>310.8</ele>
      </trkpt>
      <trkpt lat="45.84511" lon="-71.86265">
        <ele>312.2</ele>
      </trkpt>
      <trkpt lat="45.8451" lon="-71.86266">
        <ele>312.3</ele>
      </trkpt>
      <trkpt lat="45.845712" lon="-71.86201">
        <ele>314.8</ele>
      </trkpt>
      <trkpt lat="45.846325" lon="-71.86136">
        <ele>317.3</ele>
      </trkpt>
      <trkpt lat="45.846937" lon="-71.86071">
        <ele>324.4</ele>
      </trkpt>
      <trkpt lat="45.84755" lon="-71.86006">
        <ele>325.6</ele>
      </trkpt>
      <trkpt lat="45.84822" lon="-71.85937">
        <ele>323.3</ele>
      </trkpt>
      <trkpt lat="45.84889" lon="-71.85868">
        <ele>322.8</ele>
      </trkpt>
      <trkpt lat="45.84956" lon="-71.85799">
        <ele>325.2</ele>
      </trkpt>
      <trkpt lat="45.850197" lon="-71.857295">
        <ele>323.6</ele>
      </trkpt>
      <trkpt lat="45.850835" lon="-71.8566">
        <ele>327.4</ele>
      </trkpt>
      <trkpt lat="45.851472" lon="-71.855905">
        <ele>335.2</ele>
      </trkpt>
      <trkpt lat="45.85211" lon="-71.85521">
        <ele>342.3</ele>
      </trkpt>
      <trkpt lat="45.852723" lon="-71.85456">
        <ele>347.2</ele>
      </trkpt>
      <trkpt lat="45.853336" lon="-71.85391">
        <ele>351</ele>
      </trkpt>
      <trkpt lat="45.85395" lon="-71.85326">
        <ele>355.1</ele>
      </trkpt>
      <trkpt lat="45.85395" lon="-71.85327">
        <ele>355.1</ele>
      </trkpt>
      <trkpt lat="45.8544" lon="-71.85279">
        <ele>356.4</ele>
      </trkpt>
      <trkpt lat="45.85462" lon="-71.85248">
        <ele>356</ele>
      </trkpt>
      <trkpt lat="45.85478" lon="-71.85212">
        <ele>355.7</ele>
      </trkpt>
      <trkpt lat="45.8549" lon="-71.85175">
        <ele>355.9</ele>
      </trkpt>
      <trkpt lat="45.85507" lon="-71.850885">
        <ele>357.2</ele>
      </trkpt>
      <trkpt lat="45.85524" lon="-71.85002">
        <ele>357.7</ele>
      </trkpt>
      <trkpt lat="45.85545" lon="-71.84949">
        <ele>357.7</ele>
      </trkpt>
      <trkpt lat="45.855865" lon="-71.84886">
        <ele>359.5</ele>
      </trkpt>
      <trkpt lat="45.85628" lon="-71.84823">
        <ele>357.6</ele>
      </trkpt>
      <trkpt lat="45.85656" lon="-71.84795">
        <ele>357.1</ele>
      </trkpt>
      <trkpt lat="45.85691" lon="-71.8477">
        <ele>358.2</ele>
      </trkpt>
      <trkpt lat="45.85747" lon="-71.84755">
        <ele>362.4</ele>
      </trkpt>
      <trkpt lat="45.85785" lon="-71.84738">
        <ele>363.9</ele>
      </trkpt>
      <trkpt lat="45.85867" lon="-71.84693">
        <ele>365</ele>
      </trkpt>
      <trkpt lat="45.85934" lon="-71.846453">
        <ele>361.9</ele>
      </trkpt>
      <trkpt lat="45.86001" lon="-71.845976">
        <ele>362</ele>
      </trkpt>
      <trkpt lat="45.86068" lon="-71.8455">
        <ele>364.5</ele>
      </trkpt>
      <trkpt lat="45.86088" lon="-71.84537">
        <ele>365</ele>
      </trkpt>
      <trkpt lat="45.861516" lon="-71.845143">
        <ele>368.6</ele>
      </trkpt>
      <trkpt lat="45.862153" lon="-71.844916">
        <ele>371.6</ele>
      </trkpt>
      <trkpt lat="45.86279" lon="-71.84469">
        <ele>372.1</ele>
      </trkpt>
      <trkpt lat="45.86304" lon="-71.84456">
        <ele>372.7</ele>
      </trkpt>
      <trkpt lat="45.863695" lon="-71.84411">
        <ele>379.1</ele>
      </trkpt>
      <trkpt lat="45.86435" lon="-71.84366">
        <ele>383.9</ele>
      </trkpt>
      <trkpt lat="45.86478" lon="-71.84339">
        <ele>386.2</ele>
      </trkpt>
      <trkpt lat="45.86552" lon="-71.84301">
        <ele>391.2</ele>
      </trkpt>
      <trkpt lat="45.86626" lon="-71.84263">
        <ele>398.2</ele>
      </trkpt>
      <trkpt lat="45.86676" lon="-71.84236">
        <ele>404</ele>
      </trkpt>
      <trkpt lat="45.86726" lon="-71.84209">
        <ele>408.3</ele>
      </trkpt>
      <trkpt lat="45.86748" lon="-71.84196">
        <ele>410</ele>
      </trkpt>
      <trkpt lat="45.86811" lon="-71.841335">
        <ele>414.6</ele>
      </trkpt>
      <trkpt lat="45.86874" lon="-71.84071">
        <ele>416.7</ele>
      </trkpt>
      <trkpt lat="45.86913" lon="-71.84037">
        <ele>416.4</ele>
      </trkpt>
      <trkpt lat="45.86952" lon="-71.84003">
        <ele>415.6</ele>
      </trkpt>
      <trkpt lat="45.870155" lon="-71.839255">
        <ele>406.2</ele>
      </trkpt>
      <trkpt lat="45.87079" lon="-71.83848">
        <ele>396.2</ele>
      </trkpt>
      <trkpt lat="45.87079" lon="-71.83849">
        <ele>396.4</ele>
      </trkpt>
      <trkpt lat="45.87116" lon="-71.83805">
        <ele>391.3</ele>
      </trkpt>
      <trkpt lat="45.87153" lon="-71.83761">
        <ele>388.2</ele>
      </trkpt>
      <trkpt lat="45.87198" lon="-71.83824">
        <ele>387.5</ele>
      </trkpt>
      <trkpt lat="45.87257" lon="-71.83914">
        <ele>388.5</ele>
      </trkpt>
      <trkpt lat="45.87294" lon="-71.839839">
        <ele>390.1</ele>
      </trkpt>
      <trkpt lat="45.87331" lon="-71.840539">
        <ele>392.3</ele>
      </trkpt>
      <trkpt lat="45.87368" lon="-71.84124">
        <ele>394.5</ele>
      </trkpt>
      <trkpt lat="45.87379" lon="-71.84148">
        <ele>395</ele>
      </trkpt>
      <trkpt lat="45.87388" lon="-71.84174">
        <ele>396.5</ele>
      </trkpt>
      <trkpt lat="45.874116" lon="-71.842619">
        <ele>397.8</ele>
      </trkpt>
      <trkpt lat="45.874353" lon="-71.843499">
        <ele>395.2</ele>
      </trkpt>
      <trkpt lat="45.87459" lon="-71.84438">
        <ele>389</ele>
      </trkpt>
      <trkpt lat="45.87481" lon="-71.84541">
        <ele>384.2</ele>
      </trkpt>
      <trkpt lat="45.87505" lon="-71.84627">
        <ele>382.1</ele>
      </trkpt>
      <trkpt lat="45.87523" lon="-71.84663">
        <ele>380.5</ele>
      </trkpt>
      <trkpt lat="45.87538" lon="-71.84684">
        <ele>379.4</ele>
      </trkpt>
      <trkpt lat="45.875915" lon="-71.847384">
        <ele>374.7</ele>
      </trkpt>
      <trkpt lat="45.87645" lon="-71.84793">
        <ele>371.1</ele>
      </trkpt>
      <trkpt lat="45.87703" lon="-71.84877">
        <ele>362.9</ele>
      </trkpt>
      <trkpt lat="45.8773" lon="-71.84921">
        <ele>359.7</ele>
      </trkpt>
      <trkpt lat="45.87767" lon="-71.8498">
        <ele>354.9</ele>
      </trkpt>
      <trkpt lat="45.87824" lon="-71.85078">
        <ele>347.1</ele>
      </trkpt>
      <trkpt lat="45.878785" lon="-71.851804">
        <ele>341.8</ele>
      </trkpt>
      <trkpt lat="45.87933" lon="-71.85283">
        <ele>335.3</ele>
      </trkpt>
      <trkpt lat="45.87998" lon="-71.852156">
        <ele>327.4</ele>
      </trkpt>
      <trkpt lat="45.88063" lon="-71.851482">
        <ele>322.7</ele>
      </trkpt>
      <trkpt lat="45.88128" lon="-71.850808">
        <ele>319.6</ele>
      </trkpt>
      <trkpt lat="45.88193" lon="-71.850134">
        <ele>316.2</ele>
      </trkpt>
      <trkpt lat="45.88258" lon="-71.84946">
        <ele>312.8</ele>
      </trkpt>
      <trkpt lat="45.88325" lon="-71.84875">
        <ele>309.4</ele>
      </trkpt>
      <trkpt lat="45.88392" lon="-71.84804">
        <ele>305.2</ele>
      </trkpt>
      <trkpt lat="45.88459" lon="-71.84733">
        <ele>302.3</ele>
      </trkpt>
      <trkpt lat="45.885216" lon="-71.84668">
        <ele>298.4</ele>
      </trkpt>
      <trkpt lat="45.885842" lon="-71.84603">
        <ele>296.4</ele>
      </trkpt>
      <trkpt lat="45.886468" lon="-71.84538">
        <ele>297.6</ele>
      </trkpt>
      <trkpt lat="45.887094" lon="-71.84473">
        <ele>299.4</ele>
      </trkpt>
      <trkpt lat="45.88772" lon="-71.84408">
        <ele>301.7</ele>
      </trkpt>
      <trkpt lat="45.888355" lon="-71.84349">
        <ele>300.3</ele>
      </trkpt>
      <trkpt lat="45.88899" lon="-71.8429">
        <ele>297.9</ele>
      </trkpt>
      <trkpt lat="45.889652" lon="-71.84222">
        <ele>295.6</ele>
      </trkpt>
      <trkpt lat="45.890315" lon="-71.84154">
        <ele>292.2</ele>
      </trkpt>
      <trkpt lat="45.890978" lon="-71.84086">
        <ele>289.9</ele>
      </trkpt>
      <trkpt lat="45.891641" lon="-71.84018">
        <ele>287.9</ele>
      </trkpt>
      <trkpt lat="45.892304" lon="-71.8395">
        <ele>286.9</ele>
      </trkpt>
      <trkpt lat="45.892967" lon="-71.83882">
        <ele>289.9</ele>
      </trkpt>
      <trkpt lat="45.89363" lon="-71.83814">
        <ele>291.6</ele>
      </trkpt>
      <trkpt lat="45.89363" lon="-71.83815">
        <ele>291.7</ele>
      </trkpt>
      <trkpt lat="45.89432" lon="-71.83745">
        <ele>291</ele>
      </trkpt>
      <trkpt lat="45.89501" lon="-71.83675">
        <ele>291.5</ele>
      </trkpt>
      <trkpt lat="45.8957" lon="-71.83605">
        <ele>291.3</ele>
      </trkpt>
      <trkpt lat="45.89639" lon="-71.83535">
        <ele>290.3</ele>
      </trkpt>
      <trkpt lat="45.89708" lon="-71.83465">
        <ele>289.7</ele>
      </trkpt>
      <trkpt lat="45.89777" lon="-71.83395">
        <ele>289.9</ele>
      </trkpt>
      <trkpt lat="45.898354" lon="-71.83333">
        <ele>288.1</ele>
      </trkpt>
      <trkpt lat="45.898938" lon="-71.83271">
        <ele>286</ele>
      </trkpt>
      <trkpt lat="45.899522" lon="-71.83209">
        <ele>284.7</ele>
      </trkpt>
      <trkpt lat="45.900106" lon="-71.83147">
        <ele>284.8</ele>
      </trkpt>
      <trkpt lat="45.90069" lon="-71.83085">
        <ele>281.1</ele>
      </trkpt>
      <trkpt lat="45.901278" lon="-71.830252">
        <ele>275.5</ele>
      </trkpt>
      <trkpt lat="45.901866" lon="-71.829654">
        <ele>269.2</ele>
      </trkpt>
      <trkpt lat="45.902454" lon="-71.829056">
        <ele>271.1</ele>
      </trkpt>
      <trkpt lat="45.903042" lon="-71.828458">
        <ele>277.7</ele>
      </trkpt>
      <trkpt lat="45.90363" lon="-71.82786">
        <ele>278.5</ele>
      </trkpt>
      <trkpt lat="45.904305" lon="-71.827195">
        <ele>280.2</ele>
      </trkpt>
      <trkpt lat="45.90498" lon="-71.82653">
        <ele>285.1</ele>
      </trkpt>
      <trkpt lat="45.905492" lon="-71.827525">
        <ele>285</ele>
      </trkpt>
      <trkpt lat="45.906005" lon="-71.828521">
        <ele>285.1</ele>
      </trkpt>
      <trkpt lat="45.906518" lon="-71.829517">
        <ele>286.8</ele>
      </trkpt>
      <trkpt lat="45.907031" lon="-71.830512">
        <ele>287.2</ele>
      </trkpt>
      <trkpt lat="45.907544" lon="-71.831508">
        <ele>286.3</ele>
      </trkpt>
      <trkpt lat="45.908057" lon="-71.832504">
        <ele>286.4</ele>
      </trkpt>
      <trkpt lat="45.90857" lon="-71.8335">
        <ele>286.1</ele>
      </trkpt>
      <trkpt lat="45.909061" lon="-71.834456">
        <ele>285.9</ele>
      </trkpt>
      <trkpt lat="45.909552" lon="-71.835412">
        <ele>285.8</ele>
      </trkpt>
      <trkpt lat="45.910043" lon="-71.836368">
        <ele>286.4</ele>
      </trkpt>
      <trkpt lat="45.910535" lon="-71.837324">
        <ele>285.6</ele>
      </trkpt>
      <trkpt lat="45.911026" lon="-71.838281">
        <ele>285</ele>
      </trkpt>
      <trkpt lat="45.911517" lon="-71.839237">
        <ele>283.7</ele>
      </trkpt>
      <trkpt lat="45.912008" lon="-71.840193">
        <ele>282.6</ele>
      </trkpt>
      <trkpt lat="45.9125" lon="-71.84115">
        <ele>282.3</ele>
      </trkpt>
      <trkpt lat="45.91261" lon="-71.84152">
        <ele>281</ele>
      </trkpt>
      <trkpt lat="45.91259" lon="-71.84188">
        <ele>279.8</ele>
      </trkpt>
      <trkpt lat="45.91254" lon="-71.84205">
        <ele>279.8</ele>
      </trkpt>
      <trkpt lat="45.91245" lon="-71.84218">
        <ele>278.3</ele>
      </trkpt>
      <trkpt lat="45.911875" lon="-71.842782">
        <ele>275.2</ele>
      </trkpt>
      <trkpt lat="45.9113" lon="-71.843385">
        <ele>271.2</ele>
      </trkpt>
      <trkpt lat="45.910725" lon="-71.843987">
        <ele>268.6</ele>
      </trkpt>
      <trkpt lat="45.91015" lon="-71.84459">
        <ele>265.2</ele>
      </trkpt>
      <trkpt lat="45.91004" lon="-71.84478">
        <ele>265</ele>
      </trkpt>
      <trkpt lat="45.90999" lon="-71.84496">
        <ele>264.9</ele>
      </trkpt>
      <trkpt lat="45.90998" lon="-71.84514">
        <ele>264.9</ele>
      </trkpt>
      <trkpt lat="45.91004" lon="-71.84545">
        <ele>264.9</ele>
      </trkpt>
      <trkpt lat="45.910535" lon="-71.846409">
        <ele>265.6</ele>
      </trkpt>
      <trkpt lat="45.911031" lon="-71.847368">
        <ele>266.7</ele>
      </trkpt>
      <trkpt lat="45.911527" lon="-71.848327">
        <ele>268</ele>
      </trkpt>
      <trkpt lat="45.912023" lon="-71.849286">
        <ele>270.6</ele>
      </trkpt>
      <trkpt lat="45.912519" lon="-71.850245">
        <ele>274.4</ele>
      </trkpt>
      <trkpt lat="45.913015" lon="-71.851204">
        <ele>275.4</ele>
      </trkpt>
      <trkpt lat="45.91351" lon="-71.852163">
        <ele>276.4</ele>
      </trkpt>
      <trkpt lat="45.914006" lon="-71.853123">
        <ele>277</ele>
      </trkpt>
      <trkpt lat="45.914502" lon="-71.854082">
        <ele>277.5</ele>
      </trkpt>
      <trkpt lat="45.914998" lon="-71.855041">
        <ele>277.8</ele>
      </trkpt>
      <trkpt lat="45.915494" lon="-71.856">
        <ele>277.6</ele>
      </trkpt>
      <trkpt lat="45.91599" lon="-71.85696">
        <ele>276.8</ele>
      </trkpt>
      <trkpt lat="45.91635" lon="-71.857654">
        <ele>276.2</ele>
      </trkpt>
      <trkpt lat="45.91671" lon="-71.85835">
        <ele>275.3</ele>
      </trkpt>
      <trkpt lat="45.91718" lon="-71.859306">
        <ele>275.8</ele>
      </trkpt>
      <trkpt lat="45.91765" lon="-71.860262">
        <ele>276.5</ele>
      </trkpt>
      <trkpt lat="45.91812" lon="-71.861218">
        <ele>276.6</ele>
      </trkpt>
      <trkpt lat="45.91859" lon="-71.862174">
        <ele>278.8</ele>
      </trkpt>
      <trkpt lat="45.91906" lon="-71.863131">
        <ele>282.1</ele>
      </trkpt>
      <trkpt lat="45.91953" lon="-71.864087">
        <ele>285.2</ele>
      </trkpt>
      <trkpt lat="45.92" lon="-71.865043">
        <ele>288</ele>
      </trkpt>
      <trkpt lat="45.92047" lon="-71.866">
        <ele>288.8</ele>
      </trkpt>
      <trkpt lat="45.921007" lon="-71.867033">
        <ele>284.5</ele>
      </trkpt>
      <trkpt lat="45.921544" lon="-71.868067">
        <ele>280.2</ele>
      </trkpt>
      <trkpt lat="45.922081" lon="-71.8691">
        <ele>276.1</ele>
      </trkpt>
      <trkpt lat="45.922619" lon="-71.870134">
        <ele>275.6</ele>
      </trkpt>
      <trkpt lat="45.923156" lon="-71.871167">
        <ele>269.9</ele>
      </trkpt>
      <trkpt lat="45.923693" lon="-71.872201">
        <ele>270.9</ele>
      </trkpt>
      <trkpt lat="45.924231" lon="-71.873235">
        <ele>275.8</ele>
      </trkpt>
      <trkpt lat="45.924768" lon="-71.874268">
        <ele>280.7</ele>
      </trkpt>
      <trkpt lat="45.925305" lon="-71.875302">
        <ele>282.3</ele>
      </trkpt>
      <trkpt lat="45.925842" lon="-71.876336">
        <ele>283.5</ele>
      </trkpt>
      <trkpt lat="45.92638" lon="-71.87737">
        <ele>283.1</ele>
      </trkpt>
      <trkpt lat="45.926655" lon="-71.877929">
        <ele>282.3</ele>
      </trkpt>
      <trkpt lat="45.92693" lon="-71.87849">
        <ele>281.8</ele>
      </trkpt>
      <trkpt lat="45.927435" lon="-71.879455">
        <ele>277.4</ele>
      </trkpt>
      <trkpt lat="45.927941" lon="-71.880421">
        <ele>269.4</ele>
      </trkpt>
      <trkpt lat="45.928447" lon="-71.881387">
        <ele>260</ele>
      </trkpt>
      <trkpt lat="45.928953" lon="-71.882353">
        <ele>258.9</ele>
      </trkpt>
      <trkpt lat="45.929459" lon="-71.883318">
        <ele>265.6</ele>
      </trkpt>
      <trkpt lat="45.929965" lon="-71.884284">
        <ele>267.3</ele>
      </trkpt>
      <trkpt lat="45.93047" lon="-71.88525">
        <ele>271.4</ele>
      </trkpt>
      <trkpt lat="45.930976" lon="-71.886216">
        <ele>275.6</ele>
      </trkpt>
      <trkpt lat="45.931482" lon="-71.887182">
        <ele>279.6</ele>
      </trkpt>
      <trkpt lat="45.931988" lon="-71.888148">
        <ele>282.3</ele>
      </trkpt>
      <trkpt lat="45.932494" lon="-71.889114">
        <ele>277.7</ele>
      </trkpt>
      <trkpt lat="45.933" lon="-71.89008">
        <ele>271.6</ele>
      </trkpt>
      <trkpt lat="45.933275" lon="-71.890634">
        <ele>270.4</ele>
      </trkpt>
      <trkpt lat="45.93355" lon="-71.89119">
        <ele>270.1</ele>
      </trkpt>
      <trkpt lat="45.93397" lon="-71.892013">
        <ele>268.6</ele>
      </trkpt>
      <trkpt lat="45.93439" lon="-71.892836">
        <ele>266.5</ele>
      </trkpt>
      <trkpt lat="45.93481" lon="-71.89366">
        <ele>263.9</ele>
      </trkpt>
      <trkpt lat="45.935306" lon="-71.894649">
        <ele>263.3</ele>
      </trkpt>
      <trkpt lat="45.935803" lon="-71.895639">
        <ele>263.5</ele>
      </trkpt>
      <trkpt lat="45.9363" lon="-71.89663">
        <ele>265.6</ele>
      </trkpt>
      <trkpt lat="45.936791" lon="-71.897627">
        <ele>262.8</ele>
      </trkpt>
      <trkpt lat="45.937282" lon="-71.898625">
        <ele>260.2</ele>
      </trkpt>
      <trkpt lat="45.937773" lon="-71.899623">
        <ele>257.5</ele>
      </trkpt>
      <trkpt lat="45.938264" lon="-71.90062">
        <ele>252.2</ele>
      </trkpt>
      <trkpt lat="45.938755" lon="-71.901618">
        <ele>244.9</ele>
      </trkpt>
      <trkpt lat="45.939246" lon="-71.902616">
        <ele>239.1</ele>
      </trkpt>
      <trkpt lat="45.939737" lon="-71.903614">
        <ele>236.9</ele>
      </trkpt>
      <trkpt lat="45.940228" lon="-71.904612">
        <ele>230</ele>
      </trkpt>
      <trkpt lat="45.94072" lon="-71.90561">
        <ele>224.7</ele>
      </trkpt>
      <trkpt lat="45.941175" lon="-71.906529">
        <ele>222.8</ele>
      </trkpt>
      <trkpt lat="45.94163" lon="-71.90745">
        <ele>220.3</ele>
      </trkpt>
      <trkpt lat="45.940948" lon="-71.90815">
        <ele>218.1</ele>
      </trkpt>
      <trkpt lat="45.940266" lon="-71.90885">
        <ele>213.6</ele>
      </trkpt>
      <trkpt lat="45.939584" lon="-71.90955">
        <ele>209</ele>
      </trkpt>
      <trkpt lat="45.938902" lon="-71.91025">
        <ele>203.8</ele>
      </trkpt>
      <trkpt lat="45.93822" lon="-71.91095">
        <ele>201.9</ele>
      </trkpt>
      <trkpt lat="45.937622" lon="-71.911552">
        <ele>201</ele>
      </trkpt>
      <trkpt lat="45.937025" lon="-71.912155">
        <ele>199</ele>
      </trkpt>
      <trkpt lat="45.936427" lon="-71.912757">
        <ele>197.3</ele>
      </trkpt>
      <trkpt lat="45.93583" lon="-71.91336">
        <ele>194.8</ele>
      </trkpt>
      <trkpt lat="45.93556" lon="-71.91386">
        <ele>192.6</ele>
      </trkpt>
      <trkpt lat="45.93548" lon="-71.91432">
        <ele>190.7</ele>
      </trkpt>
      <trkpt lat="45.93554" lon="-71.91486">
        <ele>189.6</ele>
      </trkpt>
      <trkpt lat="45.936042" lon="-71.915849">
        <ele>186</ele>
      </trkpt>
      <trkpt lat="45.936545" lon="-71.916839">
        <ele>180.9</ele>
      </trkpt>
      <trkpt lat="45.937047" lon="-71.917829">
        <ele>177.3</ele>
      </trkpt>
      <trkpt lat="45.93755" lon="-71.91882">
        <ele>173.4</ele>
      </trkpt>
      <trkpt lat="45.937923" lon="-71.919553">
        <ele>168.7</ele>
      </trkpt>
      <trkpt lat="45.938296" lon="-71.920286">
        <ele>167.1</ele>
      </trkpt>
      <trkpt lat="45.93867" lon="-71.92102">
        <ele>167.1</ele>
      </trkpt>
      <trkpt lat="45.93899" lon="-71.9217">
        <ele>167.6</ele>
      </trkpt>
      <trkpt lat="45.9391" lon="-71.92202">
        <ele>168.5</ele>
      </trkpt>
      <trkpt lat="45.9392" lon="-71.9225">
        <ele>170.5</ele>
      </trkpt>
      <trkpt lat="45.93921" lon="-71.92308">
        <ele>173.8</ele>
      </trkpt>
      <trkpt lat="45.93916" lon="-71.9234">
        <ele>176</ele>
      </trkpt>
      <trkpt lat="45.93904" lon="-71.92385">
        <ele>180.4</ele>
      </trkpt>
      <trkpt lat="45.93881" lon="-71.92443">
        <ele>185.2</ele>
      </trkpt>
      <trkpt lat="45.938406" lon="-71.92531">
        <ele>192.1</ele>
      </trkpt>
      <trkpt lat="45.938003" lon="-71.92619">
        <ele>199.9</ele>
      </trkpt>
      <trkpt lat="45.9376" lon="-71.92707">
        <ele>209.6</ele>
      </trkpt>
      <trkpt lat="45.9371" lon="-71.92796">
        <ele>215.4</ele>
      </trkpt>
      <trkpt lat="45.936603" lon="-71.928766">
        <ele>218.1</ele>
      </trkpt>
      <trkpt lat="45.936106" lon="-71.929573">
        <ele>219</ele>
      </trkpt>
      <trkpt lat="45.93561" lon="-71.93038">
        <ele>221.5</ele>
      </trkpt>
      <trkpt lat="45.9351" lon="-71.931294">
        <ele>222.4</ele>
      </trkpt>
      <trkpt lat="45.93459" lon="-71.932208">
        <ele>220</ele>
      </trkpt>
      <trkpt lat="45.93408" lon="-71.933122">
        <ele>215</ele>
      </trkpt>
      <trkpt lat="45.93357" lon="-71.934036">
        <ele>211.7</ele>
      </trkpt>
      <trkpt lat="45.93306" lon="-71.93495">
        <ele>213.6</ele>
      </trkpt>
      <trkpt lat="45.9327" lon="-71.93543">
        <ele>218</ele>
      </trkpt>
      <trkpt lat="45.9327" lon="-71.93544">
        <ele>218</ele>
      </trkpt>
      <trkpt lat="45.932143" lon="-71.936183">
        <ele>222.8</ele>
      </trkpt>
      <trkpt lat="45.931586" lon="-71.936926">
        <ele>225.6</ele>
      </trkpt>
      <trkpt lat="45.93103" lon="-71.93767">
        <ele>230.9</ele>
      </trkpt>
      <trkpt lat="45.93092" lon="-71.93785">
        <ele>231.2</ele>
      </trkpt>
      <trkpt lat="45.9309" lon="-71.93797">
        <ele>231.9</ele>
      </trkpt>
      <trkpt lat="45.93091" lon="-71.93804">
        <ele>231.9</ele>
      </trkpt>
      <trkpt lat="45.931422" lon="-71.939079">
        <ele>233.1</ele>
      </trkpt>
      <trkpt lat="45.931935" lon="-71.940119">
        <ele>235.6</ele>
      </trkpt>
      <trkpt lat="45.932447" lon="-71.941159">
        <ele>239.8</ele>
      </trkpt>
      <trkpt lat="45.93296" lon="-71.9422">
        <ele>244</ele>
      </trkpt>
      <trkpt lat="45.933463" lon="-71.943181">
        <ele>238</ele>
      </trkpt>
      <trkpt lat="45.933966" lon="-71.944162">
        <ele>237.8</ele>
      </trkpt>
      <trkpt lat="45.93447" lon="-71.945143">
        <ele>240.9</ele>
      </trkpt>
      <trkpt lat="45.934973" lon="-71.946124">
        <ele>246.1</ele>
      </trkpt>
      <trkpt lat="45.935476" lon="-71.947105">
        <ele>241.2</ele>
      </trkpt>
      <trkpt lat="45.93598" lon="-71.948086">
        <ele>236.3</ele>
      </trkpt>
      <trkpt lat="45.936483" lon="-71.949067">
        <ele>243.5</ele>
      </trkpt>
      <trkpt lat="45.936986" lon="-71.950048">
        <ele>250.1</ele>
      </trkpt>
      <trkpt lat="45.93749" lon="-71.95103">
        <ele>248.9</ele>
      </trkpt>
      <trkpt lat="45.93773" lon="-71.95157">
        <ele>248</ele>
      </trkpt>
      <trkpt lat="45.93779" lon="-71.95182">
        <ele>247.1</ele>
      </trkpt>
      <trkpt lat="45.93784" lon="-71.95231">
        <ele>244.3</ele>
      </trkpt>
      <trkpt lat="45.93782" lon="-71.95287">
        <ele>239</ele>
      </trkpt>
      <trkpt lat="45.93772" lon="-71.9538">
        <ele>233.8</ele>
      </trkpt>
      <trkpt lat="45.93761" lon="-71.95458">
        <ele>229.1</ele>
      </trkpt>
      <trkpt lat="45.9375" lon="-71.95536">
        <ele>228.8</ele>
      </trkpt>
      <trkpt lat="45.93739" lon="-71.95599">
        <ele>225.8</ele>
      </trkpt>
      <trkpt lat="45.93719" lon="-71.95684">
        <ele>219.6</ele>
      </trkpt>
      <trkpt lat="45.937" lon="-71.95746">
        <ele>215.4</ele>
      </trkpt>
      <trkpt lat="45.93676" lon="-71.95783">
        <ele>213.7</ele>
      </trkpt>
      <trkpt lat="45.93644" lon="-71.95822">
        <ele>211.3</ele>
      </trkpt>
      <trkpt lat="45.935827" lon="-71.95885">
        <ele>204</ele>
      </trkpt>
      <trkpt lat="45.935215" lon="-71.95948">
        <ele>195.7</ele>
      </trkpt>
      <trkpt lat="45.934602" lon="-71.96011">
        <ele>186.7</ele>
      </trkpt>
      <trkpt lat="45.93399" lon="-71.96074">
        <ele>174.2</ele>
      </trkpt>
      <trkpt lat="45.9335" lon="-71.96132">
        <ele>167.4</ele>
      </trkpt>
      <trkpt lat="45.932923" lon="-71.961916">
        <ele>161.7</ele>
      </trkpt>
      <trkpt lat="45.932346" lon="-71.962513">
        <ele>158.2</ele>
      </trkpt>
      <trkpt lat="45.93177" lon="-71.96311">
        <ele>154.4</ele>
      </trkpt>
      <trkpt lat="45.93138" lon="-71.963535">
        <ele>154</ele>
      </trkpt>
      <trkpt lat="45.93099" lon="-71.96396">
        <ele>152.2</ele>
      </trkpt>
    </trkseg>
  </trk>
</gpx>