<?xml version='1.0' encoding='utf-8'?>
<gpx xmlns="http://www.topografix.com/GPX/1/1" xmlns:xsi="http://www.w3.org/2001/XMLSchema-instance" version="1.1" creator="Gravelle Estrie" xsi:schemaLocation="http://www.topografix.com/GPX/1/1 http://www.topografix.com/GPX/1/1/gpx.xsd">
  <metadata>
    <name>Ride Before the Sunset</name>
  </metadata>
  <trk>
    <name>Ride Before the Sunset</name>
    <trkseg>
      <trkpt lat="45.22234" lon="-72.53281">
        <ele>202.2</ele>
      </trkpt>
      <trkpt lat="45.22235" lon="-72.533">
        <ele>202.2</ele>
      </trkpt>
      <trkpt lat="45.22231" lon="-72.53398">
        <ele>200.9</ele>
      </trkpt>
      <trkpt lat="45.222325" lon="-72.534969">
        <ele>199.8</ele>
      </trkpt>
      <trkpt lat="45.22234" lon="-72.53596">
        <ele>200.1</ele>
      </trkpt>
      <trkpt lat="45.222383" lon="-72.536913">
        <ele>204.6</ele>
      </trkpt>
      <trkpt lat="45.222426" lon="-72.537866">
        <ele>211.7</ele>
      </trkpt>
      <trkpt lat="45.22247" lon="-72.53882">
        <ele>213.6</ele>
      </trkpt>
      <trkpt lat="45.22263" lon="-72.53954">
        <ele>219.5</ele>
      </trkpt>
      <trkpt lat="45.22259" lon="-72.53977">
        <ele>220.5</ele>
      </trkpt>
      <trkpt lat="45.22248" lon="-72.54007">
        <ele>223.5</ele>
      </trkpt>
      <trkpt lat="45.22232" lon="-72.54042">
        <ele>226.3</ele>
      </trkpt>
      <trkpt lat="45.22203" lon="-72.54096">
        <ele>230.1</ele>
      </trkpt>
      <trkpt lat="45.22193" lon="-72.5411">
        <ele>231.2</ele>
      </trkpt>
      <trkpt lat="45.22159" lon="-72.54145">
        <ele>235.5</ele>
      </trkpt>
      <trkpt lat="45.22148" lon="-72.54159">
        <ele>235.5</ele>
      </trkpt>
      <trkpt lat="45.22141" lon="-72.54174">
        <ele>238.4</ele>
      </trkpt>
      <trkpt lat="45.22136" lon="-72.54209">
        <ele>241.1</ele>
      </trkpt>
      <trkpt lat="45.22139" lon="-72.5424">
        <ele>242.6</ele>
      </trkpt>
      <trkpt lat="45.22154" lon="-72.5428">
        <ele>244.9</ele>
      </trkpt>
      <trkpt lat="45.222" lon="-72.54358">
        <ele>248.3</ele>
      </trkpt>
      <trkpt lat="45.22242" lon="-72.54426">
        <ele>252.2</ele>
      </trkpt>
      <trkpt lat="45.22258" lon="-72.54459">
        <ele>254.8</ele>
      </trkpt>
      <trkpt lat="45.2226" lon="-72.54465">
        <ele>254.8</ele>
      </trkpt>
      <trkpt lat="45.222635" lon="-72.545894">
        <ele>255.4</ele>
      </trkpt>
      <trkpt lat="45.22267" lon="-72.54714">
        <ele>252.8</ele>
      </trkpt>
      <trkpt lat="45.222683" lon="-72.548249">
        <ele>254.8</ele>
      </trkpt>
      <trkpt lat="45.222696" lon="-72.549359">
        <ele>257.9</ele>
      </trkpt>
      <trkpt lat="45.22271" lon="-72.55047">
        <ele>264</ele>
      </trkpt>
      <trkpt lat="45.222755" lon="-72.551114">
        <ele>267.1</ele>
      </trkpt>
      <trkpt lat="45.2228" lon="-72.55176">
        <ele>273.4</ele>
      </trkpt>
      <trkpt lat="45.222816" lon="-72.552797">
        <ele>275.2</ele>
      </trkpt>
      <trkpt lat="45.222832" lon="-72.553835">
        <ele>276.9</ele>
      </trkpt>
      <trkpt lat="45.222848" lon="-72.554873">
        <ele>275.6</ele>
      </trkpt>
      <trkpt lat="45.222864" lon="-72.555911">
        <ele>271.9</ele>
      </trkpt>
      <trkpt lat="45.22288" lon="-72.55695">
        <ele>269.7</ele>
      </trkpt>
      <trkpt lat="45.22287" lon="-72.55762">
        <ele>267.4</ele>
      </trkpt>
      <trkpt lat="45.22282" lon="-72.55816">
        <ele>264.4</ele>
      </trkpt>
      <trkpt lat="45.22283" lon="-72.559054">
        <ele>259.4</ele>
      </trkpt>
      <trkpt lat="45.22284" lon="-72.55995">
        <ele>257.5</ele>
      </trkpt>
      <trkpt lat="45.222818" lon="-72.561061">
        <ele>259.9</ele>
      </trkpt>
      <trkpt lat="45.222796" lon="-72.562173">
        <ele>264.2</ele>
      </trkpt>
      <trkpt lat="45.222775" lon="-72.563285">
        <ele>267.7</ele>
      </trkpt>
      <trkpt lat="45.222753" lon="-72.564396">
        <ele>273.8</ele>
      </trkpt>
      <trkpt lat="45.222731" lon="-72.565508">
        <ele>282.3</ele>
      </trkpt>
      <trkpt lat="45.22271" lon="-72.56662">
        <ele>287.6</ele>
      </trkpt>
      <trkpt lat="45.222696" lon="-72.567533">
        <ele>286.8</ele>
      </trkpt>
      <trkpt lat="45.222683" lon="-72.568446">
        <ele>285.8</ele>
      </trkpt>
      <trkpt lat="45.22267" lon="-72.56936">
        <ele>282.8</ele>
      </trkpt>
      <trkpt lat="45.22267" lon="-72.56937">
        <ele>282.8</ele>
      </trkpt>
      <trkpt lat="45.222656" lon="-72.570456">
        <ele>279.4</ele>
      </trkpt>
      <trkpt lat="45.222643" lon="-72.571543">
        <ele>271.3</ele>
      </trkpt>
      <trkpt lat="45.22263" lon="-72.57263">
        <ele>266.1</ele>
      </trkpt>
      <trkpt lat="45.222616" lon="-72.573716">
        <ele>258.9</ele>
      </trkpt>
      <trkpt lat="45.222603" lon="-72.574803">
        <ele>252.7</ele>
      </trkpt>
      <trkpt lat="45.22259" lon="-72.57589">
        <ele>245</ele>
      </trkpt>
      <trkpt lat="45.222595" lon="-72.576669">
        <ele>237.8</ele>
      </trkpt>
      <trkpt lat="45.2226" lon="-72.57745">
        <ele>232.6</ele>
      </trkpt>
      <trkpt lat="45.22264" lon="-72.578654">
        <ele>226.9</ele>
      </trkpt>
      <trkpt lat="45.22268" lon="-72.579858">
        <ele>221.6</ele>
      </trkpt>
      <trkpt lat="45.22272" lon="-72.581063">
        <ele>218.3</ele>
      </trkpt>
      <trkpt lat="45.22276" lon="-72.582267">
        <ele>214.6</ele>
      </trkpt>
      <trkpt lat="45.2228" lon="-72.583472">
        <ele>208.3</ele>
      </trkpt>
      <trkpt lat="45.22284" lon="-72.584676">
        <ele>204.8</ele>
      </trkpt>
      <trkpt lat="45.22288" lon="-72.585881">
        <ele>202.1</ele>
      </trkpt>
      <trkpt lat="45.22292" lon="-72.587085">
        <ele>200.6</ele>
      </trkpt>
      <trkpt lat="45.22296" lon="-72.588289">
        <ele>201.5</ele>
      </trkpt>
      <trkpt lat="45.223" lon="-72.589494">
        <ele>204.8</ele>
      </trkpt>
      <trkpt lat="45.22304" lon="-72.590698">
        <ele>208.6</ele>
      </trkpt>
      <trkpt lat="45.22308" lon="-72.591903">
        <ele>211.4</ele>
      </trkpt>
      <trkpt lat="45.22312" lon="-72.593107">
        <ele>214</ele>
      </trkpt>
      <trkpt lat="45.22316" lon="-72.594312">
        <ele>216.8</ele>
      </trkpt>
      <trkpt lat="45.2232" lon="-72.595516">
        <ele>219</ele>
      </trkpt>
      <trkpt lat="45.22324" lon="-72.596721">
        <ele>219.7</ele>
      </trkpt>
      <trkpt lat="45.22328" lon="-72.597925">
        <ele>221.2</ele>
      </trkpt>
      <trkpt lat="45.22332" lon="-72.59913">
        <ele>221.1</ele>
      </trkpt>
      <trkpt lat="45.223377" lon="-72.600251">
        <ele>218.2</ele>
      </trkpt>
      <trkpt lat="45.223434" lon="-72.601372">
        <ele>212.9</ele>
      </trkpt>
      <trkpt lat="45.223491" lon="-72.602494">
        <ele>210.1</ele>
      </trkpt>
      <trkpt lat="45.223548" lon="-72.603615">
        <ele>210.3</ele>
      </trkpt>
      <trkpt lat="45.223605" lon="-72.604737">
        <ele>213</ele>
      </trkpt>
      <trkpt lat="45.223662" lon="-72.605858">
        <ele>215.5</ele>
      </trkpt>
      <trkpt lat="45.22372" lon="-72.60698">
        <ele>213.8</ele>
      </trkpt>
      <trkpt lat="45.223774" lon="-72.608229">
        <ele>210.7</ele>
      </trkpt>
      <trkpt lat="45.223828" lon="-72.609479">
        <ele>209.5</ele>
      </trkpt>
      <trkpt lat="45.223883" lon="-72.610729">
        <ele>210.1</ele>
      </trkpt>
      <trkpt lat="45.223937" lon="-72.611979">
        <ele>212.3</ele>
      </trkpt>
      <trkpt lat="45.223992" lon="-72.613229">
        <ele>214.6</ele>
      </trkpt>
      <trkpt lat="45.224046" lon="-72.614479">
        <ele>215.1</ele>
      </trkpt>
      <trkpt lat="45.224101" lon="-72.615729">
        <ele>217.6</ele>
      </trkpt>
      <trkpt lat="45.224155" lon="-72.616979">
        <ele>215.1</ele>
      </trkpt>
      <trkpt lat="45.22421" lon="-72.61823">
        <ele>214</ele>
      </trkpt>
      <trkpt lat="45.224261" lon="-72.619388">
        <ele>214.7</ele>
      </trkpt>
      <trkpt lat="45.224313" lon="-72.620546">
        <ele>217</ele>
      </trkpt>
      <trkpt lat="45.224365" lon="-72.621704">
        <ele>217.1</ele>
      </trkpt>
      <trkpt lat="45.224416" lon="-72.622863">
        <ele>215.5</ele>
      </trkpt>
      <trkpt lat="45.224468" lon="-72.624021">
        <ele>214.7</ele>
      </trkpt>
      <trkpt lat="45.22452" lon="-72.62518">
        <ele>214.4</ele>
      </trkpt>
      <trkpt lat="45.224558" lon="-72.626278">
        <ele>216.1</ele>
      </trkpt>
      <trkpt lat="45.224596" lon="-72.627376">
        <ele>217.7</ele>
      </trkpt>
      <trkpt lat="45.224635" lon="-72.628474">
        <ele>218.7</ele>
      </trkpt>
      <trkpt lat="45.224673" lon="-72.629573">
        <ele>219.8</ele>
      </trkpt>
      <trkpt lat="45.224711" lon="-72.630671">
        <ele>218.7</ele>
      </trkpt>
      <trkpt lat="45.22475" lon="-72.63177">
        <ele>221.4</ele>
      </trkpt>
      <trkpt lat="45.22477" lon="-72.632414">
        <ele>222.8</ele>
      </trkpt>
      <trkpt lat="45.22479" lon="-72.63306">
        <ele>223.3</ele>
      </trkpt>
      <trkpt lat="45.22483" lon="-72.633839">
        <ele>224</ele>
      </trkpt>
      <trkpt lat="45.22487" lon="-72.63462">
        <ele>224.3</ele>
      </trkpt>
      <trkpt lat="45.224925" lon="-72.635804">
        <ele>225.6</ele>
      </trkpt>
      <trkpt lat="45.22498" lon="-72.63699">
        <ele>226.7</ele>
      </trkpt>
      <trkpt lat="45.22499" lon="-72.63767">
        <ele>228.4</ele>
      </trkpt>
      <trkpt lat="45.22497" lon="-72.63781">
        <ele>228.4</ele>
      </trkpt>
      <trkpt lat="45.22488" lon="-72.63812">
        <ele>229.1</ele>
      </trkpt>
      <trkpt lat="45.2248" lon="-72.63825">
        <ele>229.1</ele>
      </trkpt>
      <trkpt lat="45.22433" lon="-72.638885">
        <ele>228.2</ele>
      </trkpt>
      <trkpt lat="45.22386" lon="-72.63952">
        <ele>229.4</ele>
      </trkpt>
      <trkpt lat="45.22329" lon="-72.64041">
        <ele>226.9</ele>
      </trkpt>
      <trkpt lat="45.22315" lon="-72.64071">
        <ele>225.1</ele>
      </trkpt>
      <trkpt lat="45.22293" lon="-72.6413">
        <ele>221</ele>
      </trkpt>
      <trkpt lat="45.2228" lon="-72.6418">
        <ele>217.1</ele>
      </trkpt>
      <trkpt lat="45.22267" lon="-72.64242">
        <ele>215</ele>
      </trkpt>
      <trkpt lat="45.22248" lon="-72.64347">
        <ele>214.6</ele>
      </trkpt>
      <trkpt lat="45.221773" lon="-72.64382">
        <ele>208.9</ele>
      </trkpt>
      <trkpt lat="45.221066" lon="-72.64417">
        <ele>202.8</ele>
      </trkpt>
      <trkpt lat="45.22036" lon="-72.64452">
        <ele>198.8</ele>
      </trkpt>
      <trkpt lat="45.219726" lon="-72.644846">
        <ele>193.7</ele>
      </trkpt>
      <trkpt lat="45.219093" lon="-72.645173">
        <ele>192.5</ele>
      </trkpt>
      <trkpt lat="45.21846" lon="-72.6455">
        <ele>190.9</ele>
      </trkpt>
      <trkpt lat="45.21845" lon="-72.6455">
        <ele>190.8</ele>
      </trkpt>
      <trkpt lat="45.217693" lon="-72.645923">
        <ele>189</ele>
      </trkpt>
      <trkpt lat="45.216936" lon="-72.646346">
        <ele>185.3</ele>
      </trkpt>
      <trkpt lat="45.21618" lon="-72.64677">
        <ele>181.6</ele>
      </trkpt>
      <trkpt lat="45.215526" lon="-72.647156">
        <ele>175.2</ele>
      </trkpt>
      <trkpt lat="45.214873" lon="-72.647543">
        <ele>169.4</ele>
      </trkpt>
      <trkpt lat="45.21422" lon="-72.64793">
        <ele>164.8</ele>
      </trkpt>
      <trkpt lat="45.213455" lon="-72.648375">
        <ele>165.1</ele>
      </trkpt>
      <trkpt lat="45.21269" lon="-72.64882">
        <ele>172.1</ele>
      </trkpt>
      <trkpt lat="45.211925" lon="-72.649265">
        <ele>176.9</ele>
      </trkpt>
      <trkpt lat="45.21116" lon="-72.64971">
        <ele>179.2</ele>
      </trkpt>
      <trkpt lat="45.21098" lon="-72.64981">
        <ele>179.7</ele>
      </trkpt>
      <trkpt lat="45.21068" lon="-72.65007">
        <ele>180.7</ele>
      </trkpt>
      <trkpt lat="45.21061" lon="-72.65011">
        <ele>180.7</ele>
      </trkpt>
      <trkpt lat="45.21043" lon="-72.65016">
        <ele>181.6</ele>
      </trkpt>
      <trkpt lat="45.20958" lon="-72.650255">
        <ele>186.8</ele>
      </trkpt>
      <trkpt lat="45.20873" lon="-72.65035">
        <ele>189.7</ele>
      </trkpt>
      <trkpt lat="45.20858" lon="-72.65039">
        <ele>189.9</ele>
      </trkpt>
      <trkpt lat="45.20826" lon="-72.65042">
        <ele>189.7</ele>
      </trkpt>
      <trkpt lat="45.20804" lon="-72.65039">
        <ele>188.8</ele>
      </trkpt>
      <trkpt lat="45.207429" lon="-72.650405">
        <ele>185.9</ele>
      </trkpt>
      <trkpt lat="45.20682" lon="-72.65042">
        <ele>184.3</ele>
      </trkpt>
      <trkpt lat="45.20642" lon="-72.65039">
        <ele>183.8</ele>
      </trkpt>
      <trkpt lat="45.205575" lon="-72.650445">
        <ele>183</ele>
      </trkpt>
      <trkpt lat="45.20473" lon="-72.6505">
        <ele>184.4</ele>
      </trkpt>
      <trkpt lat="45.203885" lon="-72.650555">
        <ele>186.6</ele>
      </trkpt>
      <trkpt lat="45.20304" lon="-72.65061">
        <ele>188.6</ele>
      </trkpt>
      <trkpt lat="45.202206" lon="-72.650626">
        <ele>185.2</ele>
      </trkpt>
      <trkpt lat="45.201373" lon="-72.650643">
        <ele>183.6</ele>
      </trkpt>
      <trkpt lat="45.20054" lon="-72.65066">
        <ele>182.7</ele>
      </trkpt>
      <trkpt lat="45.19989" lon="-72.650716">
        <ele>177.8</ele>
      </trkpt>
      <trkpt lat="45.19924" lon="-72.650773">
        <ele>174.4</ele>
      </trkpt>
      <trkpt lat="45.19859" lon="-72.65083">
        <ele>173</ele>
      </trkpt>
      <trkpt lat="45.197826" lon="-72.650868">
        <ele>172.2</ele>
      </trkpt>
      <trkpt lat="45.197063" lon="-72.650906">
        <ele>170.9</ele>
      </trkpt>
      <trkpt lat="45.1963" lon="-72.650945">
        <ele>169.1</ele>
      </trkpt>
      <trkpt lat="45.195536" lon="-72.650983">
        <ele>167.5</ele>
      </trkpt>
      <trkpt lat="45.194773" lon="-72.651021">
        <ele>166.2</ele>
      </trkpt>
      <trkpt lat="45.19401" lon="-72.65106">
        <ele>166.5</ele>
      </trkpt>
      <trkpt lat="45.19326" lon="-72.651105">
        <ele>165.3</ele>
      </trkpt>
      <trkpt lat="45.19251" lon="-72.65115">
        <ele>164.1</ele>
      </trkpt>
      <trkpt lat="45.19176" lon="-72.651195">
        <ele>161.8</ele>
      </trkpt>
      <trkpt lat="45.19101" lon="-72.65124">
        <ele>156.3</ele>
      </trkpt>
      <trkpt lat="45.190259" lon="-72.651285">
        <ele>153.7</ele>
      </trkpt>
      <trkpt lat="45.18951" lon="-72.65133">
        <ele>152.9</ele>
      </trkpt>
      <trkpt lat="45.18888" lon="-72.65137">
        <ele>152.1</ele>
      </trkpt>
      <trkpt lat="45.188024" lon="-72.651415">
        <ele>152.9</ele>
      </trkpt>
      <trkpt lat="45.187169" lon="-72.65146">
        <ele>158.9</ele>
      </trkpt>
      <trkpt lat="45.186314" lon="-72.651505">
        <ele>165.3</ele>
      </trkpt>
      <trkpt lat="45.18546" lon="-72.65155">
        <ele>165.9</ele>
      </trkpt>
      <trkpt lat="45.18505" lon="-72.6516">
        <ele>163.9</ele>
      </trkpt>
      <trkpt lat="45.18473" lon="-72.65169">
        <ele>162.5</ele>
      </trkpt>
      <trkpt lat="45.18463" lon="-72.65174">
        <ele>162.3</ele>
      </trkpt>
      <trkpt lat="45.1844" lon="-72.65178">
        <ele>161.9</ele>
      </trkpt>
      <trkpt lat="45.18406" lon="-72.65168">
        <ele>160.4</ele>
      </trkpt>
      <trkpt lat="45.18399" lon="-72.65168">
        <ele>159.6</ele>
      </trkpt>
      <trkpt lat="45.18387" lon="-72.65164">
        <ele>157.6</ele>
      </trkpt>
      <trkpt lat="45.1835" lon="-72.6516">
        <ele>155.6</ele>
      </trkpt>
      <trkpt lat="45.18321" lon="-72.65164">
        <ele>152.1</ele>
      </trkpt>
      <trkpt lat="45.182745" lon="-72.651645">
        <ele>146.1</ele>
      </trkpt>
      <trkpt lat="45.18228" lon="-72.65165">
        <ele>141.9</ele>
      </trkpt>
      <trkpt lat="45.181754" lon="-72.65169">
        <ele>137.3</ele>
      </trkpt>
      <trkpt lat="45.18123" lon="-72.65173">
        <ele>135.2</ele>
      </trkpt>
      <trkpt lat="45.180614" lon="-72.651755">
        <ele>139</ele>
      </trkpt>
      <trkpt lat="45.18" lon="-72.65178">
        <ele>141.7</ele>
      </trkpt>
      <trkpt lat="45.17978" lon="-72.652733">
        <ele>142.5</ele>
      </trkpt>
      <trkpt lat="45.17956" lon="-72.653686">
        <ele>144.7</ele>
      </trkpt>
      <trkpt lat="45.17934" lon="-72.65464">
        <ele>146.3</ele>
      </trkpt>
      <trkpt lat="45.17929" lon="-72.655">
        <ele>145.8</ele>
      </trkpt>
      <trkpt lat="45.17926" lon="-72.65563">
        <ele>143.5</ele>
      </trkpt>
      <trkpt lat="45.17926" lon="-72.65627">
        <ele>140.2</ele>
      </trkpt>
      <trkpt lat="45.179263" lon="-72.657473">
        <ele>135.6</ele>
      </trkpt>
      <trkpt lat="45.179266" lon="-72.658676">
        <ele>133.5</ele>
      </trkpt>
      <trkpt lat="45.17927" lon="-72.65988">
        <ele>133.3</ele>
      </trkpt>
      <trkpt lat="45.17921" lon="-72.66055">
        <ele>132.6</ele>
      </trkpt>
      <trkpt lat="45.17905" lon="-72.66113">
        <ele>128.5</ele>
      </trkpt>
      <trkpt lat="45.17894" lon="-72.66132">
        <ele>127.8</ele>
      </trkpt>
      <trkpt lat="45.17849" lon="-72.66198">
        <ele>125.5</ele>
      </trkpt>
      <trkpt lat="45.17807" lon="-72.66252">
        <ele>127.6</ele>
      </trkpt>
      <trkpt lat="45.17762" lon="-72.662439">
        <ele>127.6</ele>
      </trkpt>
      <trkpt lat="45.17717" lon="-72.66236">
        <ele>127.5</ele>
      </trkpt>
      <trkpt lat="45.17661" lon="-72.662239">
        <ele>127</ele>
      </trkpt>
      <trkpt lat="45.17605" lon="-72.66212">
        <ele>128</ele>
      </trkpt>
      <trkpt lat="45.17571" lon="-72.66278">
        <ele>127.2</ele>
      </trkpt>
      <trkpt lat="45.17516" lon="-72.66364">
        <ele>130.3</ele>
      </trkpt>
      <trkpt lat="45.17474" lon="-72.664336">
        <ele>136.6</ele>
      </trkpt>
      <trkpt lat="45.17432" lon="-72.665033">
        <ele>140.5</ele>
      </trkpt>
      <trkpt lat="45.1739" lon="-72.66573">
        <ele>143.8</ele>
      </trkpt>
      <trkpt lat="45.1739" lon="-72.66574">
        <ele>143.8</ele>
      </trkpt>
      <trkpt lat="45.17335" lon="-72.66665">
        <ele>148</ele>
      </trkpt>
      <trkpt lat="45.17329" lon="-72.66683">
        <ele>148.4</ele>
      </trkpt>
      <trkpt lat="45.17326" lon="-72.66709">
        <ele>148.9</ele>
      </trkpt>
      <trkpt lat="45.17328" lon="-72.668074">
        <ele>148.7</ele>
      </trkpt>
      <trkpt lat="45.1733" lon="-72.66906">
        <ele>148.3</ele>
      </trkpt>
      <trkpt lat="45.173368" lon="-72.670118">
        <ele>146.2</ele>
      </trkpt>
      <trkpt lat="45.173436" lon="-72.671176">
        <ele>142.9</ele>
      </trkpt>
      <trkpt lat="45.173505" lon="-72.672234">
        <ele>140.5</ele>
      </trkpt>
      <trkpt lat="45.173573" lon="-72.673293">
        <ele>140.3</ele>
      </trkpt>
      <trkpt lat="45.173641" lon="-72.674351">
        <ele>138.8</ele>
      </trkpt>
      <trkpt lat="45.17371" lon="-72.67541">
        <ele>135.9</ele>
      </trkpt>
      <trkpt lat="45.17379" lon="-72.67609">
        <ele>135.1</ele>
      </trkpt>
      <trkpt lat="45.17384" lon="-72.677136">
        <ele>137.8</ele>
      </trkpt>
      <trkpt lat="45.17389" lon="-72.678183">
        <ele>140.7</ele>
      </trkpt>
      <trkpt lat="45.17394" lon="-72.67923">
        <ele>134.9</ele>
      </trkpt>
      <trkpt lat="45.17403" lon="-72.6802">
        <ele>133</ele>
      </trkpt>
      <trkpt lat="45.17419" lon="-72.68124">
        <ele>133.3</ele>
      </trkpt>
      <trkpt lat="45.17427" lon="-72.681969">
        <ele>134.1</ele>
      </trkpt>
      <trkpt lat="45.17435" lon="-72.6827">
        <ele>136</ele>
      </trkpt>
      <trkpt lat="45.17441" lon="-72.683779">
        <ele>136.9</ele>
      </trkpt>
      <trkpt lat="45.17447" lon="-72.68486">
        <ele>137.3</ele>
      </trkpt>
      <trkpt lat="45.17457" lon="-72.68601">
        <ele>138.4</ele>
      </trkpt>
      <trkpt lat="45.17468" lon="-72.68709">
        <ele>140.2</ele>
      </trkpt>
      <trkpt lat="45.17476" lon="-72.688189">
        <ele>141.5</ele>
      </trkpt>
      <trkpt lat="45.17484" lon="-72.68929">
        <ele>143.6</ele>
      </trkpt>
      <trkpt lat="45.17489" lon="-72.68953">
        <ele>143.9</ele>
      </trkpt>
      <trkpt lat="45.174259" lon="-72.689615">
        <ele>144.2</ele>
      </trkpt>
      <trkpt lat="45.17363" lon="-72.6897">
        <ele>147.1</ele>
      </trkpt>
      <trkpt lat="45.172885" lon="-72.689752">
        <ele>155.4</ele>
      </trkpt>
      <trkpt lat="45.17214" lon="-72.689805">
        <ele>162</ele>
      </trkpt>
      <trkpt lat="45.171395" lon="-72.689857">
        <ele>168.1</ele>
      </trkpt>
      <trkpt lat="45.17065" lon="-72.68991">
        <ele>172.7</ele>
      </trkpt>
      <trkpt lat="45.169887" lon="-72.689947">
        <ele>176.3</ele>
      </trkpt>
      <trkpt lat="45.169125" lon="-72.689985">
        <ele>180.9</ele>
      </trkpt>
      <trkpt lat="45.168362" lon="-72.690022">
        <ele>187.4</ele>
      </trkpt>
      <trkpt lat="45.1676" lon="-72.69006">
        <ele>196.6</ele>
      </trkpt>
      <trkpt lat="45.16759" lon="-72.69006">
        <ele>196.7</ele>
      </trkpt>
      <trkpt lat="45.16679" lon="-72.690117">
        <ele>200.6</ele>
      </trkpt>
      <trkpt lat="45.165989" lon="-72.690175">
        <ele>205.8</ele>
      </trkpt>
      <trkpt lat="45.165189" lon="-72.690232">
        <ele>208</ele>
      </trkpt>
      <trkpt lat="45.16439" lon="-72.69029">
        <ele>212.4</ele>
      </trkpt>
      <trkpt lat="45.16399" lon="-72.69037">
        <ele>213.6</ele>
      </trkpt>
      <trkpt lat="45.163124" lon="-72.69045">
        <ele>215.9</ele>
      </trkpt>
      <trkpt lat="45.16226" lon="-72.69053">
        <ele>216</ele>
      </trkpt>
      <trkpt lat="45.161393" lon="-72.690585">
        <ele>213.2</ele>
      </trkpt>
      <trkpt lat="45.160526" lon="-72.690641">
        <ele>206.8</ele>
      </trkpt>
      <trkpt lat="45.15966" lon="-72.690696">
        <ele>202.3</ele>
      </trkpt>
      <trkpt lat="45.158793" lon="-72.690752">
        <ele>198</ele>
      </trkpt>
      <trkpt lat="45.157926" lon="-72.690807">
        <ele>192.3</ele>
      </trkpt>
      <trkpt lat="45.15706" lon="-72.690863">
        <ele>189.8</ele>
      </trkpt>
      <trkpt lat="45.156193" lon="-72.690918">
        <ele>190.3</ele>
      </trkpt>
      <trkpt lat="45.155326" lon="-72.690974">
        <ele>190.9</ele>
      </trkpt>
      <trkpt lat="45.15446" lon="-72.69103">
        <ele>191.4</ele>
      </trkpt>
      <trkpt lat="45.153593" lon="-72.691085">
        <ele>192.7</ele>
      </trkpt>
      <trkpt lat="45.152726" lon="-72.691141">
        <ele>195.6</ele>
      </trkpt>
      <trkpt lat="45.15186" lon="-72.691196">
        <ele>197.6</ele>
      </trkpt>
      <trkpt lat="45.150993" lon="-72.691252">
        <ele>195.1</ele>
      </trkpt>
      <trkpt lat="45.150126" lon="-72.691307">
        <ele>190.5</ele>
      </trkpt>
      <trkpt lat="45.14926" lon="-72.691363">
        <ele>189.7</ele>
      </trkpt>
      <trkpt lat="45.148393" lon="-72.691418">
        <ele>193.1</ele>
      </trkpt>
      <trkpt lat="45.147526" lon="-72.691474">
        <ele>200.2</ele>
      </trkpt>
      <trkpt lat="45.14666" lon="-72.69153">
        <ele>211.6</ele>
      </trkpt>
      <trkpt lat="45.146356" lon="-72.690603">
        <ele>217.1</ele>
      </trkpt>
      <trkpt lat="45.146053" lon="-72.689676">
        <ele>219.7</ele>
      </trkpt>
      <trkpt lat="45.14575" lon="-72.68875">
        <ele>222.9</ele>
      </trkpt>
      <trkpt lat="45.14543" lon="-72.68777">
        <ele>224.3</ele>
      </trkpt>
      <trkpt lat="45.1452" lon="-72.687029">
        <ele>225.9</ele>
      </trkpt>
      <trkpt lat="45.14497" lon="-72.68629">
        <ele>229.8</ele>
      </trkpt>
      <trkpt lat="45.144733" lon="-72.685389">
        <ele>233</ele>
      </trkpt>
      <trkpt lat="45.144496" lon="-72.684489">
        <ele>234.4</ele>
      </trkpt>
      <trkpt lat="45.14426" lon="-72.68359">
        <ele>238.3</ele>
      </trkpt>
      <trkpt lat="45.14383" lon="-72.68393">
        <ele>237.2</ele>
      </trkpt>
      <trkpt lat="45.1434" lon="-72.68427">
        <ele>236.6</ele>
      </trkpt>
      <trkpt lat="45.142775" lon="-72.6849">
        <ele>237.6</ele>
      </trkpt>
      <trkpt lat="45.14215" lon="-72.68553">
        <ele>235.9</ele>
      </trkpt>
      <trkpt lat="45.14182" lon="-72.68593">
        <ele>233.8</ele>
      </trkpt>
      <trkpt lat="45.14132" lon="-72.68667">
        <ele>228.6</ele>
      </trkpt>
      <trkpt lat="45.14132" lon="-72.68668">
        <ele>228.6</ele>
      </trkpt>
      <trkpt lat="45.14078" lon="-72.68741">
        <ele>227.4</ele>
      </trkpt>
      <trkpt lat="45.14064" lon="-72.68764">
        <ele>226.6</ele>
      </trkpt>
      <trkpt lat="45.14048" lon="-72.68799">
        <ele>225.3</ele>
      </trkpt>
      <trkpt lat="45.140235" lon="-72.688665">
        <ele>221.4</ele>
      </trkpt>
      <trkpt lat="45.13999" lon="-72.68934">
        <ele>218</ele>
      </trkpt>
      <trkpt lat="45.13969" lon="-72.69023">
        <ele>212.5</ele>
      </trkpt>
      <trkpt lat="45.13945" lon="-72.69081">
        <ele>209</ele>
      </trkpt>
      <trkpt lat="45.13921" lon="-72.69139">
        <ele>204.7</ele>
      </trkpt>
      <trkpt lat="45.13886" lon="-72.69204">
        <ele>200.6</ele>
      </trkpt>
      <trkpt lat="45.13815" lon="-72.69211">
        <ele>193.6</ele>
      </trkpt>
      <trkpt lat="45.13794" lon="-72.69208">
        <ele>192.6</ele>
      </trkpt>
      <trkpt lat="45.13765" lon="-72.69199">
        <ele>193.3</ele>
      </trkpt>
      <trkpt lat="45.13744" lon="-72.69189">
        <ele>194.9</ele>
      </trkpt>
      <trkpt lat="45.136796" lon="-72.691473">
        <ele>202.6</ele>
      </trkpt>
      <trkpt lat="45.136153" lon="-72.691056">
        <ele>209.5</ele>
      </trkpt>
      <trkpt lat="45.13551" lon="-72.69064">
        <ele>215.6</ele>
      </trkpt>
      <trkpt lat="45.134975" lon="-72.690169">
        <ele>216.4</ele>
      </trkpt>
      <trkpt lat="45.13444" lon="-72.6897">
        <ele>218.8</ele>
      </trkpt>
      <trkpt lat="45.13406" lon="-72.68943">
        <ele>221.7</ele>
      </trkpt>
      <trkpt lat="45.13392" lon="-72.68938">
        <ele>222.7</ele>
      </trkpt>
      <trkpt lat="45.13377" lon="-72.68938">
        <ele>224.2</ele>
      </trkpt>
      <trkpt lat="45.13318" lon="-72.68943">
        <ele>226.4</ele>
      </trkpt>
      <trkpt lat="45.132604" lon="-72.68954">
        <ele>228.6</ele>
      </trkpt>
      <trkpt lat="45.13203" lon="-72.68965">
        <ele>230.5</ele>
      </trkpt>
      <trkpt lat="45.131254" lon="-72.689629">
        <ele>226.8</ele>
      </trkpt>
      <trkpt lat="45.13048" lon="-72.68961">
        <ele>219.8</ele>
      </trkpt>
      <trkpt lat="45.13016" lon="-72.68952">
        <ele>216.8</ele>
      </trkpt>
      <trkpt lat="45.12994" lon="-72.68939">
        <ele>214.6</ele>
      </trkpt>
      <trkpt lat="45.12981" lon="-72.68929">
        <ele>213.3</ele>
      </trkpt>
      <trkpt lat="45.12942" lon="-72.68876">
        <ele>210.5</ele>
      </trkpt>
      <trkpt lat="45.1292" lon="-72.6884">
        <ele>209.6</ele>
      </trkpt>
      <trkpt lat="45.12913" lon="-72.68822">
        <ele>209.5</ele>
      </trkpt>
      <trkpt lat="45.12898" lon="-72.68746">
        <ele>209.7</ele>
      </trkpt>
      <trkpt lat="45.128855" lon="-72.686274">
        <ele>211.7</ele>
      </trkpt>
      <trkpt lat="45.12873" lon="-72.68509">
        <ele>213</ele>
      </trkpt>
      <trkpt lat="45.12866" lon="-72.68405">
        <ele>218.2</ele>
      </trkpt>
      <trkpt lat="45.12866" lon="-72.68353">
        <ele>220.8</ele>
      </trkpt>
      <trkpt lat="45.12862" lon="-72.68334">
        <ele>221</ele>
      </trkpt>
      <trkpt lat="45.12849" lon="-72.68298">
        <ele>219.6</ele>
      </trkpt>
      <trkpt lat="45.127956" lon="-72.681966">
        <ele>211.8</ele>
      </trkpt>
      <trkpt lat="45.127423" lon="-72.680953">
        <ele>206.7</ele>
      </trkpt>
      <trkpt lat="45.12689" lon="-72.67994">
        <ele>201.8</ele>
      </trkpt>
      <trkpt lat="45.12644" lon="-72.67918">
        <ele>198.1</ele>
      </trkpt>
      <trkpt lat="45.12581" lon="-72.678504">
        <ele>196.4</ele>
      </trkpt>
      <trkpt lat="45.12518" lon="-72.67783">
        <ele>197.8</ele>
      </trkpt>
      <trkpt lat="45.12451" lon="-72.67706">
        <ele>204.1</ele>
      </trkpt>
      <trkpt lat="45.12396" lon="-72.67647">
        <ele>208.1</ele>
      </trkpt>
      <trkpt lat="45.123405" lon="-72.675919">
        <ele>209.1</ele>
      </trkpt>
      <trkpt lat="45.12285" lon="-72.67537">
        <ele>208.5</ele>
      </trkpt>
      <trkpt lat="45.122275" lon="-72.674739">
        <ele>209.6</ele>
      </trkpt>
      <trkpt lat="45.1217" lon="-72.67411">
        <ele>213</ele>
      </trkpt>
      <trkpt lat="45.12148" lon="-72.67371">
        <ele>215.8</ele>
      </trkpt>
      <trkpt lat="45.1212" lon="-72.67327">
        <ele>220.3</ele>
      </trkpt>
      <trkpt lat="45.12072" lon="-72.67259">
        <ele>224.3</ele>
      </trkpt>
      <trkpt lat="45.12055" lon="-72.67229">
        <ele>225.4</ele>
      </trkpt>
      <trkpt lat="45.120235" lon="-72.671659">
        <ele>226.8</ele>
      </trkpt>
      <trkpt lat="45.11992" lon="-72.67103">
        <ele>229.1</ele>
      </trkpt>
      <trkpt lat="45.11948" lon="-72.67022">
        <ele>235.6</ele>
      </trkpt>
      <trkpt lat="45.11939" lon="-72.67">
        <ele>236.8</ele>
      </trkpt>
      <trkpt lat="45.1193" lon="-72.66968">
        <ele>238.1</ele>
      </trkpt>
      <trkpt lat="45.11926" lon="-72.66941">
        <ele>239.9</ele>
      </trkpt>
      <trkpt lat="45.11926" lon="-72.66928">
        <ele>240.1</ele>
      </trkpt>
      <trkpt lat="45.1194" lon="-72.66806">
        <ele>235.8</ele>
      </trkpt>
      <trkpt lat="45.11941" lon="-72.66753">
        <ele>231.4</ele>
      </trkpt>
      <trkpt lat="45.11936" lon="-72.66694">
        <ele>228.5</ele>
      </trkpt>
      <trkpt lat="45.11901" lon="-72.66726">
        <ele>229.4</ele>
      </trkpt>
      <trkpt lat="45.11864" lon="-72.6675">
        <ele>228.7</ele>
      </trkpt>
      <trkpt lat="45.11823" lon="-72.66785">
        <ele>226.6</ele>
      </trkpt>
      <trkpt lat="45.11782" lon="-72.6682">
        <ele>224</ele>
      </trkpt>
      <trkpt lat="45.117205" lon="-72.668785">
        <ele>219.1</ele>
      </trkpt>
      <trkpt lat="45.11659" lon="-72.66937">
        <ele>212.8</ele>
      </trkpt>
      <trkpt lat="45.11658" lon="-72.66937">
        <ele>212.8</ele>
      </trkpt>
      <trkpt lat="45.11591" lon="-72.67">
        <ele>203.2</ele>
      </trkpt>
      <trkpt lat="45.11565" lon="-72.67018">
        <ele>199.3</ele>
      </trkpt>
      <trkpt lat="45.11539" lon="-72.6703">
        <ele>197.7</ele>
      </trkpt>
      <trkpt lat="45.11514" lon="-72.67035">
        <ele>193.5</ele>
      </trkpt>
      <trkpt lat="45.11481" lon="-72.67035">
        <ele>191</ele>
      </trkpt>
      <trkpt lat="45.1146" lon="-72.67031">
        <ele>188.8</ele>
      </trkpt>
      <trkpt lat="45.1144" lon="-72.67023">
        <ele>188</ele>
      </trkpt>
      <trkpt lat="45.11372" lon="-72.669664">
        <ele>189.1</ele>
      </trkpt>
      <trkpt lat="45.11304" lon="-72.669099">
        <ele>185.4</ele>
      </trkpt>
      <trkpt lat="45.11236" lon="-72.668534">
        <ele>182.6</ele>
      </trkpt>
      <trkpt lat="45.11168" lon="-72.66797">
        <ele>180.6</ele>
      </trkpt>
      <trkpt lat="45.11145" lon="-72.6678">
        <ele>179.9</ele>
      </trkpt>
      <trkpt lat="45.110765" lon="-72.667104">
        <ele>178.8</ele>
      </trkpt>
      <trkpt lat="45.11008" lon="-72.66641">
        <ele>180.5</ele>
      </trkpt>
      <trkpt lat="45.109525" lon="-72.665874">
        <ele>180.9</ele>
      </trkpt>
      <trkpt lat="45.10897" lon="-72.66534">
        <ele>181.1</ele>
      </trkpt>
      <trkpt lat="45.10842" lon="-72.664863">
        <ele>180.8</ele>
      </trkpt>
      <trkpt lat="45.10787" lon="-72.664386">
        <ele>179.3</ele>
      </trkpt>
      <trkpt lat="45.10732" lon="-72.66391">
        <ele>177.8</ele>
      </trkpt>
      <trkpt lat="45.1071" lon="-72.66377">
        <ele>177.9</ele>
      </trkpt>
      <trkpt lat="45.10699" lon="-72.66377">
        <ele>177.8</ele>
      </trkpt>
      <trkpt lat="45.10634" lon="-72.66382">
        <ele>176.6</ele>
      </trkpt>
      <trkpt lat="45.10603" lon="-72.66381">
        <ele>176.5</ele>
      </trkpt>
      <trkpt lat="45.10561" lon="-72.66368">
        <ele>176.9</ele>
      </trkpt>
      <trkpt lat="45.10518" lon="-72.66341">
        <ele>178.6</ele>
      </trkpt>
      <trkpt lat="45.10441" lon="-72.66279">
        <ele>179.9</ele>
      </trkpt>
      <trkpt lat="45.10395" lon="-72.66245">
        <ele>180.9</ele>
      </trkpt>
      <trkpt lat="45.10339" lon="-72.662039">
        <ele>180.7</ele>
      </trkpt>
      <trkpt lat="45.10283" lon="-72.66163">
        <ele>181.4</ele>
      </trkpt>
      <trkpt lat="45.102275" lon="-72.661269">
        <ele>183.3</ele>
      </trkpt>
      <trkpt lat="45.10172" lon="-72.66091">
        <ele>185.5</ele>
      </trkpt>
      <trkpt lat="45.10132" lon="-72.66073">
        <ele>188.2</ele>
      </trkpt>
      <trkpt lat="45.1009" lon="-72.66064">
        <ele>189.6</ele>
      </trkpt>
      <trkpt lat="45.100115" lon="-72.660527">
        <ele>189.8</ele>
      </trkpt>
      <trkpt lat="45.09933" lon="-72.660414">
        <ele>188.9</ele>
      </trkpt>
      <trkpt lat="45.098545" lon="-72.660302">
        <ele>185.9</ele>
      </trkpt>
      <trkpt lat="45.09776" lon="-72.66019">
        <ele>183.8</ele>
      </trkpt>
      <trkpt lat="45.0972" lon="-72.66006">
        <ele>183.1</ele>
      </trkpt>
      <trkpt lat="45.09646" lon="-72.65984">
        <ele>183.2</ele>
      </trkpt>
      <trkpt lat="45.09561" lon="-72.659679">
        <ele>178</ele>
      </trkpt>
      <trkpt lat="45.09476" lon="-72.65952">
        <ele>171.9</ele>
      </trkpt>
      <trkpt lat="45.0939" lon="-72.65925">
        <ele>167.5</ele>
      </trkpt>
      <trkpt lat="45.09333" lon="-72.65904">
        <ele>165.8</ele>
      </trkpt>
      <trkpt lat="45.092535" lon="-72.658724">
        <ele>162</ele>
      </trkpt>
      <trkpt lat="45.09174" lon="-72.658409">
        <ele>159.6</ele>
      </trkpt>
      <trkpt lat="45.090945" lon="-72.658094">
        <ele>156.6</ele>
      </trkpt>
      <trkpt lat="45.09015" lon="-72.65778">
        <ele>157.8</ele>
      </trkpt>
      <trkpt lat="45.08958" lon="-72.6576">
        <ele>161.6</ele>
      </trkpt>
      <trkpt lat="45.08969" lon="-72.65716">
        <ele>160.5</ele>
      </trkpt>
      <trkpt lat="45.08977" lon="-72.65657">
        <ele>158.2</ele>
      </trkpt>
      <trkpt lat="45.08992" lon="-72.655785">
        <ele>156.5</ele>
      </trkpt>
      <trkpt lat="45.09007" lon="-72.655">
        <ele>163.8</ele>
      </trkpt>
      <trkpt lat="45.09014" lon="-72.65437">
        <ele>169.4</ele>
      </trkpt>
      <trkpt lat="45.09014" lon="-72.653259">
        <ele>178.1</ele>
      </trkpt>
      <trkpt lat="45.09014" lon="-72.65215">
        <ele>190.4</ele>
      </trkpt>
      <trkpt lat="45.09014" lon="-72.651089">
        <ele>200.1</ele>
      </trkpt>
      <trkpt lat="45.09014" lon="-72.65003">
        <ele>204.8</ele>
      </trkpt>
      <trkpt lat="45.09014" lon="-72.64939">
        <ele>202.8</ele>
      </trkpt>
      <trkpt lat="45.09011" lon="-72.64874">
        <ele>200</ele>
      </trkpt>
      <trkpt lat="45.08995" lon="-72.6481">
        <ele>200.1</ele>
      </trkpt>
      <trkpt lat="45.089685" lon="-72.647224">
        <ele>207.8</ele>
      </trkpt>
      <trkpt lat="45.08942" lon="-72.64635">
        <ele>211.3</ele>
      </trkpt>
      <trkpt lat="45.0893" lon="-72.64568">
        <ele>209.8</ele>
      </trkpt>
      <trkpt lat="45.08927" lon="-72.64532">
        <ele>208.5</ele>
      </trkpt>
      <trkpt lat="45.08927" lon="-72.644047">
        <ele>199.5</ele>
      </trkpt>
      <trkpt lat="45.08927" lon="-72.642775">
        <ele>192.1</ele>
      </trkpt>
      <trkpt lat="45.08927" lon="-72.641502">
        <ele>184.3</ele>
      </trkpt>
      <trkpt lat="45.08927" lon="-72.64023">
        <ele>181.5</ele>
      </trkpt>
      <trkpt lat="45.08959" lon="-72.64022">
        <ele>181.9</ele>
      </trkpt>
      <trkpt lat="45.09032" lon="-72.64004">
        <ele>184.4</ele>
      </trkpt>
      <trkpt lat="45.09105" lon="-72.63986">
        <ele>192</ele>
      </trkpt>
      <trkpt lat="45.09178" lon="-72.63968">
        <ele>197.6</ele>
      </trkpt>
      <trkpt lat="45.09251" lon="-72.6395">
        <ele>203.3</ele>
      </trkpt>
      <trkpt lat="45.0925" lon="-72.6395">
        <ele>203.3</ele>
      </trkpt>
      <trkpt lat="45.093205" lon="-72.63933">
        <ele>208.5</ele>
      </trkpt>
      <trkpt lat="45.09391" lon="-72.63916">
        <ele>215.2</ele>
      </trkpt>
      <trkpt lat="45.09406" lon="-72.63915">
        <ele>216</ele>
      </trkpt>
      <trkpt lat="45.09444" lon="-72.63919">
        <ele>218.2</ele>
      </trkpt>
      <trkpt lat="45.095213" lon="-72.639326">
        <ele>223.3</ele>
      </trkpt>
      <trkpt lat="45.095986" lon="-72.639463">
        <ele>230.9</ele>
      </trkpt>
      <trkpt lat="45.09676" lon="-72.6396">
        <ele>231.6</ele>
      </trkpt>
      <trkpt lat="45.09744" lon="-72.639734">
        <ele>231.7</ele>
      </trkpt>
      <trkpt lat="45.09812" lon="-72.63987">
        <ele>233.1</ele>
      </trkpt>
      <trkpt lat="45.09846" lon="-72.63995">
        <ele>232.4</ele>
      </trkpt>
      <trkpt lat="45.0989" lon="-72.63999">
        <ele>230.4</ele>
      </trkpt>
      <trkpt lat="45.09931" lon="-72.64004">
        <ele>229.1</ele>
      </trkpt>
      <trkpt lat="45.09998" lon="-72.640169">
        <ele>230.4</ele>
      </trkpt>
      <trkpt lat="45.10065" lon="-72.6403">
        <ele>234.8</ele>
      </trkpt>
      <trkpt lat="45.101174" lon="-72.640374">
        <ele>236</ele>
      </trkpt>
      <trkpt lat="45.1017" lon="-72.64045">
        <ele>237.6</ele>
      </trkpt>
      <trkpt lat="45.1023" lon="-72.64058">
        <ele>239.1</ele>
      </trkpt>
      <trkpt lat="45.10266" lon="-72.64063">
        <ele>239.5</ele>
      </trkpt>
      <trkpt lat="45.103" lon="-72.64071">
        <ele>239.7</ele>
      </trkpt>
      <trkpt lat="45.1034" lon="-72.64076">
        <ele>238.6</ele>
      </trkpt>
      <trkpt lat="45.10403" lon="-72.640909">
        <ele>237.7</ele>
      </trkpt>
      <trkpt lat="45.10466" lon="-72.641059">
        <ele>232.7</ele>
      </trkpt>
      <trkpt lat="45.10529" lon="-72.64121">
        <ele>227.4</ele>
      </trkpt>
      <trkpt lat="45.10591" lon="-72.6413">
        <ele>221.7</ele>
      </trkpt>
      <trkpt lat="45.10659" lon="-72.641409">
        <ele>222.4</ele>
      </trkpt>
      <trkpt lat="45.10727" lon="-72.64152">
        <ele>222.2</ele>
      </trkpt>
      <trkpt lat="45.108123" lon="-72.641425">
        <ele>216.9</ele>
      </trkpt>
      <trkpt lat="45.108976" lon="-72.64133">
        <ele>215.8</ele>
      </trkpt>
      <trkpt lat="45.10983" lon="-72.641235">
        <ele>215.9</ele>
      </trkpt>
      <trkpt lat="45.110683" lon="-72.64114">
        <ele>215.4</ele>
      </trkpt>
      <trkpt lat="45.111536" lon="-72.641045">
        <ele>213.2</ele>
      </trkpt>
      <trkpt lat="45.11239" lon="-72.64095">
        <ele>214.1</ele>
      </trkpt>
      <trkpt lat="45.11238" lon="-72.64095">
        <ele>214.1</ele>
      </trkpt>
      <trkpt lat="45.11311" lon="-72.640865">
        <ele>216.6</ele>
      </trkpt>
      <trkpt lat="45.11384" lon="-72.64078">
        <ele>221.2</ele>
      </trkpt>
      <trkpt lat="45.11404" lon="-72.63977">
        <ele>222.8</ele>
      </trkpt>
      <trkpt lat="45.11408" lon="-72.63924">
        <ele>222.2</ele>
      </trkpt>
      <trkpt lat="45.11408" lon="-72.63901">
        <ele>221.4</ele>
      </trkpt>
      <trkpt lat="45.11405" lon="-72.638024">
        <ele>220.5</ele>
      </trkpt>
      <trkpt lat="45.11402" lon="-72.637039">
        <ele>221.2</ele>
      </trkpt>
      <trkpt lat="45.11399" lon="-72.636054">
        <ele>224.7</ele>
      </trkpt>
      <trkpt lat="45.11396" lon="-72.63507">
        <ele>229.2</ele>
      </trkpt>
      <trkpt lat="45.1139" lon="-72.633819">
        <ele>229.6</ele>
      </trkpt>
      <trkpt lat="45.11384" lon="-72.63257">
        <ele>225.8</ele>
      </trkpt>
      <trkpt lat="45.11381" lon="-72.631459">
        <ele>213.9</ele>
      </trkpt>
      <trkpt lat="45.11378" lon="-72.630349">
        <ele>208.3</ele>
      </trkpt>
      <trkpt lat="45.11375" lon="-72.629239">
        <ele>205.3</ele>
      </trkpt>
      <trkpt lat="45.11372" lon="-72.62813">
        <ele>203.8</ele>
      </trkpt>
      <trkpt lat="45.113692" lon="-72.627057">
        <ele>201.9</ele>
      </trkpt>
      <trkpt lat="45.113665" lon="-72.625984">
        <ele>197.5</ele>
      </trkpt>
      <trkpt lat="45.113637" lon="-72.624912">
        <ele>195.1</ele>
      </trkpt>
      <trkpt lat="45.11361" lon="-72.62384">
        <ele>196.9</ele>
      </trkpt>
      <trkpt lat="45.113595" lon="-72.622649">
        <ele>198.8</ele>
      </trkpt>
      <trkpt lat="45.11358" lon="-72.62146">
        <ele>197.9</ele>
      </trkpt>
      <trkpt lat="45.11301" lon="-72.62133">
        <ele>195.1</ele>
      </trkpt>
      <trkpt lat="45.11284" lon="-72.62128">
        <ele>194.1</ele>
      </trkpt>
      <trkpt lat="45.1127" lon="-72.62116">
        <ele>194.1</ele>
      </trkpt>
      <trkpt lat="45.11243" lon="-72.62084">
        <ele>190.9</ele>
      </trkpt>
      <trkpt lat="45.111796" lon="-72.620003">
        <ele>186.6</ele>
      </trkpt>
      <trkpt lat="45.111163" lon="-72.619166">
        <ele>181.3</ele>
      </trkpt>
      <trkpt lat="45.11053" lon="-72.61833">
        <ele>177.5</ele>
      </trkpt>
      <trkpt lat="45.11014" lon="-72.617834">
        <ele>177.4</ele>
      </trkpt>
      <trkpt lat="45.10975" lon="-72.61734">
        <ele>177.6</ele>
      </trkpt>
      <trkpt lat="45.10961" lon="-72.61721">
        <ele>177.6</ele>
      </trkpt>
      <trkpt lat="45.10937" lon="-72.61704">
        <ele>177.9</ele>
      </trkpt>
      <trkpt lat="45.10856" lon="-72.61654">
        <ele>179.2</ele>
      </trkpt>
      <trkpt lat="45.10844" lon="-72.61647">
        <ele>179.5</ele>
      </trkpt>
      <trkpt lat="45.108895" lon="-72.615385">
        <ele>179.8</ele>
      </trkpt>
      <trkpt lat="45.10935" lon="-72.6143">
        <ele>180.3</ele>
      </trkpt>
      <trkpt lat="45.10945" lon="-72.61431">
        <ele>180</ele>
      </trkpt>
      <trkpt lat="45.10976" lon="-72.61435">
        <ele>178.8</ele>
      </trkpt>
      <trkpt lat="45.11026" lon="-72.61438">
        <ele>178.1</ele>
      </trkpt>
      <trkpt lat="45.1104" lon="-72.61434">
        <ele>178.1</ele>
      </trkpt>
      <trkpt lat="45.11063" lon="-72.61432">
        <ele>177.6</ele>
      </trkpt>
      <trkpt lat="45.111377" lon="-72.61421">
        <ele>177.1</ele>
      </trkpt>
      <trkpt lat="45.112125" lon="-72.6141">
        <ele>176.8</ele>
      </trkpt>
      <trkpt lat="45.112872" lon="-72.61399">
        <ele>176.6</ele>
      </trkpt>
      <trkpt lat="45.11362" lon="-72.61388">
        <ele>176.4</ele>
      </trkpt>
      <trkpt lat="45.11361" lon="-72.61388">
        <ele>176.4</ele>
      </trkpt>
      <trkpt lat="45.112865" lon="-72.61399">
        <ele>176.6</ele>
      </trkpt>
      <trkpt lat="45.11212" lon="-72.6141">
        <ele>176.8</ele>
      </trkpt>
      <trkpt lat="45.111375" lon="-72.61421">
        <ele>177.1</ele>
      </trkpt>
      <trkpt lat="45.11063" lon="-72.61432">
        <ele>177.6</ele>
      </trkpt>
      <trkpt lat="45.1104" lon="-72.61434">
        <ele>178.1</ele>
      </trkpt>
      <trkpt lat="45.11026" lon="-72.61438">
        <ele>178.1</ele>
      </trkpt>
      <trkpt lat="45.10976" lon="-72.61435">
        <ele>178.8</ele>
      </trkpt>
      <trkpt lat="45.10935" lon="-72.6143">
        <ele>180.3</ele>
      </trkpt>
      <trkpt lat="45.10949" lon="-72.61402">
        <ele>180.4</ele>
      </trkpt>
      <trkpt lat="45.10948" lon="-72.61402">
        <ele>180.4</ele>
      </trkpt>
      <trkpt lat="45.10996" lon="-72.61304">
        <ele>180</ele>
      </trkpt>
      <trkpt lat="45.11044" lon="-72.61206">
        <ele>180.6</ele>
      </trkpt>
      <trkpt lat="45.11092" lon="-72.61108">
        <ele>186.4</ele>
      </trkpt>
      <trkpt lat="45.1114" lon="-72.6101">
        <ele>191.8</ele>
      </trkpt>
      <trkpt lat="45.111776" lon="-72.60937">
        <ele>196.1</ele>
      </trkpt>
      <trkpt lat="45.112153" lon="-72.60864">
        <ele>205.4</ele>
      </trkpt>
      <trkpt lat="45.11253" lon="-72.60791">
        <ele>212.7</ele>
      </trkpt>
      <trkpt lat="45.11295" lon="-72.60724">
        <ele>216</ele>
      </trkpt>
      <trkpt lat="45.11333" lon="-72.60669">
        <ele>215.7</ele>
      </trkpt>
      <trkpt lat="45.11351" lon="-72.60634">
        <ele>214.7</ele>
      </trkpt>
      <trkpt lat="45.11393" lon="-72.60543">
        <ele>213.5</ele>
      </trkpt>
      <trkpt lat="45.11418" lon="-72.60494">
        <ele>215</ele>
      </trkpt>
      <trkpt lat="45.11443" lon="-72.60455">
        <ele>217.8</ele>
      </trkpt>
      <trkpt lat="45.11462" lon="-72.60434">
        <ele>221.3</ele>
      </trkpt>
      <trkpt lat="45.11482" lon="-72.60418">
        <ele>223.5</ele>
      </trkpt>
      <trkpt lat="45.11556" lon="-72.603695">
        <ele>225.8</ele>
      </trkpt>
      <trkpt lat="45.1163" lon="-72.60321">
        <ele>230.3</ele>
      </trkpt>
      <trkpt lat="45.11691" lon="-72.60267">
        <ele>232.9</ele>
      </trkpt>
      <trkpt lat="45.11732" lon="-72.60224">
        <ele>232.6</ele>
      </trkpt>
      <trkpt lat="45.11802" lon="-72.60145">
        <ele>233.2</ele>
      </trkpt>
      <trkpt lat="45.11837" lon="-72.60097">
        <ele>234.3</ele>
      </trkpt>
      <trkpt lat="45.11889" lon="-72.60012">
        <ele>235.2</ele>
      </trkpt>
      <trkpt lat="45.11913" lon="-72.59971">
        <ele>236.3</ele>
      </trkpt>
      <trkpt lat="45.11937" lon="-72.59918">
        <ele>238.3</ele>
      </trkpt>
      <trkpt lat="45.119723" lon="-72.598253">
        <ele>241.1</ele>
      </trkpt>
      <trkpt lat="45.120076" lon="-72.597326">
        <ele>244.7</ele>
      </trkpt>
      <trkpt lat="45.12043" lon="-72.5964">
        <ele>249.2</ele>
      </trkpt>
      <trkpt lat="45.1207" lon="-72.59559">
        <ele>254.9</ele>
      </trkpt>
      <trkpt lat="45.12091" lon="-72.59513">
        <ele>257.2</ele>
      </trkpt>
      <trkpt lat="45.12123" lon="-72.59447">
        <ele>259.1</ele>
      </trkpt>
      <trkpt lat="45.121805" lon="-72.59355">
        <ele>262.6</ele>
      </trkpt>
      <trkpt lat="45.12238" lon="-72.59263">
        <ele>263.2</ele>
      </trkpt>
      <trkpt lat="45.12272" lon="-72.59218">
        <ele>263.9</ele>
      </trkpt>
      <trkpt lat="45.12302" lon="-72.59169">
        <ele>264.6</ele>
      </trkpt>
      <trkpt lat="45.1235" lon="-72.59097">
        <ele>264.8</ele>
      </trkpt>
      <trkpt lat="45.123825" lon="-72.590435">
        <ele>267.5</ele>
      </trkpt>
      <trkpt lat="45.12415" lon="-72.5899">
        <ele>269</ele>
      </trkpt>
      <trkpt lat="45.12421" lon="-72.58976">
        <ele>268.8</ele>
      </trkpt>
      <trkpt lat="45.12441" lon="-72.58942">
        <ele>268.3</ele>
      </trkpt>
      <trkpt lat="45.12495" lon="-72.58868">
        <ele>268.8</ele>
      </trkpt>
      <trkpt lat="45.12549" lon="-72.58794">
        <ele>271.5</ele>
      </trkpt>
      <trkpt lat="45.12567" lon="-72.58754">
        <ele>270.9</ele>
      </trkpt>
      <trkpt lat="45.1259" lon="-72.586905">
        <ele>270.3</ele>
      </trkpt>
      <trkpt lat="45.12613" lon="-72.58627">
        <ele>271.6</ele>
      </trkpt>
      <trkpt lat="45.1263" lon="-72.5856">
        <ele>273.8</ele>
      </trkpt>
      <trkpt lat="45.12663" lon="-72.58494">
        <ele>275.5</ele>
      </trkpt>
      <trkpt lat="45.127035" lon="-72.584335">
        <ele>276.1</ele>
      </trkpt>
      <trkpt lat="45.12744" lon="-72.58373">
        <ele>276.7</ele>
      </trkpt>
      <trkpt lat="45.12781" lon="-72.583235">
        <ele>276.8</ele>
      </trkpt>
      <trkpt lat="45.12818" lon="-72.58274">
        <ele>275.5</ele>
      </trkpt>
      <trkpt lat="45.12817" lon="-72.58274">
        <ele>275.5</ele>
      </trkpt>
      <trkpt lat="45.128655" lon="-72.58202">
        <ele>276.2</ele>
      </trkpt>
      <trkpt lat="45.12914" lon="-72.5813">
        <ele>275.1</ele>
      </trkpt>
      <trkpt lat="45.129525" lon="-72.580655">
        <ele>276.7</ele>
      </trkpt>
      <trkpt lat="45.12991" lon="-72.58001">
        <ele>276.2</ele>
      </trkpt>
      <trkpt lat="45.13036" lon="-72.57945">
        <ele>273.6</ele>
      </trkpt>
      <trkpt lat="45.13081" lon="-72.57889">
        <ele>273.5</ele>
      </trkpt>
      <trkpt lat="45.13118" lon="-72.57844">
        <ele>273.9</ele>
      </trkpt>
      <trkpt lat="45.13128" lon="-72.57836">
        <ele>273.6</ele>
      </trkpt>
      <trkpt lat="45.13156" lon="-72.57822">
        <ele>272.6</ele>
      </trkpt>
      <trkpt lat="45.13169" lon="-72.57821">
        <ele>271.7</ele>
      </trkpt>
      <trkpt lat="45.132195" lon="-72.578185">
        <ele>266.6</ele>
      </trkpt>
      <trkpt lat="45.1327" lon="-72.57816">
        <ele>263.4</ele>
      </trkpt>
      <trkpt lat="45.13294" lon="-72.57809">
        <ele>261.6</ele>
      </trkpt>
      <trkpt lat="45.13332" lon="-72.57796">
        <ele>260.1</ele>
      </trkpt>
      <trkpt lat="45.13339" lon="-72.5779">
        <ele>260</ele>
      </trkpt>
      <trkpt lat="45.13361" lon="-72.57758">
        <ele>259.6</ele>
      </trkpt>
      <trkpt lat="45.1342" lon="-72.57683">
        <ele>257.1</ele>
      </trkpt>
      <trkpt lat="45.13435" lon="-72.57669">
        <ele>256.2</ele>
      </trkpt>
      <trkpt lat="45.13447" lon="-72.57661">
        <ele>255.7</ele>
      </trkpt>
      <trkpt lat="45.13464" lon="-72.5766">
        <ele>254.6</ele>
      </trkpt>
      <trkpt lat="45.1355" lon="-72.57657">
        <ele>246.9</ele>
      </trkpt>
      <trkpt lat="45.1358" lon="-72.57666">
        <ele>244</ele>
      </trkpt>
      <trkpt lat="45.13608" lon="-72.57683">
        <ele>239.4</ele>
      </trkpt>
      <trkpt lat="45.13631" lon="-72.57701">
        <ele>236</ele>
      </trkpt>
      <trkpt lat="45.13658" lon="-72.57732">
        <ele>230.3</ele>
      </trkpt>
      <trkpt lat="45.13673" lon="-72.57768">
        <ele>227.7</ele>
      </trkpt>
      <trkpt lat="45.1368" lon="-72.57777">
        <ele>226.8</ele>
      </trkpt>
      <trkpt lat="45.13696" lon="-72.5779">
        <ele>226.1</ele>
      </trkpt>
      <trkpt lat="45.1373" lon="-72.57816">
        <ele>225.7</ele>
      </trkpt>
      <trkpt lat="45.13752" lon="-72.57826">
        <ele>226.3</ele>
      </trkpt>
      <trkpt lat="45.1384" lon="-72.57831">
        <ele>233.5</ele>
      </trkpt>
      <trkpt lat="45.13885" lon="-72.57825">
        <ele>237.6</ele>
      </trkpt>
      <trkpt lat="45.139466" lon="-72.578213">
        <ele>239.5</ele>
      </trkpt>
      <trkpt lat="45.140083" lon="-72.578176">
        <ele>241.3</ele>
      </trkpt>
      <trkpt lat="45.1407" lon="-72.57814">
        <ele>241.5</ele>
      </trkpt>
      <trkpt lat="45.141185" lon="-72.578154">
        <ele>240.6</ele>
      </trkpt>
      <trkpt lat="45.14167" lon="-72.57817">
        <ele>238.6</ele>
      </trkpt>
      <trkpt lat="45.142548" lon="-72.57815">
        <ele>233.3</ele>
      </trkpt>
      <trkpt lat="45.143426" lon="-72.57813">
        <ele>232.6</ele>
      </trkpt>
      <trkpt lat="45.144304" lon="-72.57811">
        <ele>233.1</ele>
      </trkpt>
      <trkpt lat="45.145181" lon="-72.57809">
        <ele>234.4</ele>
      </trkpt>
      <trkpt lat="45.14606" lon="-72.57807">
        <ele>236.3</ele>
      </trkpt>
      <trkpt lat="45.14681" lon="-72.57808">
        <ele>235.8</ele>
      </trkpt>
      <trkpt lat="45.1469" lon="-72.57804">
        <ele>235.8</ele>
      </trkpt>
      <trkpt lat="45.14688" lon="-72.57874">
        <ele>235</ele>
      </trkpt>
      <trkpt lat="45.14686" lon="-72.57944">
        <ele>234.1</ele>
      </trkpt>
      <trkpt lat="45.146886" lon="-72.580349">
        <ele>232.2</ele>
      </trkpt>
      <trkpt lat="45.146913" lon="-72.581259">
        <ele>228.9</ele>
      </trkpt>
      <trkpt lat="45.14694" lon="-72.58217">
        <ele>224.4</ele>
      </trkpt>
      <trkpt lat="45.14698" lon="-72.58327">
        <ele>223.6</ele>
      </trkpt>
      <trkpt lat="45.146993" lon="-72.584236">
        <ele>223</ele>
      </trkpt>
      <trkpt lat="45.147006" lon="-72.585203">
        <ele>219.5</ele>
      </trkpt>
      <trkpt lat="45.14702" lon="-72.58617">
        <ele>216.9</ele>
      </trkpt>
      <trkpt lat="45.147025" lon="-72.58734">
        <ele>211.7</ele>
      </trkpt>
      <trkpt lat="45.14703" lon="-72.588511">
        <ele>204.4</ele>
      </trkpt>
      <trkpt lat="45.147035" lon="-72.589682">
        <ele>198.2</ele>
      </trkpt>
      <trkpt lat="45.14704" lon="-72.590853">
        <ele>195.5</ele>
      </trkpt>
      <trkpt lat="45.147045" lon="-72.592024">
        <ele>193</ele>
      </trkpt>
      <trkpt lat="45.14705" lon="-72.593195">
        <ele>190.8</ele>
      </trkpt>
      <trkpt lat="45.147055" lon="-72.594366">
        <ele>189.5</ele>
      </trkpt>
      <trkpt lat="45.14706" lon="-72.595537">
        <ele>186.8</ele>
      </trkpt>
      <trkpt lat="45.147065" lon="-72.596708">
        <ele>178.8</ele>
      </trkpt>
      <trkpt lat="45.14707" lon="-72.59788">
        <ele>172</ele>
      </trkpt>
      <trkpt lat="45.14711" lon="-72.59807">
        <ele>172.1</ele>
      </trkpt>
      <trkpt lat="45.14708" lon="-72.59815">
        <ele>172</ele>
      </trkpt>
      <trkpt lat="45.14707" lon="-72.59826">
        <ele>172</ele>
      </trkpt>
      <trkpt lat="45.147065" lon="-72.598905">
        <ele>170</ele>
      </trkpt>
      <trkpt lat="45.14706" lon="-72.59955">
        <ele>169.7</ele>
      </trkpt>
      <trkpt lat="45.147087" lon="-72.600574">
        <ele>170.1</ele>
      </trkpt>
      <trkpt lat="45.147115" lon="-72.601599">
        <ele>171.8</ele>
      </trkpt>
      <trkpt lat="45.147142" lon="-72.602624">
        <ele>172</ele>
      </trkpt>
      <trkpt lat="45.14717" lon="-72.60365">
        <ele>173.9</ele>
      </trkpt>
      <trkpt lat="45.14716" lon="-72.60393">
        <ele>174.4</ele>
      </trkpt>
      <trkpt lat="45.1471" lon="-72.60436">
        <ele>174.4</ele>
      </trkpt>
      <trkpt lat="45.14697" lon="-72.60468">
        <ele>174.6</ele>
      </trkpt>
      <trkpt lat="45.14712" lon="-72.60489">
        <ele>174.2</ele>
      </trkpt>
      <trkpt lat="45.14726" lon="-72.60463">
        <ele>174.1</ele>
      </trkpt>
      <trkpt lat="45.14736" lon="-72.60455">
        <ele>174</ele>
      </trkpt>
      <trkpt lat="45.14742" lon="-72.60453">
        <ele>174</ele>
      </trkpt>
      <trkpt lat="45.148245" lon="-72.604559">
        <ele>167.5</ele>
      </trkpt>
      <trkpt lat="45.14907" lon="-72.60459">
        <ele>163.6</ele>
      </trkpt>
      <trkpt lat="45.149529" lon="-72.60456">
        <ele>163.4</ele>
      </trkpt>
      <trkpt lat="45.14999" lon="-72.60453">
        <ele>162.6</ele>
      </trkpt>
      <trkpt lat="45.14998" lon="-72.60453">
        <ele>162.6</ele>
      </trkpt>
      <trkpt lat="45.15039" lon="-72.6045">
        <ele>161.5</ele>
      </trkpt>
      <trkpt lat="45.15066" lon="-72.60454">
        <ele>161.2</ele>
      </trkpt>
      <trkpt lat="45.151503" lon="-72.604523">
        <ele>160.7</ele>
      </trkpt>
      <trkpt lat="45.152346" lon="-72.604506">
        <ele>160.5</ele>
      </trkpt>
      <trkpt lat="45.15319" lon="-72.60449">
        <ele>160</ele>
      </trkpt>
      <trkpt lat="45.15331" lon="-72.6045">
        <ele>159.9</ele>
      </trkpt>
      <trkpt lat="45.15344" lon="-72.60454">
        <ele>159.7</ele>
      </trkpt>
      <trkpt lat="45.15367" lon="-72.60471">
        <ele>159.5</ele>
      </trkpt>
      <trkpt lat="45.15414" lon="-72.60514">
        <ele>159.6</ele>
      </trkpt>
      <trkpt lat="45.15456" lon="-72.60557">
        <ele>159.3</ele>
      </trkpt>
      <trkpt lat="45.155255" lon="-72.606239">
        <ele>159.4</ele>
      </trkpt>
      <trkpt lat="45.15595" lon="-72.60691">
        <ele>159.3</ele>
      </trkpt>
      <trkpt lat="45.15642" lon="-72.60745">
        <ele>159.3</ele>
      </trkpt>
      <trkpt lat="45.15686" lon="-72.608">
        <ele>159.2</ele>
      </trkpt>
      <trkpt lat="45.1573" lon="-72.60862">
        <ele>157.5</ele>
      </trkpt>
      <trkpt lat="45.15777" lon="-72.609194">
        <ele>156.6</ele>
      </trkpt>
      <trkpt lat="45.15824" lon="-72.60977">
        <ele>156.4</ele>
      </trkpt>
      <trkpt lat="45.15863" lon="-72.61014">
        <ele>156.5</ele>
      </trkpt>
      <trkpt lat="45.15902" lon="-72.6105">
        <ele>156.8</ele>
      </trkpt>
      <trkpt lat="45.15948" lon="-72.61081">
        <ele>157.7</ele>
      </trkpt>
      <trkpt lat="45.159975" lon="-72.611034">
        <ele>157.2</ele>
      </trkpt>
      <trkpt lat="45.16047" lon="-72.61126">
        <ele>157.2</ele>
      </trkpt>
      <trkpt lat="45.1607" lon="-72.61135">
        <ele>157</ele>
      </trkpt>
      <trkpt lat="45.16086" lon="-72.61138">
        <ele>157.1</ele>
      </trkpt>
      <trkpt lat="45.16099" lon="-72.61131">
        <ele>157.1</ele>
      </trkpt>
      <trkpt lat="45.16108" lon="-72.61124">
        <ele>157</ele>
      </trkpt>
      <trkpt lat="45.161746" lon="-72.610606">
        <ele>155.9</ele>
      </trkpt>
      <trkpt lat="45.162413" lon="-72.609973">
        <ele>156.9</ele>
      </trkpt>
      <trkpt lat="45.16308" lon="-72.60934">
        <ele>156.9</ele>
      </trkpt>
      <trkpt lat="45.16357" lon="-72.60895">
        <ele>156.3</ele>
      </trkpt>
      <trkpt lat="45.16424" lon="-72.60858">
        <ele>156.8</ele>
      </trkpt>
      <trkpt lat="45.16479" lon="-72.60833">
        <ele>158.6</ele>
      </trkpt>
      <trkpt lat="45.16534" lon="-72.60808">
        <ele>159.7</ele>
      </trkpt>
      <trkpt lat="45.16597" lon="-72.607815">
        <ele>160.8</ele>
      </trkpt>
      <trkpt lat="45.1666" lon="-72.60755">
        <ele>159.8</ele>
      </trkpt>
      <trkpt lat="45.167373" lon="-72.607173">
        <ele>163.3</ele>
      </trkpt>
      <trkpt lat="45.168146" lon="-72.606796">
        <ele>169.6</ele>
      </trkpt>
      <trkpt lat="45.16892" lon="-72.60642">
        <ele>171.3</ele>
      </trkpt>
      <trkpt lat="45.16914" lon="-72.60624">
        <ele>172.1</ele>
      </trkpt>
      <trkpt lat="45.16957" lon="-72.60595">
        <ele>175.7</ele>
      </trkpt>
      <trkpt lat="45.17" lon="-72.60566">
        <ele>178.6</ele>
      </trkpt>
      <trkpt lat="45.1704" lon="-72.605305">
        <ele>184.1</ele>
      </trkpt>
      <trkpt lat="45.1708" lon="-72.60495">
        <ele>188.4</ele>
      </trkpt>
      <trkpt lat="45.17079" lon="-72.60495">
        <ele>188.4</ele>
      </trkpt>
      <trkpt lat="45.17113" lon="-72.60467">
        <ele>191.8</ele>
      </trkpt>
      <trkpt lat="45.171695" lon="-72.604112">
        <ele>195.3</ele>
      </trkpt>
      <trkpt lat="45.17226" lon="-72.603555">
        <ele>197.3</ele>
      </trkpt>
      <trkpt lat="45.172825" lon="-72.602997">
        <ele>200.3</ele>
      </trkpt>
      <trkpt lat="45.17339" lon="-72.60244">
        <ele>205.2</ele>
      </trkpt>
      <trkpt lat="45.17382" lon="-72.601945">
        <ele>208.9</ele>
      </trkpt>
      <trkpt lat="45.17425" lon="-72.60145">
        <ele>211.8</ele>
      </trkpt>
      <trkpt lat="45.17462" lon="-72.601005">
        <ele>212.7</ele>
      </trkpt>
      <trkpt lat="45.17499" lon="-72.60056">
        <ele>212.3</ele>
      </trkpt>
      <trkpt lat="45.17542" lon="-72.60011">
        <ele>212.6</ele>
      </trkpt>
      <trkpt lat="45.17557" lon="-72.59988">
        <ele>211.9</ele>
      </trkpt>
      <trkpt lat="45.17572" lon="-72.59961">
        <ele>210.5</ele>
      </trkpt>
      <trkpt lat="45.17578" lon="-72.59953">
        <ele>209.7</ele>
      </trkpt>
      <trkpt lat="45.17591" lon="-72.59944">
        <ele>209.1</ele>
      </trkpt>
      <trkpt lat="45.17598" lon="-72.59939">
        <ele>208.4</ele>
      </trkpt>
      <trkpt lat="45.17645" lon="-72.59936">
        <ele>205.4</ele>
      </trkpt>
      <trkpt lat="45.17672" lon="-72.59939">
        <ele>202.4</ele>
      </trkpt>
      <trkpt lat="45.177455" lon="-72.599524">
        <ele>197.3</ele>
      </trkpt>
      <trkpt lat="45.17819" lon="-72.59966">
        <ele>194</ele>
      </trkpt>
      <trkpt lat="45.17846" lon="-72.59966">
        <ele>192</ele>
      </trkpt>
      <trkpt lat="45.17875" lon="-72.59962">
        <ele>191.4</ele>
      </trkpt>
      <trkpt lat="45.17892" lon="-72.59962">
        <ele>191.5</ele>
      </trkpt>
      <trkpt lat="45.17887" lon="-72.59937">
        <ele>191.3</ele>
      </trkpt>
      <trkpt lat="45.17885" lon="-72.59908">
        <ele>191.3</ele>
      </trkpt>
      <trkpt lat="45.17895" lon="-72.59832">
        <ele>195.1</ele>
      </trkpt>
      <trkpt lat="45.17895" lon="-72.598">
        <ele>195.9</ele>
      </trkpt>
      <trkpt lat="45.17888" lon="-72.59743">
        <ele>197.3</ele>
      </trkpt>
      <trkpt lat="45.17867" lon="-72.596594">
        <ele>200.1</ele>
      </trkpt>
      <trkpt lat="45.17846" lon="-72.59576">
        <ele>202.3</ele>
      </trkpt>
      <trkpt lat="45.1784" lon="-72.59541">
        <ele>202.9</ele>
      </trkpt>
      <trkpt lat="45.17837" lon="-72.59492">
        <ele>203.6</ele>
      </trkpt>
      <trkpt lat="45.17837" lon="-72.59447">
        <ele>204.8</ele>
      </trkpt>
      <trkpt lat="45.17843" lon="-72.59385">
        <ele>207.4</ele>
      </trkpt>
      <trkpt lat="45.17843" lon="-72.59386">
        <ele>207.4</ele>
      </trkpt>
      <trkpt lat="45.17845" lon="-72.59375">
        <ele>207.4</ele>
      </trkpt>
      <trkpt lat="45.17857" lon="-72.59331">
        <ele>212.4</ele>
      </trkpt>
      <trkpt lat="45.17893" lon="-72.59218">
        <ele>217.3</ele>
      </trkpt>
      <trkpt lat="45.17924" lon="-72.5915">
        <ele>220.4</ele>
      </trkpt>
      <trkpt lat="45.179495" lon="-72.590835">
        <ele>222.5</ele>
      </trkpt>
      <trkpt lat="45.17975" lon="-72.59017">
        <ele>223.6</ele>
      </trkpt>
      <trkpt lat="45.17997" lon="-72.58968">
        <ele>225</ele>
      </trkpt>
      <trkpt lat="45.18023" lon="-72.58927">
        <ele>225.7</ele>
      </trkpt>
      <trkpt lat="45.180695" lon="-72.58865">
        <ele>229.8</ele>
      </trkpt>
      <trkpt lat="45.18116" lon="-72.58803">
        <ele>233.5</ele>
      </trkpt>
      <trkpt lat="45.18131" lon="-72.58789">
        <ele>234.3</ele>
      </trkpt>
      <trkpt lat="45.18191" lon="-72.58739">
        <ele>235.8</ele>
      </trkpt>
      <trkpt lat="45.182575" lon="-72.58697">
        <ele>237.8</ele>
      </trkpt>
      <trkpt lat="45.18324" lon="-72.58655">
        <ele>237.3</ele>
      </trkpt>
      <trkpt lat="45.183645" lon="-72.586255">
        <ele>237.4</ele>
      </trkpt>
      <trkpt lat="45.18405" lon="-72.58596">
        <ele>238</ele>
      </trkpt>
      <trkpt lat="45.18448" lon="-72.5856">
        <ele>239.6</ele>
      </trkpt>
      <trkpt lat="45.18491" lon="-72.58524">
        <ele>241.2</ele>
      </trkpt>
      <trkpt lat="45.18554" lon="-72.58466">
        <ele>239.8</ele>
      </trkpt>
      <trkpt lat="45.18623" lon="-72.58396">
        <ele>238.4</ele>
      </trkpt>
      <trkpt lat="45.18692" lon="-72.58326">
        <ele>238</ele>
      </trkpt>
      <trkpt lat="45.18761" lon="-72.58256">
        <ele>238</ele>
      </trkpt>
      <trkpt lat="45.1883" lon="-72.58186">
        <ele>235.1</ele>
      </trkpt>
      <trkpt lat="45.18899" lon="-72.58116">
        <ele>230.8</ele>
      </trkpt>
      <trkpt lat="45.18968" lon="-72.58046">
        <ele>226.4</ele>
      </trkpt>
      <trkpt lat="45.18996" lon="-72.58014">
        <ele>222.2</ele>
      </trkpt>
      <trkpt lat="45.19048" lon="-72.579376">
        <ele>218.3</ele>
      </trkpt>
      <trkpt lat="45.191" lon="-72.578613">
        <ele>215.9</ele>
      </trkpt>
      <trkpt lat="45.19152" lon="-72.57785">
        <ele>215</ele>
      </trkpt>
      <trkpt lat="45.1921" lon="-72.577033">
        <ele>213</ele>
      </trkpt>
      <trkpt lat="45.19268" lon="-72.576216">
        <ele>211.1</ele>
      </trkpt>
      <trkpt lat="45.19326" lon="-72.5754">
        <ele>211.8</ele>
      </trkpt>
      <trkpt lat="45.19348" lon="-72.57503">
        <ele>212.6</ele>
      </trkpt>
      <trkpt lat="45.19379" lon="-72.5744">
        <ele>212.6</ele>
      </trkpt>
      <trkpt lat="45.19399" lon="-72.57388">
        <ele>210.7</ele>
      </trkpt>
      <trkpt lat="45.19402" lon="-72.57364">
        <ele>209.3</ele>
      </trkpt>
      <trkpt lat="45.19402" lon="-72.57289">
        <ele>206.1</ele>
      </trkpt>
      <trkpt lat="45.194" lon="-72.5727">
        <ele>205.9</ele>
      </trkpt>
      <trkpt lat="45.19392" lon="-72.57244">
        <ele>206</ele>
      </trkpt>
      <trkpt lat="45.19396" lon="-72.5724">
        <ele>206</ele>
      </trkpt>
      <trkpt lat="45.19399" lon="-72.57234">
        <ele>205.9</ele>
      </trkpt>
      <trkpt lat="45.19405" lon="-72.57181">
        <ele>206.3</ele>
      </trkpt>
      <trkpt lat="45.19412" lon="-72.57173">
        <ele>206.3</ele>
      </trkpt>
      <trkpt lat="45.19379" lon="-72.57101">
        <ele>207.7</ele>
      </trkpt>
      <trkpt lat="45.19366" lon="-72.57078">
        <ele>207.8</ele>
      </trkpt>
      <trkpt lat="45.19317" lon="-72.56998">
        <ele>207.8</ele>
      </trkpt>
      <trkpt lat="45.19302" lon="-72.56979">
        <ele>207.3</ele>
      </trkpt>
      <trkpt lat="45.19261" lon="-72.56935">
        <ele>204.5</ele>
      </trkpt>
      <trkpt lat="45.19234" lon="-72.56902">
        <ele>204.4</ele>
      </trkpt>
      <trkpt lat="45.19199" lon="-72.5685">
        <ele>204.5</ele>
      </trkpt>
      <trkpt lat="45.19175" lon="-72.56805">
        <ele>205.3</ele>
      </trkpt>
      <trkpt lat="45.191343" lon="-72.567123">
        <ele>204.2</ele>
      </trkpt>
      <trkpt lat="45.190936" lon="-72.566196">
        <ele>204.9</ele>
      </trkpt>
      <trkpt lat="45.19053" lon="-72.56527">
        <ele>205.5</ele>
      </trkpt>
      <trkpt lat="45.190092" lon="-72.564297">
        <ele>206.1</ele>
      </trkpt>
      <trkpt lat="45.189655" lon="-72.563324">
        <ele>207.1</ele>
      </trkpt>
      <trkpt lat="45.189217" lon="-72.562352">
        <ele>207.9</ele>
      </trkpt>
      <trkpt lat="45.18878" lon="-72.56138">
        <ele>208.9</ele>
      </trkpt>
      <trkpt lat="45.188516" lon="-72.560589">
        <ele>209.4</ele>
      </trkpt>
      <trkpt lat="45.188253" lon="-72.559799">
        <ele>209</ele>
      </trkpt>
      <trkpt lat="45.18799" lon="-72.55901">
        <ele>209.9</ele>
      </trkpt>
      <trkpt lat="45.18773" lon="-72.5582">
        <ele>210.2</ele>
      </trkpt>
      <trkpt lat="45.18759" lon="-72.55749">
        <ele>211.9</ele>
      </trkpt>
      <trkpt lat="45.18756" lon="-72.5569">
        <ele>213.8</ele>
      </trkpt>
      <trkpt lat="45.18756" lon="-72.55655">
        <ele>215.1</ele>
      </trkpt>
      <trkpt lat="45.18758" lon="-72.5561">
        <ele>215.9</ele>
      </trkpt>
      <trkpt lat="45.18764" lon="-72.55544">
        <ele>217</ele>
      </trkpt>
      <trkpt lat="45.187706" lon="-72.554406">
        <ele>222.7</ele>
      </trkpt>
      <trkpt lat="45.187773" lon="-72.553373">
        <ele>226.4</ele>
      </trkpt>
      <trkpt lat="45.18784" lon="-72.55234">
        <ele>226.4</ele>
      </trkpt>
      <trkpt lat="45.18786" lon="-72.55109">
        <ele>227.7</ele>
      </trkpt>
      <trkpt lat="45.18786" lon="-72.550066">
        <ele>230</ele>
      </trkpt>
      <trkpt lat="45.18786" lon="-72.549043">
        <ele>230.5</ele>
      </trkpt>
      <trkpt lat="45.18786" lon="-72.54802">
        <ele>230.5</ele>
      </trkpt>
      <trkpt lat="45.18831" lon="-72.547263">
        <ele>234.4</ele>
      </trkpt>
      <trkpt lat="45.18876" lon="-72.546506">
        <ele>240.9</ele>
      </trkpt>
      <trkpt lat="45.18921" lon="-72.54575">
        <ele>250.6</ele>
      </trkpt>
      <trkpt lat="45.189535" lon="-72.54499">
        <ele>254.8</ele>
      </trkpt>
      <trkpt lat="45.18986" lon="-72.54423">
        <ele>257.6</ele>
      </trkpt>
      <trkpt lat="45.19005" lon="-72.54356">
        <ele>260.3</ele>
      </trkpt>
      <trkpt lat="45.190215" lon="-72.542645">
        <ele>266.2</ele>
      </trkpt>
      <trkpt lat="45.19038" lon="-72.54173">
        <ele>271.7</ele>
      </trkpt>
      <trkpt lat="45.19049" lon="-72.54137">
        <ele>274.9</ele>
      </trkpt>
      <trkpt lat="45.191033" lon="-72.540456">
        <ele>280.8</ele>
      </trkpt>
      <trkpt lat="45.191576" lon="-72.539543">
        <ele>284</ele>
      </trkpt>
      <trkpt lat="45.19212" lon="-72.53863">
        <ele>288.1</ele>
      </trkpt>
      <trkpt lat="45.19234" lon="-72.5383">
        <ele>289.2</ele>
      </trkpt>
      <trkpt lat="45.19234" lon="-72.53831">
        <ele>289.1</ele>
      </trkpt>
      <trkpt lat="45.192795" lon="-72.53767">
        <ele>289.1</ele>
      </trkpt>
      <trkpt lat="45.19325" lon="-72.53703">
        <ele>289.2</ele>
      </trkpt>
      <trkpt lat="45.19374" lon="-72.53606">
        <ele>291.6</ele>
      </trkpt>
      <trkpt lat="45.19423" lon="-72.53609">
        <ele>289.6</ele>
      </trkpt>
      <trkpt lat="45.194984" lon="-72.536104">
        <ele>288.4</ele>
      </trkpt>
      <trkpt lat="45.19574" lon="-72.53612">
        <ele>282.6</ele>
      </trkpt>
      <trkpt lat="45.19586" lon="-72.53613">
        <ele>280.8</ele>
      </trkpt>
      <trkpt lat="45.19613" lon="-72.53636">
        <ele>277.7</ele>
      </trkpt>
      <trkpt lat="45.19661" lon="-72.53684">
        <ele>271.7</ele>
      </trkpt>
      <trkpt lat="45.19682" lon="-72.53698">
        <ele>270.6</ele>
      </trkpt>
      <trkpt lat="45.19711" lon="-72.53712">
        <ele>265</ele>
      </trkpt>
      <trkpt lat="45.19743" lon="-72.53712">
        <ele>262.3</ele>
      </trkpt>
      <trkpt lat="45.19762" lon="-72.53708">
        <ele>260.8</ele>
      </trkpt>
      <trkpt lat="45.19782" lon="-72.53695">
        <ele>259.9</ele>
      </trkpt>
      <trkpt lat="45.198" lon="-72.53676">
        <ele>259.5</ele>
      </trkpt>
      <trkpt lat="45.19834" lon="-72.53618">
        <ele>257.2</ele>
      </trkpt>
      <trkpt lat="45.19846" lon="-72.53601">
        <ele>255.7</ele>
      </trkpt>
      <trkpt lat="45.1987" lon="-72.53586">
        <ele>252.3</ele>
      </trkpt>
      <trkpt lat="45.19888" lon="-72.53582">
        <ele>251</ele>
      </trkpt>
      <trkpt lat="45.199616" lon="-72.535806">
        <ele>249.2</ele>
      </trkpt>
      <trkpt lat="45.200353" lon="-72.535793">
        <ele>258.1</ele>
      </trkpt>
      <trkpt lat="45.20109" lon="-72.53578">
        <ele>265.3</ele>
      </trkpt>
      <trkpt lat="45.20141" lon="-72.53582">
        <ele>265.7</ele>
      </trkpt>
      <trkpt lat="45.20183" lon="-72.53595">
        <ele>265.1</ele>
      </trkpt>
      <trkpt lat="45.20211" lon="-72.53592">
        <ele>264.1</ele>
      </trkpt>
      <trkpt lat="45.20271" lon="-72.53577">
        <ele>260.6</ele>
      </trkpt>
      <trkpt lat="45.20279" lon="-72.53577">
        <ele>259.6</ele>
      </trkpt>
      <trkpt lat="45.2034" lon="-72.53587">
        <ele>250.7</ele>
      </trkpt>
      <trkpt lat="45.20424" lon="-72.53584">
        <ele>240.2</ele>
      </trkpt>
      <trkpt lat="45.20508" lon="-72.53581">
        <ele>228.2</ele>
      </trkpt>
      <trkpt lat="45.205689" lon="-72.535826">
        <ele>221.1</ele>
      </trkpt>
      <trkpt lat="45.206299" lon="-72.535843">
        <ele>217.7</ele>
      </trkpt>
      <trkpt lat="45.20691" lon="-72.53586">
        <ele>216.7</ele>
      </trkpt>
      <trkpt lat="45.207712" lon="-72.535869">
        <ele>216.4</ele>
      </trkpt>
      <trkpt lat="45.208514" lon="-72.535879">
        <ele>216.7</ele>
      </trkpt>
      <trkpt lat="45.209317" lon="-72.535889">
        <ele>217.1</ele>
      </trkpt>
      <trkpt lat="45.21012" lon="-72.5359">
        <ele>212</ele>
      </trkpt>
      <trkpt lat="45.210835" lon="-72.535924">
        <ele>208.4</ele>
      </trkpt>
      <trkpt lat="45.21155" lon="-72.53595">
        <ele>207.3</ele>
      </trkpt>
      <trkpt lat="45.21174" lon="-72.53487">
        <ele>206.1</ele>
      </trkpt>
      <trkpt lat="45.21174" lon="-72.53488">
        <ele>206.1</ele>
      </trkpt>
      <trkpt lat="45.21155" lon="-72.53595">
        <ele>207.3</ele>
      </trkpt>
      <trkpt lat="45.21223" lon="-72.53604">
        <ele>205.4</ele>
      </trkpt>
      <trkpt lat="45.21296" lon="-72.53601">
        <ele>207.8</ele>
      </trkpt>
      <trkpt lat="45.213145" lon="-72.53502">
        <ele>206.4</ele>
      </trkpt>
      <trkpt lat="45.21333" lon="-72.53403">
        <ele>205.7</ele>
      </trkpt>
      <trkpt lat="45.21345" lon="-72.53408">
        <ele>205.5</ele>
      </trkpt>
      <trkpt lat="45.21349" lon="-72.53408">
        <ele>205.3</ele>
      </trkpt>
      <trkpt lat="45.21357" lon="-72.53404">
        <ele>205.1</ele>
      </trkpt>
      <trkpt lat="45.214033" lon="-72.53347">
        <ele>202.7</ele>
      </trkpt>
      <trkpt lat="45.214496" lon="-72.5329">
        <ele>202.4</ele>
      </trkpt>
      <trkpt lat="45.21496" lon="-72.53233">
        <ele>201.7</ele>
      </trkpt>
      <trkpt lat="45.21496" lon="-72.53234">
        <ele>201.7</ele>
      </trkpt>
      <trkpt lat="45.215603" lon="-72.53155">
        <ele>201.2</ele>
      </trkpt>
      <trkpt lat="45.216246" lon="-72.53076">
        <ele>201.2</ele>
      </trkpt>
      <trkpt lat="45.21689" lon="-72.52997">
        <ele>203.2</ele>
      </trkpt>
      <trkpt lat="45.21725" lon="-72.53058">
        <ele>202.3</ele>
      </trkpt>
      <trkpt lat="45.21737" lon="-72.53067">
        <ele>202.3</ele>
      </trkpt>
      <trkpt lat="45.217895" lon="-72.530974">
        <ele>203.2</ele>
      </trkpt>
      <trkpt lat="45.21842" lon="-72.53128">
        <ele>203.1</ele>
      </trkpt>
      <trkpt lat="45.21913" lon="-72.5317">
        <ele>203</ele>
      </trkpt>
      <trkpt lat="45.21952" lon="-72.53187">
        <ele>203.2</ele>
      </trkpt>
      <trkpt lat="45.21973" lon="-72.53192">
        <ele>203.4</ele>
      </trkpt>
      <trkpt lat="45.220359" lon="-72.53188">
        <ele>203.1</ele>
      </trkpt>
      <trkpt lat="45.22099" lon="-72.53184">
        <ele>202.9</ele>
      </trkpt>
      <trkpt lat="45.22098" lon="-72.53184">
        <ele>202.9</ele>
      </trkpt>
      <trkpt lat="45.22164" lon="-72.531795">
        <ele>202.7</ele>
      </trkpt>
      <trkpt lat="45.2223" lon="-72.53175">
        <ele>202.5</ele>
      </trkpt>
      <trkpt lat="45.22234" lon="-72.53282">
        <ele>202.2</ele>
      </trkpt>
    </trkseg>
  </trk>
</gpx>