<?xml version='1.0' encoding='utf-8'?>
<gpx xmlns="http://www.topografix.com/GPX/1/1" xmlns:xsi="http://www.w3.org/2001/XMLSchema-instance" version="1.1" creator="Gravelle Estrie" xsi:schemaLocation="http://www.topografix.com/GPX/1/1 http://www.topografix.com/GPX/1/1/gpx.xsd">
  <metadata>
    <name>Rookie Ride 70,5KM / 1258MD+</name>
  </metadata>
  <trk>
    <name>Rookie Ride 70,5KM / 1258MD+</name>
    <trkseg>
      <trkpt lat="45.22233" lon="-72.53266">
        <ele>202.14</ele>
      </trkpt>
      <trkpt lat="45.2223" lon="-72.53154">
        <ele>202.51</ele>
      </trkpt>
      <trkpt lat="45.22227" lon="-72.53042">
        <ele>202.68</ele>
      </trkpt>
      <trkpt lat="45.22218" lon="-72.52972">
        <ele>202.78</ele>
      </trkpt>
      <trkpt lat="45.22205" lon="-72.52914">
        <ele>202.45</ele>
      </trkpt>
      <trkpt lat="45.22188" lon="-72.52854">
        <ele>202.17</ele>
      </trkpt>
      <trkpt lat="45.2215633" lon="-72.5273967">
        <ele>201.74</ele>
      </trkpt>
      <trkpt lat="45.2212467" lon="-72.5262533">
        <ele>202.03</ele>
      </trkpt>
      <trkpt lat="45.22093" lon="-72.52511">
        <ele>202.67</ele>
      </trkpt>
      <trkpt lat="45.22034" lon="-72.52575">
        <ele>204.45</ele>
      </trkpt>
      <trkpt lat="45.219985" lon="-72.526155">
        <ele>205.42</ele>
      </trkpt>
      <trkpt lat="45.21963" lon="-72.52656">
        <ele>205.9</ele>
      </trkpt>
      <trkpt lat="45.2190333" lon="-72.52732">
        <ele>205.68</ele>
      </trkpt>
      <trkpt lat="45.2184367" lon="-72.52808">
        <ele>205.24</ele>
      </trkpt>
      <trkpt lat="45.21784" lon="-72.52884">
        <ele>207.65</ele>
      </trkpt>
      <trkpt lat="45.217365" lon="-72.529405">
        <ele>204.66</ele>
      </trkpt>
      <trkpt lat="45.21689" lon="-72.52997">
        <ele>203.17</ele>
      </trkpt>
      <trkpt lat="45.216226" lon="-72.530784">
        <ele>201.05</ele>
      </trkpt>
      <trkpt lat="45.215562" lon="-72.5315981">
        <ele>201.49</ele>
      </trkpt>
      <trkpt lat="45.214898" lon="-72.5324121">
        <ele>202.01</ele>
      </trkpt>
      <trkpt lat="45.214234" lon="-72.533226">
        <ele>202.24</ele>
      </trkpt>
      <trkpt lat="45.21357" lon="-72.53404">
        <ele>205.48</ele>
      </trkpt>
      <trkpt lat="45.21349" lon="-72.53408">
        <ele>205.69</ele>
      </trkpt>
      <trkpt lat="45.21345" lon="-72.53408">
        <ele>205.76</ele>
      </trkpt>
      <trkpt lat="45.21333" lon="-72.53403">
        <ele>205.85</ele>
      </trkpt>
      <trkpt lat="45.212645" lon="-72.533785">
        <ele>203.96</ele>
      </trkpt>
      <trkpt lat="45.21196" lon="-72.53354">
        <ele>207.05</ele>
      </trkpt>
      <trkpt lat="45.211755" lon="-72.534745">
        <ele>207.18</ele>
      </trkpt>
      <trkpt lat="45.21155" lon="-72.53595">
        <ele>207.72</ele>
      </trkpt>
      <trkpt lat="45.210835" lon="-72.535925">
        <ele>208.53</ele>
      </trkpt>
      <trkpt lat="45.21012" lon="-72.5359">
        <ele>212.89</ele>
      </trkpt>
      <trkpt lat="45.209374" lon="-72.53589">
        <ele>217.77</ele>
      </trkpt>
      <trkpt lat="45.208628" lon="-72.53588">
        <ele>217.09</ele>
      </trkpt>
      <trkpt lat="45.207882" lon="-72.53587">
        <ele>216.41</ele>
      </trkpt>
      <trkpt lat="45.207136" lon="-72.53586">
        <ele>215.95</ele>
      </trkpt>
      <trkpt lat="45.20639" lon="-72.53585">
        <ele>216.52</ele>
      </trkpt>
      <trkpt lat="45.205735" lon="-72.53583">
        <ele>220.26</ele>
      </trkpt>
      <trkpt lat="45.20508" lon="-72.53581">
        <ele>228.21</ele>
      </trkpt>
      <trkpt lat="45.20424" lon="-72.53584">
        <ele>240.29</ele>
      </trkpt>
      <trkpt lat="45.2034" lon="-72.53587">
        <ele>251.54</ele>
      </trkpt>
      <trkpt lat="45.20279" lon="-72.53577">
        <ele>261.47</ele>
      </trkpt>
      <trkpt lat="45.20271" lon="-72.53577">
        <ele>262.3</ele>
      </trkpt>
      <trkpt lat="45.2025" lon="-72.53582">
        <ele>263.56</ele>
      </trkpt>
      <trkpt lat="45.20211" lon="-72.53592">
        <ele>265.1</ele>
      </trkpt>
      <trkpt lat="45.20183" lon="-72.53595">
        <ele>266.27</ele>
      </trkpt>
      <trkpt lat="45.20141" lon="-72.53582">
        <ele>266.81</ele>
      </trkpt>
      <trkpt lat="45.20109" lon="-72.53578">
        <ele>265.88</ele>
      </trkpt>
      <trkpt lat="45.20034" lon="-72.5357933">
        <ele>254.82</ele>
      </trkpt>
      <trkpt lat="45.19959" lon="-72.5358067">
        <ele>248.82</ele>
      </trkpt>
      <trkpt lat="45.19884" lon="-72.53582">
        <ele>252.66</ele>
      </trkpt>
      <trkpt lat="45.19884" lon="-72.53583">
        <ele>252.75</ele>
      </trkpt>
      <trkpt lat="45.1987" lon="-72.53586">
        <ele>254.84</ele>
      </trkpt>
      <trkpt lat="45.19846" lon="-72.53601">
        <ele>256.71</ele>
      </trkpt>
      <trkpt lat="45.19834" lon="-72.53618">
        <ele>257.61</ele>
      </trkpt>
      <trkpt lat="45.198" lon="-72.53676">
        <ele>258.96</ele>
      </trkpt>
      <trkpt lat="45.19782" lon="-72.53695">
        <ele>259.49</ele>
      </trkpt>
      <trkpt lat="45.19762" lon="-72.53708">
        <ele>260.38</ele>
      </trkpt>
      <trkpt lat="45.19743" lon="-72.53712">
        <ele>261.7</ele>
      </trkpt>
      <trkpt lat="45.19711" lon="-72.53712">
        <ele>264.55</ele>
      </trkpt>
      <trkpt lat="45.19682" lon="-72.53698">
        <ele>269.83</ele>
      </trkpt>
      <trkpt lat="45.19661" lon="-72.53684">
        <ele>271.78</ele>
      </trkpt>
      <trkpt lat="45.19613" lon="-72.53636">
        <ele>278.88</ele>
      </trkpt>
      <trkpt lat="45.19586" lon="-72.53613">
        <ele>280.81</ele>
      </trkpt>
      <trkpt lat="45.19574" lon="-72.53612">
        <ele>282.19</ele>
      </trkpt>
      <trkpt lat="45.194985" lon="-72.536105">
        <ele>287.47</ele>
      </trkpt>
      <trkpt lat="45.19423" lon="-72.53609">
        <ele>289.15</ele>
      </trkpt>
      <trkpt lat="45.19374" lon="-72.53606">
        <ele>291.87</ele>
      </trkpt>
      <trkpt lat="45.1941515" lon="-72.53513">
        <ele>295.1</ele>
      </trkpt>
      <trkpt lat="45.1945629" lon="-72.5342001">
        <ele>295.61</ele>
      </trkpt>
      <trkpt lat="45.1949743" lon="-72.5332701">
        <ele>297.97</ele>
      </trkpt>
      <trkpt lat="45.1953858" lon="-72.5323401">
        <ele>301.15</ele>
      </trkpt>
      <trkpt lat="45.1957972" lon="-72.5314101">
        <ele>300.78</ele>
      </trkpt>
      <trkpt lat="45.1962086" lon="-72.53048">
        <ele>300.77</ele>
      </trkpt>
      <trkpt lat="45.19662" lon="-72.52955">
        <ele>302.37</ele>
      </trkpt>
      <trkpt lat="45.196985" lon="-72.52868">
        <ele>304.18</ele>
      </trkpt>
      <trkpt lat="45.19735" lon="-72.52781">
        <ele>301.92</ele>
      </trkpt>
      <trkpt lat="45.1977725" lon="-72.5268875">
        <ele>302.91</ele>
      </trkpt>
      <trkpt lat="45.198195" lon="-72.525965">
        <ele>304.13</ele>
      </trkpt>
      <trkpt lat="45.1986175" lon="-72.5250425">
        <ele>306.77</ele>
      </trkpt>
      <trkpt lat="45.19904" lon="-72.52412">
        <ele>310.18</ele>
      </trkpt>
      <trkpt lat="45.19904" lon="-72.52413">
        <ele>310.17</ele>
      </trkpt>
      <trkpt lat="45.19952" lon="-72.523088">
        <ele>312</ele>
      </trkpt>
      <trkpt lat="45.2" lon="-72.5220461">
        <ele>315.34</ele>
      </trkpt>
      <trkpt lat="45.20048" lon="-72.5210041">
        <ele>318.94</ele>
      </trkpt>
      <trkpt lat="45.20096" lon="-72.519962">
        <ele>318.1</ele>
      </trkpt>
      <trkpt lat="45.20144" lon="-72.51892">
        <ele>318.31</ele>
      </trkpt>
      <trkpt lat="45.20113" lon="-72.51858">
        <ele>320.03</ele>
      </trkpt>
      <trkpt lat="45.2009" lon="-72.51819">
        <ele>323.24</ele>
      </trkpt>
      <trkpt lat="45.20079" lon="-72.51791">
        <ele>324.71</ele>
      </trkpt>
      <trkpt lat="45.2006" lon="-72.517305">
        <ele>333.87</ele>
      </trkpt>
      <trkpt lat="45.20041" lon="-72.5167">
        <ele>338.98</ele>
      </trkpt>
      <trkpt lat="45.20027" lon="-72.51639">
        <ele>343.47</ele>
      </trkpt>
      <trkpt lat="45.20006" lon="-72.51631">
        <ele>345.6</ele>
      </trkpt>
      <trkpt lat="45.19923" lon="-72.5163367">
        <ele>345.73</ele>
      </trkpt>
      <trkpt lat="45.1984" lon="-72.5163633">
        <ele>344.93</ele>
      </trkpt>
      <trkpt lat="45.19757" lon="-72.51639">
        <ele>345.52</ele>
      </trkpt>
      <trkpt lat="45.1967333" lon="-72.5164033">
        <ele>335.77</ele>
      </trkpt>
      <trkpt lat="45.1958967" lon="-72.5164167">
        <ele>325.12</ele>
      </trkpt>
      <trkpt lat="45.19506" lon="-72.51643">
        <ele>319.02</ele>
      </trkpt>
      <trkpt lat="45.1941867" lon="-72.51647">
        <ele>309.87</ele>
      </trkpt>
      <trkpt lat="45.1933133" lon="-72.51651">
        <ele>295.26</ele>
      </trkpt>
      <trkpt lat="45.19244" lon="-72.51655">
        <ele>285.96</ele>
      </trkpt>
      <trkpt lat="45.1915667" lon="-72.51659">
        <ele>289.35</ele>
      </trkpt>
      <trkpt lat="45.1906933" lon="-72.51663">
        <ele>299.41</ele>
      </trkpt>
      <trkpt lat="45.18982" lon="-72.51667">
        <ele>295.39</ele>
      </trkpt>
      <trkpt lat="45.1889467" lon="-72.51671">
        <ele>289.15</ele>
      </trkpt>
      <trkpt lat="45.1880733" lon="-72.51675">
        <ele>289.38</ele>
      </trkpt>
      <trkpt lat="45.1872" lon="-72.51679">
        <ele>288.99</ele>
      </trkpt>
      <trkpt lat="45.18718" lon="-72.51679">
        <ele>288.96</ele>
      </trkpt>
      <trkpt lat="45.1865667" lon="-72.51682">
        <ele>286.09</ele>
      </trkpt>
      <trkpt lat="45.1859533" lon="-72.51685">
        <ele>277.75</ele>
      </trkpt>
      <trkpt lat="45.18534" lon="-72.51688">
        <ele>271.75</ele>
      </trkpt>
      <trkpt lat="45.184595" lon="-72.5168925">
        <ele>273.12</ele>
      </trkpt>
      <trkpt lat="45.18385" lon="-72.516905">
        <ele>285.37</ele>
      </trkpt>
      <trkpt lat="45.183105" lon="-72.5169175">
        <ele>292.75</ele>
      </trkpt>
      <trkpt lat="45.18236" lon="-72.51693">
        <ele>297.12</ele>
      </trkpt>
      <trkpt lat="45.18165" lon="-72.51697">
        <ele>292.4</ele>
      </trkpt>
      <trkpt lat="45.18094" lon="-72.51701">
        <ele>291.23</ele>
      </trkpt>
      <trkpt lat="45.1802575" lon="-72.51701">
        <ele>289.47</ele>
      </trkpt>
      <trkpt lat="45.179575" lon="-72.51701">
        <ele>288.32</ele>
      </trkpt>
      <trkpt lat="45.1788925" lon="-72.51701">
        <ele>287.3</ele>
      </trkpt>
      <trkpt lat="45.17821" lon="-72.51701">
        <ele>279.27</ele>
      </trkpt>
      <trkpt lat="45.17763" lon="-72.517035">
        <ele>276.04</ele>
      </trkpt>
      <trkpt lat="45.17705" lon="-72.51706">
        <ele>277.13</ele>
      </trkpt>
      <trkpt lat="45.17635" lon="-72.51704">
        <ele>279.59</ele>
      </trkpt>
      <trkpt lat="45.17624" lon="-72.51649">
        <ele>279.6</ele>
      </trkpt>
      <trkpt lat="45.17608" lon="-72.51613">
        <ele>280.19</ele>
      </trkpt>
      <trkpt lat="45.17592" lon="-72.51594">
        <ele>280.24</ele>
      </trkpt>
      <trkpt lat="45.1753425" lon="-72.515345">
        <ele>277.04</ele>
      </trkpt>
      <trkpt lat="45.174765" lon="-72.51475">
        <ele>275.47</ele>
      </trkpt>
      <trkpt lat="45.1741875" lon="-72.514155">
        <ele>272.95</ele>
      </trkpt>
      <trkpt lat="45.17361" lon="-72.51356">
        <ele>270.46</ele>
      </trkpt>
      <trkpt lat="45.17326" lon="-72.51316">
        <ele>268.01</ele>
      </trkpt>
      <trkpt lat="45.17286" lon="-72.51263">
        <ele>265.75</ele>
      </trkpt>
      <trkpt lat="45.17246" lon="-72.511955">
        <ele>263.42</ele>
      </trkpt>
      <trkpt lat="45.17206" lon="-72.51128">
        <ele>264.43</ele>
      </trkpt>
      <trkpt lat="45.171815" lon="-72.5107">
        <ele>268.14</ele>
      </trkpt>
      <trkpt lat="45.17157" lon="-72.51012">
        <ele>271.66</ele>
      </trkpt>
      <trkpt lat="45.17122" lon="-72.50918">
        <ele>273.35</ele>
      </trkpt>
      <trkpt lat="45.17089" lon="-72.50802">
        <ele>270.75</ele>
      </trkpt>
      <trkpt lat="45.170606" lon="-72.506884">
        <ele>274.49</ele>
      </trkpt>
      <trkpt lat="45.170322" lon="-72.505748">
        <ele>283.42</ele>
      </trkpt>
      <trkpt lat="45.170038" lon="-72.504612">
        <ele>287.05</ele>
      </trkpt>
      <trkpt lat="45.169754" lon="-72.503476">
        <ele>292.62</ele>
      </trkpt>
      <trkpt lat="45.16947" lon="-72.50234">
        <ele>296.21</ele>
      </trkpt>
      <trkpt lat="45.16934" lon="-72.50149">
        <ele>297.82</ele>
      </trkpt>
      <trkpt lat="45.1693" lon="-72.500555">
        <ele>297.5</ele>
      </trkpt>
      <trkpt lat="45.16926" lon="-72.49962">
        <ele>295.67</ele>
      </trkpt>
      <trkpt lat="45.169205" lon="-72.49891">
        <ele>292.17</ele>
      </trkpt>
      <trkpt lat="45.16915" lon="-72.4982">
        <ele>289.63</ele>
      </trkpt>
      <trkpt lat="45.1682733" lon="-72.4982367">
        <ele>284.37</ele>
      </trkpt>
      <trkpt lat="45.1673967" lon="-72.4982733">
        <ele>288.55</ele>
      </trkpt>
      <trkpt lat="45.16652" lon="-72.49831">
        <ele>290.04</ele>
      </trkpt>
      <trkpt lat="45.16651" lon="-72.49831">
        <ele>290.04</ele>
      </trkpt>
      <trkpt lat="45.1656257" lon="-72.4983486">
        <ele>287.04</ele>
      </trkpt>
      <trkpt lat="45.1647414" lon="-72.4983871">
        <ele>288.06</ele>
      </trkpt>
      <trkpt lat="45.1638571" lon="-72.4984257">
        <ele>294.32</ele>
      </trkpt>
      <trkpt lat="45.1629729" lon="-72.4984643">
        <ele>300.74</ele>
      </trkpt>
      <trkpt lat="45.1620886" lon="-72.4985029">
        <ele>303.83</ele>
      </trkpt>
      <trkpt lat="45.1612043" lon="-72.4985414">
        <ele>308.23</ele>
      </trkpt>
      <trkpt lat="45.16032" lon="-72.49858">
        <ele>312.4</ele>
      </trkpt>
      <trkpt lat="45.15966" lon="-72.4986067">
        <ele>318.67</ele>
      </trkpt>
      <trkpt lat="45.159" lon="-72.4986333">
        <ele>327.34</ele>
      </trkpt>
      <trkpt lat="45.15834" lon="-72.49866">
        <ele>334.96</ele>
      </trkpt>
      <trkpt lat="45.15824" lon="-72.4987">
        <ele>335.11</ele>
      </trkpt>
      <trkpt lat="45.15818" lon="-72.49875">
        <ele>335.11</ele>
      </trkpt>
      <trkpt lat="45.15813" lon="-72.49888">
        <ele>335.69</ele>
      </trkpt>
      <trkpt lat="45.15813" lon="-72.5">
        <ele>337.63</ele>
      </trkpt>
      <trkpt lat="45.1581589" lon="-72.5012333">
        <ele>337.18</ele>
      </trkpt>
      <trkpt lat="45.1581879" lon="-72.5024667">
        <ele>336.66</ele>
      </trkpt>
      <trkpt lat="45.1582168" lon="-72.5037">
        <ele>336.45</ele>
      </trkpt>
      <trkpt lat="45.1582457" lon="-72.5049333">
        <ele>336.31</ele>
      </trkpt>
      <trkpt lat="45.1582746" lon="-72.5061667">
        <ele>336.01</ele>
      </trkpt>
      <trkpt lat="45.1583035" lon="-72.5074">
        <ele>335.54</ele>
      </trkpt>
      <trkpt lat="45.1583323" lon="-72.5086333">
        <ele>334.5</ele>
      </trkpt>
      <trkpt lat="45.1583612" lon="-72.5098667">
        <ele>336.19</ele>
      </trkpt>
      <trkpt lat="45.15839" lon="-72.5111">
        <ele>341.7</ele>
      </trkpt>
      <trkpt lat="45.15839" lon="-72.51209">
        <ele>343.8</ele>
      </trkpt>
      <trkpt lat="45.15842" lon="-72.513255">
        <ele>345.64</ele>
      </trkpt>
      <trkpt lat="45.15845" lon="-72.51442">
        <ele>343.67</ele>
      </trkpt>
      <trkpt lat="45.1585" lon="-72.51537">
        <ele>342.18</ele>
      </trkpt>
      <trkpt lat="45.1585" lon="-72.51616">
        <ele>341.06</ele>
      </trkpt>
      <trkpt lat="45.15853" lon="-72.516935">
        <ele>337.3</ele>
      </trkpt>
      <trkpt lat="45.15856" lon="-72.51771">
        <ele>334.63</ele>
      </trkpt>
      <trkpt lat="45.15913" lon="-72.51772">
        <ele>333.96</ele>
      </trkpt>
      <trkpt lat="45.1597" lon="-72.51773">
        <ele>329.19</ele>
      </trkpt>
      <trkpt lat="45.15981" lon="-72.51778">
        <ele>328.79</ele>
      </trkpt>
      <trkpt lat="45.15993" lon="-72.51796">
        <ele>328.4</ele>
      </trkpt>
      <trkpt lat="45.15993" lon="-72.51796">
        <ele>328.41</ele>
      </trkpt>
      <trkpt lat="45.16014" lon="-72.51841">
        <ele>328.22</ele>
      </trkpt>
      <trkpt lat="45.16019" lon="-72.51854">
        <ele>327.73</ele>
      </trkpt>
      <trkpt lat="45.16042" lon="-72.5189">
        <ele>326.37</ele>
      </trkpt>
      <trkpt lat="45.16075" lon="-72.5197">
        <ele>320.83</ele>
      </trkpt>
      <trkpt lat="45.16097" lon="-72.52061">
        <ele>313.73</ele>
      </trkpt>
      <trkpt lat="45.161135" lon="-72.521425">
        <ele>305.97</ele>
      </trkpt>
      <trkpt lat="45.1613" lon="-72.52224">
        <ele>299.6</ele>
      </trkpt>
      <trkpt lat="45.16137" lon="-72.5228">
        <ele>297.01</ele>
      </trkpt>
      <trkpt lat="45.16137" lon="-72.52341">
        <ele>292.49</ele>
      </trkpt>
      <trkpt lat="45.16132" lon="-72.52391">
        <ele>289.75</ele>
      </trkpt>
      <trkpt lat="45.16126" lon="-72.52431">
        <ele>288.12</ele>
      </trkpt>
      <trkpt lat="45.16097" lon="-72.52505">
        <ele>286.05</ele>
      </trkpt>
      <trkpt lat="45.16068" lon="-72.52579">
        <ele>287.21</ele>
      </trkpt>
      <trkpt lat="45.16055" lon="-72.52635">
        <ele>286.25</ele>
      </trkpt>
      <trkpt lat="45.16029" lon="-72.52731">
        <ele>281.42</ele>
      </trkpt>
      <trkpt lat="45.16016" lon="-72.52803">
        <ele>282.08</ele>
      </trkpt>
      <trkpt lat="45.16013" lon="-72.52861">
        <ele>282.95</ele>
      </trkpt>
      <trkpt lat="45.16008" lon="-72.52897">
        <ele>281.76</ele>
      </trkpt>
      <trkpt lat="45.16007" lon="-72.52919">
        <ele>280.16</ele>
      </trkpt>
      <trkpt lat="45.1601" lon="-72.529905">
        <ele>277.74</ele>
      </trkpt>
      <trkpt lat="45.16013" lon="-72.53062">
        <ele>277.16</ele>
      </trkpt>
      <trkpt lat="45.16013" lon="-72.53138">
        <ele>278.18</ele>
      </trkpt>
      <trkpt lat="45.16013" lon="-72.53214">
        <ele>278.38</ele>
      </trkpt>
      <trkpt lat="45.16016" lon="-72.53274">
        <ele>278.07</ele>
      </trkpt>
      <trkpt lat="45.16017" lon="-72.533495">
        <ele>279.09</ele>
      </trkpt>
      <trkpt lat="45.16018" lon="-72.53425">
        <ele>278.2</ele>
      </trkpt>
      <trkpt lat="45.16011" lon="-72.53465">
        <ele>274.77</ele>
      </trkpt>
      <trkpt lat="45.15984" lon="-72.53574">
        <ele>270.54</ele>
      </trkpt>
      <trkpt lat="45.15967" lon="-72.53632">
        <ele>269.48</ele>
      </trkpt>
      <trkpt lat="45.15951" lon="-72.53716">
        <ele>264.47</ele>
      </trkpt>
      <trkpt lat="45.15947" lon="-72.53744">
        <ele>262.88</ele>
      </trkpt>
      <trkpt lat="45.15945" lon="-72.53856">
        <ele>258.88</ele>
      </trkpt>
      <trkpt lat="45.159255" lon="-72.53974">
        <ele>252.98</ele>
      </trkpt>
      <trkpt lat="45.15906" lon="-72.54092">
        <ele>245.98</ele>
      </trkpt>
      <trkpt lat="45.15891" lon="-72.54172">
        <ele>238.92</ele>
      </trkpt>
      <trkpt lat="45.15883" lon="-72.5424">
        <ele>232.2</ele>
      </trkpt>
      <trkpt lat="45.15898" lon="-72.54343">
        <ele>228.31</ele>
      </trkpt>
      <trkpt lat="45.15899" lon="-72.54362">
        <ele>227</ele>
      </trkpt>
      <trkpt lat="45.15897" lon="-72.54401">
        <ele>223.03</ele>
      </trkpt>
      <trkpt lat="45.15901" lon="-72.54428">
        <ele>220.81</ele>
      </trkpt>
      <trkpt lat="45.15912" lon="-72.54477">
        <ele>217.37</ele>
      </trkpt>
      <trkpt lat="45.15922" lon="-72.54579">
        <ele>216.02</ele>
      </trkpt>
      <trkpt lat="45.15914" lon="-72.54618">
        <ele>216.01</ele>
      </trkpt>
      <trkpt lat="45.15908" lon="-72.5464">
        <ele>215.81</ele>
      </trkpt>
      <trkpt lat="45.15908" lon="-72.54656">
        <ele>215.54</ele>
      </trkpt>
      <trkpt lat="45.15922" lon="-72.54747">
        <ele>215.64</ele>
      </trkpt>
      <trkpt lat="45.15926" lon="-72.54809">
        <ele>217.29</ele>
      </trkpt>
      <trkpt lat="45.159225" lon="-72.54887">
        <ele>222.07</ele>
      </trkpt>
      <trkpt lat="45.15919" lon="-72.54965">
        <ele>228.74</ele>
      </trkpt>
      <trkpt lat="45.15923" lon="-72.55055">
        <ele>232.54</ele>
      </trkpt>
      <trkpt lat="45.1592433" lon="-72.5514133">
        <ele>236.21</ele>
      </trkpt>
      <trkpt lat="45.1592567" lon="-72.5522767">
        <ele>242.18</ele>
      </trkpt>
      <trkpt lat="45.15927" lon="-72.55314">
        <ele>245.1</ele>
      </trkpt>
      <trkpt lat="45.159265" lon="-72.55408">
        <ele>250.47</ele>
      </trkpt>
      <trkpt lat="45.15926" lon="-72.55502">
        <ele>256.33</ele>
      </trkpt>
      <trkpt lat="45.15942" lon="-72.55623">
        <ele>261.24</ele>
      </trkpt>
      <trkpt lat="45.15935" lon="-72.55731">
        <ele>258.2</ele>
      </trkpt>
      <trkpt lat="45.15935" lon="-72.55758">
        <ele>257.33</ele>
      </trkpt>
      <trkpt lat="45.15937" lon="-72.55789">
        <ele>253.54</ele>
      </trkpt>
      <trkpt lat="45.15943" lon="-72.55815">
        <ele>252.7</ele>
      </trkpt>
      <trkpt lat="45.1594525" lon="-72.5591375">
        <ele>246.65</ele>
      </trkpt>
      <trkpt lat="45.159475" lon="-72.560125">
        <ele>239.05</ele>
      </trkpt>
      <trkpt lat="45.1594975" lon="-72.5611125">
        <ele>235.8</ele>
      </trkpt>
      <trkpt lat="45.15952" lon="-72.5621">
        <ele>238.91</ele>
      </trkpt>
      <trkpt lat="45.1594" lon="-72.56281">
        <ele>238.99</ele>
      </trkpt>
      <trkpt lat="45.15937" lon="-72.56312">
        <ele>239.24</ele>
      </trkpt>
      <trkpt lat="45.15934" lon="-72.5639">
        <ele>241.46</ele>
      </trkpt>
      <trkpt lat="45.15926" lon="-72.56474">
        <ele>246.2</ele>
      </trkpt>
      <trkpt lat="45.15923" lon="-72.56551">
        <ele>249.12</ele>
      </trkpt>
      <trkpt lat="45.15924" lon="-72.56577">
        <ele>249.17</ele>
      </trkpt>
      <trkpt lat="45.15928" lon="-72.56613">
        <ele>247.99</ele>
      </trkpt>
      <trkpt lat="45.15946" lon="-72.56703">
        <ele>241.55</ele>
      </trkpt>
      <trkpt lat="45.15949" lon="-72.5679567">
        <ele>237.81</ele>
      </trkpt>
      <trkpt lat="45.15952" lon="-72.5688833">
        <ele>236.72</ele>
      </trkpt>
      <trkpt lat="45.15955" lon="-72.56981">
        <ele>235.11</ele>
      </trkpt>
      <trkpt lat="45.1596" lon="-72.57085">
        <ele>236.1</ele>
      </trkpt>
      <trkpt lat="45.15884" lon="-72.5708225">
        <ele>233.85</ele>
      </trkpt>
      <trkpt lat="45.15808" lon="-72.570795">
        <ele>233.01</ele>
      </trkpt>
      <trkpt lat="45.15732" lon="-72.5707675">
        <ele>237.64</ele>
      </trkpt>
      <trkpt lat="45.15656" lon="-72.57074">
        <ele>243.45</ele>
      </trkpt>
      <trkpt lat="45.1559067" lon="-72.57073">
        <ele>244.31</ele>
      </trkpt>
      <trkpt lat="45.1552533" lon="-72.57072">
        <ele>246.63</ele>
      </trkpt>
      <trkpt lat="45.1546" lon="-72.57071">
        <ele>248.53</ele>
      </trkpt>
      <trkpt lat="45.1546" lon="-72.57071">
        <ele>248.55</ele>
      </trkpt>
      <trkpt lat="45.15411" lon="-72.5707">
        <ele>250.47</ele>
      </trkpt>
      <trkpt lat="45.15362" lon="-72.57069">
        <ele>251.01</ele>
      </trkpt>
      <trkpt lat="45.153165" lon="-72.57065">
        <ele>250.64</ele>
      </trkpt>
      <trkpt lat="45.15271" lon="-72.57061">
        <ele>251.16</ele>
      </trkpt>
      <trkpt lat="45.15202" lon="-72.570585">
        <ele>255.39</ele>
      </trkpt>
      <trkpt lat="45.15133" lon="-72.57056">
        <ele>258.39</ele>
      </trkpt>
      <trkpt lat="45.15103" lon="-72.5706">
        <ele>258.84</ele>
      </trkpt>
      <trkpt lat="45.15077" lon="-72.57065">
        <ele>258.28</ele>
      </trkpt>
      <trkpt lat="45.15064" lon="-72.57073">
        <ele>257.95</ele>
      </trkpt>
      <trkpt lat="45.15053" lon="-72.57083">
        <ele>257.16</ele>
      </trkpt>
      <trkpt lat="45.15035" lon="-72.57115">
        <ele>256.03</ele>
      </trkpt>
      <trkpt lat="45.1499275" lon="-72.571985">
        <ele>254.84</ele>
      </trkpt>
      <trkpt lat="45.149505" lon="-72.57282">
        <ele>252.87</ele>
      </trkpt>
      <trkpt lat="45.1490825" lon="-72.573655">
        <ele>249.71</ele>
      </trkpt>
      <trkpt lat="45.14866" lon="-72.57449">
        <ele>247.33</ele>
      </trkpt>
      <trkpt lat="45.1482675" lon="-72.57529">
        <ele>244.08</ele>
      </trkpt>
      <trkpt lat="45.147875" lon="-72.57609">
        <ele>240.74</ele>
      </trkpt>
      <trkpt lat="45.1474825" lon="-72.57689">
        <ele>237.35</ele>
      </trkpt>
      <trkpt lat="45.14709" lon="-72.57769">
        <ele>236.12</ele>
      </trkpt>
      <trkpt lat="45.1469" lon="-72.57804">
        <ele>236.33</ele>
      </trkpt>
      <trkpt lat="45.14681" lon="-72.57808">
        <ele>236.36</ele>
      </trkpt>
      <trkpt lat="45.14606" lon="-72.57807">
        <ele>236.89</ele>
      </trkpt>
      <trkpt lat="45.1452" lon="-72.57809">
        <ele>234.3</ele>
      </trkpt>
      <trkpt lat="45.14434" lon="-72.57811">
        <ele>233.1</ele>
      </trkpt>
      <trkpt lat="45.14348" lon="-72.57813">
        <ele>232.36</ele>
      </trkpt>
      <trkpt lat="45.14262" lon="-72.57815">
        <ele>233.18</ele>
      </trkpt>
      <trkpt lat="45.14176" lon="-72.57817">
        <ele>239.11</ele>
      </trkpt>
      <trkpt lat="45.14093" lon="-72.57817">
        <ele>242.14</ele>
      </trkpt>
      <trkpt lat="45.1407" lon="-72.57814">
        <ele>242.14</ele>
      </trkpt>
      <trkpt lat="45.1400833" lon="-72.5781767">
        <ele>241.45</ele>
      </trkpt>
      <trkpt lat="45.1394667" lon="-72.5782133">
        <ele>239.27</ele>
      </trkpt>
      <trkpt lat="45.13885" lon="-72.57825">
        <ele>237.78</ele>
      </trkpt>
      <trkpt lat="45.1384" lon="-72.57831">
        <ele>232.31</ele>
      </trkpt>
      <trkpt lat="45.13813" lon="-72.57827">
        <ele>229.42</ele>
      </trkpt>
      <trkpt lat="45.13752" lon="-72.57826">
        <ele>225.37</ele>
      </trkpt>
      <trkpt lat="45.1373" lon="-72.57816">
        <ele>225.24</ele>
      </trkpt>
      <trkpt lat="45.13696" lon="-72.5779">
        <ele>225.86</ele>
      </trkpt>
      <trkpt lat="45.1368" lon="-72.57777">
        <ele>227.02</ele>
      </trkpt>
      <trkpt lat="45.13673" lon="-72.57768">
        <ele>227.79</ele>
      </trkpt>
      <trkpt lat="45.13658" lon="-72.57732">
        <ele>231</ele>
      </trkpt>
      <trkpt lat="45.13631" lon="-72.57701">
        <ele>237.17</ele>
      </trkpt>
      <trkpt lat="45.13608" lon="-72.57683">
        <ele>241.56</ele>
      </trkpt>
      <trkpt lat="45.1358" lon="-72.57666">
        <ele>245.1</ele>
      </trkpt>
      <trkpt lat="45.1355" lon="-72.57657">
        <ele>248.76</ele>
      </trkpt>
      <trkpt lat="45.13464" lon="-72.5766">
        <ele>255.43</ele>
      </trkpt>
      <trkpt lat="45.13447" lon="-72.57661">
        <ele>255.91</ele>
      </trkpt>
      <trkpt lat="45.13435" lon="-72.57669">
        <ele>256.54</ele>
      </trkpt>
      <trkpt lat="45.1342" lon="-72.57683">
        <ele>257.2</ele>
      </trkpt>
      <trkpt lat="45.13361" lon="-72.57758">
        <ele>259.37</ele>
      </trkpt>
      <trkpt lat="45.13339" lon="-72.5779">
        <ele>259.67</ele>
      </trkpt>
      <trkpt lat="45.13332" lon="-72.57796">
        <ele>259.88</ele>
      </trkpt>
      <trkpt lat="45.13294" lon="-72.57809">
        <ele>261.62</ele>
      </trkpt>
      <trkpt lat="45.1327" lon="-72.57816">
        <ele>263.43</ele>
      </trkpt>
      <trkpt lat="45.13213" lon="-72.57819">
        <ele>267.83</ele>
      </trkpt>
      <trkpt lat="45.13156" lon="-72.57822">
        <ele>272.44</ele>
      </trkpt>
      <trkpt lat="45.13128" lon="-72.57836">
        <ele>273.36</ele>
      </trkpt>
      <trkpt lat="45.13118" lon="-72.57844">
        <ele>273.4</ele>
      </trkpt>
      <trkpt lat="45.13081" lon="-72.57889">
        <ele>272.82</ele>
      </trkpt>
      <trkpt lat="45.13036" lon="-72.57945">
        <ele>273.18</ele>
      </trkpt>
      <trkpt lat="45.12991" lon="-72.58001">
        <ele>276.34</ele>
      </trkpt>
      <trkpt lat="45.129525" lon="-72.580655">
        <ele>276.67</ele>
      </trkpt>
      <trkpt lat="45.12914" lon="-72.5813">
        <ele>275.28</ele>
      </trkpt>
      <trkpt lat="45.12865" lon="-72.58204">
        <ele>276.28</ele>
      </trkpt>
      <trkpt lat="45.12816" lon="-72.58278">
        <ele>275.9</ele>
      </trkpt>
      <trkpt lat="45.1278" lon="-72.583255">
        <ele>277.37</ele>
      </trkpt>
      <trkpt lat="45.12744" lon="-72.58373">
        <ele>276.6</ele>
      </trkpt>
      <trkpt lat="45.127035" lon="-72.584335">
        <ele>276.15</ele>
      </trkpt>
      <trkpt lat="45.12663" lon="-72.58494">
        <ele>275.25</ele>
      </trkpt>
      <trkpt lat="45.1263" lon="-72.5856">
        <ele>273.15</ele>
      </trkpt>
      <trkpt lat="45.12613" lon="-72.58627">
        <ele>270.72</ele>
      </trkpt>
      <trkpt lat="45.12589" lon="-72.586925">
        <ele>270.48</ele>
      </trkpt>
      <trkpt lat="45.12565" lon="-72.58758">
        <ele>271.52</ele>
      </trkpt>
      <trkpt lat="45.12549" lon="-72.58794">
        <ele>272.13</ele>
      </trkpt>
      <trkpt lat="45.12495" lon="-72.58868">
        <ele>268.36</ele>
      </trkpt>
      <trkpt lat="45.12441" lon="-72.58942">
        <ele>268.38</ele>
      </trkpt>
      <trkpt lat="45.12415" lon="-72.58989">
        <ele>269.1</ele>
      </trkpt>
      <trkpt lat="45.123825" lon="-72.59043">
        <ele>266.21</ele>
      </trkpt>
      <trkpt lat="45.1235" lon="-72.59097">
        <ele>264.72</ele>
      </trkpt>
      <trkpt lat="45.12302" lon="-72.59169">
        <ele>264.99</ele>
      </trkpt>
      <trkpt lat="45.12272" lon="-72.59218">
        <ele>264.05</ele>
      </trkpt>
      <trkpt lat="45.12238" lon="-72.59263">
        <ele>263.77</ele>
      </trkpt>
      <trkpt lat="45.121805" lon="-72.59355">
        <ele>263.32</ele>
      </trkpt>
      <trkpt lat="45.12123" lon="-72.59447">
        <ele>259.41</ele>
      </trkpt>
      <trkpt lat="45.12091" lon="-72.59513">
        <ele>257.67</ele>
      </trkpt>
      <trkpt lat="45.12075" lon="-72.59547">
        <ele>256.04</ele>
      </trkpt>
      <trkpt lat="45.12037" lon="-72.59655">
        <ele>249.09</ele>
      </trkpt>
      <trkpt lat="45.12036" lon="-72.59657">
        <ele>249.03</ele>
      </trkpt>
      <trkpt lat="45.12003" lon="-72.59744">
        <ele>245.78</ele>
      </trkpt>
      <trkpt lat="45.1197" lon="-72.59831">
        <ele>241.09</ele>
      </trkpt>
      <trkpt lat="45.11937" lon="-72.59918">
        <ele>237.77</ele>
      </trkpt>
      <trkpt lat="45.11913" lon="-72.59971">
        <ele>237.03</ele>
      </trkpt>
      <trkpt lat="45.11875" lon="-72.60034">
        <ele>235.6</ele>
      </trkpt>
      <trkpt lat="45.11837" lon="-72.60097">
        <ele>234.48</ele>
      </trkpt>
      <trkpt lat="45.11802" lon="-72.60145">
        <ele>233.16</ele>
      </trkpt>
      <trkpt lat="45.11764" lon="-72.601885">
        <ele>232.62</ele>
      </trkpt>
      <trkpt lat="45.11726" lon="-72.60232">
        <ele>232.9</ele>
      </trkpt>
      <trkpt lat="45.11691" lon="-72.60267">
        <ele>232.67</ele>
      </trkpt>
      <trkpt lat="45.11662" lon="-72.60294">
        <ele>232.03</ele>
      </trkpt>
      <trkpt lat="45.11605" lon="-72.60337">
        <ele>228.14</ele>
      </trkpt>
      <trkpt lat="45.115435" lon="-72.603775">
        <ele>226.6</ele>
      </trkpt>
      <trkpt lat="45.11482" lon="-72.60418">
        <ele>224.88</ele>
      </trkpt>
      <trkpt lat="45.11462" lon="-72.60436">
        <ele>222.07</ele>
      </trkpt>
      <trkpt lat="45.11443" lon="-72.60455">
        <ele>219.44</ele>
      </trkpt>
      <trkpt lat="45.11418" lon="-72.60494">
        <ele>215.67</ele>
      </trkpt>
      <trkpt lat="45.11381" lon="-72.60567">
        <ele>213.93</ele>
      </trkpt>
      <trkpt lat="45.11344" lon="-72.6064">
        <ele>215.55</ele>
      </trkpt>
      <trkpt lat="45.11322" lon="-72.60681">
        <ele>216.18</ele>
      </trkpt>
      <trkpt lat="45.112875" lon="-72.60736">
        <ele>216.5</ele>
      </trkpt>
      <trkpt lat="45.11253" lon="-72.60791">
        <ele>213.24</ele>
      </trkpt>
      <trkpt lat="45.1121533" lon="-72.60864">
        <ele>205.38</ele>
      </trkpt>
      <trkpt lat="45.1117767" lon="-72.60937">
        <ele>196.95</ele>
      </trkpt>
      <trkpt lat="45.1114" lon="-72.6101">
        <ele>192.63</ele>
      </trkpt>
      <trkpt lat="45.11099" lon="-72.61094">
        <ele>186.68</ele>
      </trkpt>
      <trkpt lat="45.11058" lon="-72.61178">
        <ele>181.2</ele>
      </trkpt>
      <trkpt lat="45.11017" lon="-72.61262">
        <ele>180.63</ele>
      </trkpt>
      <trkpt lat="45.10976" lon="-72.61346">
        <ele>180.34</ele>
      </trkpt>
      <trkpt lat="45.10935" lon="-72.6143">
        <ele>180.82</ele>
      </trkpt>
      <trkpt lat="45.10976" lon="-72.61435">
        <ele>179.36</ele>
      </trkpt>
      <trkpt lat="45.11026" lon="-72.61438">
        <ele>178.37</ele>
      </trkpt>
      <trkpt lat="45.1104" lon="-72.61434">
        <ele>178.36</ele>
      </trkpt>
      <trkpt lat="45.11063" lon="-72.61432">
        <ele>178.18</ele>
      </trkpt>
      <trkpt lat="45.11137" lon="-72.61421">
        <ele>177.53</ele>
      </trkpt>
      <trkpt lat="45.11211" lon="-72.6141">
        <ele>177.42</ele>
      </trkpt>
      <trkpt lat="45.11285" lon="-72.61399">
        <ele>177.68</ele>
      </trkpt>
      <trkpt lat="45.11359" lon="-72.61388">
        <ele>177.72</ele>
      </trkpt>
      <trkpt lat="45.11359" lon="-72.61388">
        <ele>177.72</ele>
      </trkpt>
      <trkpt lat="45.11285" lon="-72.61399">
        <ele>177.68</ele>
      </trkpt>
      <trkpt lat="45.11211" lon="-72.6141">
        <ele>177.43</ele>
      </trkpt>
      <trkpt lat="45.11137" lon="-72.61421">
        <ele>177.53</ele>
      </trkpt>
      <trkpt lat="45.11063" lon="-72.61432">
        <ele>178.18</ele>
      </trkpt>
      <trkpt lat="45.1104" lon="-72.61434">
        <ele>178.36</ele>
      </trkpt>
      <trkpt lat="45.11026" lon="-72.61438">
        <ele>178.4</ele>
      </trkpt>
      <trkpt lat="45.10976" lon="-72.61435">
        <ele>179.36</ele>
      </trkpt>
      <trkpt lat="45.10935" lon="-72.6143">
        <ele>180.82</ele>
      </trkpt>
      <trkpt lat="45.108895" lon="-72.615385">
        <ele>180.52</ele>
      </trkpt>
      <trkpt lat="45.10844" lon="-72.61647">
        <ele>179.67</ele>
      </trkpt>
      <trkpt lat="45.107625" lon="-72.615975">
        <ele>180.98</ele>
      </trkpt>
      <trkpt lat="45.10681" lon="-72.61548">
        <ele>181.75</ele>
      </trkpt>
      <trkpt lat="45.10639" lon="-72.61525">
        <ele>181.36</ele>
      </trkpt>
      <trkpt lat="45.10606" lon="-72.61511">
        <ele>180.86</ele>
      </trkpt>
      <trkpt lat="45.10592" lon="-72.61507">
        <ele>180.6</ele>
      </trkpt>
      <trkpt lat="45.1054" lon="-72.61509">
        <ele>179.24</ele>
      </trkpt>
      <trkpt lat="45.10531" lon="-72.6151">
        <ele>179.24</ele>
      </trkpt>
      <trkpt lat="45.10517" lon="-72.61516">
        <ele>178.8</ele>
      </trkpt>
      <trkpt lat="45.10512" lon="-72.6152">
        <ele>178.8</ele>
      </trkpt>
      <trkpt lat="45.10485" lon="-72.61538">
        <ele>177.97</ele>
      </trkpt>
      <trkpt lat="45.1047" lon="-72.61556">
        <ele>177.58</ele>
      </trkpt>
      <trkpt lat="45.10435" lon="-72.616055">
        <ele>176.86</ele>
      </trkpt>
      <trkpt lat="45.104" lon="-72.61655">
        <ele>175.29</ele>
      </trkpt>
      <trkpt lat="45.1034033" lon="-72.6174567">
        <ele>173.98</ele>
      </trkpt>
      <trkpt lat="45.1028067" lon="-72.6183634">
        <ele>172.4</ele>
      </trkpt>
      <trkpt lat="45.10221" lon="-72.61927">
        <ele>170.74</ele>
      </trkpt>
      <trkpt lat="45.10185" lon="-72.61976">
        <ele>169.86</ele>
      </trkpt>
      <trkpt lat="45.10148" lon="-72.62017">
        <ele>169.21</ele>
      </trkpt>
      <trkpt lat="45.101025" lon="-72.62057">
        <ele>168.81</ele>
      </trkpt>
      <trkpt lat="45.10057" lon="-72.62097">
        <ele>168.15</ele>
      </trkpt>
      <trkpt lat="45.09999" lon="-72.62143">
        <ele>167.83</ele>
      </trkpt>
      <trkpt lat="45.0993133" lon="-72.62199">
        <ele>166.65</ele>
      </trkpt>
      <trkpt lat="45.0986367" lon="-72.62255">
        <ele>166.9</ele>
      </trkpt>
      <trkpt lat="45.09796" lon="-72.62311">
        <ele>167.89</ele>
      </trkpt>
      <trkpt lat="45.097335" lon="-72.623545">
        <ele>166.87</ele>
      </trkpt>
      <trkpt lat="45.09671" lon="-72.62398">
        <ele>164.93</ele>
      </trkpt>
      <trkpt lat="45.0959867" lon="-72.62444">
        <ele>164.04</ele>
      </trkpt>
      <trkpt lat="45.0952633" lon="-72.6249">
        <ele>163.01</ele>
      </trkpt>
      <trkpt lat="45.09454" lon="-72.62536">
        <ele>162.82</ele>
      </trkpt>
      <trkpt lat="45.09405" lon="-72.62559">
        <ele>162.78</ele>
      </trkpt>
      <trkpt lat="45.09373" lon="-72.62568">
        <ele>162.23</ele>
      </trkpt>
      <trkpt lat="45.09291" lon="-72.62584">
        <ele>162.45</ele>
      </trkpt>
      <trkpt lat="45.09209" lon="-72.626">
        <ele>162.79</ele>
      </trkpt>
      <trkpt lat="45.091405" lon="-72.626155">
        <ele>162.66</ele>
      </trkpt>
      <trkpt lat="45.09072" lon="-72.62631">
        <ele>162.61</ele>
      </trkpt>
      <trkpt lat="45.09065" lon="-72.62666">
        <ele>161.48</ele>
      </trkpt>
      <trkpt lat="45.09052" lon="-72.62759">
        <ele>160.8</ele>
      </trkpt>
      <trkpt lat="45.09039" lon="-72.62852">
        <ele>161.61</ele>
      </trkpt>
      <trkpt lat="45.09028" lon="-72.629185">
        <ele>163.18</ele>
      </trkpt>
      <trkpt lat="45.09017" lon="-72.62985">
        <ele>164.67</ele>
      </trkpt>
      <trkpt lat="45.09017" lon="-72.62986">
        <ele>164.67</ele>
      </trkpt>
      <trkpt lat="45.089985" lon="-72.63104">
        <ele>167.93</ele>
      </trkpt>
      <trkpt lat="45.0898" lon="-72.63222">
        <ele>168.89</ele>
      </trkpt>
      <trkpt lat="45.089715" lon="-72.632915">
        <ele>169.23</ele>
      </trkpt>
      <trkpt lat="45.08963" lon="-72.63361">
        <ele>169.99</ele>
      </trkpt>
      <trkpt lat="45.089555" lon="-72.634345">
        <ele>172.41</ele>
      </trkpt>
      <trkpt lat="45.08948" lon="-72.63508">
        <ele>176.26</ele>
      </trkpt>
      <trkpt lat="45.089415" lon="-72.636085">
        <ele>179.74</ele>
      </trkpt>
      <trkpt lat="45.08935" lon="-72.63709">
        <ele>180.89</ele>
      </trkpt>
      <trkpt lat="45.089335" lon="-72.63803">
        <ele>181.11</ele>
      </trkpt>
      <trkpt lat="45.08932" lon="-72.63897">
        <ele>179.16</ele>
      </trkpt>
      <trkpt lat="45.08927" lon="-72.64023">
        <ele>181.22</ele>
      </trkpt>
      <trkpt lat="45.08927" lon="-72.6415025">
        <ele>183.75</ele>
      </trkpt>
      <trkpt lat="45.08927" lon="-72.642775">
        <ele>191.89</ele>
      </trkpt>
      <trkpt lat="45.08927" lon="-72.6440475">
        <ele>198.91</ele>
      </trkpt>
      <trkpt lat="45.08927" lon="-72.64532">
        <ele>208.37</ele>
      </trkpt>
      <trkpt lat="45.0893" lon="-72.64568">
        <ele>209.92</ele>
      </trkpt>
      <trkpt lat="45.08942" lon="-72.64635">
        <ele>211.15</ele>
      </trkpt>
      <trkpt lat="45.089685" lon="-72.647225">
        <ele>207.44</ele>
      </trkpt>
      <trkpt lat="45.08995" lon="-72.6481">
        <ele>198.31</ele>
      </trkpt>
      <trkpt lat="45.09011" lon="-72.64874">
        <ele>198.06</ele>
      </trkpt>
      <trkpt lat="45.09014" lon="-72.64939">
        <ele>202.11</ele>
      </trkpt>
      <trkpt lat="45.09014" lon="-72.650635">
        <ele>202.98</ele>
      </trkpt>
      <trkpt lat="45.09014" lon="-72.65188">
        <ele>192.37</ele>
      </trkpt>
      <trkpt lat="45.09014" lon="-72.653125">
        <ele>177.13</ele>
      </trkpt>
      <trkpt lat="45.09014" lon="-72.65437">
        <ele>166.56</ele>
      </trkpt>
      <trkpt lat="45.09007" lon="-72.655">
        <ele>158.67</ele>
      </trkpt>
      <trkpt lat="45.0899067" lon="-72.6558667">
        <ele>154.04</ele>
      </trkpt>
      <trkpt lat="45.0897433" lon="-72.6567333">
        <ele>158.68</ele>
      </trkpt>
      <trkpt lat="45.08958" lon="-72.6576">
        <ele>161.92</ele>
      </trkpt>
      <trkpt lat="45.09015" lon="-72.65778">
        <ele>158.3</ele>
      </trkpt>
      <trkpt lat="45.090945" lon="-72.658095">
        <ele>157.48</ele>
      </trkpt>
      <trkpt lat="45.09174" lon="-72.65841">
        <ele>159.83</ele>
      </trkpt>
      <trkpt lat="45.092535" lon="-72.658725">
        <ele>163.13</ele>
      </trkpt>
      <trkpt lat="45.09333" lon="-72.65904">
        <ele>166.1</ele>
      </trkpt>
      <trkpt lat="45.0939" lon="-72.65925">
        <ele>168.74</ele>
      </trkpt>
      <trkpt lat="45.09476" lon="-72.65952">
        <ele>174.11</ele>
      </trkpt>
      <trkpt lat="45.09561" lon="-72.65968">
        <ele>178.8</ele>
      </trkpt>
      <trkpt lat="45.09646" lon="-72.65984">
        <ele>183.1</ele>
      </trkpt>
      <trkpt lat="45.0972" lon="-72.66006">
        <ele>183.1</ele>
      </trkpt>
      <trkpt lat="45.09776" lon="-72.66019">
        <ele>183.82</ele>
      </trkpt>
      <trkpt lat="45.0985867" lon="-72.6603067">
        <ele>186.3</ele>
      </trkpt>
      <trkpt lat="45.0994133" lon="-72.6604233">
        <ele>189.35</ele>
      </trkpt>
      <trkpt lat="45.10024" lon="-72.66054">
        <ele>189.87</ele>
      </trkpt>
      <trkpt lat="45.10025" lon="-72.66054">
        <ele>189.87</ele>
      </trkpt>
      <trkpt lat="45.1009" lon="-72.66064">
        <ele>189.83</ele>
      </trkpt>
      <trkpt lat="45.10132" lon="-72.66073">
        <ele>187.92</ele>
      </trkpt>
      <trkpt lat="45.10172" lon="-72.66091">
        <ele>185.6</ele>
      </trkpt>
      <trkpt lat="45.102275" lon="-72.66127">
        <ele>183.7</ele>
      </trkpt>
      <trkpt lat="45.10283" lon="-72.66163">
        <ele>181.5</ele>
      </trkpt>
      <trkpt lat="45.10323" lon="-72.66192">
        <ele>180.7</ele>
      </trkpt>
      <trkpt lat="45.10363" lon="-72.66221">
        <ele>181.12</ele>
      </trkpt>
      <trkpt lat="45.10441" lon="-72.66279">
        <ele>180.05</ele>
      </trkpt>
      <trkpt lat="45.10518" lon="-72.66341">
        <ele>178.8</ele>
      </trkpt>
      <trkpt lat="45.10561" lon="-72.66368">
        <ele>177.23</ele>
      </trkpt>
      <trkpt lat="45.10603" lon="-72.66381">
        <ele>176.52</ele>
      </trkpt>
      <trkpt lat="45.10634" lon="-72.66382">
        <ele>176.57</ele>
      </trkpt>
      <trkpt lat="45.10699" lon="-72.66377">
        <ele>177.78</ele>
      </trkpt>
      <trkpt lat="45.1071" lon="-72.66377">
        <ele>177.86</ele>
      </trkpt>
      <trkpt lat="45.10732" lon="-72.66391">
        <ele>177.77</ele>
      </trkpt>
      <trkpt lat="45.10787" lon="-72.6643867">
        <ele>178.79</ele>
      </trkpt>
      <trkpt lat="45.10842" lon="-72.6648633">
        <ele>180.66</ele>
      </trkpt>
      <trkpt lat="45.10897" lon="-72.66534">
        <ele>181.13</ele>
      </trkpt>
      <trkpt lat="45.109525" lon="-72.665875">
        <ele>180.88</ele>
      </trkpt>
      <trkpt lat="45.11008" lon="-72.66641">
        <ele>180.27</ele>
      </trkpt>
      <trkpt lat="45.110765" lon="-72.667105">
        <ele>178.6</ele>
      </trkpt>
      <trkpt lat="45.11145" lon="-72.6678">
        <ele>179.81</ele>
      </trkpt>
      <trkpt lat="45.11168" lon="-72.66797">
        <ele>180.88</ele>
      </trkpt>
      <trkpt lat="45.11236" lon="-72.668535">
        <ele>182.37</ele>
      </trkpt>
      <trkpt lat="45.11304" lon="-72.6691">
        <ele>185.18</ele>
      </trkpt>
      <trkpt lat="45.11372" lon="-72.669665">
        <ele>189.3</ele>
      </trkpt>
      <trkpt lat="45.1144" lon="-72.67023">
        <ele>187.91</ele>
      </trkpt>
      <trkpt lat="45.1146" lon="-72.67031">
        <ele>189.27</ele>
      </trkpt>
      <trkpt lat="45.11481" lon="-72.67035">
        <ele>191.12</ele>
      </trkpt>
      <trkpt lat="45.11514" lon="-72.67035">
        <ele>194.94</ele>
      </trkpt>
      <trkpt lat="45.11527" lon="-72.67032">
        <ele>195.99</ele>
      </trkpt>
      <trkpt lat="45.11539" lon="-72.6703">
        <ele>198.16</ele>
      </trkpt>
      <trkpt lat="45.11565" lon="-72.67018">
        <ele>200.18</ele>
      </trkpt>
      <trkpt lat="45.11591" lon="-72.67">
        <ele>203.04</ele>
      </trkpt>
      <trkpt lat="45.11644" lon="-72.66951">
        <ele>210.57</ele>
      </trkpt>
      <trkpt lat="45.11697" lon="-72.66902">
        <ele>216.54</ele>
      </trkpt>
      <trkpt lat="45.117395" lon="-72.66861">
        <ele>220.9</ele>
      </trkpt>
      <trkpt lat="45.11782" lon="-72.6682">
        <ele>223.78</ele>
      </trkpt>
      <trkpt lat="45.11823" lon="-72.66785">
        <ele>226.52</ele>
      </trkpt>
      <trkpt lat="45.11864" lon="-72.6675">
        <ele>229.13</ele>
      </trkpt>
      <trkpt lat="45.11901" lon="-72.66726">
        <ele>229.43</ele>
      </trkpt>
      <trkpt lat="45.11936" lon="-72.66694">
        <ele>228.6</ele>
      </trkpt>
      <trkpt lat="45.11941" lon="-72.66753">
        <ele>231.62</ele>
      </trkpt>
      <trkpt lat="45.1194" lon="-72.66806">
        <ele>237.28</ele>
      </trkpt>
      <trkpt lat="45.11926" lon="-72.66928">
        <ele>240.44</ele>
      </trkpt>
      <trkpt lat="45.11926" lon="-72.66941">
        <ele>240.44</ele>
      </trkpt>
      <trkpt lat="45.1193" lon="-72.66968">
        <ele>238.7</ele>
      </trkpt>
      <trkpt lat="45.11939" lon="-72.67">
        <ele>237.01</ele>
      </trkpt>
      <trkpt lat="45.11948" lon="-72.67022">
        <ele>236.22</ele>
      </trkpt>
      <trkpt lat="45.11992" lon="-72.67103">
        <ele>229.22</ele>
      </trkpt>
      <trkpt lat="45.120235" lon="-72.67166">
        <ele>226.81</ele>
      </trkpt>
      <trkpt lat="45.12055" lon="-72.67229">
        <ele>225.39</ele>
      </trkpt>
      <trkpt lat="45.12072" lon="-72.67259">
        <ele>223.92</ele>
      </trkpt>
      <trkpt lat="45.1212" lon="-72.67327">
        <ele>220.46</ele>
      </trkpt>
      <trkpt lat="45.12148" lon="-72.67371">
        <ele>216.56</ele>
      </trkpt>
      <trkpt lat="45.1217" lon="-72.67411">
        <ele>212.4</ele>
      </trkpt>
      <trkpt lat="45.122275" lon="-72.67474">
        <ele>209.02</ele>
      </trkpt>
      <trkpt lat="45.12285" lon="-72.67537">
        <ele>208.42</ele>
      </trkpt>
      <trkpt lat="45.123405" lon="-72.67592">
        <ele>209.4</ele>
      </trkpt>
      <trkpt lat="45.12396" lon="-72.67647">
        <ele>208.21</ele>
      </trkpt>
      <trkpt lat="45.12451" lon="-72.67706">
        <ele>203.52</ele>
      </trkpt>
      <trkpt lat="45.12518" lon="-72.67783">
        <ele>195.99</ele>
      </trkpt>
      <trkpt lat="45.12581" lon="-72.678505">
        <ele>194.42</ele>
      </trkpt>
      <trkpt lat="45.12644" lon="-72.67918">
        <ele>196.12</ele>
      </trkpt>
      <trkpt lat="45.12689" lon="-72.67994">
        <ele>199.65</ele>
      </trkpt>
      <trkpt lat="45.1274233" lon="-72.6809533">
        <ele>205.86</ele>
      </trkpt>
      <trkpt lat="45.1279567" lon="-72.6819666">
        <ele>210.84</ele>
      </trkpt>
      <trkpt lat="45.12849" lon="-72.68298">
        <ele>220.13</ele>
      </trkpt>
      <trkpt lat="45.12862" lon="-72.68334">
        <ele>221.47</ele>
      </trkpt>
      <trkpt lat="45.12866" lon="-72.68353">
        <ele>221.03</ele>
      </trkpt>
      <trkpt lat="45.12866" lon="-72.68405">
        <ele>216.84</ele>
      </trkpt>
      <trkpt lat="45.12873" lon="-72.68509">
        <ele>212.99</ele>
      </trkpt>
      <trkpt lat="45.128855" lon="-72.686275">
        <ele>212.08</ele>
      </trkpt>
      <trkpt lat="45.12898" lon="-72.68746">
        <ele>209.8</ele>
      </trkpt>
      <trkpt lat="45.12913" lon="-72.68822">
        <ele>209.42</ele>
      </trkpt>
      <trkpt lat="45.1292" lon="-72.6884">
        <ele>209.59</ele>
      </trkpt>
      <trkpt lat="45.12935" lon="-72.68867">
        <ele>210.25</ele>
      </trkpt>
      <trkpt lat="45.12981" lon="-72.68929">
        <ele>214.77</ele>
      </trkpt>
      <trkpt lat="45.12994" lon="-72.68939">
        <ele>215.47</ele>
      </trkpt>
      <trkpt lat="45.13016" lon="-72.68952">
        <ele>217.41</ele>
      </trkpt>
      <trkpt lat="45.13031" lon="-72.68957">
        <ele>218.25</ele>
      </trkpt>
      <trkpt lat="45.13048" lon="-72.68961">
        <ele>218.25</ele>
      </trkpt>
      <trkpt lat="45.131255" lon="-72.68963">
        <ele>228.47</ele>
      </trkpt>
      <trkpt lat="45.13203" lon="-72.68965">
        <ele>231.56</ele>
      </trkpt>
      <trkpt lat="45.132605" lon="-72.68954">
        <ele>228.94</ele>
      </trkpt>
      <trkpt lat="45.13318" lon="-72.68943">
        <ele>227.04</ele>
      </trkpt>
      <trkpt lat="45.13377" lon="-72.68938">
        <ele>224.39</ele>
      </trkpt>
      <trkpt lat="45.13392" lon="-72.68938">
        <ele>223.1</ele>
      </trkpt>
      <trkpt lat="45.13406" lon="-72.68943">
        <ele>221.26</ele>
      </trkpt>
      <trkpt lat="45.13444" lon="-72.6897">
        <ele>219.16</ele>
      </trkpt>
      <trkpt lat="45.13489" lon="-72.69009">
        <ele>216.88</ele>
      </trkpt>
      <trkpt lat="45.13488" lon="-72.69009">
        <ele>216.88</ele>
      </trkpt>
      <trkpt lat="45.13551" lon="-72.69064">
        <ele>216.03</ele>
      </trkpt>
      <trkpt lat="45.1361533" lon="-72.6910567">
        <ele>210.9</ele>
      </trkpt>
      <trkpt lat="45.1367967" lon="-72.6914733">
        <ele>202.64</ele>
      </trkpt>
      <trkpt lat="45.13744" lon="-72.69189">
        <ele>195.18</ele>
      </trkpt>
      <trkpt lat="45.13765" lon="-72.69199">
        <ele>192.42</ele>
      </trkpt>
      <trkpt lat="45.13794" lon="-72.69208">
        <ele>191.73</ele>
      </trkpt>
      <trkpt lat="45.13815" lon="-72.69211">
        <ele>192.66</ele>
      </trkpt>
      <trkpt lat="45.13886" lon="-72.69204">
        <ele>200.5</ele>
      </trkpt>
      <trkpt lat="45.13921" lon="-72.69139">
        <ele>204.71</ele>
      </trkpt>
      <trkpt lat="45.13945" lon="-72.69081">
        <ele>209.09</ele>
      </trkpt>
      <trkpt lat="45.13969" lon="-72.69023">
        <ele>211.28</ele>
      </trkpt>
      <trkpt lat="45.13999" lon="-72.68934">
        <ele>216.52</ele>
      </trkpt>
      <trkpt lat="45.140235" lon="-72.688665">
        <ele>219.96</ele>
      </trkpt>
      <trkpt lat="45.14048" lon="-72.68799">
        <ele>223.7</ele>
      </trkpt>
      <trkpt lat="45.14064" lon="-72.68764">
        <ele>226.47</ele>
      </trkpt>
      <trkpt lat="45.14078" lon="-72.68741">
        <ele>227.3</ele>
      </trkpt>
      <trkpt lat="45.14137" lon="-72.68661">
        <ele>228.92</ele>
      </trkpt>
      <trkpt lat="45.14182" lon="-72.68593">
        <ele>234.11</ele>
      </trkpt>
      <trkpt lat="45.14215" lon="-72.68553">
        <ele>236.1</ele>
      </trkpt>
      <trkpt lat="45.142775" lon="-72.6849">
        <ele>237.34</ele>
      </trkpt>
      <trkpt lat="45.1434" lon="-72.68427">
        <ele>236.82</ele>
      </trkpt>
      <trkpt lat="45.14376" lon="-72.68396">
        <ele>237.82</ele>
      </trkpt>
      <trkpt lat="45.14426" lon="-72.68359">
        <ele>238.2</ele>
      </trkpt>
      <trkpt lat="45.1444967" lon="-72.68449">
        <ele>234.42</ele>
      </trkpt>
      <trkpt lat="45.1447333" lon="-72.68539">
        <ele>232.36</ele>
      </trkpt>
      <trkpt lat="45.14497" lon="-72.68629">
        <ele>229.83</ele>
      </trkpt>
      <trkpt lat="45.1452" lon="-72.68703">
        <ele>225.37</ele>
      </trkpt>
      <trkpt lat="45.14543" lon="-72.68777">
        <ele>223.87</ele>
      </trkpt>
      <trkpt lat="45.1457375" lon="-72.68871">
        <ele>222.47</ele>
      </trkpt>
      <trkpt lat="45.146045" lon="-72.68965">
        <ele>220.32</ele>
      </trkpt>
      <trkpt lat="45.1463525" lon="-72.69059">
        <ele>216.75</ele>
      </trkpt>
      <trkpt lat="45.14666" lon="-72.69153">
        <ele>211.58</ele>
      </trkpt>
      <trkpt lat="45.1475267" lon="-72.6914745">
        <ele>199.62</ele>
      </trkpt>
      <trkpt lat="45.1483933" lon="-72.6914189">
        <ele>191.54</ele>
      </trkpt>
      <trkpt lat="45.14926" lon="-72.6913634">
        <ele>188.55</ele>
      </trkpt>
      <trkpt lat="45.1501267" lon="-72.6913078">
        <ele>189.08</ele>
      </trkpt>
      <trkpt lat="45.1509933" lon="-72.6912523">
        <ele>194.82</ele>
      </trkpt>
      <trkpt lat="45.15186" lon="-72.6911967">
        <ele>197.63</ele>
      </trkpt>
      <trkpt lat="45.1527267" lon="-72.6911412">
        <ele>195.79</ele>
      </trkpt>
      <trkpt lat="45.1535933" lon="-72.6910856">
        <ele>192.56</ele>
      </trkpt>
      <trkpt lat="45.15446" lon="-72.6910301">
        <ele>191.75</ele>
      </trkpt>
      <trkpt lat="45.1553267" lon="-72.6909745">
        <ele>191.61</ele>
      </trkpt>
      <trkpt lat="45.1561933" lon="-72.690919">
        <ele>191.34</ele>
      </trkpt>
      <trkpt lat="45.15706" lon="-72.6908634">
        <ele>190.96</ele>
      </trkpt>
      <trkpt lat="45.1579267" lon="-72.6908078">
        <ele>193.53</ele>
      </trkpt>
      <trkpt lat="45.1587933" lon="-72.6907523">
        <ele>198.82</ele>
      </trkpt>
      <trkpt lat="45.15966" lon="-72.6906967">
        <ele>202.93</ele>
      </trkpt>
      <trkpt lat="45.1605267" lon="-72.6906411">
        <ele>208.48</ele>
      </trkpt>
      <trkpt lat="45.1613933" lon="-72.6905856">
        <ele>213.94</ele>
      </trkpt>
      <trkpt lat="45.16226" lon="-72.69053">
        <ele>216.78</ele>
      </trkpt>
      <trkpt lat="45.163125" lon="-72.69045">
        <ele>216.12</ele>
      </trkpt>
      <trkpt lat="45.16399" lon="-72.69037">
        <ele>213.68</ele>
      </trkpt>
      <trkpt lat="45.16439" lon="-72.69029">
        <ele>211.96</ele>
      </trkpt>
      <trkpt lat="45.16521" lon="-72.69023">
        <ele>207.7</ele>
      </trkpt>
      <trkpt lat="45.16603" lon="-72.69017">
        <ele>206.4</ele>
      </trkpt>
      <trkpt lat="45.1667833" lon="-72.69012">
        <ele>201.52</ele>
      </trkpt>
      <trkpt lat="45.1675367" lon="-72.69007">
        <ele>197.39</ele>
      </trkpt>
      <trkpt lat="45.16829" lon="-72.69002">
        <ele>189.02</ele>
      </trkpt>
      <trkpt lat="45.16828" lon="-72.69002">
        <ele>189.16</ele>
      </trkpt>
      <trkpt lat="45.16907" lon="-72.6899833">
        <ele>181.45</ele>
      </trkpt>
      <trkpt lat="45.16986" lon="-72.6899467">
        <ele>176.13</ele>
      </trkpt>
      <trkpt lat="45.17065" lon="-72.68991">
        <ele>172.16</ele>
      </trkpt>
      <trkpt lat="45.171395" lon="-72.6898575">
        <ele>167.82</ele>
      </trkpt>
      <trkpt lat="45.17214" lon="-72.689805">
        <ele>161.97</ele>
      </trkpt>
      <trkpt lat="45.172885" lon="-72.6897525">
        <ele>155.69</ele>
      </trkpt>
      <trkpt lat="45.17363" lon="-72.6897">
        <ele>147.39</ele>
      </trkpt>
      <trkpt lat="45.17426" lon="-72.689615">
        <ele>144.29</ele>
      </trkpt>
      <trkpt lat="45.17489" lon="-72.68953">
        <ele>144.16</ele>
      </trkpt>
      <trkpt lat="45.17484" lon="-72.68929">
        <ele>143.71</ele>
      </trkpt>
      <trkpt lat="45.17476" lon="-72.68819">
        <ele>142.25</ele>
      </trkpt>
      <trkpt lat="45.17468" lon="-72.68709">
        <ele>139.94</ele>
      </trkpt>
      <trkpt lat="45.174575" lon="-72.685975">
        <ele>138.22</ele>
      </trkpt>
      <trkpt lat="45.17447" lon="-72.68486">
        <ele>137.44</ele>
      </trkpt>
      <trkpt lat="45.17441" lon="-72.68378">
        <ele>137.09</ele>
      </trkpt>
      <trkpt lat="45.17435" lon="-72.6827">
        <ele>136.06</ele>
      </trkpt>
      <trkpt lat="45.17427" lon="-72.68197">
        <ele>134.68</ele>
      </trkpt>
      <trkpt lat="45.17419" lon="-72.68124">
        <ele>133.57</ele>
      </trkpt>
      <trkpt lat="45.17403" lon="-72.6802">
        <ele>133.58</ele>
      </trkpt>
      <trkpt lat="45.17394" lon="-72.67923">
        <ele>135.74</ele>
      </trkpt>
      <trkpt lat="45.17389" lon="-72.6781833">
        <ele>141.21</ele>
      </trkpt>
      <trkpt lat="45.17384" lon="-72.6771367">
        <ele>137.95</ele>
      </trkpt>
      <trkpt lat="45.17379" lon="-72.67609">
        <ele>134.86</ele>
      </trkpt>
      <trkpt lat="45.17371" lon="-72.67541">
        <ele>135.92</ele>
      </trkpt>
      <trkpt lat="45.1736417" lon="-72.6743517">
        <ele>138.54</ele>
      </trkpt>
      <trkpt lat="45.1735734" lon="-72.6732933">
        <ele>140.42</ele>
      </trkpt>
      <trkpt lat="45.173505" lon="-72.672235">
        <ele>140.86</ele>
      </trkpt>
      <trkpt lat="45.1734367" lon="-72.6711767">
        <ele>143.01</ele>
      </trkpt>
      <trkpt lat="45.1733684" lon="-72.6701183">
        <ele>146.74</ele>
      </trkpt>
      <trkpt lat="45.1733" lon="-72.66906">
        <ele>148.79</ele>
      </trkpt>
      <trkpt lat="45.17328" lon="-72.668075">
        <ele>149.16</ele>
      </trkpt>
      <trkpt lat="45.17326" lon="-72.66709">
        <ele>149.58</ele>
      </trkpt>
      <trkpt lat="45.17329" lon="-72.66683">
        <ele>148.89</ele>
      </trkpt>
      <trkpt lat="45.17335" lon="-72.66665">
        <ele>148.48</ele>
      </trkpt>
      <trkpt lat="45.17346" lon="-72.66646">
        <ele>147.51</ele>
      </trkpt>
      <trkpt lat="45.17346" lon="-72.66647">
        <ele>147.57</ele>
      </trkpt>
      <trkpt lat="45.1740267" lon="-72.6655267">
        <ele>142.88</ele>
      </trkpt>
      <trkpt lat="45.1745933" lon="-72.6645834">
        <ele>138.72</ele>
      </trkpt>
      <trkpt lat="45.17516" lon="-72.66364">
        <ele>130.31</ele>
      </trkpt>
      <trkpt lat="45.17571" lon="-72.66278">
        <ele>127.26</ele>
      </trkpt>
      <trkpt lat="45.17605" lon="-72.66212">
        <ele>128.01</ele>
      </trkpt>
      <trkpt lat="45.17661" lon="-72.66224">
        <ele>127.01</ele>
      </trkpt>
      <trkpt lat="45.17717" lon="-72.66236">
        <ele>127.43</ele>
      </trkpt>
      <trkpt lat="45.17804" lon="-72.66252">
        <ele>127.34</ele>
      </trkpt>
      <trkpt lat="45.17849" lon="-72.66198">
        <ele>125.75</ele>
      </trkpt>
      <trkpt lat="45.17894" lon="-72.66132">
        <ele>127.76</ele>
      </trkpt>
      <trkpt lat="45.17905" lon="-72.66113">
        <ele>129.36</ele>
      </trkpt>
      <trkpt lat="45.17921" lon="-72.66055">
        <ele>133.41</ele>
      </trkpt>
      <trkpt lat="45.17927" lon="-72.65988">
        <ele>133.76</ele>
      </trkpt>
      <trkpt lat="45.1792675" lon="-72.6588175">
        <ele>134.1</ele>
      </trkpt>
      <trkpt lat="45.179265" lon="-72.657755">
        <ele>135.51</ele>
      </trkpt>
      <trkpt lat="45.1792625" lon="-72.6566925">
        <ele>139.99</ele>
      </trkpt>
      <trkpt lat="45.17926" lon="-72.65563">
        <ele>144.83</ele>
      </trkpt>
      <trkpt lat="45.17929" lon="-72.655">
        <ele>147.12</ele>
      </trkpt>
      <trkpt lat="45.17934" lon="-72.65464">
        <ele>147.37</ele>
      </trkpt>
      <trkpt lat="45.17956" lon="-72.6536867">
        <ele>144.97</ele>
      </trkpt>
      <trkpt lat="45.17978" lon="-72.6527333">
        <ele>143.01</ele>
      </trkpt>
      <trkpt lat="45.18" lon="-72.65178">
        <ele>142.6</ele>
      </trkpt>
      <trkpt lat="45.180615" lon="-72.651755">
        <ele>138.47</ele>
      </trkpt>
      <trkpt lat="45.18123" lon="-72.65173">
        <ele>136.1</ele>
      </trkpt>
      <trkpt lat="45.181755" lon="-72.65169">
        <ele>138.64</ele>
      </trkpt>
      <trkpt lat="45.18228" lon="-72.65165">
        <ele>142.77</ele>
      </trkpt>
      <trkpt lat="45.182745" lon="-72.651645">
        <ele>147.14</ele>
      </trkpt>
      <trkpt lat="45.18321" lon="-72.65164">
        <ele>153.77</ele>
      </trkpt>
      <trkpt lat="45.1835" lon="-72.6516">
        <ele>156.74</ele>
      </trkpt>
      <trkpt lat="45.18387" lon="-72.65164">
        <ele>160.17</ele>
      </trkpt>
      <trkpt lat="45.18399" lon="-72.65168">
        <ele>160.95</ele>
      </trkpt>
      <trkpt lat="45.18406" lon="-72.65168">
        <ele>161.3</ele>
      </trkpt>
      <trkpt lat="45.1844" lon="-72.65178">
        <ele>162.63</ele>
      </trkpt>
      <trkpt lat="45.18463" lon="-72.65174">
        <ele>162.94</ele>
      </trkpt>
      <trkpt lat="45.18473" lon="-72.65169">
        <ele>163.21</ele>
      </trkpt>
      <trkpt lat="45.18505" lon="-72.6516">
        <ele>165.46</ele>
      </trkpt>
      <trkpt lat="45.18546" lon="-72.65155">
        <ele>166.48</ele>
      </trkpt>
      <trkpt lat="45.186315" lon="-72.651505">
        <ele>165.93</ele>
      </trkpt>
      <trkpt lat="45.18717" lon="-72.65146">
        <ele>157.77</ele>
      </trkpt>
      <trkpt lat="45.188025" lon="-72.651415">
        <ele>152.36</ele>
      </trkpt>
      <trkpt lat="45.18888" lon="-72.65137">
        <ele>151.97</ele>
      </trkpt>
      <trkpt lat="45.189735" lon="-72.6513183">
        <ele>153.81</ele>
      </trkpt>
      <trkpt lat="45.19059" lon="-72.6512667">
        <ele>155.75</ele>
      </trkpt>
      <trkpt lat="45.191445" lon="-72.651215">
        <ele>162</ele>
      </trkpt>
      <trkpt lat="45.1923" lon="-72.6511633">
        <ele>164.8</ele>
      </trkpt>
      <trkpt lat="45.193155" lon="-72.6511117">
        <ele>166.02</ele>
      </trkpt>
      <trkpt lat="45.19401" lon="-72.65106">
        <ele>167.06</ele>
      </trkpt>
      <trkpt lat="45.1947733" lon="-72.6510217">
        <ele>167.09</ele>
      </trkpt>
      <trkpt lat="45.1955367" lon="-72.6509833">
        <ele>168.8</ele>
      </trkpt>
      <trkpt lat="45.1963" lon="-72.650945">
        <ele>170.71</ele>
      </trkpt>
      <trkpt lat="45.1970633" lon="-72.6509067">
        <ele>172.18</ele>
      </trkpt>
      <trkpt lat="45.1978267" lon="-72.6508683">
        <ele>172.99</ele>
      </trkpt>
      <trkpt lat="45.19859" lon="-72.65083">
        <ele>173.52</ele>
      </trkpt>
      <trkpt lat="45.19896" lon="-72.6508">
        <ele>174.08</ele>
      </trkpt>
      <trkpt lat="45.19894" lon="-72.6508">
        <ele>174.05</ele>
      </trkpt>
      <trkpt lat="45.19974" lon="-72.65073">
        <ele>177.62</ele>
      </trkpt>
      <trkpt lat="45.20054" lon="-72.65066">
        <ele>182.75</ele>
      </trkpt>
      <trkpt lat="45.2013733" lon="-72.6506433">
        <ele>183.85</ele>
      </trkpt>
      <trkpt lat="45.2022067" lon="-72.6506267">
        <ele>185.56</ele>
      </trkpt>
      <trkpt lat="45.20304" lon="-72.65061">
        <ele>188.86</ele>
      </trkpt>
      <trkpt lat="45.203885" lon="-72.650555">
        <ele>186.93</ele>
      </trkpt>
      <trkpt lat="45.20473" lon="-72.6505">
        <ele>185.14</ele>
      </trkpt>
      <trkpt lat="45.205575" lon="-72.650445">
        <ele>183.13</ele>
      </trkpt>
      <trkpt lat="45.20642" lon="-72.65039">
        <ele>184.05</ele>
      </trkpt>
      <trkpt lat="45.20682" lon="-72.65042">
        <ele>185.05</ele>
      </trkpt>
      <trkpt lat="45.20743" lon="-72.650405">
        <ele>186.97</ele>
      </trkpt>
      <trkpt lat="45.20804" lon="-72.65039">
        <ele>189.78</ele>
      </trkpt>
      <trkpt lat="45.20826" lon="-72.65042">
        <ele>190.61</ele>
      </trkpt>
      <trkpt lat="45.20858" lon="-72.65039">
        <ele>190.75</ele>
      </trkpt>
      <trkpt lat="45.20873" lon="-72.65035">
        <ele>190.51</ele>
      </trkpt>
      <trkpt lat="45.20958" lon="-72.650255">
        <ele>187.9</ele>
      </trkpt>
      <trkpt lat="45.21043" lon="-72.65016">
        <ele>182.01</ele>
      </trkpt>
      <trkpt lat="45.21061" lon="-72.65011">
        <ele>181.27</ele>
      </trkpt>
      <trkpt lat="45.21068" lon="-72.65007">
        <ele>180.96</ele>
      </trkpt>
      <trkpt lat="45.21098" lon="-72.64981">
        <ele>180.45</ele>
      </trkpt>
      <trkpt lat="45.21116" lon="-72.64971">
        <ele>179.73</ele>
      </trkpt>
      <trkpt lat="45.211925" lon="-72.649265">
        <ele>177.83</ele>
      </trkpt>
      <trkpt lat="45.21269" lon="-72.64882">
        <ele>172.25</ele>
      </trkpt>
      <trkpt lat="45.213455" lon="-72.648375">
        <ele>165.25</ele>
      </trkpt>
      <trkpt lat="45.21422" lon="-72.64793">
        <ele>165.54</ele>
      </trkpt>
      <trkpt lat="45.2148733" lon="-72.6475433">
        <ele>170.03</ele>
      </trkpt>
      <trkpt lat="45.2155267" lon="-72.6471567">
        <ele>176.09</ele>
      </trkpt>
      <trkpt lat="45.21618" lon="-72.64677">
        <ele>183.19</ele>
      </trkpt>
      <trkpt lat="45.216875" lon="-72.64638">
        <ele>186.38</ele>
      </trkpt>
      <trkpt lat="45.21757" lon="-72.64599">
        <ele>188.47</ele>
      </trkpt>
      <trkpt lat="45.21826" lon="-72.6456">
        <ele>190.93</ele>
      </trkpt>
      <trkpt lat="45.21896" lon="-72.64524">
        <ele>192.96</ele>
      </trkpt>
      <trkpt lat="45.21966" lon="-72.64488">
        <ele>194.06</ele>
      </trkpt>
      <trkpt lat="45.22036" lon="-72.64452">
        <ele>199.26</ele>
      </trkpt>
      <trkpt lat="45.2210667" lon="-72.64417">
        <ele>203.84</ele>
      </trkpt>
      <trkpt lat="45.2217733" lon="-72.64382">
        <ele>209.22</ele>
      </trkpt>
      <trkpt lat="45.22248" lon="-72.64347">
        <ele>215.16</ele>
      </trkpt>
      <trkpt lat="45.22245" lon="-72.64385">
        <ele>217.1</ele>
      </trkpt>
      <trkpt lat="45.22244" lon="-72.64475">
        <ele>220.88</ele>
      </trkpt>
      <trkpt lat="45.22223" lon="-72.64577">
        <ele>219.39</ele>
      </trkpt>
      <trkpt lat="45.22221" lon="-72.64663">
        <ele>215.74</ele>
      </trkpt>
      <trkpt lat="45.22225" lon="-72.64731">
        <ele>212.88</ele>
      </trkpt>
      <trkpt lat="45.22224" lon="-72.64823">
        <ele>212.16</ele>
      </trkpt>
      <trkpt lat="45.22227" lon="-72.64895">
        <ele>212.26</ele>
      </trkpt>
      <trkpt lat="45.22241" lon="-72.64958">
        <ele>212.34</ele>
      </trkpt>
      <trkpt lat="45.22253" lon="-72.6503">
        <ele>214.03</ele>
      </trkpt>
      <trkpt lat="45.22258" lon="-72.65105">
        <ele>214.13</ele>
      </trkpt>
      <trkpt lat="45.22257" lon="-72.65123">
        <ele>212.79</ele>
      </trkpt>
      <trkpt lat="45.22253" lon="-72.65138">
        <ele>211.59</ele>
      </trkpt>
      <trkpt lat="45.22227" lon="-72.65201">
        <ele>205.15</ele>
      </trkpt>
      <trkpt lat="45.22218" lon="-72.65231">
        <ele>203.87</ele>
      </trkpt>
      <trkpt lat="45.22197" lon="-72.65334">
        <ele>201.61</ele>
      </trkpt>
      <trkpt lat="45.22187" lon="-72.65396">
        <ele>198.43</ele>
      </trkpt>
      <trkpt lat="45.221765" lon="-72.65492">
        <ele>197.21</ele>
      </trkpt>
      <trkpt lat="45.22166" lon="-72.65588">
        <ele>198.09</ele>
      </trkpt>
      <trkpt lat="45.22163" lon="-72.65634">
        <ele>197.58</ele>
      </trkpt>
      <trkpt lat="45.22165" lon="-72.65747">
        <ele>198.41</ele>
      </trkpt>
      <trkpt lat="45.22165" lon="-72.65799">
        <ele>199.74</ele>
      </trkpt>
      <trkpt lat="45.22165" lon="-72.658">
        <ele>199.76</ele>
      </trkpt>
      <trkpt lat="45.22162" lon="-72.65856">
        <ele>200.93</ele>
      </trkpt>
      <trkpt lat="45.22153" lon="-72.65956">
        <ele>198.02</ele>
      </trkpt>
      <trkpt lat="45.22142" lon="-72.66033">
        <ele>194.52</ele>
      </trkpt>
      <trkpt lat="45.22136" lon="-72.66101">
        <ele>190.06</ele>
      </trkpt>
      <trkpt lat="45.2213333" lon="-72.66187">
        <ele>183.96</ele>
      </trkpt>
      <trkpt lat="45.2213067" lon="-72.66273">
        <ele>179.41</ele>
      </trkpt>
      <trkpt lat="45.22128" lon="-72.66359">
        <ele>178.68</ele>
      </trkpt>
      <trkpt lat="45.221205" lon="-72.66435">
        <ele>178.56</ele>
      </trkpt>
      <trkpt lat="45.22113" lon="-72.66511">
        <ele>176.44</ele>
      </trkpt>
      <trkpt lat="45.22112" lon="-72.66574">
        <ele>169.67</ele>
      </trkpt>
      <trkpt lat="45.22115" lon="-72.66615">
        <ele>166.19</ele>
      </trkpt>
      <trkpt lat="45.22114" lon="-72.66659">
        <ele>164.04</ele>
      </trkpt>
      <trkpt lat="45.22107" lon="-72.667375">
        <ele>163.4</ele>
      </trkpt>
      <trkpt lat="45.221" lon="-72.66816">
        <ele>160.57</ele>
      </trkpt>
      <trkpt lat="45.22108" lon="-72.66879">
        <ele>155.08</ele>
      </trkpt>
      <trkpt lat="45.2213533" lon="-72.6696333">
        <ele>146.92</ele>
      </trkpt>
      <trkpt lat="45.2216267" lon="-72.6704767">
        <ele>141.99</ele>
      </trkpt>
      <trkpt lat="45.2219" lon="-72.67132">
        <ele>137.26</ele>
      </trkpt>
      <trkpt lat="45.22226" lon="-72.67134">
        <ele>135.44</ele>
      </trkpt>
      <trkpt lat="45.22269" lon="-72.67134">
        <ele>133.61</ele>
      </trkpt>
      <trkpt lat="45.22306" lon="-72.67125">
        <ele>134.44</ele>
      </trkpt>
      <trkpt lat="45.22323" lon="-72.67116">
        <ele>135.95</ele>
      </trkpt>
      <trkpt lat="45.223635" lon="-72.670805">
        <ele>145.18</ele>
      </trkpt>
      <trkpt lat="45.22404" lon="-72.67045">
        <ele>149.53</ele>
      </trkpt>
      <trkpt lat="45.22436" lon="-72.67013">
        <ele>153.4</ele>
      </trkpt>
      <trkpt lat="45.22455" lon="-72.66995">
        <ele>157.79</ele>
      </trkpt>
      <trkpt lat="45.22473" lon="-72.66986">
        <ele>159.18</ele>
      </trkpt>
      <trkpt lat="45.22533" lon="-72.669745">
        <ele>159.13</ele>
      </trkpt>
      <trkpt lat="45.22593" lon="-72.66963">
        <ele>161.16</ele>
      </trkpt>
      <trkpt lat="45.22654" lon="-72.66946">
        <ele>167.49</ele>
      </trkpt>
      <trkpt lat="45.22686" lon="-72.66945">
        <ele>170.54</ele>
      </trkpt>
      <trkpt lat="45.22727" lon="-72.66928">
        <ele>179.87</ele>
      </trkpt>
      <trkpt lat="45.22807" lon="-72.6691">
        <ele>188.68</ele>
      </trkpt>
      <trkpt lat="45.22864" lon="-72.66902">
        <ele>191.54</ele>
      </trkpt>
      <trkpt lat="45.22921" lon="-72.66894">
        <ele>192.2</ele>
      </trkpt>
      <trkpt lat="45.2292" lon="-72.66894">
        <ele>192.2</ele>
      </trkpt>
      <trkpt lat="45.2297" lon="-72.66884">
        <ele>193.07</ele>
      </trkpt>
      <trkpt lat="45.2302" lon="-72.66874">
        <ele>194.77</ele>
      </trkpt>
      <trkpt lat="45.23087" lon="-72.66854">
        <ele>200.49</ele>
      </trkpt>
      <trkpt lat="45.23102" lon="-72.66852">
        <ele>202.45</ele>
      </trkpt>
      <trkpt lat="45.23156" lon="-72.6683">
        <ele>208.88</ele>
      </trkpt>
      <trkpt lat="45.23184" lon="-72.66826">
        <ele>212.2</ele>
      </trkpt>
      <trkpt lat="45.23226" lon="-72.66825">
        <ele>210.02</ele>
      </trkpt>
      <trkpt lat="45.23249" lon="-72.6682">
        <ele>206.22</ele>
      </trkpt>
      <trkpt lat="45.23269" lon="-72.66807">
        <ele>202.55</ele>
      </trkpt>
      <trkpt lat="45.23289" lon="-72.66785">
        <ele>200.24</ele>
      </trkpt>
      <trkpt lat="45.23296" lon="-72.66776">
        <ele>198.22</ele>
      </trkpt>
      <trkpt lat="45.23307" lon="-72.66753">
        <ele>196.42</ele>
      </trkpt>
      <trkpt lat="45.23313" lon="-72.66727">
        <ele>194.42</ele>
      </trkpt>
      <trkpt lat="45.23318" lon="-72.66718">
        <ele>194.15</ele>
      </trkpt>
      <trkpt lat="45.2335" lon="-72.66686">
        <ele>192.35</ele>
      </trkpt>
      <trkpt lat="45.2339" lon="-72.66624">
        <ele>187.51</ele>
      </trkpt>
      <trkpt lat="45.23407" lon="-72.66571">
        <ele>185.82</ele>
      </trkpt>
      <trkpt lat="45.23426" lon="-72.66529">
        <ele>183.74</ele>
      </trkpt>
      <trkpt lat="45.23431" lon="-72.66511">
        <ele>183.03</ele>
      </trkpt>
      <trkpt lat="45.23472" lon="-72.66431">
        <ele>182.36</ele>
      </trkpt>
      <trkpt lat="45.23503" lon="-72.66383">
        <ele>183.04</ele>
      </trkpt>
      <trkpt lat="45.23513" lon="-72.66379">
        <ele>182.79</ele>
      </trkpt>
      <trkpt lat="45.23526" lon="-72.66347">
        <ele>182.41</ele>
      </trkpt>
      <trkpt lat="45.235715" lon="-72.66253">
        <ele>183.43</ele>
      </trkpt>
      <trkpt lat="45.23617" lon="-72.66159">
        <ele>185.37</ele>
      </trkpt>
      <trkpt lat="45.23656" lon="-72.66086">
        <ele>189.13</ele>
      </trkpt>
      <trkpt lat="45.236985" lon="-72.65996">
        <ele>190.12</ele>
      </trkpt>
      <trkpt lat="45.23741" lon="-72.65906">
        <ele>187.21</ele>
      </trkpt>
      <trkpt lat="45.2374" lon="-72.65906">
        <ele>187.22</ele>
      </trkpt>
      <trkpt lat="45.23775" lon="-72.658255">
        <ele>185.05</ele>
      </trkpt>
      <trkpt lat="45.2381" lon="-72.65745">
        <ele>184.66</ele>
      </trkpt>
      <trkpt lat="45.238848" lon="-72.657414">
        <ele>182.23</ele>
      </trkpt>
      <trkpt lat="45.239596" lon="-72.657378">
        <ele>178.74</ele>
      </trkpt>
      <trkpt lat="45.240344" lon="-72.657342">
        <ele>176.47</ele>
      </trkpt>
      <trkpt lat="45.241092" lon="-72.657306">
        <ele>170.31</ele>
      </trkpt>
      <trkpt lat="45.24184" lon="-72.65727">
        <ele>166.05</ele>
      </trkpt>
      <trkpt lat="45.2424767" lon="-72.6572133">
        <ele>163.99</ele>
      </trkpt>
      <trkpt lat="45.2431133" lon="-72.6571567">
        <ele>166.11</ele>
      </trkpt>
      <trkpt lat="45.24375" lon="-72.6571">
        <ele>172.39</ele>
      </trkpt>
      <trkpt lat="45.24423" lon="-72.65708">
        <ele>177.46</ele>
      </trkpt>
      <trkpt lat="45.24471" lon="-72.65706">
        <ele>181.41</ele>
      </trkpt>
      <trkpt lat="45.2453867" lon="-72.65699">
        <ele>184.37</ele>
      </trkpt>
      <trkpt lat="45.2460633" lon="-72.65692">
        <ele>185.11</ele>
      </trkpt>
      <trkpt lat="45.24674" lon="-72.65685">
        <ele>187.18</ele>
      </trkpt>
      <trkpt lat="45.24762" lon="-72.65672">
        <ele>190.78</ele>
      </trkpt>
      <trkpt lat="45.24801" lon="-72.6567">
        <ele>192.59</ele>
      </trkpt>
      <trkpt lat="45.2487733" lon="-72.6567167">
        <ele>191.06</ele>
      </trkpt>
      <trkpt lat="45.2495367" lon="-72.6567333">
        <ele>189.35</ele>
      </trkpt>
      <trkpt lat="45.2503" lon="-72.65675">
        <ele>188.12</ele>
      </trkpt>
      <trkpt lat="45.25116" lon="-72.65679">
        <ele>187.14</ele>
      </trkpt>
      <trkpt lat="45.25201" lon="-72.65679">
        <ele>185.91</ele>
      </trkpt>
      <trkpt lat="45.25277" lon="-72.656755">
        <ele>178.02</ele>
      </trkpt>
      <trkpt lat="45.25353" lon="-72.65672">
        <ele>173.16</ele>
      </trkpt>
      <trkpt lat="45.25429" lon="-72.656685">
        <ele>171.73</ele>
      </trkpt>
      <trkpt lat="45.25505" lon="-72.65665">
        <ele>163.8</ele>
      </trkpt>
      <trkpt lat="45.25591" lon="-72.6566333">
        <ele>153.34</ele>
      </trkpt>
      <trkpt lat="45.25677" lon="-72.6566167">
        <ele>152.38</ele>
      </trkpt>
      <trkpt lat="45.25763" lon="-72.6566">
        <ele>155.65</ele>
      </trkpt>
      <trkpt lat="45.25787" lon="-72.65662">
        <ele>155.66</ele>
      </trkpt>
      <trkpt lat="45.25852" lon="-72.656645">
        <ele>153.26</ele>
      </trkpt>
      <trkpt lat="45.25917" lon="-72.65667">
        <ele>149.15</ele>
      </trkpt>
      <trkpt lat="45.25917" lon="-72.65667">
        <ele>149.15</ele>
      </trkpt>
      <trkpt lat="45.25941" lon="-72.65668">
        <ele>149.29</ele>
      </trkpt>
      <trkpt lat="45.260095" lon="-72.656685">
        <ele>152.1</ele>
      </trkpt>
      <trkpt lat="45.26078" lon="-72.65669">
        <ele>155.07</ele>
      </trkpt>
      <trkpt lat="45.26124" lon="-72.65664">
        <ele>157.1</ele>
      </trkpt>
      <trkpt lat="45.26131" lon="-72.65581">
        <ele>158.28</ele>
      </trkpt>
      <trkpt lat="45.26128" lon="-72.65532">
        <ele>158.77</ele>
      </trkpt>
      <trkpt lat="45.26118" lon="-72.654465">
        <ele>159.62</ele>
      </trkpt>
      <trkpt lat="45.26108" lon="-72.65361">
        <ele>162.49</ele>
      </trkpt>
      <trkpt lat="45.2610567" lon="-72.65243">
        <ele>162.93</ele>
      </trkpt>
      <trkpt lat="45.2610333" lon="-72.65125">
        <ele>158.19</ele>
      </trkpt>
      <trkpt lat="45.26101" lon="-72.65007">
        <ele>156.26</ele>
      </trkpt>
      <trkpt lat="45.26095" lon="-72.64938">
        <ele>158.93</ele>
      </trkpt>
      <trkpt lat="45.26087" lon="-72.64851">
        <ele>160.11</ele>
      </trkpt>
      <trkpt lat="45.26081" lon="-72.64819">
        <ele>160.72</ele>
      </trkpt>
      <trkpt lat="45.26078" lon="-72.64739">
        <ele>163.07</ele>
      </trkpt>
      <trkpt lat="45.26078" lon="-72.64661">
        <ele>167.92</ele>
      </trkpt>
      <trkpt lat="45.26078" lon="-72.64583">
        <ele>168.13</ele>
      </trkpt>
      <trkpt lat="45.2608" lon="-72.64508">
        <ele>165.87</ele>
      </trkpt>
      <trkpt lat="45.260855" lon="-72.64433">
        <ele>164.32</ele>
      </trkpt>
      <trkpt lat="45.26091" lon="-72.64358">
        <ele>160.93</ele>
      </trkpt>
      <trkpt lat="45.26091" lon="-72.64327">
        <ele>160.18</ele>
      </trkpt>
      <trkpt lat="45.2607867" lon="-72.64218">
        <ele>153.79</ele>
      </trkpt>
      <trkpt lat="45.2606633" lon="-72.64109">
        <ele>153.94</ele>
      </trkpt>
      <trkpt lat="45.26054" lon="-72.64">
        <ele>154.98</ele>
      </trkpt>
      <trkpt lat="45.260412" lon="-72.638952">
        <ele>155.85</ele>
      </trkpt>
      <trkpt lat="45.260284" lon="-72.637904">
        <ele>156.38</ele>
      </trkpt>
      <trkpt lat="45.260156" lon="-72.636856">
        <ele>157.03</ele>
      </trkpt>
      <trkpt lat="45.260028" lon="-72.635808">
        <ele>158.23</ele>
      </trkpt>
      <trkpt lat="45.2599" lon="-72.63476">
        <ele>161.1</ele>
      </trkpt>
      <trkpt lat="45.25995" lon="-72.63435">
        <ele>163.53</ele>
      </trkpt>
      <trkpt lat="45.26004" lon="-72.63396">
        <ele>165.82</ele>
      </trkpt>
      <trkpt lat="45.26006" lon="-72.6337">
        <ele>166.58</ele>
      </trkpt>
      <trkpt lat="45.25993" lon="-72.63257">
        <ele>168.99</ele>
      </trkpt>
      <trkpt lat="45.25983" lon="-72.63202">
        <ele>171.57</ele>
      </trkpt>
      <trkpt lat="45.25977" lon="-72.63183">
        <ele>172.88</ele>
      </trkpt>
      <trkpt lat="45.25944" lon="-72.63109">
        <ele>178.41</ele>
      </trkpt>
      <trkpt lat="45.25927" lon="-72.63074">
        <ele>180.81</ele>
      </trkpt>
      <trkpt lat="45.25899" lon="-72.63042">
        <ele>183.07</ele>
      </trkpt>
      <trkpt lat="45.25874" lon="-72.62993">
        <ele>186.39</ele>
      </trkpt>
      <trkpt lat="45.25853" lon="-72.62916">
        <ele>187.95</ele>
      </trkpt>
      <trkpt lat="45.25837" lon="-72.62868">
        <ele>189.09</ele>
      </trkpt>
      <trkpt lat="45.258155" lon="-72.628095">
        <ele>193.63</ele>
      </trkpt>
      <trkpt lat="45.25794" lon="-72.62751">
        <ele>197.59</ele>
      </trkpt>
      <trkpt lat="45.25775" lon="-72.626705">
        <ele>203.45</ele>
      </trkpt>
      <trkpt lat="45.25756" lon="-72.6259">
        <ele>207.94</ele>
      </trkpt>
      <trkpt lat="45.258255" lon="-72.625695">
        <ele>203.78</ele>
      </trkpt>
      <trkpt lat="45.25895" lon="-72.62549">
        <ele>202.66</ele>
      </trkpt>
      <trkpt lat="45.25889" lon="-72.6242833">
        <ele>203.68</ele>
      </trkpt>
      <trkpt lat="45.25883" lon="-72.6230767">
        <ele>207.52</ele>
      </trkpt>
      <trkpt lat="45.25877" lon="-72.62187">
        <ele>215.14</ele>
      </trkpt>
      <trkpt lat="45.258695" lon="-72.62068">
        <ele>216.72</ele>
      </trkpt>
      <trkpt lat="45.25862" lon="-72.61949">
        <ele>216.96</ele>
      </trkpt>
      <trkpt lat="45.25853" lon="-72.61829">
        <ele>218.55</ele>
      </trkpt>
      <trkpt lat="45.25848" lon="-72.61785">
        <ele>219.87</ele>
      </trkpt>
      <trkpt lat="45.25848" lon="-72.61785">
        <ele>219.87</ele>
      </trkpt>
      <trkpt lat="45.25836" lon="-72.61708">
        <ele>220.71</ele>
      </trkpt>
      <trkpt lat="45.25822" lon="-72.61642">
        <ele>223.97</ele>
      </trkpt>
      <trkpt lat="45.25797" lon="-72.61555">
        <ele>226.08</ele>
      </trkpt>
      <trkpt lat="45.25765" lon="-72.61461">
        <ele>229.78</ele>
      </trkpt>
      <trkpt lat="45.25756" lon="-72.61426">
        <ele>231.62</ele>
      </trkpt>
      <trkpt lat="45.25751" lon="-72.61385">
        <ele>234.09</ele>
      </trkpt>
      <trkpt lat="45.25755" lon="-72.61336">
        <ele>235.67</ele>
      </trkpt>
      <trkpt lat="45.257525" lon="-72.61258">
        <ele>234.88</ele>
      </trkpt>
      <trkpt lat="45.2575" lon="-72.6118">
        <ele>234.66</ele>
      </trkpt>
      <trkpt lat="45.25744" lon="-72.61071">
        <ele>236.05</ele>
      </trkpt>
      <trkpt lat="45.257245" lon="-72.609595">
        <ele>236.3</ele>
      </trkpt>
      <trkpt lat="45.25705" lon="-72.60848">
        <ele>234.47</ele>
      </trkpt>
      <trkpt lat="45.256865" lon="-72.607605">
        <ele>234.68</ele>
      </trkpt>
      <trkpt lat="45.25668" lon="-72.60673">
        <ele>237.82</ele>
      </trkpt>
      <trkpt lat="45.25646" lon="-72.60598">
        <ele>240.74</ele>
      </trkpt>
      <trkpt lat="45.25611" lon="-72.60512">
        <ele>244.23</ele>
      </trkpt>
      <trkpt lat="45.25577" lon="-72.60449">
        <ele>242.17</ele>
      </trkpt>
      <trkpt lat="45.25551" lon="-72.60419">
        <ele>241.77</ele>
      </trkpt>
      <trkpt lat="45.25506" lon="-72.603785">
        <ele>244.09</ele>
      </trkpt>
      <trkpt lat="45.25461" lon="-72.60338">
        <ele>246.66</ele>
      </trkpt>
      <trkpt lat="45.25433" lon="-72.60315">
        <ele>249.48</ele>
      </trkpt>
      <trkpt lat="45.25397" lon="-72.60297">
        <ele>253.41</ele>
      </trkpt>
      <trkpt lat="45.25389" lon="-72.60289">
        <ele>254</ele>
      </trkpt>
      <trkpt lat="45.25334" lon="-72.602575">
        <ele>254.48</ele>
      </trkpt>
      <trkpt lat="45.25279" lon="-72.60226">
        <ele>255.18</ele>
      </trkpt>
      <trkpt lat="45.25261" lon="-72.6021">
        <ele>256.12</ele>
      </trkpt>
      <trkpt lat="45.25254" lon="-72.60191">
        <ele>256.7</ele>
      </trkpt>
      <trkpt lat="45.25252" lon="-72.60172">
        <ele>256.74</ele>
      </trkpt>
      <trkpt lat="45.25249" lon="-72.600935">
        <ele>253.01</ele>
      </trkpt>
      <trkpt lat="45.25246" lon="-72.60015">
        <ele>249.08</ele>
      </trkpt>
      <trkpt lat="45.25237" lon="-72.59953">
        <ele>247.76</ele>
      </trkpt>
      <trkpt lat="45.2522" lon="-72.59912">
        <ele>247.83</ele>
      </trkpt>
      <trkpt lat="45.25207" lon="-72.59889">
        <ele>248.36</ele>
      </trkpt>
      <trkpt lat="45.25164" lon="-72.598225">
        <ele>250.1</ele>
      </trkpt>
      <trkpt lat="45.25121" lon="-72.59756">
        <ele>249.31</ele>
      </trkpt>
      <trkpt lat="45.25111" lon="-72.59724">
        <ele>249.04</ele>
      </trkpt>
      <trkpt lat="45.2510767" lon="-72.5963767">
        <ele>249.46</ele>
      </trkpt>
      <trkpt lat="45.2510433" lon="-72.5955133">
        <ele>250.17</ele>
      </trkpt>
      <trkpt lat="45.25101" lon="-72.59465">
        <ele>248.48</ele>
      </trkpt>
      <trkpt lat="45.250965" lon="-72.593965">
        <ele>246.59</ele>
      </trkpt>
      <trkpt lat="45.25092" lon="-72.59328">
        <ele>246.14</ele>
      </trkpt>
      <trkpt lat="45.25027" lon="-72.59374">
        <ele>244.95</ele>
      </trkpt>
      <trkpt lat="45.24978" lon="-72.59361">
        <ele>242.38</ele>
      </trkpt>
      <trkpt lat="45.24929" lon="-72.59348">
        <ele>240.61</ele>
      </trkpt>
      <trkpt lat="45.248795" lon="-72.59337">
        <ele>240.67</ele>
      </trkpt>
      <trkpt lat="45.2483" lon="-72.59326">
        <ele>240.16</ele>
      </trkpt>
      <trkpt lat="45.24771" lon="-72.59308">
        <ele>239.64</ele>
      </trkpt>
      <trkpt lat="45.24689" lon="-72.59276">
        <ele>242.28</ele>
      </trkpt>
      <trkpt lat="45.24654" lon="-72.59259">
        <ele>242.69</ele>
      </trkpt>
      <trkpt lat="45.245915" lon="-72.59214">
        <ele>241.93</ele>
      </trkpt>
      <trkpt lat="45.24529" lon="-72.59169">
        <ele>241.93</ele>
      </trkpt>
      <trkpt lat="45.24495" lon="-72.59147">
        <ele>242.75</ele>
      </trkpt>
      <trkpt lat="45.24469" lon="-72.59138">
        <ele>242.75</ele>
      </trkpt>
      <trkpt lat="45.2443" lon="-72.59139">
        <ele>243.11</ele>
      </trkpt>
      <trkpt lat="45.24424" lon="-72.590175">
        <ele>239.46</ele>
      </trkpt>
      <trkpt lat="45.2441801" lon="-72.58896">
        <ele>234.97</ele>
      </trkpt>
      <trkpt lat="45.2441201" lon="-72.587745">
        <ele>233.17</ele>
      </trkpt>
      <trkpt lat="45.2440601" lon="-72.58653">
        <ele>232.36</ele>
      </trkpt>
      <trkpt lat="45.244" lon="-72.585315">
        <ele>231.99</ele>
      </trkpt>
      <trkpt lat="45.24394" lon="-72.5841">
        <ele>231.76</ele>
      </trkpt>
      <trkpt lat="45.24394" lon="-72.5841">
        <ele>231.76</ele>
      </trkpt>
      <trkpt lat="45.24388" lon="-72.5829225">
        <ele>231.71</ele>
      </trkpt>
      <trkpt lat="45.24382" lon="-72.581745">
        <ele>232.5</ele>
      </trkpt>
      <trkpt lat="45.24376" lon="-72.5805675">
        <ele>232.39</ele>
      </trkpt>
      <trkpt lat="45.2437" lon="-72.57939">
        <ele>233.01</ele>
      </trkpt>
      <trkpt lat="45.243635" lon="-72.57824">
        <ele>233.45</ele>
      </trkpt>
      <trkpt lat="45.24357" lon="-72.57709">
        <ele>233.89</ele>
      </trkpt>
      <trkpt lat="45.243565" lon="-72.576425">
        <ele>233.94</ele>
      </trkpt>
      <trkpt lat="45.24356" lon="-72.57576">
        <ele>234.21</ele>
      </trkpt>
      <trkpt lat="45.2435901" lon="-72.5745445">
        <ele>232.39</ele>
      </trkpt>
      <trkpt lat="45.2436202" lon="-72.5733289">
        <ele>230.87</ele>
      </trkpt>
      <trkpt lat="45.2436503" lon="-72.5721134">
        <ele>226.64</ele>
      </trkpt>
      <trkpt lat="45.2436804" lon="-72.5708978">
        <ele>222.65</ele>
      </trkpt>
      <trkpt lat="45.2437104" lon="-72.5696823">
        <ele>219.72</ele>
      </trkpt>
      <trkpt lat="45.2437405" lon="-72.5684667">
        <ele>216.87</ele>
      </trkpt>
      <trkpt lat="45.2437705" lon="-72.5672512">
        <ele>213.8</ele>
      </trkpt>
      <trkpt lat="45.2438005" lon="-72.5660356">
        <ele>212.7</ele>
      </trkpt>
      <trkpt lat="45.2438305" lon="-72.5648201">
        <ele>212.5</ele>
      </trkpt>
      <trkpt lat="45.2438605" lon="-72.5636045">
        <ele>211.89</ele>
      </trkpt>
      <trkpt lat="45.2438905" lon="-72.5623889">
        <ele>211.27</ele>
      </trkpt>
      <trkpt lat="45.2439205" lon="-72.5611734">
        <ele>210.03</ele>
      </trkpt>
      <trkpt lat="45.2439504" lon="-72.5599578">
        <ele>209.45</ele>
      </trkpt>
      <trkpt lat="45.2439804" lon="-72.5587423">
        <ele>209.6</ele>
      </trkpt>
      <trkpt lat="45.2440103" lon="-72.5575267">
        <ele>210.64</ele>
      </trkpt>
      <trkpt lat="45.2440402" lon="-72.5563111">
        <ele>209.22</ele>
      </trkpt>
      <trkpt lat="45.2440701" lon="-72.5550956">
        <ele>207.36</ele>
      </trkpt>
      <trkpt lat="45.2441" lon="-72.55388">
        <ele>206.58</ele>
      </trkpt>
      <trkpt lat="45.24414" lon="-72.552705">
        <ele>202.37</ele>
      </trkpt>
      <trkpt lat="45.24418" lon="-72.55153">
        <ele>200.23</ele>
      </trkpt>
      <trkpt lat="45.24415" lon="-72.55103">
        <ele>200.01</ele>
      </trkpt>
      <trkpt lat="45.24408" lon="-72.55086">
        <ele>200.01</ele>
      </trkpt>
      <trkpt lat="45.24382" lon="-72.55041">
        <ele>199.96</ele>
      </trkpt>
      <trkpt lat="45.24353" lon="-72.54956">
        <ele>199.77</ele>
      </trkpt>
      <trkpt lat="45.24338" lon="-72.54903">
        <ele>199.39</ele>
      </trkpt>
      <trkpt lat="45.24297" lon="-72.54812">
        <ele>199.65</ele>
      </trkpt>
      <trkpt lat="45.24265" lon="-72.54749">
        <ele>201.54</ele>
      </trkpt>
      <trkpt lat="45.24237" lon="-72.54697">
        <ele>203.56</ele>
      </trkpt>
      <trkpt lat="45.24187" lon="-72.546165">
        <ele>204.47</ele>
      </trkpt>
      <trkpt lat="45.24137" lon="-72.54536">
        <ele>206.92</ele>
      </trkpt>
      <trkpt lat="45.24129" lon="-72.54513">
        <ele>206.73</ele>
      </trkpt>
      <trkpt lat="45.24128" lon="-72.54482">
        <ele>206.11</ele>
      </trkpt>
      <trkpt lat="45.24131" lon="-72.54437">
        <ele>204.75</ele>
      </trkpt>
      <trkpt lat="45.2413" lon="-72.54419">
        <ele>204.34</ele>
      </trkpt>
      <trkpt lat="45.24126" lon="-72.54396">
        <ele>204.09</ele>
      </trkpt>
      <trkpt lat="45.24092" lon="-72.54278">
        <ele>204.76</ele>
      </trkpt>
      <trkpt lat="45.24069" lon="-72.54213">
        <ele>203.02</ele>
      </trkpt>
      <trkpt lat="45.24025" lon="-72.54102">
        <ele>204.6</ele>
      </trkpt>
      <trkpt lat="45.24008" lon="-72.54074">
        <ele>204.36</ele>
      </trkpt>
      <trkpt lat="45.2397" lon="-72.54034">
        <ele>204.78</ele>
      </trkpt>
      <trkpt lat="45.23941" lon="-72.54014">
        <ele>205.99</ele>
      </trkpt>
      <trkpt lat="45.23912" lon="-72.53989">
        <ele>207.41</ele>
      </trkpt>
      <trkpt lat="45.23878" lon="-72.53955">
        <ele>208.01</ele>
      </trkpt>
      <trkpt lat="45.23829" lon="-72.53895">
        <ele>206.49</ele>
      </trkpt>
      <trkpt lat="45.23774" lon="-72.5382">
        <ele>204.37</ele>
      </trkpt>
      <trkpt lat="45.23774" lon="-72.5382">
        <ele>204.37</ele>
      </trkpt>
      <trkpt lat="45.237375" lon="-72.53768">
        <ele>203.78</ele>
      </trkpt>
      <trkpt lat="45.23701" lon="-72.53716">
        <ele>203.52</ele>
      </trkpt>
      <trkpt lat="45.23643" lon="-72.53641">
        <ele>205.09</ele>
      </trkpt>
      <trkpt lat="45.23592" lon="-72.53582">
        <ele>206.46</ele>
      </trkpt>
      <trkpt lat="45.23574" lon="-72.53569">
        <ele>207.31</ele>
      </trkpt>
      <trkpt lat="45.2356" lon="-72.53563">
        <ele>207.48</ele>
      </trkpt>
      <trkpt lat="45.23528" lon="-72.53554">
        <ele>207.64</ele>
      </trkpt>
      <trkpt lat="45.23501" lon="-72.53551">
        <ele>207.5</ele>
      </trkpt>
      <trkpt lat="45.23444" lon="-72.535575">
        <ele>207.18</ele>
      </trkpt>
      <trkpt lat="45.23387" lon="-72.53564">
        <ele>207.59</ele>
      </trkpt>
      <trkpt lat="45.233365" lon="-72.535775">
        <ele>208.09</ele>
      </trkpt>
      <trkpt lat="45.23286" lon="-72.53591">
        <ele>207.5</ele>
      </trkpt>
      <trkpt lat="45.23271" lon="-72.53591">
        <ele>206.99</ele>
      </trkpt>
      <trkpt lat="45.231925" lon="-72.535825">
        <ele>202.56</ele>
      </trkpt>
      <trkpt lat="45.23114" lon="-72.53574">
        <ele>201.04</ele>
      </trkpt>
      <trkpt lat="45.2305" lon="-72.53572">
        <ele>200.4</ele>
      </trkpt>
      <trkpt lat="45.2297233" lon="-72.5357433">
        <ele>199.98</ele>
      </trkpt>
      <trkpt lat="45.2289467" lon="-72.5357667">
        <ele>201.63</ele>
      </trkpt>
      <trkpt lat="45.22817" lon="-72.53579">
        <ele>202.12</ele>
      </trkpt>
      <trkpt lat="45.22737" lon="-72.53585">
        <ele>202.13</ele>
      </trkpt>
      <trkpt lat="45.2266167" lon="-72.5359567">
        <ele>202.32</ele>
      </trkpt>
      <trkpt lat="45.2258633" lon="-72.5360633">
        <ele>202.53</ele>
      </trkpt>
      <trkpt lat="45.22511" lon="-72.53617">
        <ele>203.84</ele>
      </trkpt>
      <trkpt lat="45.22462" lon="-72.53618">
        <ele>203.26</ele>
      </trkpt>
      <trkpt lat="45.2243" lon="-72.53613">
        <ele>202.33</ele>
      </trkpt>
      <trkpt lat="45.22385" lon="-72.53604">
        <ele>202.02</ele>
      </trkpt>
      <trkpt lat="45.2234" lon="-72.53595">
        <ele>202</ele>
      </trkpt>
      <trkpt lat="45.22258" lon="-72.536">
        <ele>200.26</ele>
      </trkpt>
      <trkpt lat="45.22234" lon="-72.53596">
        <ele>199.99</ele>
      </trkpt>
      <trkpt lat="45.222325" lon="-72.53497">
        <ele>199.44</ele>
      </trkpt>
      <trkpt lat="45.22231" lon="-72.53398">
        <ele>200.13</ele>
      </trkpt>
      <trkpt lat="45.22235" lon="-72.533">
        <ele>202.06</ele>
      </trkpt>
      <trkpt lat="45.22233" lon="-72.53267">
        <ele>202.14</ele>
      </trkpt>
    </trkseg>
  </trk>
</gpx>