<?xml version='1.0' encoding='utf-8'?>
<gpx xmlns="http://www.topografix.com/GPX/1/1" xmlns:xsi="http://www.w3.org/2001/XMLSchema-instance" version="1.1" creator="Gravelle Estrie" xsi:schemaLocation="http://www.topografix.com/GPX/1/1 http://www.topografix.com/GPX/1/1/gpx.xsd">
  <metadata>
    <name>Snow</name>
  </metadata>
  <trk>
    <name>Snow</name>
    <trkseg>
      <trkpt lat="45.22566" lon="-72.50371">
        <ele>202.7</ele>
      </trkpt>
      <trkpt lat="45.22545" lon="-72.5044">
        <ele>202.4</ele>
      </trkpt>
      <trkpt lat="45.22541" lon="-72.5047">
        <ele>202.2</ele>
      </trkpt>
      <trkpt lat="45.22539" lon="-72.50511">
        <ele>202</ele>
      </trkpt>
      <trkpt lat="45.2254" lon="-72.50551">
        <ele>202</ele>
      </trkpt>
      <trkpt lat="45.22547" lon="-72.50619">
        <ele>202.1</ele>
      </trkpt>
      <trkpt lat="45.22553" lon="-72.507354">
        <ele>202.3</ele>
      </trkpt>
      <trkpt lat="45.22559" lon="-72.50852">
        <ele>202.3</ele>
      </trkpt>
      <trkpt lat="45.22558" lon="-72.50927">
        <ele>202.1</ele>
      </trkpt>
      <trkpt lat="45.22545" lon="-72.51048">
        <ele>202.4</ele>
      </trkpt>
      <trkpt lat="45.22535" lon="-72.51097">
        <ele>202.2</ele>
      </trkpt>
      <trkpt lat="45.225" lon="-72.51191">
        <ele>202.8</ele>
      </trkpt>
      <trkpt lat="45.22462" lon="-72.51262">
        <ele>204.1</ele>
      </trkpt>
      <trkpt lat="45.224118" lon="-72.513386">
        <ele>205.8</ele>
      </trkpt>
      <trkpt lat="45.223616" lon="-72.514152">
        <ele>206.7</ele>
      </trkpt>
      <trkpt lat="45.223114" lon="-72.514918">
        <ele>207.6</ele>
      </trkpt>
      <trkpt lat="45.222612" lon="-72.515684">
        <ele>208.2</ele>
      </trkpt>
      <trkpt lat="45.22211" lon="-72.51645">
        <ele>208.8</ele>
      </trkpt>
      <trkpt lat="45.2221" lon="-72.51645">
        <ele>208.8</ele>
      </trkpt>
      <trkpt lat="45.22189" lon="-72.51678">
        <ele>208.9</ele>
      </trkpt>
      <trkpt lat="45.2218" lon="-72.51627">
        <ele>208.9</ele>
      </trkpt>
      <trkpt lat="45.22161" lon="-72.51571">
        <ele>209.2</ele>
      </trkpt>
      <trkpt lat="45.22117" lon="-72.514716">
        <ele>210</ele>
      </trkpt>
      <trkpt lat="45.22073" lon="-72.513723">
        <ele>210.2</ele>
      </trkpt>
      <trkpt lat="45.22029" lon="-72.51273">
        <ele>212.5</ele>
      </trkpt>
      <trkpt lat="45.21992" lon="-72.51194">
        <ele>212</ele>
      </trkpt>
      <trkpt lat="45.219625" lon="-72.511229">
        <ele>212.7</ele>
      </trkpt>
      <trkpt lat="45.21933" lon="-72.51052">
        <ele>214.8</ele>
      </trkpt>
      <trkpt lat="45.21913" lon="-72.50986">
        <ele>215.6</ele>
      </trkpt>
      <trkpt lat="45.21898" lon="-72.5091">
        <ele>217.4</ele>
      </trkpt>
      <trkpt lat="45.21876" lon="-72.50927">
        <ele>216.2</ele>
      </trkpt>
      <trkpt lat="45.21844" lon="-72.50941">
        <ele>212.8</ele>
      </trkpt>
      <trkpt lat="45.21843" lon="-72.50941">
        <ele>212.7</ele>
      </trkpt>
      <trkpt lat="45.217945" lon="-72.509615">
        <ele>206.9</ele>
      </trkpt>
      <trkpt lat="45.21746" lon="-72.50982">
        <ele>206.4</ele>
      </trkpt>
      <trkpt lat="45.21679" lon="-72.51031">
        <ele>206.4</ele>
      </trkpt>
      <trkpt lat="45.216335" lon="-72.510615">
        <ele>208.8</ele>
      </trkpt>
      <trkpt lat="45.21588" lon="-72.51092">
        <ele>208.9</ele>
      </trkpt>
      <trkpt lat="45.21563" lon="-72.51107">
        <ele>208</ele>
      </trkpt>
      <trkpt lat="45.21543" lon="-72.51115">
        <ele>207.7</ele>
      </trkpt>
      <trkpt lat="45.21517" lon="-72.51122">
        <ele>207.3</ele>
      </trkpt>
      <trkpt lat="45.214539" lon="-72.5113">
        <ele>207</ele>
      </trkpt>
      <trkpt lat="45.21391" lon="-72.51138">
        <ele>207.9</ele>
      </trkpt>
      <trkpt lat="45.21345" lon="-72.511455">
        <ele>208.3</ele>
      </trkpt>
      <trkpt lat="45.21299" lon="-72.51153">
        <ele>210.1</ele>
      </trkpt>
      <trkpt lat="45.2124" lon="-72.51158">
        <ele>211.1</ele>
      </trkpt>
      <trkpt lat="45.21221" lon="-72.51157">
        <ele>212.1</ele>
      </trkpt>
      <trkpt lat="45.21215" lon="-72.51156">
        <ele>212.7</ele>
      </trkpt>
      <trkpt lat="45.21147" lon="-72.51137">
        <ele>217.3</ele>
      </trkpt>
      <trkpt lat="45.21125" lon="-72.51128">
        <ele>219.2</ele>
      </trkpt>
      <trkpt lat="45.21085" lon="-72.51097">
        <ele>224.3</ele>
      </trkpt>
      <trkpt lat="45.21035" lon="-72.510484">
        <ele>226</ele>
      </trkpt>
      <trkpt lat="45.20985" lon="-72.51">
        <ele>228.5</ele>
      </trkpt>
      <trkpt lat="45.20958" lon="-72.50975">
        <ele>232.6</ele>
      </trkpt>
      <trkpt lat="45.20908" lon="-72.509206">
        <ele>236.2</ele>
      </trkpt>
      <trkpt lat="45.20858" lon="-72.508663">
        <ele>240.1</ele>
      </trkpt>
      <trkpt lat="45.20808" lon="-72.50812">
        <ele>246.3</ele>
      </trkpt>
      <trkpt lat="45.20765" lon="-72.50842">
        <ele>251.2</ele>
      </trkpt>
      <trkpt lat="45.20705" lon="-72.50896">
        <ele>262.6</ele>
      </trkpt>
      <trkpt lat="45.206495" lon="-72.509475">
        <ele>270</ele>
      </trkpt>
      <trkpt lat="45.20594" lon="-72.50999">
        <ele>279.8</ele>
      </trkpt>
      <trkpt lat="45.20538" lon="-72.51053">
        <ele>289.4</ele>
      </trkpt>
      <trkpt lat="45.20525" lon="-72.51075">
        <ele>290.8</ele>
      </trkpt>
      <trkpt lat="45.20487" lon="-72.51159">
        <ele>295.6</ele>
      </trkpt>
      <trkpt lat="45.20487" lon="-72.5116">
        <ele>295.6</ele>
      </trkpt>
      <trkpt lat="45.204393" lon="-72.51263">
        <ele>298.6</ele>
      </trkpt>
      <trkpt lat="45.203916" lon="-72.51366">
        <ele>300.7</ele>
      </trkpt>
      <trkpt lat="45.20344" lon="-72.51469">
        <ele>308.3</ele>
      </trkpt>
      <trkpt lat="45.20294" lon="-72.515747">
        <ele>313.5</ele>
      </trkpt>
      <trkpt lat="45.20244" lon="-72.516805">
        <ele>313.3</ele>
      </trkpt>
      <trkpt lat="45.20194" lon="-72.517862">
        <ele>314</ele>
      </trkpt>
      <trkpt lat="45.20144" lon="-72.51892">
        <ele>317.9</ele>
      </trkpt>
      <trkpt lat="45.200986" lon="-72.519904">
        <ele>317.7</ele>
      </trkpt>
      <trkpt lat="45.200533" lon="-72.520888">
        <ele>318.4</ele>
      </trkpt>
      <trkpt lat="45.20008" lon="-72.521873">
        <ele>315.6</ele>
      </trkpt>
      <trkpt lat="45.199626" lon="-72.522857">
        <ele>312.3</ele>
      </trkpt>
      <trkpt lat="45.199173" lon="-72.523842">
        <ele>310.1</ele>
      </trkpt>
      <trkpt lat="45.19872" lon="-72.524826">
        <ele>306.6</ele>
      </trkpt>
      <trkpt lat="45.198266" lon="-72.525811">
        <ele>304.1</ele>
      </trkpt>
      <trkpt lat="45.197813" lon="-72.526795">
        <ele>303</ele>
      </trkpt>
      <trkpt lat="45.19736" lon="-72.52778">
        <ele>301.7</ele>
      </trkpt>
      <trkpt lat="45.19736" lon="-72.52779">
        <ele>301.7</ele>
      </trkpt>
      <trkpt lat="45.19699" lon="-72.52867">
        <ele>303.8</ele>
      </trkpt>
      <trkpt lat="45.19662" lon="-72.52955">
        <ele>301.8</ele>
      </trkpt>
      <trkpt lat="45.19632" lon="-72.53023">
        <ele>300.2</ele>
      </trkpt>
      <trkpt lat="45.19602" lon="-72.53091">
        <ele>300.9</ele>
      </trkpt>
      <trkpt lat="45.195575" lon="-72.53191">
        <ele>300.5</ele>
      </trkpt>
      <trkpt lat="45.19513" lon="-72.53291">
        <ele>299.3</ele>
      </trkpt>
      <trkpt lat="45.194666" lon="-72.53396">
        <ele>295.3</ele>
      </trkpt>
      <trkpt lat="45.194203" lon="-72.53501">
        <ele>295</ele>
      </trkpt>
      <trkpt lat="45.19374" lon="-72.53606">
        <ele>291.5</ele>
      </trkpt>
      <trkpt lat="45.19343" lon="-72.53668">
        <ele>289.5</ele>
      </trkpt>
      <trkpt lat="45.19325" lon="-72.53703">
        <ele>289.3</ele>
      </trkpt>
      <trkpt lat="45.192685" lon="-72.53783">
        <ele>289.6</ele>
      </trkpt>
      <trkpt lat="45.19212" lon="-72.53863">
        <ele>288.3</ele>
      </trkpt>
      <trkpt lat="45.191576" lon="-72.539543">
        <ele>284</ele>
      </trkpt>
      <trkpt lat="45.191033" lon="-72.540456">
        <ele>279.9</ele>
      </trkpt>
      <trkpt lat="45.19049" lon="-72.54137">
        <ele>274.7</ele>
      </trkpt>
      <trkpt lat="45.19038" lon="-72.54173">
        <ele>272.9</ele>
      </trkpt>
      <trkpt lat="45.190215" lon="-72.542645">
        <ele>265.2</ele>
      </trkpt>
      <trkpt lat="45.19005" lon="-72.54356">
        <ele>259.9</ele>
      </trkpt>
      <trkpt lat="45.18987" lon="-72.54417">
        <ele>257.8</ele>
      </trkpt>
      <trkpt lat="45.18987" lon="-72.54418">
        <ele>257.8</ele>
      </trkpt>
      <trkpt lat="45.18954" lon="-72.544965">
        <ele>255.2</ele>
      </trkpt>
      <trkpt lat="45.18921" lon="-72.54575">
        <ele>250.2</ele>
      </trkpt>
      <trkpt lat="45.18876" lon="-72.546506">
        <ele>241.8</ele>
      </trkpt>
      <trkpt lat="45.18831" lon="-72.547263">
        <ele>233.9</ele>
      </trkpt>
      <trkpt lat="45.18786" lon="-72.54802">
        <ele>230.7</ele>
      </trkpt>
      <trkpt lat="45.18786" lon="-72.549043">
        <ele>230.7</ele>
      </trkpt>
      <trkpt lat="45.18786" lon="-72.550066">
        <ele>229.9</ele>
      </trkpt>
      <trkpt lat="45.18786" lon="-72.55109">
        <ele>227.5</ele>
      </trkpt>
      <trkpt lat="45.18784" lon="-72.55234">
        <ele>226.4</ele>
      </trkpt>
      <trkpt lat="45.187773" lon="-72.553373">
        <ele>226.3</ele>
      </trkpt>
      <trkpt lat="45.187706" lon="-72.554406">
        <ele>223.2</ele>
      </trkpt>
      <trkpt lat="45.18764" lon="-72.55544">
        <ele>217.4</ele>
      </trkpt>
      <trkpt lat="45.18758" lon="-72.5561">
        <ele>216.1</ele>
      </trkpt>
      <trkpt lat="45.18756" lon="-72.55655">
        <ele>215.1</ele>
      </trkpt>
      <trkpt lat="45.18757" lon="-72.55718">
        <ele>212.9</ele>
      </trkpt>
      <trkpt lat="45.18759" lon="-72.55749">
        <ele>211.8</ele>
      </trkpt>
      <trkpt lat="45.18773" lon="-72.5582">
        <ele>210.2</ele>
      </trkpt>
      <trkpt lat="45.18783" lon="-72.55853">
        <ele>209.9</ele>
      </trkpt>
      <trkpt lat="45.188146" lon="-72.559479">
        <ele>209.3</ele>
      </trkpt>
      <trkpt lat="45.188463" lon="-72.560429">
        <ele>209.2</ele>
      </trkpt>
      <trkpt lat="45.18878" lon="-72.56138">
        <ele>208.9</ele>
      </trkpt>
      <trkpt lat="45.189217" lon="-72.562352">
        <ele>207.9</ele>
      </trkpt>
      <trkpt lat="45.189655" lon="-72.563324">
        <ele>207.4</ele>
      </trkpt>
      <trkpt lat="45.190092" lon="-72.564297">
        <ele>206.2</ele>
      </trkpt>
      <trkpt lat="45.19053" lon="-72.56527">
        <ele>205.6</ele>
      </trkpt>
      <trkpt lat="45.190936" lon="-72.566196">
        <ele>205.1</ele>
      </trkpt>
      <trkpt lat="45.191343" lon="-72.567123">
        <ele>204.4</ele>
      </trkpt>
      <trkpt lat="45.19175" lon="-72.56805">
        <ele>205.5</ele>
      </trkpt>
      <trkpt lat="45.19199" lon="-72.5685">
        <ele>204.8</ele>
      </trkpt>
      <trkpt lat="45.19234" lon="-72.56902">
        <ele>204.4</ele>
      </trkpt>
      <trkpt lat="45.19261" lon="-72.56935">
        <ele>204.7</ele>
      </trkpt>
      <trkpt lat="45.19302" lon="-72.56979">
        <ele>206.3</ele>
      </trkpt>
      <trkpt lat="45.19317" lon="-72.56998">
        <ele>208.1</ele>
      </trkpt>
      <trkpt lat="45.19333" lon="-72.57025">
        <ele>208.4</ele>
      </trkpt>
      <trkpt lat="45.19366" lon="-72.57078">
        <ele>208.1</ele>
      </trkpt>
      <trkpt lat="45.19379" lon="-72.57101">
        <ele>207.9</ele>
      </trkpt>
      <trkpt lat="45.19412" lon="-72.57173">
        <ele>206.4</ele>
      </trkpt>
      <trkpt lat="45.19455" lon="-72.57168">
        <ele>203.9</ele>
      </trkpt>
      <trkpt lat="45.19488" lon="-72.57177">
        <ele>202.7</ele>
      </trkpt>
      <trkpt lat="45.19527" lon="-72.57213">
        <ele>202.1</ele>
      </trkpt>
      <trkpt lat="45.19575" lon="-72.572644">
        <ele>201.7</ele>
      </trkpt>
      <trkpt lat="45.19623" lon="-72.57316">
        <ele>201.4</ele>
      </trkpt>
      <trkpt lat="45.196746" lon="-72.573623">
        <ele>200.8</ele>
      </trkpt>
      <trkpt lat="45.197263" lon="-72.574086">
        <ele>201.3</ele>
      </trkpt>
      <trkpt lat="45.19778" lon="-72.57455">
        <ele>201.1</ele>
      </trkpt>
      <trkpt lat="45.198175" lon="-72.574899">
        <ele>201.5</ele>
      </trkpt>
      <trkpt lat="45.19857" lon="-72.57525">
        <ele>202.9</ele>
      </trkpt>
      <trkpt lat="45.19893" lon="-72.57548">
        <ele>204.7</ele>
      </trkpt>
      <trkpt lat="45.19897" lon="-72.57548">
        <ele>204.7</ele>
      </trkpt>
      <trkpt lat="45.19929" lon="-72.57554">
        <ele>205.6</ele>
      </trkpt>
      <trkpt lat="45.1999" lon="-72.575544">
        <ele>205.4</ele>
      </trkpt>
      <trkpt lat="45.20051" lon="-72.57555">
        <ele>203.8</ele>
      </trkpt>
      <trkpt lat="45.20077" lon="-72.57557">
        <ele>202.5</ele>
      </trkpt>
      <trkpt lat="45.20134" lon="-72.5757">
        <ele>200.7</ele>
      </trkpt>
      <trkpt lat="45.20182" lon="-72.57589">
        <ele>200.1</ele>
      </trkpt>
      <trkpt lat="45.20206" lon="-72.57602">
        <ele>200.1</ele>
      </trkpt>
      <trkpt lat="45.202785" lon="-72.576514">
        <ele>200.8</ele>
      </trkpt>
      <trkpt lat="45.20351" lon="-72.57701">
        <ele>202.5</ele>
      </trkpt>
      <trkpt lat="45.20408" lon="-72.57745">
        <ele>204.4</ele>
      </trkpt>
      <trkpt lat="45.20462" lon="-72.57794">
        <ele>203.8</ele>
      </trkpt>
      <trkpt lat="45.20485" lon="-72.57817">
        <ele>202.5</ele>
      </trkpt>
      <trkpt lat="45.20505" lon="-72.57843">
        <ele>202</ele>
      </trkpt>
      <trkpt lat="45.205546" lon="-72.579253">
        <ele>201.7</ele>
      </trkpt>
      <trkpt lat="45.206043" lon="-72.580076">
        <ele>202.2</ele>
      </trkpt>
      <trkpt lat="45.20654" lon="-72.5809">
        <ele>203.2</ele>
      </trkpt>
      <trkpt lat="45.20677" lon="-72.58143">
        <ele>203.6</ele>
      </trkpt>
      <trkpt lat="45.20695" lon="-72.58188">
        <ele>203.7</ele>
      </trkpt>
      <trkpt lat="45.20704" lon="-72.58215">
        <ele>203.7</ele>
      </trkpt>
      <trkpt lat="45.20718" lon="-72.58266">
        <ele>203.7</ele>
      </trkpt>
      <trkpt lat="45.20744" lon="-72.583864">
        <ele>200.2</ele>
      </trkpt>
      <trkpt lat="45.2077" lon="-72.58507">
        <ele>195.8</ele>
      </trkpt>
      <trkpt lat="45.20778" lon="-72.58538">
        <ele>194.8</ele>
      </trkpt>
      <trkpt lat="45.20793" lon="-72.58579">
        <ele>193.8</ele>
      </trkpt>
      <trkpt lat="45.2081" lon="-72.58619">
        <ele>193.3</ele>
      </trkpt>
      <trkpt lat="45.20828" lon="-72.5865">
        <ele>193.1</ele>
      </trkpt>
      <trkpt lat="45.20857" lon="-72.58694">
        <ele>193.3</ele>
      </trkpt>
      <trkpt lat="45.2088" lon="-72.58721">
        <ele>193.4</ele>
      </trkpt>
      <trkpt lat="45.20902" lon="-72.58744">
        <ele>194.4</ele>
      </trkpt>
      <trkpt lat="45.20925" lon="-72.58762">
        <ele>195.2</ele>
      </trkpt>
      <trkpt lat="45.20977" lon="-72.58793">
        <ele>198.2</ele>
      </trkpt>
      <trkpt lat="45.21063" lon="-72.588284">
        <ele>201.9</ele>
      </trkpt>
      <trkpt lat="45.21149" lon="-72.58864">
        <ele>208.1</ele>
      </trkpt>
      <trkpt lat="45.21175" lon="-72.58878">
        <ele>211.2</ele>
      </trkpt>
      <trkpt lat="45.21195" lon="-72.58891">
        <ele>213.2</ele>
      </trkpt>
      <trkpt lat="45.21218" lon="-72.5891">
        <ele>214.1</ele>
      </trkpt>
      <trkpt lat="45.21246" lon="-72.5895">
        <ele>216.9</ele>
      </trkpt>
      <trkpt lat="45.21263" lon="-72.58977">
        <ele>217.7</ele>
      </trkpt>
      <trkpt lat="45.21278" lon="-72.59012">
        <ele>218.9</ele>
      </trkpt>
      <trkpt lat="45.2129" lon="-72.59048">
        <ele>219.8</ele>
      </trkpt>
      <trkpt lat="45.21304" lon="-72.59102">
        <ele>220.3</ele>
      </trkpt>
      <trkpt lat="45.213205" lon="-72.591804">
        <ele>220.3</ele>
      </trkpt>
      <trkpt lat="45.21337" lon="-72.59259">
        <ele>219.3</ele>
      </trkpt>
      <trkpt lat="45.21351" lon="-72.59311">
        <ele>217.8</ele>
      </trkpt>
      <trkpt lat="45.21363" lon="-72.59344">
        <ele>217.1</ele>
      </trkpt>
      <trkpt lat="45.21376" lon="-72.59375">
        <ele>215.9</ele>
      </trkpt>
      <trkpt lat="45.21402" lon="-72.59419">
        <ele>213.3</ele>
      </trkpt>
      <trkpt lat="45.2143" lon="-72.5946">
        <ele>210.3</ele>
      </trkpt>
      <trkpt lat="45.21458" lon="-72.59492">
        <ele>208.4</ele>
      </trkpt>
      <trkpt lat="45.215" lon="-72.59527">
        <ele>205.3</ele>
      </trkpt>
      <trkpt lat="45.21523" lon="-72.59541">
        <ele>204.1</ele>
      </trkpt>
      <trkpt lat="45.21543" lon="-72.5955">
        <ele>202</ele>
      </trkpt>
      <trkpt lat="45.21549" lon="-72.59554">
        <ele>202</ele>
      </trkpt>
      <trkpt lat="45.21591" lon="-72.59568">
        <ele>198.5</ele>
      </trkpt>
      <trkpt lat="45.21613" lon="-72.59572">
        <ele>197.7</ele>
      </trkpt>
      <trkpt lat="45.2164" lon="-72.59572">
        <ele>196.2</ele>
      </trkpt>
      <trkpt lat="45.21725" lon="-72.595734">
        <ele>191.7</ele>
      </trkpt>
      <trkpt lat="45.2181" lon="-72.595749">
        <ele>190</ele>
      </trkpt>
      <trkpt lat="45.21895" lon="-72.595764">
        <ele>191.2</ele>
      </trkpt>
      <trkpt lat="45.2198" lon="-72.595779">
        <ele>193.4</ele>
      </trkpt>
      <trkpt lat="45.22065" lon="-72.595794">
        <ele>198.5</ele>
      </trkpt>
      <trkpt lat="45.2215" lon="-72.595809">
        <ele>205.5</ele>
      </trkpt>
      <trkpt lat="45.22235" lon="-72.595824">
        <ele>212.2</ele>
      </trkpt>
      <trkpt lat="45.2232" lon="-72.59584">
        <ele>219.1</ele>
      </trkpt>
      <trkpt lat="45.22381" lon="-72.59586">
        <ele>221.9</ele>
      </trkpt>
      <trkpt lat="45.224698" lon="-72.595892">
        <ele>224.9</ele>
      </trkpt>
      <trkpt lat="45.225587" lon="-72.595925">
        <ele>226</ele>
      </trkpt>
      <trkpt lat="45.226476" lon="-72.595957">
        <ele>227.3</ele>
      </trkpt>
      <trkpt lat="45.227364" lon="-72.59599">
        <ele>230.1</ele>
      </trkpt>
      <trkpt lat="45.228253" lon="-72.596023">
        <ele>232.3</ele>
      </trkpt>
      <trkpt lat="45.229142" lon="-72.596055">
        <ele>235.2</ele>
      </trkpt>
      <trkpt lat="45.23003" lon="-72.596088">
        <ele>238.8</ele>
      </trkpt>
      <trkpt lat="45.230919" lon="-72.596121">
        <ele>241.1</ele>
      </trkpt>
      <trkpt lat="45.231808" lon="-72.596153">
        <ele>245.4</ele>
      </trkpt>
      <trkpt lat="45.232696" lon="-72.596186">
        <ele>247.5</ele>
      </trkpt>
      <trkpt lat="45.233585" lon="-72.596219">
        <ele>249.5</ele>
      </trkpt>
      <trkpt lat="45.234474" lon="-72.596251">
        <ele>250.4</ele>
      </trkpt>
      <trkpt lat="45.235362" lon="-72.596284">
        <ele>249.9</ele>
      </trkpt>
      <trkpt lat="45.236251" lon="-72.596317">
        <ele>247.8</ele>
      </trkpt>
      <trkpt lat="45.23714" lon="-72.59635">
        <ele>243.3</ele>
      </trkpt>
      <trkpt lat="45.237902" lon="-72.596392">
        <ele>241.4</ele>
      </trkpt>
      <trkpt lat="45.238664" lon="-72.596434">
        <ele>241.3</ele>
      </trkpt>
      <trkpt lat="45.239427" lon="-72.596477">
        <ele>241.8</ele>
      </trkpt>
      <trkpt lat="45.24019" lon="-72.59652">
        <ele>242.2</ele>
      </trkpt>
      <trkpt lat="45.240966" lon="-72.596557">
        <ele>243.2</ele>
      </trkpt>
      <trkpt lat="45.241742" lon="-72.596595">
        <ele>243.4</ele>
      </trkpt>
      <trkpt lat="45.242518" lon="-72.596633">
        <ele>243.6</ele>
      </trkpt>
      <trkpt lat="45.243293" lon="-72.596671">
        <ele>243.4</ele>
      </trkpt>
      <trkpt lat="45.24407" lon="-72.59671">
        <ele>243.1</ele>
      </trkpt>
      <trkpt lat="45.24485" lon="-72.5967">
        <ele>243.4</ele>
      </trkpt>
      <trkpt lat="45.2451" lon="-72.59666">
        <ele>243.5</ele>
      </trkpt>
      <trkpt lat="45.24561" lon="-72.59654">
        <ele>243.4</ele>
      </trkpt>
      <trkpt lat="45.24612" lon="-72.59639">
        <ele>243.9</ele>
      </trkpt>
      <trkpt lat="45.24636" lon="-72.5963">
        <ele>243.9</ele>
      </trkpt>
      <trkpt lat="45.2469" lon="-72.59607">
        <ele>244.1</ele>
      </trkpt>
      <trkpt lat="45.24742" lon="-72.59576">
        <ele>244.1</ele>
      </trkpt>
      <trkpt lat="45.24812" lon="-72.595264">
        <ele>244.1</ele>
      </trkpt>
      <trkpt lat="45.24882" lon="-72.594768">
        <ele>244.2</ele>
      </trkpt>
      <trkpt lat="45.24952" lon="-72.594272">
        <ele>244.2</ele>
      </trkpt>
      <trkpt lat="45.25022" lon="-72.593776">
        <ele>244.9</ele>
      </trkpt>
      <trkpt lat="45.25092" lon="-72.59328">
        <ele>246.2</ele>
      </trkpt>
      <trkpt lat="45.25139" lon="-72.59294">
        <ele>247.2</ele>
      </trkpt>
      <trkpt lat="45.25138" lon="-72.59294">
        <ele>247.2</ele>
      </trkpt>
      <trkpt lat="45.252168" lon="-72.592358">
        <ele>248.7</ele>
      </trkpt>
      <trkpt lat="45.252957" lon="-72.591777">
        <ele>249.7</ele>
      </trkpt>
      <trkpt lat="45.253746" lon="-72.591196">
        <ele>250.1</ele>
      </trkpt>
      <trkpt lat="45.254535" lon="-72.590615">
        <ele>250.2</ele>
      </trkpt>
      <trkpt lat="45.255323" lon="-72.590033">
        <ele>250.2</ele>
      </trkpt>
      <trkpt lat="45.256112" lon="-72.589452">
        <ele>250.3</ele>
      </trkpt>
      <trkpt lat="45.256901" lon="-72.588871">
        <ele>250.5</ele>
      </trkpt>
      <trkpt lat="45.25769" lon="-72.58829">
        <ele>250.8</ele>
      </trkpt>
      <trkpt lat="45.25836" lon="-72.58793">
        <ele>251</ele>
      </trkpt>
      <trkpt lat="45.25895" lon="-72.58775">
        <ele>250.9</ele>
      </trkpt>
      <trkpt lat="45.25939" lon="-72.58766">
        <ele>250.7</ele>
      </trkpt>
      <trkpt lat="45.2602" lon="-72.58767">
        <ele>249.9</ele>
      </trkpt>
      <trkpt lat="45.26105" lon="-72.58784">
        <ele>248.9</ele>
      </trkpt>
      <trkpt lat="45.2618" lon="-72.58819">
        <ele>248.6</ele>
      </trkpt>
      <trkpt lat="45.26226" lon="-72.58849">
        <ele>247.9</ele>
      </trkpt>
      <trkpt lat="45.262853" lon="-72.588946">
        <ele>246.8</ele>
      </trkpt>
      <trkpt lat="45.263446" lon="-72.589403">
        <ele>245.5</ele>
      </trkpt>
      <trkpt lat="45.26404" lon="-72.58986">
        <ele>244.1</ele>
      </trkpt>
      <trkpt lat="45.264583" lon="-72.590366">
        <ele>242.9</ele>
      </trkpt>
      <trkpt lat="45.265126" lon="-72.590873">
        <ele>242.4</ele>
      </trkpt>
      <trkpt lat="45.26567" lon="-72.59138">
        <ele>241</ele>
      </trkpt>
      <trkpt lat="45.26619" lon="-72.591919">
        <ele>239.8</ele>
      </trkpt>
      <trkpt lat="45.26671" lon="-72.592459">
        <ele>238.3</ele>
      </trkpt>
      <trkpt lat="45.26723" lon="-72.593">
        <ele>237.3</ele>
      </trkpt>
      <trkpt lat="45.26723" lon="-72.59299">
        <ele>237.3</ele>
      </trkpt>
      <trkpt lat="45.26783" lon="-72.59361">
        <ele>236.2</ele>
      </trkpt>
      <trkpt lat="45.268215" lon="-72.593964">
        <ele>235.5</ele>
      </trkpt>
      <trkpt lat="45.2686" lon="-72.59432">
        <ele>234.7</ele>
      </trkpt>
      <trkpt lat="45.26905" lon="-72.59466">
        <ele>232.9</ele>
      </trkpt>
      <trkpt lat="45.26975" lon="-72.59509">
        <ele>230.8</ele>
      </trkpt>
      <trkpt lat="45.2703" lon="-72.59537">
        <ele>228.9</ele>
      </trkpt>
      <trkpt lat="45.27115" lon="-72.59571">
        <ele>224.8</ele>
      </trkpt>
      <trkpt lat="45.27153" lon="-72.59579">
        <ele>222.8</ele>
      </trkpt>
      <trkpt lat="45.27236" lon="-72.59589">
        <ele>216.1</ele>
      </trkpt>
      <trkpt lat="45.27324" lon="-72.59582">
        <ele>212.8</ele>
      </trkpt>
      <trkpt lat="45.27408" lon="-72.595666">
        <ele>204.8</ele>
      </trkpt>
      <trkpt lat="45.27492" lon="-72.595513">
        <ele>200</ele>
      </trkpt>
      <trkpt lat="45.27576" lon="-72.59536">
        <ele>193.5</ele>
      </trkpt>
      <trkpt lat="45.276514" lon="-72.595295">
        <ele>189.1</ele>
      </trkpt>
      <trkpt lat="45.27727" lon="-72.59523">
        <ele>187.4</ele>
      </trkpt>
      <trkpt lat="45.278103" lon="-72.595185">
        <ele>187.2</ele>
      </trkpt>
      <trkpt lat="45.278936" lon="-72.59514">
        <ele>187.2</ele>
      </trkpt>
      <trkpt lat="45.27977" lon="-72.595095">
        <ele>186.9</ele>
      </trkpt>
      <trkpt lat="45.280603" lon="-72.59505">
        <ele>186.2</ele>
      </trkpt>
      <trkpt lat="45.281436" lon="-72.595005">
        <ele>185.8</ele>
      </trkpt>
      <trkpt lat="45.28227" lon="-72.59496">
        <ele>186.3</ele>
      </trkpt>
      <trkpt lat="45.28226" lon="-72.59496">
        <ele>186.3</ele>
      </trkpt>
      <trkpt lat="45.28312" lon="-72.594918">
        <ele>186.9</ele>
      </trkpt>
      <trkpt lat="45.28398" lon="-72.594877">
        <ele>187.6</ele>
      </trkpt>
      <trkpt lat="45.28484" lon="-72.594836">
        <ele>188.3</ele>
      </trkpt>
      <trkpt lat="45.2857" lon="-72.594794">
        <ele>187.7</ele>
      </trkpt>
      <trkpt lat="45.28656" lon="-72.594753">
        <ele>185.7</ele>
      </trkpt>
      <trkpt lat="45.28742" lon="-72.594712">
        <ele>184.5</ele>
      </trkpt>
      <trkpt lat="45.28828" lon="-72.59467">
        <ele>179.8</ele>
      </trkpt>
      <trkpt lat="45.28914" lon="-72.594629">
        <ele>176.1</ele>
      </trkpt>
      <trkpt lat="45.29" lon="-72.594588">
        <ele>173.5</ele>
      </trkpt>
      <trkpt lat="45.29086" lon="-72.594546">
        <ele>171.4</ele>
      </trkpt>
      <trkpt lat="45.29172" lon="-72.594505">
        <ele>170.7</ele>
      </trkpt>
      <trkpt lat="45.29258" lon="-72.594464">
        <ele>169.1</ele>
      </trkpt>
      <trkpt lat="45.29344" lon="-72.594422">
        <ele>168.7</ele>
      </trkpt>
      <trkpt lat="45.2943" lon="-72.594381">
        <ele>168.8</ele>
      </trkpt>
      <trkpt lat="45.29516" lon="-72.59434">
        <ele>169.4</ele>
      </trkpt>
      <trkpt lat="45.29515" lon="-72.59434">
        <ele>169.4</ele>
      </trkpt>
      <trkpt lat="45.295813" lon="-72.594306">
        <ele>171.4</ele>
      </trkpt>
      <trkpt lat="45.296476" lon="-72.594273">
        <ele>170.6</ele>
      </trkpt>
      <trkpt lat="45.29714" lon="-72.59424">
        <ele>170.3</ele>
      </trkpt>
      <trkpt lat="45.29747" lon="-72.59415">
        <ele>169.7</ele>
      </trkpt>
      <trkpt lat="45.29825" lon="-72.59375">
        <ele>166.4</ele>
      </trkpt>
      <trkpt lat="45.29854" lon="-72.59362">
        <ele>164.1</ele>
      </trkpt>
      <trkpt lat="45.2988" lon="-72.59352">
        <ele>162.1</ele>
      </trkpt>
      <trkpt lat="45.29924" lon="-72.59343">
        <ele>156.5</ele>
      </trkpt>
      <trkpt lat="45.29972" lon="-72.59339">
        <ele>152.9</ele>
      </trkpt>
      <trkpt lat="45.30029" lon="-72.59348">
        <ele>149</ele>
      </trkpt>
      <trkpt lat="45.300815" lon="-72.593659">
        <ele>148</ele>
      </trkpt>
      <trkpt lat="45.30134" lon="-72.59384">
        <ele>146.1</ele>
      </trkpt>
      <trkpt lat="45.30156" lon="-72.5939">
        <ele>144.8</ele>
      </trkpt>
      <trkpt lat="45.30191" lon="-72.59394">
        <ele>143.7</ele>
      </trkpt>
      <trkpt lat="45.30241" lon="-72.59402">
        <ele>143</ele>
      </trkpt>
      <trkpt lat="45.30275" lon="-72.59402">
        <ele>143.5</ele>
      </trkpt>
      <trkpt lat="45.303329" lon="-72.59398">
        <ele>145.8</ele>
      </trkpt>
      <trkpt lat="45.30391" lon="-72.59394">
        <ele>147.9</ele>
      </trkpt>
      <trkpt lat="45.304756" lon="-72.593866">
        <ele>152.1</ele>
      </trkpt>
      <trkpt lat="45.305603" lon="-72.593793">
        <ele>155.1</ele>
      </trkpt>
      <trkpt lat="45.30645" lon="-72.59372">
        <ele>157.3</ele>
      </trkpt>
      <trkpt lat="45.30644" lon="-72.59372">
        <ele>157.3</ele>
      </trkpt>
      <trkpt lat="45.30728" lon="-72.59366">
        <ele>159.2</ele>
      </trkpt>
      <trkpt lat="45.30728" lon="-72.594579">
        <ele>157.6</ele>
      </trkpt>
      <trkpt lat="45.30728" lon="-72.5955">
        <ele>156.1</ele>
      </trkpt>
      <trkpt lat="45.308039" lon="-72.59547">
        <ele>154.5</ele>
      </trkpt>
      <trkpt lat="45.3088" lon="-72.59544">
        <ele>156.1</ele>
      </trkpt>
      <trkpt lat="45.30879" lon="-72.59544">
        <ele>156.1</ele>
      </trkpt>
      <trkpt lat="45.309637" lon="-72.595397">
        <ele>156.4</ele>
      </trkpt>
      <trkpt lat="45.310485" lon="-72.595355">
        <ele>156.3</ele>
      </trkpt>
      <trkpt lat="45.311332" lon="-72.595312">
        <ele>157.6</ele>
      </trkpt>
      <trkpt lat="45.31218" lon="-72.59527">
        <ele>159.3</ele>
      </trkpt>
      <trkpt lat="45.312895" lon="-72.595255">
        <ele>161.9</ele>
      </trkpt>
      <trkpt lat="45.31361" lon="-72.59524">
        <ele>162.1</ele>
      </trkpt>
      <trkpt lat="45.314486" lon="-72.5952">
        <ele>159.8</ele>
      </trkpt>
      <trkpt lat="45.315363" lon="-72.59516">
        <ele>160.1</ele>
      </trkpt>
      <trkpt lat="45.31624" lon="-72.59512">
        <ele>160.8</ele>
      </trkpt>
      <trkpt lat="45.31705" lon="-72.59511">
        <ele>159.8</ele>
      </trkpt>
      <trkpt lat="45.31716" lon="-72.59509">
        <ele>159.8</ele>
      </trkpt>
      <trkpt lat="45.31736" lon="-72.59505">
        <ele>160.1</ele>
      </trkpt>
      <trkpt lat="45.31754" lon="-72.59489">
        <ele>160.2</ele>
      </trkpt>
      <trkpt lat="45.31777" lon="-72.5946">
        <ele>160.6</ele>
      </trkpt>
      <trkpt lat="45.31812" lon="-72.59404">
        <ele>161.5</ele>
      </trkpt>
      <trkpt lat="45.31847" lon="-72.59348">
        <ele>162</ele>
      </trkpt>
      <trkpt lat="45.31864" lon="-72.5933">
        <ele>162</ele>
      </trkpt>
      <trkpt lat="45.31882" lon="-72.59317">
        <ele>161.8</ele>
      </trkpt>
      <trkpt lat="45.31902" lon="-72.59308">
        <ele>161.8</ele>
      </trkpt>
      <trkpt lat="45.31923" lon="-72.59308">
        <ele>161.9</ele>
      </trkpt>
      <trkpt lat="45.319991" lon="-72.593123">
        <ele>164.8</ele>
      </trkpt>
      <trkpt lat="45.320753" lon="-72.593166">
        <ele>169.8</ele>
      </trkpt>
      <trkpt lat="45.321515" lon="-72.593209">
        <ele>171.2</ele>
      </trkpt>
      <trkpt lat="45.322276" lon="-72.593253">
        <ele>173.3</ele>
      </trkpt>
      <trkpt lat="45.323038" lon="-72.593296">
        <ele>175.6</ele>
      </trkpt>
      <trkpt lat="45.3238" lon="-72.59334">
        <ele>176.1</ele>
      </trkpt>
      <trkpt lat="45.32378" lon="-72.59259">
        <ele>175.3</ele>
      </trkpt>
      <trkpt lat="45.32379" lon="-72.59222">
        <ele>175.2</ele>
      </trkpt>
      <trkpt lat="45.32385" lon="-72.59147">
        <ele>175.4</ele>
      </trkpt>
      <trkpt lat="45.32392" lon="-72.59095">
        <ele>175.6</ele>
      </trkpt>
      <trkpt lat="45.32392" lon="-72.59096">
        <ele>175.6</ele>
      </trkpt>
      <trkpt lat="45.32396" lon="-72.59075">
        <ele>175.9</ele>
      </trkpt>
      <trkpt lat="45.32412" lon="-72.59004">
        <ele>176.5</ele>
      </trkpt>
      <trkpt lat="45.32432" lon="-72.58937">
        <ele>177.4</ele>
      </trkpt>
      <trkpt lat="45.32457" lon="-72.58874">
        <ele>178.4</ele>
      </trkpt>
      <trkpt lat="45.325063" lon="-72.58774">
        <ele>179.4</ele>
      </trkpt>
      <trkpt lat="45.325556" lon="-72.58674">
        <ele>180.8</ele>
      </trkpt>
      <trkpt lat="45.32605" lon="-72.58574">
        <ele>182.3</ele>
      </trkpt>
      <trkpt lat="45.32638" lon="-72.58501">
        <ele>183</ele>
      </trkpt>
      <trkpt lat="45.32671" lon="-72.58386">
        <ele>183.9</ele>
      </trkpt>
      <trkpt lat="45.32688" lon="-72.58287">
        <ele>184.9</ele>
      </trkpt>
      <trkpt lat="45.32692" lon="-72.58251">
        <ele>185.5</ele>
      </trkpt>
      <trkpt lat="45.32697" lon="-72.58165">
        <ele>186.2</ele>
      </trkpt>
      <trkpt lat="45.326928" lon="-72.580505">
        <ele>186.4</ele>
      </trkpt>
      <trkpt lat="45.326886" lon="-72.579361">
        <ele>187.3</ele>
      </trkpt>
      <trkpt lat="45.326844" lon="-72.578217">
        <ele>188.2</ele>
      </trkpt>
      <trkpt lat="45.326802" lon="-72.577073">
        <ele>190</ele>
      </trkpt>
      <trkpt lat="45.32676" lon="-72.57593">
        <ele>191.2</ele>
      </trkpt>
      <trkpt lat="45.32677" lon="-72.57486">
        <ele>192.8</ele>
      </trkpt>
      <trkpt lat="45.32678" lon="-72.57455">
        <ele>192.8</ele>
      </trkpt>
      <trkpt lat="45.32678" lon="-72.57456">
        <ele>192.8</ele>
      </trkpt>
      <trkpt lat="45.32682" lon="-72.57405">
        <ele>193.6</ele>
      </trkpt>
      <trkpt lat="45.32698" lon="-72.57281">
        <ele>195</ele>
      </trkpt>
      <trkpt lat="45.32714" lon="-72.57204">
        <ele>195</ele>
      </trkpt>
      <trkpt lat="45.32732" lon="-72.57132">
        <ele>195.3</ele>
      </trkpt>
      <trkpt lat="45.32756" lon="-72.57056">
        <ele>195.8</ele>
      </trkpt>
      <trkpt lat="45.32787" lon="-72.56972">
        <ele>196.4</ele>
      </trkpt>
      <trkpt lat="45.32836" lon="-72.56872">
        <ele>197.7</ele>
      </trkpt>
      <trkpt lat="45.328881" lon="-72.567735">
        <ele>198.9</ele>
      </trkpt>
      <trkpt lat="45.329403" lon="-72.56675">
        <ele>200.2</ele>
      </trkpt>
      <trkpt lat="45.329925" lon="-72.565765">
        <ele>201.6</ele>
      </trkpt>
      <trkpt lat="45.330446" lon="-72.56478">
        <ele>203.1</ele>
      </trkpt>
      <trkpt lat="45.330968" lon="-72.563795">
        <ele>204.8</ele>
      </trkpt>
      <trkpt lat="45.33149" lon="-72.56281">
        <ele>206.3</ele>
      </trkpt>
      <trkpt lat="45.332011" lon="-72.561825">
        <ele>207.3</ele>
      </trkpt>
      <trkpt lat="45.332533" lon="-72.56084">
        <ele>208.6</ele>
      </trkpt>
      <trkpt lat="45.333055" lon="-72.559855">
        <ele>209.5</ele>
      </trkpt>
      <trkpt lat="45.333576" lon="-72.55887">
        <ele>210.8</ele>
      </trkpt>
      <trkpt lat="45.334098" lon="-72.557885">
        <ele>211.4</ele>
      </trkpt>
      <trkpt lat="45.33462" lon="-72.5569">
        <ele>212</ele>
      </trkpt>
      <trkpt lat="45.33496" lon="-72.55619">
        <ele>212.5</ele>
      </trkpt>
      <trkpt lat="45.33534" lon="-72.55517">
        <ele>212.8</ele>
      </trkpt>
      <trkpt lat="45.3356" lon="-72.55431">
        <ele>213.2</ele>
      </trkpt>
      <trkpt lat="45.335735" lon="-72.55368">
        <ele>213.7</ele>
      </trkpt>
      <trkpt lat="45.33587" lon="-72.55305">
        <ele>213.9</ele>
      </trkpt>
      <trkpt lat="45.33601" lon="-72.55208">
        <ele>214.2</ele>
      </trkpt>
      <trkpt lat="45.336106" lon="-72.551063">
        <ele>214.4</ele>
      </trkpt>
      <trkpt lat="45.336203" lon="-72.550046">
        <ele>214.4</ele>
      </trkpt>
      <trkpt lat="45.3363" lon="-72.54903">
        <ele>214.6</ele>
      </trkpt>
      <trkpt lat="45.33642" lon="-72.547788">
        <ele>214.5</ele>
      </trkpt>
      <trkpt lat="45.33654" lon="-72.546546">
        <ele>214.3</ele>
      </trkpt>
      <trkpt lat="45.33666" lon="-72.545304">
        <ele>214.1</ele>
      </trkpt>
      <trkpt lat="45.33678" lon="-72.544062">
        <ele>213.9</ele>
      </trkpt>
      <trkpt lat="45.3369" lon="-72.54282">
        <ele>213.4</ele>
      </trkpt>
      <trkpt lat="45.33702" lon="-72.541578">
        <ele>212.9</ele>
      </trkpt>
      <trkpt lat="45.33714" lon="-72.540336">
        <ele>212.1</ele>
      </trkpt>
      <trkpt lat="45.33726" lon="-72.539094">
        <ele>211.6</ele>
      </trkpt>
      <trkpt lat="45.33738" lon="-72.537852">
        <ele>211.2</ele>
      </trkpt>
      <trkpt lat="45.3375" lon="-72.53661">
        <ele>210.9</ele>
      </trkpt>
      <trkpt lat="45.3375" lon="-72.53662">
        <ele>210.9</ele>
      </trkpt>
      <trkpt lat="45.33761" lon="-72.535455">
        <ele>210.7</ele>
      </trkpt>
      <trkpt lat="45.33772" lon="-72.53429">
        <ele>211.3</ele>
      </trkpt>
      <trkpt lat="45.33756" lon="-72.53431">
        <ele>211.1</ele>
      </trkpt>
      <trkpt lat="45.33743" lon="-72.53435">
        <ele>210.9</ele>
      </trkpt>
      <trkpt lat="45.33704" lon="-72.53452">
        <ele>210.9</ele>
      </trkpt>
      <trkpt lat="45.33686" lon="-72.53456">
        <ele>211</ele>
      </trkpt>
      <trkpt lat="45.3366" lon="-72.53465">
        <ele>211.4</ele>
      </trkpt>
      <trkpt lat="45.33653" lon="-72.53465">
        <ele>211.4</ele>
      </trkpt>
      <trkpt lat="45.33646" lon="-72.5346">
        <ele>211.4</ele>
      </trkpt>
      <trkpt lat="45.33641" lon="-72.53467">
        <ele>211.4</ele>
      </trkpt>
      <trkpt lat="45.33589" lon="-72.53411">
        <ele>212.3</ele>
      </trkpt>
      <trkpt lat="45.335406" lon="-72.533553">
        <ele>213</ele>
      </trkpt>
      <trkpt lat="45.334923" lon="-72.532996">
        <ele>215.3</ele>
      </trkpt>
      <trkpt lat="45.33444" lon="-72.53244">
        <ele>216.6</ele>
      </trkpt>
      <trkpt lat="45.333855" lon="-72.531784">
        <ele>219.1</ele>
      </trkpt>
      <trkpt lat="45.33327" lon="-72.53113">
        <ele>222</ele>
      </trkpt>
      <trkpt lat="45.3327" lon="-72.53053">
        <ele>224.7</ele>
      </trkpt>
      <trkpt lat="45.33256" lon="-72.53042">
        <ele>225.2</ele>
      </trkpt>
      <trkpt lat="45.33233" lon="-72.53022">
        <ele>227</ele>
      </trkpt>
      <trkpt lat="45.33195" lon="-72.52995">
        <ele>230.9</ele>
      </trkpt>
      <trkpt lat="45.33175" lon="-72.52982">
        <ele>233.6</ele>
      </trkpt>
      <trkpt lat="45.33134" lon="-72.52959">
        <ele>237.3</ele>
      </trkpt>
      <trkpt lat="45.33072" lon="-72.52933">
        <ele>242.3</ele>
      </trkpt>
      <trkpt lat="45.33029" lon="-72.52924">
        <ele>245.7</ele>
      </trkpt>
      <trkpt lat="45.3297" lon="-72.52915">
        <ele>249.3</ele>
      </trkpt>
      <trkpt lat="45.328892" lon="-72.529072">
        <ele>250.9</ele>
      </trkpt>
      <trkpt lat="45.328085" lon="-72.528994">
        <ele>251.4</ele>
      </trkpt>
      <trkpt lat="45.327277" lon="-72.528917">
        <ele>252.2</ele>
      </trkpt>
      <trkpt lat="45.32647" lon="-72.52884">
        <ele>253.2</ele>
      </trkpt>
      <trkpt lat="45.325613" lon="-72.528786">
        <ele>254</ele>
      </trkpt>
      <trkpt lat="45.324756" lon="-72.528733">
        <ele>256.1</ele>
      </trkpt>
      <trkpt lat="45.3239" lon="-72.52868">
        <ele>255.7</ele>
      </trkpt>
      <trkpt lat="45.323157" lon="-72.528617">
        <ele>254.1</ele>
      </trkpt>
      <trkpt lat="45.322415" lon="-72.528554">
        <ele>251</ele>
      </trkpt>
      <trkpt lat="45.321672" lon="-72.528492">
        <ele>248.9</ele>
      </trkpt>
      <trkpt lat="45.32093" lon="-72.52843">
        <ele>248.4</ele>
      </trkpt>
      <trkpt lat="45.320106" lon="-72.528353">
        <ele>248.3</ele>
      </trkpt>
      <trkpt lat="45.319283" lon="-72.528276">
        <ele>247.8</ele>
      </trkpt>
      <trkpt lat="45.31846" lon="-72.5282">
        <ele>247.1</ele>
      </trkpt>
      <trkpt lat="45.317949" lon="-72.528164">
        <ele>246.4</ele>
      </trkpt>
      <trkpt lat="45.31744" lon="-72.52813">
        <ele>246.1</ele>
      </trkpt>
      <trkpt lat="45.3166" lon="-72.52814">
        <ele>247.3</ele>
      </trkpt>
      <trkpt lat="45.31589" lon="-72.528175">
        <ele>246.3</ele>
      </trkpt>
      <trkpt lat="45.31518" lon="-72.52821">
        <ele>242.2</ele>
      </trkpt>
      <trkpt lat="45.31447" lon="-72.528245">
        <ele>239.4</ele>
      </trkpt>
      <trkpt lat="45.31376" lon="-72.52828">
        <ele>237.6</ele>
      </trkpt>
      <trkpt lat="45.312965" lon="-72.528325">
        <ele>235.2</ele>
      </trkpt>
      <trkpt lat="45.312171" lon="-72.528371">
        <ele>232.1</ele>
      </trkpt>
      <trkpt lat="45.311377" lon="-72.528417">
        <ele>228.5</ele>
      </trkpt>
      <trkpt lat="45.310582" lon="-72.528462">
        <ele>227.9</ele>
      </trkpt>
      <trkpt lat="45.309788" lon="-72.528508">
        <ele>228.2</ele>
      </trkpt>
      <trkpt lat="45.308994" lon="-72.528554">
        <ele>228.1</ele>
      </trkpt>
      <trkpt lat="45.3082" lon="-72.5286">
        <ele>227.5</ele>
      </trkpt>
      <trkpt lat="45.30819" lon="-72.5286">
        <ele>227.5</ele>
      </trkpt>
      <trkpt lat="45.30746" lon="-72.52865">
        <ele>225.1</ele>
      </trkpt>
      <trkpt lat="45.30746" lon="-72.52745">
        <ele>223.4</ele>
      </trkpt>
      <trkpt lat="45.30749" lon="-72.527">
        <ele>220.9</ele>
      </trkpt>
      <trkpt lat="45.30758" lon="-72.52656">
        <ele>218.1</ele>
      </trkpt>
      <trkpt lat="45.307785" lon="-72.525755">
        <ele>210.8</ele>
      </trkpt>
      <trkpt lat="45.30799" lon="-72.52495">
        <ele>207.8</ele>
      </trkpt>
      <trkpt lat="45.308095" lon="-72.524165">
        <ele>209.5</ele>
      </trkpt>
      <trkpt lat="45.3082" lon="-72.52338">
        <ele>213.3</ele>
      </trkpt>
      <trkpt lat="45.3083" lon="-72.52284">
        <ele>214.6</ele>
      </trkpt>
      <trkpt lat="45.308532" lon="-72.521777">
        <ele>217.5</ele>
      </trkpt>
      <trkpt lat="45.308765" lon="-72.520715">
        <ele>220.5</ele>
      </trkpt>
      <trkpt lat="45.308997" lon="-72.519652">
        <ele>223.6</ele>
      </trkpt>
      <trkpt lat="45.30923" lon="-72.51859">
        <ele>225.8</ele>
      </trkpt>
      <trkpt lat="45.30923" lon="-72.5186">
        <ele>225.8</ele>
      </trkpt>
      <trkpt lat="45.3094" lon="-72.51742">
        <ele>226.8</ele>
      </trkpt>
      <trkpt lat="45.309465" lon="-72.516715">
        <ele>227.6</ele>
      </trkpt>
      <trkpt lat="45.30953" lon="-72.51601">
        <ele>229.1</ele>
      </trkpt>
      <trkpt lat="45.30958" lon="-72.51526">
        <ele>229.9</ele>
      </trkpt>
      <trkpt lat="45.30963" lon="-72.51451">
        <ele>230.8</ele>
      </trkpt>
      <trkpt lat="45.30965" lon="-72.51401">
        <ele>230.7</ele>
      </trkpt>
      <trkpt lat="45.30962" lon="-72.513164">
        <ele>227.7</ele>
      </trkpt>
      <trkpt lat="45.30959" lon="-72.51232">
        <ele>226.2</ele>
      </trkpt>
      <trkpt lat="45.30951" lon="-72.51172">
        <ele>227</ele>
      </trkpt>
      <trkpt lat="45.30924" lon="-72.51075">
        <ele>230.8</ele>
      </trkpt>
      <trkpt lat="45.30903" lon="-72.51025">
        <ele>228</ele>
      </trkpt>
      <trkpt lat="45.30863" lon="-72.509369">
        <ele>223.6</ele>
      </trkpt>
      <trkpt lat="45.30823" lon="-72.508489">
        <ele>223.3</ele>
      </trkpt>
      <trkpt lat="45.30783" lon="-72.50761">
        <ele>226.5</ele>
      </trkpt>
      <trkpt lat="45.3077" lon="-72.50722">
        <ele>227.3</ele>
      </trkpt>
      <trkpt lat="45.30757" lon="-72.50663">
        <ele>226.8</ele>
      </trkpt>
      <trkpt lat="45.30752" lon="-72.50596">
        <ele>224.5</ele>
      </trkpt>
      <trkpt lat="45.307545" lon="-72.504755">
        <ele>223</ele>
      </trkpt>
      <trkpt lat="45.30757" lon="-72.50355">
        <ele>223.9</ele>
      </trkpt>
      <trkpt lat="45.30757" lon="-72.502543">
        <ele>223.9</ele>
      </trkpt>
      <trkpt lat="45.30757" lon="-72.501536">
        <ele>224</ele>
      </trkpt>
      <trkpt lat="45.30757" lon="-72.50053">
        <ele>221.5</ele>
      </trkpt>
      <trkpt lat="45.30757" lon="-72.50054">
        <ele>221.5</ele>
      </trkpt>
      <trkpt lat="45.30757" lon="-72.49984">
        <ele>220.1</ele>
      </trkpt>
      <trkpt lat="45.30757" lon="-72.49914">
        <ele>221</ele>
      </trkpt>
      <trkpt lat="45.30793" lon="-72.49925">
        <ele>221.5</ele>
      </trkpt>
      <trkpt lat="45.3082" lon="-72.49932">
        <ele>222.1</ele>
      </trkpt>
      <trkpt lat="45.30848" lon="-72.49933">
        <ele>222.9</ele>
      </trkpt>
      <trkpt lat="45.30883" lon="-72.4993">
        <ele>223.9</ele>
      </trkpt>
      <trkpt lat="45.30878" lon="-72.49904">
        <ele>224.6</ele>
      </trkpt>
      <trkpt lat="45.30865" lon="-72.49906">
        <ele>224.3</ele>
      </trkpt>
      <trkpt lat="45.30834" lon="-72.49906">
        <ele>223.6</ele>
      </trkpt>
      <trkpt lat="45.30865" lon="-72.49906">
        <ele>224.3</ele>
      </trkpt>
      <trkpt lat="45.30878" lon="-72.49904">
        <ele>224.6</ele>
      </trkpt>
      <trkpt lat="45.30865" lon="-72.49906">
        <ele>224.3</ele>
      </trkpt>
      <trkpt lat="45.30828" lon="-72.49906">
        <ele>223.7</ele>
      </trkpt>
      <trkpt lat="45.30806" lon="-72.49902">
        <ele>223.1</ele>
      </trkpt>
      <trkpt lat="45.3076" lon="-72.49888">
        <ele>222.7</ele>
      </trkpt>
      <trkpt lat="45.306896" lon="-72.498596">
        <ele>221.8</ele>
      </trkpt>
      <trkpt lat="45.306193" lon="-72.498313">
        <ele>221.4</ele>
      </trkpt>
      <trkpt lat="45.30549" lon="-72.49803">
        <ele>220.7</ele>
      </trkpt>
      <trkpt lat="45.304833" lon="-72.497763">
        <ele>220.6</ele>
      </trkpt>
      <trkpt lat="45.304176" lon="-72.497496">
        <ele>219.7</ele>
      </trkpt>
      <trkpt lat="45.30352" lon="-72.49723">
        <ele>218.9</ele>
      </trkpt>
      <trkpt lat="45.3029" lon="-72.49701">
        <ele>218.5</ele>
      </trkpt>
      <trkpt lat="45.30231" lon="-72.49691">
        <ele>218.1</ele>
      </trkpt>
      <trkpt lat="45.30201" lon="-72.49691">
        <ele>217.8</ele>
      </trkpt>
      <trkpt lat="45.301376" lon="-72.496963">
        <ele>216.8</ele>
      </trkpt>
      <trkpt lat="45.300743" lon="-72.497016">
        <ele>216.4</ele>
      </trkpt>
      <trkpt lat="45.30011" lon="-72.49707">
        <ele>216.1</ele>
      </trkpt>
      <trkpt lat="45.299405" lon="-72.497145">
        <ele>215.8</ele>
      </trkpt>
      <trkpt lat="45.2987" lon="-72.49722">
        <ele>214.9</ele>
      </trkpt>
      <trkpt lat="45.297994" lon="-72.497295">
        <ele>214.6</ele>
      </trkpt>
      <trkpt lat="45.29729" lon="-72.49737">
        <ele>214</ele>
      </trkpt>
      <trkpt lat="45.296562" lon="-72.497432">
        <ele>214.3</ele>
      </trkpt>
      <trkpt lat="45.295835" lon="-72.497495">
        <ele>213.6</ele>
      </trkpt>
      <trkpt lat="45.295107" lon="-72.497557">
        <ele>212.8</ele>
      </trkpt>
      <trkpt lat="45.29438" lon="-72.49762">
        <ele>212.7</ele>
      </trkpt>
      <trkpt lat="45.29437" lon="-72.49762">
        <ele>212.7</ele>
      </trkpt>
      <trkpt lat="45.29393" lon="-72.49764">
        <ele>212.6</ele>
      </trkpt>
      <trkpt lat="45.2936" lon="-72.49763">
        <ele>212.8</ele>
      </trkpt>
      <trkpt lat="45.29332" lon="-72.49758">
        <ele>213.9</ele>
      </trkpt>
      <trkpt lat="45.29322" lon="-72.49753">
        <ele>213.9</ele>
      </trkpt>
      <trkpt lat="45.29306" lon="-72.49749">
        <ele>213.8</ele>
      </trkpt>
      <trkpt lat="45.29258" lon="-72.49727">
        <ele>213.2</ele>
      </trkpt>
      <trkpt lat="45.29219" lon="-72.49701">
        <ele>213.3</ele>
      </trkpt>
      <trkpt lat="45.291457" lon="-72.496374">
        <ele>213.2</ele>
      </trkpt>
      <trkpt lat="45.290725" lon="-72.495739">
        <ele>213.8</ele>
      </trkpt>
      <trkpt lat="45.289992" lon="-72.495104">
        <ele>213.6</ele>
      </trkpt>
      <trkpt lat="45.28926" lon="-72.49447">
        <ele>214</ele>
      </trkpt>
      <trkpt lat="45.28858" lon="-72.49391">
        <ele>214</ele>
      </trkpt>
      <trkpt lat="45.28809" lon="-72.49346">
        <ele>214.2</ele>
      </trkpt>
      <trkpt lat="45.287655" lon="-72.493014">
        <ele>214.8</ele>
      </trkpt>
      <trkpt lat="45.28722" lon="-72.49257">
        <ele>214.6</ele>
      </trkpt>
      <trkpt lat="45.28719" lon="-72.49251">
        <ele>214.6</ele>
      </trkpt>
      <trkpt lat="45.2871" lon="-72.49248">
        <ele>214.7</ele>
      </trkpt>
      <trkpt lat="45.28693" lon="-72.49235">
        <ele>214.7</ele>
      </trkpt>
      <trkpt lat="45.28651" lon="-72.49188">
        <ele>215.1</ele>
      </trkpt>
      <trkpt lat="45.2865" lon="-72.49207">
        <ele>214.8</ele>
      </trkpt>
      <trkpt lat="45.28639" lon="-72.49207">
        <ele>214.7</ele>
      </trkpt>
      <trkpt lat="45.28578" lon="-72.49154">
        <ele>212.5</ele>
      </trkpt>
      <trkpt lat="45.28565" lon="-72.49128">
        <ele>212.2</ele>
      </trkpt>
      <trkpt lat="45.28548" lon="-72.4911">
        <ele>211.7</ele>
      </trkpt>
      <trkpt lat="45.28495" lon="-72.490739">
        <ele>209.8</ele>
      </trkpt>
      <trkpt lat="45.28442" lon="-72.49038">
        <ele>208.4</ele>
      </trkpt>
      <trkpt lat="45.28376" lon="-72.49002">
        <ele>206.9</ele>
      </trkpt>
      <trkpt lat="45.28334" lon="-72.48988">
        <ele>206.2</ele>
      </trkpt>
      <trkpt lat="45.28301" lon="-72.4898">
        <ele>205.5</ele>
      </trkpt>
      <trkpt lat="45.28222" lon="-72.489699">
        <ele>203.6</ele>
      </trkpt>
      <trkpt lat="45.28143" lon="-72.489599">
        <ele>201.1</ele>
      </trkpt>
      <trkpt lat="45.28064" lon="-72.4895">
        <ele>200</ele>
      </trkpt>
      <trkpt lat="45.279893" lon="-72.489404">
        <ele>199.4</ele>
      </trkpt>
      <trkpt lat="45.279146" lon="-72.489309">
        <ele>199</ele>
      </trkpt>
      <trkpt lat="45.2784" lon="-72.489214">
        <ele>199</ele>
      </trkpt>
      <trkpt lat="45.277653" lon="-72.489119">
        <ele>199</ele>
      </trkpt>
      <trkpt lat="45.276906" lon="-72.489024">
        <ele>199.6</ele>
      </trkpt>
      <trkpt lat="45.27616" lon="-72.48893">
        <ele>200</ele>
      </trkpt>
      <trkpt lat="45.275315" lon="-72.488835">
        <ele>199.8</ele>
      </trkpt>
      <trkpt lat="45.27447" lon="-72.48874">
        <ele>199.5</ele>
      </trkpt>
      <trkpt lat="45.273626" lon="-72.488646">
        <ele>199.4</ele>
      </trkpt>
      <trkpt lat="45.272781" lon="-72.488551">
        <ele>199.3</ele>
      </trkpt>
      <trkpt lat="45.271936" lon="-72.488456">
        <ele>199.5</ele>
      </trkpt>
      <trkpt lat="45.271092" lon="-72.488362">
        <ele>199.8</ele>
      </trkpt>
      <trkpt lat="45.270247" lon="-72.488267">
        <ele>199.8</ele>
      </trkpt>
      <trkpt lat="45.269403" lon="-72.488173">
        <ele>199.8</ele>
      </trkpt>
      <trkpt lat="45.268558" lon="-72.488078">
        <ele>199.7</ele>
      </trkpt>
      <trkpt lat="45.267713" lon="-72.487983">
        <ele>199.7</ele>
      </trkpt>
      <trkpt lat="45.266869" lon="-72.487889">
        <ele>199.6</ele>
      </trkpt>
      <trkpt lat="45.266024" lon="-72.487794">
        <ele>199.6</ele>
      </trkpt>
      <trkpt lat="45.26518" lon="-72.4877">
        <ele>199.7</ele>
      </trkpt>
      <trkpt lat="45.264493" lon="-72.487606">
        <ele>199.8</ele>
      </trkpt>
      <trkpt lat="45.263806" lon="-72.487513">
        <ele>199.9</ele>
      </trkpt>
      <trkpt lat="45.26312" lon="-72.48742">
        <ele>199.9</ele>
      </trkpt>
      <trkpt lat="45.262353" lon="-72.487299">
        <ele>200</ele>
      </trkpt>
      <trkpt lat="45.261586" lon="-72.487179">
        <ele>200.3</ele>
      </trkpt>
      <trkpt lat="45.26082" lon="-72.48706">
        <ele>200.5</ele>
      </trkpt>
      <trkpt lat="45.260103" lon="-72.486986">
        <ele>200.4</ele>
      </trkpt>
      <trkpt lat="45.259386" lon="-72.486913">
        <ele>200.5</ele>
      </trkpt>
      <trkpt lat="45.25867" lon="-72.48684">
        <ele>200.7</ele>
      </trkpt>
      <trkpt lat="45.25848" lon="-72.48675">
        <ele>200.8</ele>
      </trkpt>
      <trkpt lat="45.25842" lon="-72.48675">
        <ele>200.8</ele>
      </trkpt>
      <trkpt lat="45.25824" lon="-72.48679">
        <ele>200.8</ele>
      </trkpt>
      <trkpt lat="45.257431" lon="-72.486688">
        <ele>200.6</ele>
      </trkpt>
      <trkpt lat="45.256622" lon="-72.486587">
        <ele>200.6</ele>
      </trkpt>
      <trkpt lat="45.255814" lon="-72.486485">
        <ele>200.6</ele>
      </trkpt>
      <trkpt lat="45.255005" lon="-72.486384">
        <ele>200.5</ele>
      </trkpt>
      <trkpt lat="45.254197" lon="-72.486282">
        <ele>200.2</ele>
      </trkpt>
      <trkpt lat="45.253388" lon="-72.486181">
        <ele>200.1</ele>
      </trkpt>
      <trkpt lat="45.25258" lon="-72.48608">
        <ele>200.6</ele>
      </trkpt>
      <trkpt lat="45.252075" lon="-72.486029">
        <ele>200.9</ele>
      </trkpt>
      <trkpt lat="45.25157" lon="-72.48598">
        <ele>200.7</ele>
      </trkpt>
      <trkpt lat="45.25138" lon="-72.48591">
        <ele>200.7</ele>
      </trkpt>
      <trkpt lat="45.25068" lon="-72.48581">
        <ele>200.4</ele>
      </trkpt>
      <trkpt lat="45.24985" lon="-72.485715">
        <ele>200.7</ele>
      </trkpt>
      <trkpt lat="45.24902" lon="-72.485621">
        <ele>203</ele>
      </trkpt>
      <trkpt lat="45.24819" lon="-72.485527">
        <ele>203.2</ele>
      </trkpt>
      <trkpt lat="45.24736" lon="-72.485433">
        <ele>203.6</ele>
      </trkpt>
      <trkpt lat="45.24653" lon="-72.48534">
        <ele>204.5</ele>
      </trkpt>
      <trkpt lat="45.24604" lon="-72.48528">
        <ele>205.2</ele>
      </trkpt>
      <trkpt lat="45.24562" lon="-72.4853">
        <ele>205.5</ele>
      </trkpt>
      <trkpt lat="45.24477" lon="-72.4855">
        <ele>205.3</ele>
      </trkpt>
      <trkpt lat="45.24448" lon="-72.48563">
        <ele>205.3</ele>
      </trkpt>
      <trkpt lat="45.244055" lon="-72.48588">
        <ele>205</ele>
      </trkpt>
      <trkpt lat="45.24363" lon="-72.48613">
        <ele>204.5</ele>
      </trkpt>
      <trkpt lat="45.24328" lon="-72.48639">
        <ele>204.4</ele>
      </trkpt>
      <trkpt lat="45.24286" lon="-72.48679">
        <ele>204</ele>
      </trkpt>
      <trkpt lat="45.24246" lon="-72.4872">
        <ele>204.3</ele>
      </trkpt>
      <trkpt lat="45.24237" lon="-72.48738">
        <ele>204.1</ele>
      </trkpt>
      <trkpt lat="45.241886" lon="-72.48806">
        <ele>204</ele>
      </trkpt>
      <trkpt lat="45.241403" lon="-72.48874">
        <ele>203.4</ele>
      </trkpt>
      <trkpt lat="45.24092" lon="-72.48942">
        <ele>203.3</ele>
      </trkpt>
      <trkpt lat="45.24091" lon="-72.48942">
        <ele>203.3</ele>
      </trkpt>
      <trkpt lat="45.24054" lon="-72.489965">
        <ele>203.5</ele>
      </trkpt>
      <trkpt lat="45.24017" lon="-72.49051">
        <ele>203.8</ele>
      </trkpt>
      <trkpt lat="45.23993" lon="-72.49082">
        <ele>203.6</ele>
      </trkpt>
      <trkpt lat="45.23963" lon="-72.49109">
        <ele>203.4</ele>
      </trkpt>
      <trkpt lat="45.238863" lon="-72.49155">
        <ele>203.5</ele>
      </trkpt>
      <trkpt lat="45.238096" lon="-72.49201">
        <ele>203.6</ele>
      </trkpt>
      <trkpt lat="45.23733" lon="-72.49247">
        <ele>204.7</ele>
      </trkpt>
      <trkpt lat="45.23667" lon="-72.492933">
        <ele>204.9</ele>
      </trkpt>
      <trkpt lat="45.23601" lon="-72.493396">
        <ele>204.8</ele>
      </trkpt>
      <trkpt lat="45.23535" lon="-72.49386">
        <ele>204.5</ele>
      </trkpt>
      <trkpt lat="45.234592" lon="-72.494435">
        <ele>204</ele>
      </trkpt>
      <trkpt lat="45.233835" lon="-72.49501">
        <ele>204.3</ele>
      </trkpt>
      <trkpt lat="45.233077" lon="-72.495585">
        <ele>204.2</ele>
      </trkpt>
      <trkpt lat="45.23232" lon="-72.49616">
        <ele>204.1</ele>
      </trkpt>
      <trkpt lat="45.23183" lon="-72.49651">
        <ele>202.9</ele>
      </trkpt>
      <trkpt lat="45.231385" lon="-72.49676">
        <ele>201.3</ele>
      </trkpt>
      <trkpt lat="45.23094" lon="-72.49701">
        <ele>202.2</ele>
      </trkpt>
      <trkpt lat="45.23093" lon="-72.49701">
        <ele>202.2</ele>
      </trkpt>
      <trkpt lat="45.23031" lon="-72.49734">
        <ele>201.8</ele>
      </trkpt>
      <trkpt lat="45.22969" lon="-72.49767">
        <ele>201.9</ele>
      </trkpt>
      <trkpt lat="45.22918" lon="-72.49798">
        <ele>201.5</ele>
      </trkpt>
      <trkpt lat="45.2289" lon="-72.49822">
        <ele>200.6</ele>
      </trkpt>
      <trkpt lat="45.22874" lon="-72.49843">
        <ele>201.1</ele>
      </trkpt>
      <trkpt lat="45.228217" lon="-72.499202">
        <ele>201.4</ele>
      </trkpt>
      <trkpt lat="45.227695" lon="-72.499975">
        <ele>202</ele>
      </trkpt>
      <trkpt lat="45.227172" lon="-72.500747">
        <ele>201.5</ele>
      </trkpt>
      <trkpt lat="45.22665" lon="-72.50152">
        <ele>201.8</ele>
      </trkpt>
      <trkpt lat="45.22607" lon="-72.50232">
        <ele>202.2</ele>
      </trkpt>
      <trkpt lat="45.22588" lon="-72.50264">
        <ele>202.1</ele>
      </trkpt>
      <trkpt lat="45.22575" lon="-72.50297">
        <ele>202.3</ele>
      </trkpt>
      <trkpt lat="45.22579" lon="-72.50318">
        <ele>202.5</ele>
      </trkpt>
      <trkpt lat="45.22579" lon="-72.50337">
        <ele>202.7</ele>
      </trkpt>
      <trkpt lat="45.22566" lon="-72.50371">
        <ele>202.7</ele>
      </trkpt>
    </trkseg>
  </trk>
</gpx>