<?xml version='1.0' encoding='utf-8'?>
<gpx xmlns="http://www.topografix.com/GPX/1/1" xmlns:xsi="http://www.w3.org/2001/XMLSchema-instance" version="1.1" creator="Gravelle Estrie" xsi:schemaLocation="http://www.topografix.com/GPX/1/1 http://www.topografix.com/GPX/1/1/gpx.xsd">
  <metadata>
    <name>Soirée Nocturne 64km / 1000MD+</name>
  </metadata>
  <trk>
    <name>Soirée Nocturne 64km / 1000MD+</name>
    <trkseg>
      <trkpt lat="45.27044" lon="-72.67127">
        <ele>136.92</ele>
      </trkpt>
      <trkpt lat="45.27073" lon="-72.67157">
        <ele>136.98</ele>
      </trkpt>
      <trkpt lat="45.27145" lon="-72.67228">
        <ele>137.44</ele>
      </trkpt>
      <trkpt lat="45.27176" lon="-72.67264">
        <ele>138.49</ele>
      </trkpt>
      <trkpt lat="45.27226" lon="-72.67336">
        <ele>142.72</ele>
      </trkpt>
      <trkpt lat="45.27244" lon="-72.67384">
        <ele>144.34</ele>
      </trkpt>
      <trkpt lat="45.2718" lon="-72.67407">
        <ele>143.24</ele>
      </trkpt>
      <trkpt lat="45.27116" lon="-72.6743">
        <ele>142.99</ele>
      </trkpt>
      <trkpt lat="45.27058" lon="-72.67443">
        <ele>144.61</ele>
      </trkpt>
      <trkpt lat="45.27" lon="-72.67456">
        <ele>146.35</ele>
      </trkpt>
      <trkpt lat="45.26955" lon="-72.67476">
        <ele>146.79</ele>
      </trkpt>
      <trkpt lat="45.26955" lon="-72.67477">
        <ele>146.79</ele>
      </trkpt>
      <trkpt lat="45.26921" lon="-72.67492">
        <ele>146.98</ele>
      </trkpt>
      <trkpt lat="45.26865" lon="-72.67523">
        <ele>146.18</ele>
      </trkpt>
      <trkpt lat="45.26826" lon="-72.67555">
        <ele>141.63</ele>
      </trkpt>
      <trkpt lat="45.26797" lon="-72.67578">
        <ele>139.13</ele>
      </trkpt>
      <trkpt lat="45.26768" lon="-72.67617">
        <ele>137.43</ele>
      </trkpt>
      <trkpt lat="45.26723" lon="-72.67658">
        <ele>137.01</ele>
      </trkpt>
      <trkpt lat="45.26646" lon="-72.67702">
        <ele>137.65</ele>
      </trkpt>
      <trkpt lat="45.2662" lon="-72.67725">
        <ele>138.04</ele>
      </trkpt>
      <trkpt lat="45.26587" lon="-72.6777">
        <ele>138.58</ele>
      </trkpt>
      <trkpt lat="45.2656" lon="-72.67819">
        <ele>139.23</ele>
      </trkpt>
      <trkpt lat="45.26516" lon="-72.67917">
        <ele>137.86</ele>
      </trkpt>
      <trkpt lat="45.26498" lon="-72.679955">
        <ele>138.21</ele>
      </trkpt>
      <trkpt lat="45.2648" lon="-72.68074">
        <ele>137.07</ele>
      </trkpt>
      <trkpt lat="45.26461" lon="-72.681365">
        <ele>136.67</ele>
      </trkpt>
      <trkpt lat="45.26442" lon="-72.68199">
        <ele>136.92</ele>
      </trkpt>
      <trkpt lat="45.26432" lon="-72.68271">
        <ele>138.38</ele>
      </trkpt>
      <trkpt lat="45.26428" lon="-72.68337">
        <ele>138.18</ele>
      </trkpt>
      <trkpt lat="45.26424" lon="-72.68403">
        <ele>136.51</ele>
      </trkpt>
      <trkpt lat="45.26391" lon="-72.68348">
        <ele>137.58</ele>
      </trkpt>
      <trkpt lat="45.26358" lon="-72.68293">
        <ele>140.19</ele>
      </trkpt>
      <trkpt lat="45.26332" lon="-72.68262">
        <ele>140.54</ele>
      </trkpt>
      <trkpt lat="45.262815" lon="-72.68213">
        <ele>141.23</ele>
      </trkpt>
      <trkpt lat="45.26231" lon="-72.68164">
        <ele>144.97</ele>
      </trkpt>
      <trkpt lat="45.26187" lon="-72.6811">
        <ele>151.01</ele>
      </trkpt>
      <trkpt lat="45.26137" lon="-72.68029">
        <ele>153.74</ele>
      </trkpt>
      <trkpt lat="45.26093" lon="-72.67929">
        <ele>150.86</ele>
      </trkpt>
      <trkpt lat="45.26049" lon="-72.67829">
        <ele>155.84</ele>
      </trkpt>
      <trkpt lat="45.26043" lon="-72.6781">
        <ele>158.73</ele>
      </trkpt>
      <trkpt lat="45.2604" lon="-72.67787">
        <ele>160.68</ele>
      </trkpt>
      <trkpt lat="45.26041" lon="-72.67762">
        <ele>162.47</ele>
      </trkpt>
      <trkpt lat="45.26051" lon="-72.6773">
        <ele>162.48</ele>
      </trkpt>
      <trkpt lat="45.26068" lon="-72.67689">
        <ele>160.04</ele>
      </trkpt>
      <trkpt lat="45.26075" lon="-72.6765">
        <ele>156.53</ele>
      </trkpt>
      <trkpt lat="45.26074" lon="-72.67622">
        <ele>154.8</ele>
      </trkpt>
      <trkpt lat="45.26065" lon="-72.67582">
        <ele>153.48</ele>
      </trkpt>
      <trkpt lat="45.2602" lon="-72.67479">
        <ele>152</ele>
      </trkpt>
      <trkpt lat="45.25984" lon="-72.6742">
        <ele>150.11</ele>
      </trkpt>
      <trkpt lat="45.25927" lon="-72.67351">
        <ele>148.29</ele>
      </trkpt>
      <trkpt lat="45.25909" lon="-72.67322">
        <ele>146.28</ele>
      </trkpt>
      <trkpt lat="45.25901" lon="-72.6729">
        <ele>146.28</ele>
      </trkpt>
      <trkpt lat="45.25899" lon="-72.67222">
        <ele>144.04</ele>
      </trkpt>
      <trkpt lat="45.25899" lon="-72.67222">
        <ele>144.02</ele>
      </trkpt>
      <trkpt lat="45.2589625" lon="-72.671115">
        <ele>143.28</ele>
      </trkpt>
      <trkpt lat="45.258935" lon="-72.67001">
        <ele>145.18</ele>
      </trkpt>
      <trkpt lat="45.2589075" lon="-72.668905">
        <ele>144.29</ele>
      </trkpt>
      <trkpt lat="45.25888" lon="-72.6678">
        <ele>141.19</ele>
      </trkpt>
      <trkpt lat="45.25889" lon="-72.66741">
        <ele>141.07</ele>
      </trkpt>
      <trkpt lat="45.25894" lon="-72.66708">
        <ele>141.16</ele>
      </trkpt>
      <trkpt lat="45.25902" lon="-72.66681">
        <ele>141.17</ele>
      </trkpt>
      <trkpt lat="45.25942" lon="-72.66579">
        <ele>145.44</ele>
      </trkpt>
      <trkpt lat="45.25966" lon="-72.665095">
        <ele>153.09</ele>
      </trkpt>
      <trkpt lat="45.2599" lon="-72.6644">
        <ele>153.07</ele>
      </trkpt>
      <trkpt lat="45.26016" lon="-72.66318">
        <ele>150.09</ele>
      </trkpt>
      <trkpt lat="45.260356" lon="-72.662186">
        <ele>150.29</ele>
      </trkpt>
      <trkpt lat="45.260552" lon="-72.661192">
        <ele>151.27</ele>
      </trkpt>
      <trkpt lat="45.260748" lon="-72.660198">
        <ele>152.95</ele>
      </trkpt>
      <trkpt lat="45.260944" lon="-72.659204">
        <ele>153.59</ele>
      </trkpt>
      <trkpt lat="45.26114" lon="-72.65821">
        <ele>152.24</ele>
      </trkpt>
      <trkpt lat="45.261225" lon="-72.65701">
        <ele>156.72</ele>
      </trkpt>
      <trkpt lat="45.26131" lon="-72.65581">
        <ele>158.38</ele>
      </trkpt>
      <trkpt lat="45.26128" lon="-72.65532">
        <ele>158.77</ele>
      </trkpt>
      <trkpt lat="45.26118" lon="-72.654465">
        <ele>159.62</ele>
      </trkpt>
      <trkpt lat="45.26108" lon="-72.65361">
        <ele>162.49</ele>
      </trkpt>
      <trkpt lat="45.2610567" lon="-72.65243">
        <ele>162.93</ele>
      </trkpt>
      <trkpt lat="45.2610333" lon="-72.65125">
        <ele>158.19</ele>
      </trkpt>
      <trkpt lat="45.26101" lon="-72.65007">
        <ele>156.37</ele>
      </trkpt>
      <trkpt lat="45.26095" lon="-72.64938">
        <ele>158.93</ele>
      </trkpt>
      <trkpt lat="45.26087" lon="-72.64851">
        <ele>160.11</ele>
      </trkpt>
      <trkpt lat="45.26081" lon="-72.64819">
        <ele>160.72</ele>
      </trkpt>
      <trkpt lat="45.26078" lon="-72.64739">
        <ele>163.07</ele>
      </trkpt>
      <trkpt lat="45.26078" lon="-72.64661">
        <ele>168.15</ele>
      </trkpt>
      <trkpt lat="45.26078" lon="-72.64583">
        <ele>168.13</ele>
      </trkpt>
      <trkpt lat="45.2608" lon="-72.64508">
        <ele>165.87</ele>
      </trkpt>
      <trkpt lat="45.260855" lon="-72.64433">
        <ele>164.32</ele>
      </trkpt>
      <trkpt lat="45.26091" lon="-72.64358">
        <ele>160.93</ele>
      </trkpt>
      <trkpt lat="45.26091" lon="-72.64327">
        <ele>160.18</ele>
      </trkpt>
      <trkpt lat="45.2607675" lon="-72.6420575">
        <ele>153.71</ele>
      </trkpt>
      <trkpt lat="45.260625" lon="-72.640845">
        <ele>154.19</ele>
      </trkpt>
      <trkpt lat="45.2604825" lon="-72.6396325">
        <ele>155.13</ele>
      </trkpt>
      <trkpt lat="45.26034" lon="-72.63842">
        <ele>156.1</ele>
      </trkpt>
      <trkpt lat="45.26034" lon="-72.63842">
        <ele>156.1</ele>
      </trkpt>
      <trkpt lat="45.2601933" lon="-72.6372">
        <ele>156.85</ele>
      </trkpt>
      <trkpt lat="45.2600467" lon="-72.63598">
        <ele>157.53</ele>
      </trkpt>
      <trkpt lat="45.2599" lon="-72.63476">
        <ele>161.1</ele>
      </trkpt>
      <trkpt lat="45.25995" lon="-72.63435">
        <ele>163.53</ele>
      </trkpt>
      <trkpt lat="45.26004" lon="-72.63396">
        <ele>165.82</ele>
      </trkpt>
      <trkpt lat="45.26006" lon="-72.6337">
        <ele>166.36</ele>
      </trkpt>
      <trkpt lat="45.25993" lon="-72.63257">
        <ele>168.99</ele>
      </trkpt>
      <trkpt lat="45.25983" lon="-72.63202">
        <ele>171.57</ele>
      </trkpt>
      <trkpt lat="45.25977" lon="-72.63183">
        <ele>172.88</ele>
      </trkpt>
      <trkpt lat="45.26027" lon="-72.63212">
        <ele>175.92</ele>
      </trkpt>
      <trkpt lat="45.260835" lon="-72.6325">
        <ele>181.58</ele>
      </trkpt>
      <trkpt lat="45.2614" lon="-72.63288">
        <ele>180.95</ele>
      </trkpt>
      <trkpt lat="45.26155" lon="-72.63297">
        <ele>180.67</ele>
      </trkpt>
      <trkpt lat="45.26183" lon="-72.63324">
        <ele>178.95</ele>
      </trkpt>
      <trkpt lat="45.26209" lon="-72.6336">
        <ele>176.07</ele>
      </trkpt>
      <trkpt lat="45.2623" lon="-72.63382">
        <ele>176.07</ele>
      </trkpt>
      <trkpt lat="45.26247" lon="-72.63395">
        <ele>171.57</ele>
      </trkpt>
      <trkpt lat="45.2629" lon="-72.63413">
        <ele>169.31</ele>
      </trkpt>
      <trkpt lat="45.26318" lon="-72.63417">
        <ele>166.61</ele>
      </trkpt>
      <trkpt lat="45.26362" lon="-72.6341">
        <ele>165.64</ele>
      </trkpt>
      <trkpt lat="45.26413" lon="-72.633965">
        <ele>170.27</ele>
      </trkpt>
      <trkpt lat="45.26464" lon="-72.63383">
        <ele>172.16</ele>
      </trkpt>
      <trkpt lat="45.26487" lon="-72.63373">
        <ele>170.53</ele>
      </trkpt>
      <trkpt lat="45.26543" lon="-72.63333">
        <ele>169.21</ele>
      </trkpt>
      <trkpt lat="45.26573" lon="-72.63315">
        <ele>171.87</ele>
      </trkpt>
      <trkpt lat="45.26624" lon="-72.63293">
        <ele>176.43</ele>
      </trkpt>
      <trkpt lat="45.26679" lon="-72.632735">
        <ele>183.81</ele>
      </trkpt>
      <trkpt lat="45.26734" lon="-72.63254">
        <ele>191.37</ele>
      </trkpt>
      <trkpt lat="45.26734" lon="-72.63255">
        <ele>191.38</ele>
      </trkpt>
      <trkpt lat="45.26743" lon="-72.63252">
        <ele>192.03</ele>
      </trkpt>
      <trkpt lat="45.2677" lon="-72.63235">
        <ele>194.89</ele>
      </trkpt>
      <trkpt lat="45.26788" lon="-72.6321">
        <ele>196.4</ele>
      </trkpt>
      <trkpt lat="45.26805" lon="-72.63163">
        <ele>197.87</ele>
      </trkpt>
      <trkpt lat="45.2683533" lon="-72.6306733">
        <ele>199.96</ele>
      </trkpt>
      <trkpt lat="45.2686567" lon="-72.6297167">
        <ele>203.81</ele>
      </trkpt>
      <trkpt lat="45.26896" lon="-72.62876">
        <ele>204.48</ele>
      </trkpt>
      <trkpt lat="45.2693167" lon="-72.6280433">
        <ele>206.05</ele>
      </trkpt>
      <trkpt lat="45.2696733" lon="-72.6273267">
        <ele>206.22</ele>
      </trkpt>
      <trkpt lat="45.27003" lon="-72.62661">
        <ele>207.17</ele>
      </trkpt>
      <trkpt lat="45.270545" lon="-72.62563">
        <ele>207.79</ele>
      </trkpt>
      <trkpt lat="45.27106" lon="-72.62465">
        <ele>208.65</ele>
      </trkpt>
      <trkpt lat="45.27148" lon="-72.62379">
        <ele>208.84</ele>
      </trkpt>
      <trkpt lat="45.27192" lon="-72.62383">
        <ele>213.16</ele>
      </trkpt>
      <trkpt lat="45.2726033" lon="-72.6237267">
        <ele>219.66</ele>
      </trkpt>
      <trkpt lat="45.2732867" lon="-72.6236233">
        <ele>224.04</ele>
      </trkpt>
      <trkpt lat="45.27397" lon="-72.62352">
        <ele>229.06</ele>
      </trkpt>
      <trkpt lat="45.27478" lon="-72.623455">
        <ele>237.96</ele>
      </trkpt>
      <trkpt lat="45.27559" lon="-72.62339">
        <ele>244.96</ele>
      </trkpt>
      <trkpt lat="45.27579" lon="-72.62334">
        <ele>244.26</ele>
      </trkpt>
      <trkpt lat="45.2763" lon="-72.62305">
        <ele>238.49</ele>
      </trkpt>
      <trkpt lat="45.27681" lon="-72.62276">
        <ele>233.46</ele>
      </trkpt>
      <trkpt lat="45.27735" lon="-72.62252">
        <ele>229.56</ele>
      </trkpt>
      <trkpt lat="45.27714" lon="-72.62147">
        <ele>228.34</ele>
      </trkpt>
      <trkpt lat="45.27707" lon="-72.62129">
        <ele>227.5</ele>
      </trkpt>
      <trkpt lat="45.27697" lon="-72.62115">
        <ele>227</ele>
      </trkpt>
      <trkpt lat="45.2768" lon="-72.62106">
        <ele>225.86</ele>
      </trkpt>
      <trkpt lat="45.27667" lon="-72.62088">
        <ele>223.39</ele>
      </trkpt>
      <trkpt lat="45.27662" lon="-72.62065">
        <ele>221.09</ele>
      </trkpt>
      <trkpt lat="45.27658" lon="-72.61993">
        <ele>213.92</ele>
      </trkpt>
      <trkpt lat="45.27654" lon="-72.61921">
        <ele>209.02</ele>
      </trkpt>
      <trkpt lat="45.27654" lon="-72.61921">
        <ele>209.03</ele>
      </trkpt>
      <trkpt lat="45.27647" lon="-72.617945">
        <ele>207.36</ele>
      </trkpt>
      <trkpt lat="45.2764" lon="-72.61668">
        <ele>207.05</ele>
      </trkpt>
      <trkpt lat="45.2763467" lon="-72.615595">
        <ele>207.48</ele>
      </trkpt>
      <trkpt lat="45.2762934" lon="-72.61451">
        <ele>212.27</ele>
      </trkpt>
      <trkpt lat="45.27624" lon="-72.613425">
        <ele>222.3</ele>
      </trkpt>
      <trkpt lat="45.2761867" lon="-72.61234">
        <ele>226.91</ele>
      </trkpt>
      <trkpt lat="45.2761334" lon="-72.611255">
        <ele>232.34</ele>
      </trkpt>
      <trkpt lat="45.27608" lon="-72.61017">
        <ele>237.11</ele>
      </trkpt>
      <trkpt lat="45.27605" lon="-72.60924">
        <ele>238.33</ele>
      </trkpt>
      <trkpt lat="45.2760533" lon="-72.60815">
        <ele>233.41</ele>
      </trkpt>
      <trkpt lat="45.2760567" lon="-72.60706">
        <ele>234.09</ele>
      </trkpt>
      <trkpt lat="45.27606" lon="-72.60597">
        <ele>237.73</ele>
      </trkpt>
      <trkpt lat="45.2760229" lon="-72.6047943">
        <ele>226.85</ele>
      </trkpt>
      <trkpt lat="45.2759858" lon="-72.6036186">
        <ele>217.09</ele>
      </trkpt>
      <trkpt lat="45.2759486" lon="-72.6024428">
        <ele>211.21</ele>
      </trkpt>
      <trkpt lat="45.2759115" lon="-72.6012671">
        <ele>208.5</ele>
      </trkpt>
      <trkpt lat="45.2758743" lon="-72.6000914">
        <ele>205.01</ele>
      </trkpt>
      <trkpt lat="45.2758372" lon="-72.5989157">
        <ele>201.91</ele>
      </trkpt>
      <trkpt lat="45.2758" lon="-72.59774">
        <ele>199.02</ele>
      </trkpt>
      <trkpt lat="45.27578" lon="-72.59655">
        <ele>196.33</ele>
      </trkpt>
      <trkpt lat="45.27576" lon="-72.59536">
        <ele>193.21</ele>
      </trkpt>
      <trkpt lat="45.276515" lon="-72.595295">
        <ele>189.09</ele>
      </trkpt>
      <trkpt lat="45.27727" lon="-72.59523">
        <ele>187.09</ele>
      </trkpt>
      <trkpt lat="45.278026" lon="-72.595188">
        <ele>186.78</ele>
      </trkpt>
      <trkpt lat="45.278782" lon="-72.595146">
        <ele>186.83</ele>
      </trkpt>
      <trkpt lat="45.279538" lon="-72.595104">
        <ele>186.6</ele>
      </trkpt>
      <trkpt lat="45.280294" lon="-72.595062">
        <ele>186.06</ele>
      </trkpt>
      <trkpt lat="45.28105" lon="-72.59502">
        <ele>185.62</ele>
      </trkpt>
      <trkpt lat="45.28104" lon="-72.59502">
        <ele>185.62</ele>
      </trkpt>
      <trkpt lat="45.2819325" lon="-72.5949763">
        <ele>185.63</ele>
      </trkpt>
      <trkpt lat="45.282825" lon="-72.5949325">
        <ele>186.37</ele>
      </trkpt>
      <trkpt lat="45.2837175" lon="-72.5948888">
        <ele>186.67</ele>
      </trkpt>
      <trkpt lat="45.28461" lon="-72.594845">
        <ele>187.42</ele>
      </trkpt>
      <trkpt lat="45.2855025" lon="-72.5948013">
        <ele>187.2</ele>
      </trkpt>
      <trkpt lat="45.286395" lon="-72.5947575">
        <ele>185.74</ele>
      </trkpt>
      <trkpt lat="45.2872875" lon="-72.5947138">
        <ele>182.5</ele>
      </trkpt>
      <trkpt lat="45.28818" lon="-72.59467">
        <ele>179.75</ele>
      </trkpt>
      <trkpt lat="45.289035" lon="-72.5946425">
        <ele>176.93</ele>
      </trkpt>
      <trkpt lat="45.28989" lon="-72.594615">
        <ele>173.87</ele>
      </trkpt>
      <trkpt lat="45.290745" lon="-72.5945875">
        <ele>171.19</ele>
      </trkpt>
      <trkpt lat="45.2916" lon="-72.59456">
        <ele>170.3</ele>
      </trkpt>
      <trkpt lat="45.292446" lon="-72.594508">
        <ele>169.34</ele>
      </trkpt>
      <trkpt lat="45.293292" lon="-72.594456">
        <ele>168.76</ele>
      </trkpt>
      <trkpt lat="45.294138" lon="-72.594404">
        <ele>168.84</ele>
      </trkpt>
      <trkpt lat="45.294984" lon="-72.594352">
        <ele>169.46</ele>
      </trkpt>
      <trkpt lat="45.29583" lon="-72.5943">
        <ele>171.2</ele>
      </trkpt>
      <trkpt lat="45.296485" lon="-72.59427">
        <ele>170.55</ele>
      </trkpt>
      <trkpt lat="45.29714" lon="-72.59424">
        <ele>170.33</ele>
      </trkpt>
      <trkpt lat="45.29747" lon="-72.59415">
        <ele>169.79</ele>
      </trkpt>
      <trkpt lat="45.29825" lon="-72.59375">
        <ele>166.28</ele>
      </trkpt>
      <trkpt lat="45.29854" lon="-72.59362">
        <ele>164.03</ele>
      </trkpt>
      <trkpt lat="45.2988" lon="-72.59352">
        <ele>162.45</ele>
      </trkpt>
      <trkpt lat="45.29924" lon="-72.59343">
        <ele>158.18</ele>
      </trkpt>
      <trkpt lat="45.29972" lon="-72.59339">
        <ele>152.35</ele>
      </trkpt>
      <trkpt lat="45.30029" lon="-72.59348">
        <ele>148.71</ele>
      </trkpt>
      <trkpt lat="45.300815" lon="-72.59366">
        <ele>147.7</ele>
      </trkpt>
      <trkpt lat="45.30134" lon="-72.59384">
        <ele>145.9</ele>
      </trkpt>
      <trkpt lat="45.30156" lon="-72.5939">
        <ele>144.44</ele>
      </trkpt>
      <trkpt lat="45.30191" lon="-72.59394">
        <ele>142.87</ele>
      </trkpt>
      <trkpt lat="45.30241" lon="-72.59402">
        <ele>142.01</ele>
      </trkpt>
      <trkpt lat="45.30275" lon="-72.59402">
        <ele>142.67</ele>
      </trkpt>
      <trkpt lat="45.30333" lon="-72.59398">
        <ele>145.76</ele>
      </trkpt>
      <trkpt lat="45.30391" lon="-72.59394">
        <ele>147.97</ele>
      </trkpt>
      <trkpt lat="45.3045867" lon="-72.5938767">
        <ele>150.12</ele>
      </trkpt>
      <trkpt lat="45.3052633" lon="-72.5938133">
        <ele>154.24</ele>
      </trkpt>
      <trkpt lat="45.30594" lon="-72.59375">
        <ele>156.45</ele>
      </trkpt>
      <trkpt lat="45.30661" lon="-72.593705">
        <ele>157.18</ele>
      </trkpt>
      <trkpt lat="45.30728" lon="-72.59366">
        <ele>158.58</ele>
      </trkpt>
      <trkpt lat="45.3072833" lon="-72.59258">
        <ele>158.19</ele>
      </trkpt>
      <trkpt lat="45.3072867" lon="-72.5915">
        <ele>159.13</ele>
      </trkpt>
      <trkpt lat="45.30729" lon="-72.59042">
        <ele>162.18</ele>
      </trkpt>
      <trkpt lat="45.30729" lon="-72.59043">
        <ele>162.15</ele>
      </trkpt>
      <trkpt lat="45.30729" lon="-72.58921">
        <ele>165.43</ele>
      </trkpt>
      <trkpt lat="45.30729" lon="-72.58799">
        <ele>169.99</ele>
      </trkpt>
      <trkpt lat="45.307275" lon="-72.58718">
        <ele>172.19</ele>
      </trkpt>
      <trkpt lat="45.30726" lon="-72.58637">
        <ele>173.03</ele>
      </trkpt>
      <trkpt lat="45.30725" lon="-72.58536">
        <ele>172.53</ele>
      </trkpt>
      <trkpt lat="45.3072486" lon="-72.5842114">
        <ele>168.4</ele>
      </trkpt>
      <trkpt lat="45.3072472" lon="-72.5830629">
        <ele>163.28</ele>
      </trkpt>
      <trkpt lat="45.3072458" lon="-72.5819143">
        <ele>164.26</ele>
      </trkpt>
      <trkpt lat="45.3072444" lon="-72.5807657">
        <ele>167.85</ele>
      </trkpt>
      <trkpt lat="45.3072429" lon="-72.5796171">
        <ele>168.51</ele>
      </trkpt>
      <trkpt lat="45.3072415" lon="-72.5784686">
        <ele>167.93</ele>
      </trkpt>
      <trkpt lat="45.30724" lon="-72.57732">
        <ele>168.87</ele>
      </trkpt>
      <trkpt lat="45.307252" lon="-72.576076">
        <ele>171.17</ele>
      </trkpt>
      <trkpt lat="45.307264" lon="-72.574832">
        <ele>174.97</ele>
      </trkpt>
      <trkpt lat="45.307276" lon="-72.573588">
        <ele>182.84</ele>
      </trkpt>
      <trkpt lat="45.307288" lon="-72.572344">
        <ele>190.07</ele>
      </trkpt>
      <trkpt lat="45.3073" lon="-72.5711">
        <ele>193.08</ele>
      </trkpt>
      <trkpt lat="45.30731" lon="-72.5706">
        <ele>192.72</ele>
      </trkpt>
      <trkpt lat="45.30734" lon="-72.57015">
        <ele>192.96</ele>
      </trkpt>
      <trkpt lat="45.30742" lon="-72.56963">
        <ele>194.3</ele>
      </trkpt>
      <trkpt lat="45.30756" lon="-72.56896">
        <ele>197.79</ele>
      </trkpt>
      <trkpt lat="45.3076" lon="-72.56855">
        <ele>201.06</ele>
      </trkpt>
      <trkpt lat="45.30758" lon="-72.56814">
        <ele>205.83</ele>
      </trkpt>
      <trkpt lat="45.30744" lon="-72.566975">
        <ele>207.16</ele>
      </trkpt>
      <trkpt lat="45.3073" lon="-72.56581">
        <ele>207.56</ele>
      </trkpt>
      <trkpt lat="45.30727" lon="-72.56505">
        <ele>208.3</ele>
      </trkpt>
      <trkpt lat="45.3072675" lon="-72.56409">
        <ele>209.81</ele>
      </trkpt>
      <trkpt lat="45.307265" lon="-72.56313">
        <ele>212.65</ele>
      </trkpt>
      <trkpt lat="45.3072625" lon="-72.56217">
        <ele>217.47</ele>
      </trkpt>
      <trkpt lat="45.30726" lon="-72.56121">
        <ele>220.94</ele>
      </trkpt>
      <trkpt lat="45.307268" lon="-72.560186">
        <ele>223.29</ele>
      </trkpt>
      <trkpt lat="45.307276" lon="-72.559162">
        <ele>225.69</ele>
      </trkpt>
      <trkpt lat="45.307284" lon="-72.558138">
        <ele>226.31</ele>
      </trkpt>
      <trkpt lat="45.307292" lon="-72.557114">
        <ele>225.55</ele>
      </trkpt>
      <trkpt lat="45.3073" lon="-72.55609">
        <ele>225.34</ele>
      </trkpt>
      <trkpt lat="45.3073" lon="-72.55522">
        <ele>225.27</ele>
      </trkpt>
      <trkpt lat="45.3073" lon="-72.55435">
        <ele>225.14</ele>
      </trkpt>
      <trkpt lat="45.3073" lon="-72.55348">
        <ele>225.6</ele>
      </trkpt>
      <trkpt lat="45.307325" lon="-72.55229">
        <ele>226.33</ele>
      </trkpt>
      <trkpt lat="45.30735" lon="-72.5511">
        <ele>227.04</ele>
      </trkpt>
      <trkpt lat="45.3073543" lon="-72.5499329">
        <ele>226.98</ele>
      </trkpt>
      <trkpt lat="45.3073586" lon="-72.5487657">
        <ele>228.23</ele>
      </trkpt>
      <trkpt lat="45.3073629" lon="-72.5475986">
        <ele>228.52</ele>
      </trkpt>
      <trkpt lat="45.3073672" lon="-72.5464314">
        <ele>228.57</ele>
      </trkpt>
      <trkpt lat="45.3073715" lon="-72.5452643">
        <ele>228.66</ele>
      </trkpt>
      <trkpt lat="45.3073757" lon="-72.5440971">
        <ele>229.3</ele>
      </trkpt>
      <trkpt lat="45.30738" lon="-72.54293">
        <ele>229.89</ele>
      </trkpt>
      <trkpt lat="45.30738" lon="-72.54294">
        <ele>229.89</ele>
      </trkpt>
      <trkpt lat="45.3073886" lon="-72.5418271">
        <ele>230.17</ele>
      </trkpt>
      <trkpt lat="45.3073972" lon="-72.5407143">
        <ele>230.93</ele>
      </trkpt>
      <trkpt lat="45.3074058" lon="-72.5396014">
        <ele>230.5</ele>
      </trkpt>
      <trkpt lat="45.3074144" lon="-72.5384886">
        <ele>227.35</ele>
      </trkpt>
      <trkpt lat="45.3074229" lon="-72.5373757">
        <ele>225.41</ele>
      </trkpt>
      <trkpt lat="45.3074315" lon="-72.5362629">
        <ele>227.16</ele>
      </trkpt>
      <trkpt lat="45.30744" lon="-72.53515">
        <ele>229.81</ele>
      </trkpt>
      <trkpt lat="45.3074429" lon="-72.53405">
        <ele>227.8</ele>
      </trkpt>
      <trkpt lat="45.3074458" lon="-72.53295">
        <ele>226.23</ele>
      </trkpt>
      <trkpt lat="45.3074486" lon="-72.53185">
        <ele>226.54</ele>
      </trkpt>
      <trkpt lat="45.3074515" lon="-72.53075">
        <ele>225.86</ele>
      </trkpt>
      <trkpt lat="45.3074543" lon="-72.52965">
        <ele>223.64</ele>
      </trkpt>
      <trkpt lat="45.3074572" lon="-72.52855">
        <ele>224.57</ele>
      </trkpt>
      <trkpt lat="45.30746" lon="-72.52745">
        <ele>223.21</ele>
      </trkpt>
      <trkpt lat="45.30749" lon="-72.527">
        <ele>221.27</ele>
      </trkpt>
      <trkpt lat="45.30758" lon="-72.52656">
        <ele>218.1</ele>
      </trkpt>
      <trkpt lat="45.307785" lon="-72.525755">
        <ele>210.17</ele>
      </trkpt>
      <trkpt lat="45.30799" lon="-72.52495">
        <ele>206.45</ele>
      </trkpt>
      <trkpt lat="45.308095" lon="-72.524165">
        <ele>208.53</ele>
      </trkpt>
      <trkpt lat="45.3082" lon="-72.52338">
        <ele>212.44</ele>
      </trkpt>
      <trkpt lat="45.3083" lon="-72.52284">
        <ele>213.83</ele>
      </trkpt>
      <trkpt lat="45.30853" lon="-72.5217975">
        <ele>216.84</ele>
      </trkpt>
      <trkpt lat="45.30876" lon="-72.520755">
        <ele>220.58</ele>
      </trkpt>
      <trkpt lat="45.30899" lon="-72.5197125">
        <ele>223.02</ele>
      </trkpt>
      <trkpt lat="45.30922" lon="-72.51867">
        <ele>225.5</ele>
      </trkpt>
      <trkpt lat="45.3094" lon="-72.51742">
        <ele>226.05</ele>
      </trkpt>
      <trkpt lat="45.309465" lon="-72.516715">
        <ele>227</ele>
      </trkpt>
      <trkpt lat="45.30953" lon="-72.51601">
        <ele>228.49</ele>
      </trkpt>
      <trkpt lat="45.30959" lon="-72.51501">
        <ele>229.61</ele>
      </trkpt>
      <trkpt lat="45.30965" lon="-72.51401">
        <ele>230.35</ele>
      </trkpt>
      <trkpt lat="45.30962" lon="-72.513165">
        <ele>226.89</ele>
      </trkpt>
      <trkpt lat="45.30959" lon="-72.51232">
        <ele>224.76</ele>
      </trkpt>
      <trkpt lat="45.30954" lon="-72.51191">
        <ele>225.43</ele>
      </trkpt>
      <trkpt lat="45.30951" lon="-72.51172">
        <ele>226.18</ele>
      </trkpt>
      <trkpt lat="45.30924" lon="-72.51075">
        <ele>231.13</ele>
      </trkpt>
      <trkpt lat="45.30903" lon="-72.51025">
        <ele>229.22</ele>
      </trkpt>
      <trkpt lat="45.30863" lon="-72.50937">
        <ele>222.5</ele>
      </trkpt>
      <trkpt lat="45.30823" lon="-72.50849">
        <ele>222.36</ele>
      </trkpt>
      <trkpt lat="45.30783" lon="-72.50761">
        <ele>225.79</ele>
      </trkpt>
      <trkpt lat="45.3077" lon="-72.50722">
        <ele>226.6</ele>
      </trkpt>
      <trkpt lat="45.30757" lon="-72.50663">
        <ele>225.77</ele>
      </trkpt>
      <trkpt lat="45.30752" lon="-72.50596">
        <ele>223.56</ele>
      </trkpt>
      <trkpt lat="45.307545" lon="-72.504755">
        <ele>222.39</ele>
      </trkpt>
      <trkpt lat="45.30757" lon="-72.50355">
        <ele>223.4</ele>
      </trkpt>
      <trkpt lat="45.30757" lon="-72.50355">
        <ele>223.4</ele>
      </trkpt>
      <trkpt lat="45.3075675" lon="-72.502495">
        <ele>223.4</ele>
      </trkpt>
      <trkpt lat="45.307565" lon="-72.50144">
        <ele>223.42</ele>
      </trkpt>
      <trkpt lat="45.3075625" lon="-72.500385">
        <ele>220.15</ele>
      </trkpt>
      <trkpt lat="45.30756" lon="-72.49933">
        <ele>220.31</ele>
      </trkpt>
      <trkpt lat="45.30757" lon="-72.49915">
        <ele>220.5</ele>
      </trkpt>
      <trkpt lat="45.30822" lon="-72.49932">
        <ele>221.79</ele>
      </trkpt>
      <trkpt lat="45.3085" lon="-72.49933">
        <ele>222.62</ele>
      </trkpt>
      <trkpt lat="45.30884" lon="-72.4993">
        <ele>223.82</ele>
      </trkpt>
      <trkpt lat="45.3088" lon="-72.4992">
        <ele>223.82</ele>
      </trkpt>
      <trkpt lat="45.30876" lon="-72.49904">
        <ele>224.16</ele>
      </trkpt>
      <trkpt lat="45.3088" lon="-72.49904">
        <ele>224.16</ele>
      </trkpt>
      <trkpt lat="45.30946" lon="-72.498965">
        <ele>224.31</ele>
      </trkpt>
      <trkpt lat="45.31012" lon="-72.49889">
        <ele>225.24</ele>
      </trkpt>
      <trkpt lat="45.31049" lon="-72.49888">
        <ele>225.97</ele>
      </trkpt>
      <trkpt lat="45.31072" lon="-72.49884">
        <ele>226.27</ele>
      </trkpt>
      <trkpt lat="45.3111" lon="-72.49883">
        <ele>226.76</ele>
      </trkpt>
      <trkpt lat="45.31131" lon="-72.49884">
        <ele>227.24</ele>
      </trkpt>
      <trkpt lat="45.3116" lon="-72.49893">
        <ele>227.24</ele>
      </trkpt>
      <trkpt lat="45.31201" lon="-72.49906">
        <ele>228.01</ele>
      </trkpt>
      <trkpt lat="45.31274" lon="-72.49942">
        <ele>230.09</ele>
      </trkpt>
      <trkpt lat="45.31282" lon="-72.49951">
        <ele>230.09</ele>
      </trkpt>
      <trkpt lat="45.31284" lon="-72.49955">
        <ele>230.65</ele>
      </trkpt>
      <trkpt lat="45.3128" lon="-72.49979">
        <ele>230.68</ele>
      </trkpt>
      <trkpt lat="45.3128" lon="-72.49996">
        <ele>230.6</ele>
      </trkpt>
      <trkpt lat="45.31285" lon="-72.50005">
        <ele>230.6</ele>
      </trkpt>
      <trkpt lat="45.31292" lon="-72.5001">
        <ele>230.6</ele>
      </trkpt>
      <trkpt lat="45.31358" lon="-72.5003">
        <ele>230.33</ele>
      </trkpt>
      <trkpt lat="45.31382" lon="-72.50041">
        <ele>229.94</ele>
      </trkpt>
      <trkpt lat="45.314525" lon="-72.50096">
        <ele>229.91</ele>
      </trkpt>
      <trkpt lat="45.31523" lon="-72.50151">
        <ele>230.56</ele>
      </trkpt>
      <trkpt lat="45.31523" lon="-72.50151">
        <ele>230.56</ele>
      </trkpt>
      <trkpt lat="45.31568" lon="-72.50185">
        <ele>231.14</ele>
      </trkpt>
      <trkpt lat="45.3161" lon="-72.50211">
        <ele>231.51</ele>
      </trkpt>
      <trkpt lat="45.31631" lon="-72.5022">
        <ele>231.85</ele>
      </trkpt>
      <trkpt lat="45.31675" lon="-72.50233">
        <ele>231.89</ele>
      </trkpt>
      <trkpt lat="45.31755" lon="-72.502425">
        <ele>231.07</ele>
      </trkpt>
      <trkpt lat="45.31835" lon="-72.50252">
        <ele>230.64</ele>
      </trkpt>
      <trkpt lat="45.319084" lon="-72.502626">
        <ele>230.17</ele>
      </trkpt>
      <trkpt lat="45.319818" lon="-72.502732">
        <ele>229</ele>
      </trkpt>
      <trkpt lat="45.320552" lon="-72.502838">
        <ele>227.62</ele>
      </trkpt>
      <trkpt lat="45.321286" lon="-72.502944">
        <ele>226.81</ele>
      </trkpt>
      <trkpt lat="45.32202" lon="-72.50305">
        <ele>225.11</ele>
      </trkpt>
      <trkpt lat="45.32199" lon="-72.50206">
        <ele>226.46</ele>
      </trkpt>
      <trkpt lat="45.32203" lon="-72.50117">
        <ele>226.99</ele>
      </trkpt>
      <trkpt lat="45.32197" lon="-72.50068">
        <ele>227.55</ele>
      </trkpt>
      <trkpt lat="45.32197" lon="-72.50068">
        <ele>227.52</ele>
      </trkpt>
      <trkpt lat="45.32194" lon="-72.50063">
        <ele>227.77</ele>
      </trkpt>
      <trkpt lat="45.32177" lon="-72.50053">
        <ele>228.48</ele>
      </trkpt>
      <trkpt lat="45.32173" lon="-72.50045">
        <ele>229.67</ele>
      </trkpt>
      <trkpt lat="45.32176" lon="-72.49964">
        <ele>230.88</ele>
      </trkpt>
      <trkpt lat="45.32182" lon="-72.49955">
        <ele>230.88</ele>
      </trkpt>
      <trkpt lat="45.32204" lon="-72.49957">
        <ele>231.8</ele>
      </trkpt>
      <trkpt lat="45.32207" lon="-72.49955">
        <ele>231.8</ele>
      </trkpt>
      <trkpt lat="45.32209" lon="-72.49925">
        <ele>232.04</ele>
      </trkpt>
      <trkpt lat="45.32212" lon="-72.49919">
        <ele>232.04</ele>
      </trkpt>
      <trkpt lat="45.32222" lon="-72.4991">
        <ele>232.16</ele>
      </trkpt>
      <trkpt lat="45.32224" lon="-72.49902">
        <ele>232.18</ele>
      </trkpt>
      <trkpt lat="45.322325" lon="-72.49817">
        <ele>233.62</ele>
      </trkpt>
      <trkpt lat="45.32241" lon="-72.49732">
        <ele>230.87</ele>
      </trkpt>
      <trkpt lat="45.32245" lon="-72.49718">
        <ele>230.49</ele>
      </trkpt>
      <trkpt lat="45.32275" lon="-72.4966">
        <ele>230.77</ele>
      </trkpt>
      <trkpt lat="45.32282" lon="-72.49633">
        <ele>231.75</ele>
      </trkpt>
      <trkpt lat="45.3229238" lon="-72.49517">
        <ele>232.56</ele>
      </trkpt>
      <trkpt lat="45.3230276" lon="-72.49401">
        <ele>232.02</ele>
      </trkpt>
      <trkpt lat="45.3231313" lon="-72.49285">
        <ele>231.42</ele>
      </trkpt>
      <trkpt lat="45.3232351" lon="-72.49169">
        <ele>231.13</ele>
      </trkpt>
      <trkpt lat="45.3233388" lon="-72.49053">
        <ele>234.02</ele>
      </trkpt>
      <trkpt lat="45.3234426" lon="-72.48937">
        <ele>235.83</ele>
      </trkpt>
      <trkpt lat="45.3235463" lon="-72.48821">
        <ele>234.14</ele>
      </trkpt>
      <trkpt lat="45.32365" lon="-72.48705">
        <ele>236.87</ele>
      </trkpt>
      <trkpt lat="45.32373" lon="-72.486095">
        <ele>243.95</ele>
      </trkpt>
      <trkpt lat="45.32381" lon="-72.48514">
        <ele>246.85</ele>
      </trkpt>
      <trkpt lat="45.32389" lon="-72.48442">
        <ele>245.68</ele>
      </trkpt>
      <trkpt lat="45.32397" lon="-72.4837">
        <ele>242.67</ele>
      </trkpt>
      <trkpt lat="45.32396" lon="-72.48353">
        <ele>242.46</ele>
      </trkpt>
      <trkpt lat="45.32392" lon="-72.48339">
        <ele>242.47</ele>
      </trkpt>
      <trkpt lat="45.3238" lon="-72.48307">
        <ele>241.54</ele>
      </trkpt>
      <trkpt lat="45.32379" lon="-72.48289">
        <ele>241.27</ele>
      </trkpt>
      <trkpt lat="45.32385" lon="-72.482065">
        <ele>240.97</ele>
      </trkpt>
      <trkpt lat="45.32391" lon="-72.48124">
        <ele>242.99</ele>
      </trkpt>
      <trkpt lat="45.323155" lon="-72.480885">
        <ele>246.64</ele>
      </trkpt>
      <trkpt lat="45.3224" lon="-72.48053">
        <ele>251.8</ele>
      </trkpt>
      <trkpt lat="45.32239" lon="-72.48066">
        <ele>251.56</ele>
      </trkpt>
      <trkpt lat="45.32239" lon="-72.48067">
        <ele>251.55</ele>
      </trkpt>
      <trkpt lat="45.3224" lon="-72.48053">
        <ele>251.8</ele>
      </trkpt>
      <trkpt lat="45.32159" lon="-72.48011">
        <ele>252.6</ele>
      </trkpt>
      <trkpt lat="45.32078" lon="-72.47969">
        <ele>258.24</ele>
      </trkpt>
      <trkpt lat="45.3206" lon="-72.47968">
        <ele>259.83</ele>
      </trkpt>
      <trkpt lat="45.31987" lon="-72.47972">
        <ele>267.7</ele>
      </trkpt>
      <trkpt lat="45.31969" lon="-72.4797">
        <ele>269.87</ele>
      </trkpt>
      <trkpt lat="45.31932" lon="-72.47945">
        <ele>272.92</ele>
      </trkpt>
      <trkpt lat="45.318645" lon="-72.478975">
        <ele>273.5</ele>
      </trkpt>
      <trkpt lat="45.31797" lon="-72.4785">
        <ele>274.95</ele>
      </trkpt>
      <trkpt lat="45.31739" lon="-72.47812">
        <ele>278.34</ele>
      </trkpt>
      <trkpt lat="45.31681" lon="-72.47774">
        <ele>278.08</ele>
      </trkpt>
      <trkpt lat="45.31648" lon="-72.47756">
        <ele>278.08</ele>
      </trkpt>
      <trkpt lat="45.31606" lon="-72.47736">
        <ele>277.18</ele>
      </trkpt>
      <trkpt lat="45.31562" lon="-72.477225">
        <ele>276.47</ele>
      </trkpt>
      <trkpt lat="45.31518" lon="-72.47709">
        <ele>278.05</ele>
      </trkpt>
      <trkpt lat="45.314382" lon="-72.476872">
        <ele>280.04</ele>
      </trkpt>
      <trkpt lat="45.313584" lon="-72.476654">
        <ele>279.95</ele>
      </trkpt>
      <trkpt lat="45.312786" lon="-72.476436">
        <ele>278.45</ele>
      </trkpt>
      <trkpt lat="45.311988" lon="-72.476218">
        <ele>277.37</ele>
      </trkpt>
      <trkpt lat="45.31119" lon="-72.476">
        <ele>272.65</ele>
      </trkpt>
      <trkpt lat="45.31059" lon="-72.4758133">
        <ele>269.12</ele>
      </trkpt>
      <trkpt lat="45.30999" lon="-72.4756267">
        <ele>265.02</ele>
      </trkpt>
      <trkpt lat="45.30939" lon="-72.47544">
        <ele>263.03</ele>
      </trkpt>
      <trkpt lat="45.30939" lon="-72.47544">
        <ele>263.03</ele>
      </trkpt>
      <trkpt lat="45.30923" lon="-72.47539">
        <ele>262.69</ele>
      </trkpt>
      <trkpt lat="45.3085633" lon="-72.4752667">
        <ele>260.84</ele>
      </trkpt>
      <trkpt lat="45.3078967" lon="-72.4751433">
        <ele>260.47</ele>
      </trkpt>
      <trkpt lat="45.30723" lon="-72.47502">
        <ele>262.26</ele>
      </trkpt>
      <trkpt lat="45.306595" lon="-72.474935">
        <ele>264.53</ele>
      </trkpt>
      <trkpt lat="45.30596" lon="-72.47485">
        <ele>267.66</ele>
      </trkpt>
      <trkpt lat="45.30558" lon="-72.47487">
        <ele>270.12</ele>
      </trkpt>
      <trkpt lat="45.30494" lon="-72.47495">
        <ele>273.05</ele>
      </trkpt>
      <trkpt lat="45.304355" lon="-72.475065">
        <ele>273.21</ele>
      </trkpt>
      <trkpt lat="45.30377" lon="-72.47518">
        <ele>271.95</ele>
      </trkpt>
      <trkpt lat="45.302915" lon="-72.475365">
        <ele>267.56</ele>
      </trkpt>
      <trkpt lat="45.30206" lon="-72.47555">
        <ele>264.63</ele>
      </trkpt>
      <trkpt lat="45.30183" lon="-72.47551">
        <ele>263.95</ele>
      </trkpt>
      <trkpt lat="45.3016" lon="-72.47538">
        <ele>262.99</ele>
      </trkpt>
      <trkpt lat="45.30126" lon="-72.47516">
        <ele>261.98</ele>
      </trkpt>
      <trkpt lat="45.30057" lon="-72.47453">
        <ele>262.11</ele>
      </trkpt>
      <trkpt lat="45.30006" lon="-72.47397">
        <ele>261.07</ele>
      </trkpt>
      <trkpt lat="45.2993875" lon="-72.4732925">
        <ele>258.58</ele>
      </trkpt>
      <trkpt lat="45.298715" lon="-72.472615">
        <ele>255.45</ele>
      </trkpt>
      <trkpt lat="45.2980425" lon="-72.4719375">
        <ele>254.29</ele>
      </trkpt>
      <trkpt lat="45.29737" lon="-72.47126">
        <ele>253.84</ele>
      </trkpt>
      <trkpt lat="45.296785" lon="-72.47063">
        <ele>252.4</ele>
      </trkpt>
      <trkpt lat="45.2962" lon="-72.47">
        <ele>250.97</ele>
      </trkpt>
      <trkpt lat="45.2955467" lon="-72.469345">
        <ele>250.4</ele>
      </trkpt>
      <trkpt lat="45.2948933" lon="-72.4686899">
        <ele>248.95</ele>
      </trkpt>
      <trkpt lat="45.29424" lon="-72.4680349">
        <ele>248.09</ele>
      </trkpt>
      <trkpt lat="45.2935867" lon="-72.4673799">
        <ele>246.35</ele>
      </trkpt>
      <trkpt lat="45.2929333" lon="-72.466725">
        <ele>243.76</ele>
      </trkpt>
      <trkpt lat="45.29228" lon="-72.46607">
        <ele>239.29</ele>
      </trkpt>
      <trkpt lat="45.29179" lon="-72.46558">
        <ele>237.34</ele>
      </trkpt>
      <trkpt lat="45.2913" lon="-72.46509">
        <ele>236.04</ele>
      </trkpt>
      <trkpt lat="45.29107" lon="-72.46489">
        <ele>235.08</ele>
      </trkpt>
      <trkpt lat="45.29107" lon="-72.46489">
        <ele>235.09</ele>
      </trkpt>
      <trkpt lat="45.290505" lon="-72.46438">
        <ele>233.39</ele>
      </trkpt>
      <trkpt lat="45.28994" lon="-72.46387">
        <ele>230.83</ele>
      </trkpt>
      <trkpt lat="45.28933" lon="-72.46335">
        <ele>227.37</ele>
      </trkpt>
      <trkpt lat="45.28872" lon="-72.46283">
        <ele>224.48</ele>
      </trkpt>
      <trkpt lat="45.28811" lon="-72.46231">
        <ele>222.58</ele>
      </trkpt>
      <trkpt lat="45.28746" lon="-72.461765">
        <ele>217.32</ele>
      </trkpt>
      <trkpt lat="45.28681" lon="-72.46122">
        <ele>216.57</ele>
      </trkpt>
      <trkpt lat="45.28616" lon="-72.460675">
        <ele>217.12</ele>
      </trkpt>
      <trkpt lat="45.28551" lon="-72.46013">
        <ele>214.75</ele>
      </trkpt>
      <trkpt lat="45.28487" lon="-72.45965">
        <ele>214.53</ele>
      </trkpt>
      <trkpt lat="45.2840867" lon="-72.45908">
        <ele>214.33</ele>
      </trkpt>
      <trkpt lat="45.2833033" lon="-72.45851">
        <ele>214.08</ele>
      </trkpt>
      <trkpt lat="45.28252" lon="-72.45794">
        <ele>215.73</ele>
      </trkpt>
      <trkpt lat="45.28221" lon="-72.45769">
        <ele>217.07</ele>
      </trkpt>
      <trkpt lat="45.28152" lon="-72.45704">
        <ele>221.39</ele>
      </trkpt>
      <trkpt lat="45.28083" lon="-72.45639">
        <ele>224</ele>
      </trkpt>
      <trkpt lat="45.2802333" lon="-72.4558667">
        <ele>232.46</ele>
      </trkpt>
      <trkpt lat="45.2796367" lon="-72.4553433">
        <ele>239.32</ele>
      </trkpt>
      <trkpt lat="45.27904" lon="-72.45482">
        <ele>243.7</ele>
      </trkpt>
      <trkpt lat="45.27879" lon="-72.45456">
        <ele>247.02</ele>
      </trkpt>
      <trkpt lat="45.27851" lon="-72.45422">
        <ele>249.39</ele>
      </trkpt>
      <trkpt lat="45.27816" lon="-72.45384">
        <ele>250.72</ele>
      </trkpt>
      <trkpt lat="45.27782" lon="-72.45339">
        <ele>252.95</ele>
      </trkpt>
      <trkpt lat="45.277325" lon="-72.452675">
        <ele>257.54</ele>
      </trkpt>
      <trkpt lat="45.27683" lon="-72.45196">
        <ele>264.03</ele>
      </trkpt>
      <trkpt lat="45.27648" lon="-72.45147">
        <ele>267.01</ele>
      </trkpt>
      <trkpt lat="45.27602" lon="-72.4509">
        <ele>271.86</ele>
      </trkpt>
      <trkpt lat="45.27588" lon="-72.45076">
        <ele>272.9</ele>
      </trkpt>
      <trkpt lat="45.27558" lon="-72.45053">
        <ele>274.47</ele>
      </trkpt>
      <trkpt lat="45.27485" lon="-72.45016">
        <ele>276.25</ele>
      </trkpt>
      <trkpt lat="45.274152" lon="-72.449848">
        <ele>276.89</ele>
      </trkpt>
      <trkpt lat="45.273454" lon="-72.449536">
        <ele>277.84</ele>
      </trkpt>
      <trkpt lat="45.272756" lon="-72.449224">
        <ele>279.29</ele>
      </trkpt>
      <trkpt lat="45.272058" lon="-72.448912">
        <ele>279.84</ele>
      </trkpt>
      <trkpt lat="45.27136" lon="-72.4486">
        <ele>281.41</ele>
      </trkpt>
      <trkpt lat="45.27099" lon="-72.44839">
        <ele>282.28</ele>
      </trkpt>
      <trkpt lat="45.27065" lon="-72.44813">
        <ele>283.05</ele>
      </trkpt>
      <trkpt lat="45.2703" lon="-72.44779">
        <ele>283.1</ele>
      </trkpt>
      <trkpt lat="45.26979" lon="-72.44718">
        <ele>281.34</ele>
      </trkpt>
      <trkpt lat="45.26928" lon="-72.44657">
        <ele>278.4</ele>
      </trkpt>
      <trkpt lat="45.26877" lon="-72.44596">
        <ele>275.63</ele>
      </trkpt>
      <trkpt lat="45.26816" lon="-72.44526">
        <ele>273.9</ele>
      </trkpt>
      <trkpt lat="45.26762" lon="-72.44475">
        <ele>274.39</ele>
      </trkpt>
      <trkpt lat="45.2670067" lon="-72.4442">
        <ele>275.64</ele>
      </trkpt>
      <trkpt lat="45.2663933" lon="-72.44365">
        <ele>276.48</ele>
      </trkpt>
      <trkpt lat="45.26578" lon="-72.4431">
        <ele>278.8</ele>
      </trkpt>
      <trkpt lat="45.26524" lon="-72.44255">
        <ele>281.45</ele>
      </trkpt>
      <trkpt lat="45.26489" lon="-72.44215">
        <ele>282.51</ele>
      </trkpt>
      <trkpt lat="45.26449" lon="-72.44158">
        <ele>284.13</ele>
      </trkpt>
      <trkpt lat="45.26427" lon="-72.44122">
        <ele>285.99</ele>
      </trkpt>
      <trkpt lat="45.26398" lon="-72.44057">
        <ele>288</ele>
      </trkpt>
      <trkpt lat="45.263745" lon="-72.439955">
        <ele>290.15</ele>
      </trkpt>
      <trkpt lat="45.26351" lon="-72.43934">
        <ele>293.05</ele>
      </trkpt>
      <trkpt lat="45.26343" lon="-72.43917">
        <ele>293.96</ele>
      </trkpt>
      <trkpt lat="45.26328" lon="-72.439">
        <ele>294.44</ele>
      </trkpt>
      <trkpt lat="45.26314" lon="-72.43893">
        <ele>294.47</ele>
      </trkpt>
      <trkpt lat="45.26255" lon="-72.43891">
        <ele>293.66</ele>
      </trkpt>
      <trkpt lat="45.26167" lon="-72.43896">
        <ele>290.3</ele>
      </trkpt>
      <trkpt lat="45.26168" lon="-72.43895">
        <ele>290.38</ele>
      </trkpt>
      <trkpt lat="45.26115" lon="-72.43899">
        <ele>287.88</ele>
      </trkpt>
      <trkpt lat="45.260595" lon="-72.439005">
        <ele>288.98</ele>
      </trkpt>
      <trkpt lat="45.26004" lon="-72.43902">
        <ele>291.69</ele>
      </trkpt>
      <trkpt lat="45.25977" lon="-72.43898">
        <ele>292.13</ele>
      </trkpt>
      <trkpt lat="45.25951" lon="-72.43886">
        <ele>292.38</ele>
      </trkpt>
      <trkpt lat="45.25874" lon="-72.43827">
        <ele>297.49</ele>
      </trkpt>
      <trkpt lat="45.25805" lon="-72.43764">
        <ele>303.66</ele>
      </trkpt>
      <trkpt lat="45.25754" lon="-72.4371">
        <ele>309.09</ele>
      </trkpt>
      <trkpt lat="45.25718" lon="-72.43678">
        <ele>309.63</ele>
      </trkpt>
      <trkpt lat="45.25653" lon="-72.43635">
        <ele>308.83</ele>
      </trkpt>
      <trkpt lat="45.25588" lon="-72.43592">
        <ele>308.98</ele>
      </trkpt>
      <trkpt lat="45.25523" lon="-72.43549">
        <ele>308.41</ele>
      </trkpt>
      <trkpt lat="45.254585" lon="-72.435225">
        <ele>313.96</ele>
      </trkpt>
      <trkpt lat="45.25394" lon="-72.43496">
        <ele>319.39</ele>
      </trkpt>
      <trkpt lat="45.25332" lon="-72.43486">
        <ele>322.95</ele>
      </trkpt>
      <trkpt lat="45.2528" lon="-72.43486">
        <ele>324.92</ele>
      </trkpt>
      <trkpt lat="45.25228" lon="-72.43486">
        <ele>328.52</ele>
      </trkpt>
      <trkpt lat="45.25152" lon="-72.43488">
        <ele>332.33</ele>
      </trkpt>
      <trkpt lat="45.25076" lon="-72.43492">
        <ele>338.14</ele>
      </trkpt>
      <trkpt lat="45.25" lon="-72.43496">
        <ele>344.03</ele>
      </trkpt>
      <trkpt lat="45.249395" lon="-72.435045">
        <ele>347.25</ele>
      </trkpt>
      <trkpt lat="45.24879" lon="-72.43513">
        <ele>347.09</ele>
      </trkpt>
      <trkpt lat="45.24845" lon="-72.43514">
        <ele>347.6</ele>
      </trkpt>
      <trkpt lat="45.24761" lon="-72.43513">
        <ele>350.55</ele>
      </trkpt>
      <trkpt lat="45.24707" lon="-72.43506">
        <ele>351.53</ele>
      </trkpt>
      <trkpt lat="45.24659" lon="-72.43504">
        <ele>352.46</ele>
      </trkpt>
      <trkpt lat="45.24624" lon="-72.43499">
        <ele>353.21</ele>
      </trkpt>
      <trkpt lat="45.24607" lon="-72.43497">
        <ele>353.75</ele>
      </trkpt>
      <trkpt lat="45.24582" lon="-72.43499">
        <ele>354.18</ele>
      </trkpt>
      <trkpt lat="45.245335" lon="-72.43508">
        <ele>355.75</ele>
      </trkpt>
      <trkpt lat="45.24485" lon="-72.43517">
        <ele>356.55</ele>
      </trkpt>
      <trkpt lat="45.24431" lon="-72.43529">
        <ele>357.23</ele>
      </trkpt>
      <trkpt lat="45.243555" lon="-72.435525">
        <ele>358.71</ele>
      </trkpt>
      <trkpt lat="45.2428" lon="-72.43576">
        <ele>359.03</ele>
      </trkpt>
      <trkpt lat="45.24211" lon="-72.43593">
        <ele>358.77</ele>
      </trkpt>
      <trkpt lat="45.24188" lon="-72.43602">
        <ele>358.59</ele>
      </trkpt>
      <trkpt lat="45.24123" lon="-72.43634">
        <ele>358.56</ele>
      </trkpt>
      <trkpt lat="45.24089" lon="-72.43655">
        <ele>357.16</ele>
      </trkpt>
      <trkpt lat="45.24055" lon="-72.43681">
        <ele>355.26</ele>
      </trkpt>
      <trkpt lat="45.24055" lon="-72.43682">
        <ele>355.24</ele>
      </trkpt>
      <trkpt lat="45.23986" lon="-72.43737">
        <ele>353.91</ele>
      </trkpt>
      <trkpt lat="45.23921" lon="-72.437975">
        <ele>352.91</ele>
      </trkpt>
      <trkpt lat="45.23856" lon="-72.43858">
        <ele>350.02</ele>
      </trkpt>
      <trkpt lat="45.23822" lon="-72.43884">
        <ele>347.18</ele>
      </trkpt>
      <trkpt lat="45.23777" lon="-72.43925">
        <ele>345.41</ele>
      </trkpt>
      <trkpt lat="45.23753" lon="-72.43942">
        <ele>345.96</ele>
      </trkpt>
      <trkpt lat="45.23731" lon="-72.43951">
        <ele>346.82</ele>
      </trkpt>
      <trkpt lat="45.23699" lon="-72.43956">
        <ele>347.55</ele>
      </trkpt>
      <trkpt lat="45.23613" lon="-72.439595">
        <ele>348.97</ele>
      </trkpt>
      <trkpt lat="45.23527" lon="-72.43963">
        <ele>353.11</ele>
      </trkpt>
      <trkpt lat="45.23477" lon="-72.43966">
        <ele>354.32</ele>
      </trkpt>
      <trkpt lat="45.234185" lon="-72.43968">
        <ele>355.81</ele>
      </trkpt>
      <trkpt lat="45.2336" lon="-72.4397">
        <ele>358.6</ele>
      </trkpt>
      <trkpt lat="45.23336" lon="-72.43973">
        <ele>359.93</ele>
      </trkpt>
      <trkpt lat="45.23292" lon="-72.43973">
        <ele>363.51</ele>
      </trkpt>
      <trkpt lat="45.23292" lon="-72.440935">
        <ele>353.72</ele>
      </trkpt>
      <trkpt lat="45.23292" lon="-72.44214">
        <ele>344</ele>
      </trkpt>
      <trkpt lat="45.2329067" lon="-72.44307">
        <ele>337.05</ele>
      </trkpt>
      <trkpt lat="45.2328933" lon="-72.444">
        <ele>333.3</ele>
      </trkpt>
      <trkpt lat="45.23288" lon="-72.44493">
        <ele>327.9</ele>
      </trkpt>
      <trkpt lat="45.23286" lon="-72.44525">
        <ele>327.58</ele>
      </trkpt>
      <trkpt lat="45.2328" lon="-72.44574">
        <ele>326.31</ele>
      </trkpt>
      <trkpt lat="45.23268" lon="-72.44602">
        <ele>324.96</ele>
      </trkpt>
      <trkpt lat="45.23254" lon="-72.44628">
        <ele>324.09</ele>
      </trkpt>
      <trkpt lat="45.232175" lon="-72.44706">
        <ele>322.77</ele>
      </trkpt>
      <trkpt lat="45.23181" lon="-72.44784">
        <ele>323.55</ele>
      </trkpt>
      <trkpt lat="45.23158" lon="-72.448465">
        <ele>321.07</ele>
      </trkpt>
      <trkpt lat="45.23135" lon="-72.44909">
        <ele>318.14</ele>
      </trkpt>
      <trkpt lat="45.23116" lon="-72.44968">
        <ele>313.63</ele>
      </trkpt>
      <trkpt lat="45.23109" lon="-72.44981">
        <ele>312.44</ele>
      </trkpt>
      <trkpt lat="45.23109" lon="-72.44982">
        <ele>312.51</ele>
      </trkpt>
      <trkpt lat="45.23094" lon="-72.45013">
        <ele>308.21</ele>
      </trkpt>
      <trkpt lat="45.230695" lon="-72.450955">
        <ele>302.84</ele>
      </trkpt>
      <trkpt lat="45.23045" lon="-72.45178">
        <ele>299.26</ele>
      </trkpt>
      <trkpt lat="45.23018" lon="-72.4525">
        <ele>296.6</ele>
      </trkpt>
      <trkpt lat="45.23009" lon="-72.45295">
        <ele>293.4</ele>
      </trkpt>
      <trkpt lat="45.22991" lon="-72.45351">
        <ele>291.61</ele>
      </trkpt>
      <trkpt lat="45.22967" lon="-72.45424">
        <ele>294.49</ele>
      </trkpt>
      <trkpt lat="45.22965" lon="-72.45465">
        <ele>298.68</ele>
      </trkpt>
      <trkpt lat="45.2296" lon="-72.45487">
        <ele>299.11</ele>
      </trkpt>
      <trkpt lat="45.22933" lon="-72.45536">
        <ele>298.22</ele>
      </trkpt>
      <trkpt lat="45.22921" lon="-72.45564">
        <ele>297.03</ele>
      </trkpt>
      <trkpt lat="45.22908" lon="-72.45679">
        <ele>298.55</ele>
      </trkpt>
      <trkpt lat="45.2291" lon="-72.45743">
        <ele>297.82</ele>
      </trkpt>
      <trkpt lat="45.22908" lon="-72.45797">
        <ele>295.48</ele>
      </trkpt>
      <trkpt lat="45.229" lon="-72.45823">
        <ele>295.17</ele>
      </trkpt>
      <trkpt lat="45.22892" lon="-72.45836">
        <ele>294.97</ele>
      </trkpt>
      <trkpt lat="45.22871" lon="-72.45854">
        <ele>295</ele>
      </trkpt>
      <trkpt lat="45.22841" lon="-72.45868">
        <ele>295.67</ele>
      </trkpt>
      <trkpt lat="45.22824" lon="-72.45881">
        <ele>296.7</ele>
      </trkpt>
      <trkpt lat="45.22803" lon="-72.459">
        <ele>297.07</ele>
      </trkpt>
      <trkpt lat="45.22785" lon="-72.45934">
        <ele>296.84</ele>
      </trkpt>
      <trkpt lat="45.22766" lon="-72.45989">
        <ele>295.88</ele>
      </trkpt>
      <trkpt lat="45.22761" lon="-72.4602">
        <ele>295.57</ele>
      </trkpt>
      <trkpt lat="45.22762" lon="-72.46051">
        <ele>295.22</ele>
      </trkpt>
      <trkpt lat="45.22768" lon="-72.46074">
        <ele>294.9</ele>
      </trkpt>
      <trkpt lat="45.22788" lon="-72.46105">
        <ele>293.94</ele>
      </trkpt>
      <trkpt lat="45.22806" lon="-72.46127">
        <ele>293.45</ele>
      </trkpt>
      <trkpt lat="45.22825" lon="-72.46158">
        <ele>292.44</ele>
      </trkpt>
      <trkpt lat="45.2283" lon="-72.46178">
        <ele>291.91</ele>
      </trkpt>
      <trkpt lat="45.22829" lon="-72.46204">
        <ele>291.21</ele>
      </trkpt>
      <trkpt lat="45.22815" lon="-72.46257">
        <ele>287.36</ele>
      </trkpt>
      <trkpt lat="45.22797" lon="-72.46312">
        <ele>280.94</ele>
      </trkpt>
      <trkpt lat="45.22774" lon="-72.46369">
        <ele>275.54</ele>
      </trkpt>
      <trkpt lat="45.2276" lon="-72.46392">
        <ele>273.98</ele>
      </trkpt>
      <trkpt lat="45.22752" lon="-72.46415">
        <ele>272.28</ele>
      </trkpt>
      <trkpt lat="45.22749" lon="-72.46454">
        <ele>270.37</ele>
      </trkpt>
      <trkpt lat="45.227485" lon="-72.465345">
        <ele>267.93</ele>
      </trkpt>
      <trkpt lat="45.22748" lon="-72.46615">
        <ele>265.48</ele>
      </trkpt>
      <trkpt lat="45.22752" lon="-72.467396">
        <ele>259.22</ele>
      </trkpt>
      <trkpt lat="45.22756" lon="-72.468642">
        <ele>257.03</ele>
      </trkpt>
      <trkpt lat="45.2276" lon="-72.469888">
        <ele>256.67</ele>
      </trkpt>
      <trkpt lat="45.22764" lon="-72.471134">
        <ele>254.83</ele>
      </trkpt>
      <trkpt lat="45.22768" lon="-72.47238">
        <ele>252.33</ele>
      </trkpt>
      <trkpt lat="45.227775" lon="-72.473475">
        <ele>254.28</ele>
      </trkpt>
      <trkpt lat="45.22787" lon="-72.47457">
        <ele>260.04</ele>
      </trkpt>
      <trkpt lat="45.22786" lon="-72.47506">
        <ele>260.54</ele>
      </trkpt>
      <trkpt lat="45.22781" lon="-72.476">
        <ele>261.9</ele>
      </trkpt>
      <trkpt lat="45.22776" lon="-72.4765">
        <ele>262.08</ele>
      </trkpt>
      <trkpt lat="45.22751" lon="-72.47735">
        <ele>260.59</ele>
      </trkpt>
      <trkpt lat="45.22743" lon="-72.47749">
        <ele>260.19</ele>
      </trkpt>
      <trkpt lat="45.22717" lon="-72.47788">
        <ele>258.29</ele>
      </trkpt>
      <trkpt lat="45.22674" lon="-72.47838">
        <ele>253.85</ele>
      </trkpt>
      <trkpt lat="45.226365" lon="-72.47887">
        <ele>248.17</ele>
      </trkpt>
      <trkpt lat="45.22599" lon="-72.47936">
        <ele>244.64</ele>
      </trkpt>
      <trkpt lat="45.22598" lon="-72.47936">
        <ele>244.6</ele>
      </trkpt>
      <trkpt lat="45.2253925" lon="-72.4801025">
        <ele>240.82</ele>
      </trkpt>
      <trkpt lat="45.224805" lon="-72.480845">
        <ele>240.4</ele>
      </trkpt>
      <trkpt lat="45.2242175" lon="-72.4815875">
        <ele>241.7</ele>
      </trkpt>
      <trkpt lat="45.22363" lon="-72.48233">
        <ele>242.56</ele>
      </trkpt>
      <trkpt lat="45.22339" lon="-72.48271">
        <ele>239.6</ele>
      </trkpt>
      <trkpt lat="45.22321" lon="-72.48304">
        <ele>238.44</ele>
      </trkpt>
      <trkpt lat="45.22315" lon="-72.48321">
        <ele>237.89</ele>
      </trkpt>
      <trkpt lat="45.22304" lon="-72.48375">
        <ele>237.29</ele>
      </trkpt>
      <trkpt lat="45.22295" lon="-72.48464">
        <ele>237.54</ele>
      </trkpt>
      <trkpt lat="45.2229433" lon="-72.4857">
        <ele>239.86</ele>
      </trkpt>
      <trkpt lat="45.2229367" lon="-72.48676">
        <ele>242.91</ele>
      </trkpt>
      <trkpt lat="45.22293" lon="-72.48782">
        <ele>246.09</ele>
      </trkpt>
      <trkpt lat="45.22291" lon="-72.48873">
        <ele>244.95</ele>
      </trkpt>
      <trkpt lat="45.22282" lon="-72.4893">
        <ele>243.96</ele>
      </trkpt>
      <trkpt lat="45.2227" lon="-72.48961">
        <ele>242.83</ele>
      </trkpt>
      <trkpt lat="45.22254" lon="-72.48986">
        <ele>242.64</ele>
      </trkpt>
      <trkpt lat="45.22274" lon="-72.49029">
        <ele>237.85</ele>
      </trkpt>
      <trkpt lat="45.22299" lon="-72.49047">
        <ele>233.62</ele>
      </trkpt>
      <trkpt lat="45.22322" lon="-72.49091">
        <ele>228.65</ele>
      </trkpt>
      <trkpt lat="45.22339" lon="-72.49144">
        <ele>223.26</ele>
      </trkpt>
      <trkpt lat="45.22349" lon="-72.49214">
        <ele>217.21</ele>
      </trkpt>
      <trkpt lat="45.22281" lon="-72.492935">
        <ele>215.81</ele>
      </trkpt>
      <trkpt lat="45.22213" lon="-72.49373">
        <ele>223.58</ele>
      </trkpt>
      <trkpt lat="45.221795" lon="-72.494155">
        <ele>225.35</ele>
      </trkpt>
      <trkpt lat="45.22146" lon="-72.49458">
        <ele>226.05</ele>
      </trkpt>
      <trkpt lat="45.22141" lon="-72.4949">
        <ele>226.68</ele>
      </trkpt>
      <trkpt lat="45.22139" lon="-72.49581">
        <ele>227.06</ele>
      </trkpt>
      <trkpt lat="45.22137" lon="-72.49672">
        <ele>225.38</ele>
      </trkpt>
      <trkpt lat="45.22139" lon="-72.49733">
        <ele>224.3</ele>
      </trkpt>
      <trkpt lat="45.2214" lon="-72.49844">
        <ele>221.02</ele>
      </trkpt>
      <trkpt lat="45.22139" lon="-72.499225">
        <ele>218.91</ele>
      </trkpt>
      <trkpt lat="45.22138" lon="-72.50001">
        <ele>220.18</ele>
      </trkpt>
      <trkpt lat="45.221385" lon="-72.500705">
        <ele>223.49</ele>
      </trkpt>
      <trkpt lat="45.22139" lon="-72.5014">
        <ele>224.71</ele>
      </trkpt>
      <trkpt lat="45.22151" lon="-72.50211">
        <ele>222.55</ele>
      </trkpt>
      <trkpt lat="45.22153" lon="-72.5025">
        <ele>221.79</ele>
      </trkpt>
      <trkpt lat="45.22149" lon="-72.50269">
        <ele>221.63</ele>
      </trkpt>
      <trkpt lat="45.22117" lon="-72.50364">
        <ele>222.84</ele>
      </trkpt>
      <trkpt lat="45.2208" lon="-72.50464">
        <ele>223.73</ele>
      </trkpt>
      <trkpt lat="45.22043" lon="-72.50564">
        <ele>223.79</ele>
      </trkpt>
      <trkpt lat="45.22026" lon="-72.50596">
        <ele>223.13</ele>
      </trkpt>
      <trkpt lat="45.22039" lon="-72.50636">
        <ele>222.62</ele>
      </trkpt>
      <trkpt lat="45.22039" lon="-72.50636">
        <ele>222.62</ele>
      </trkpt>
      <trkpt lat="45.22061" lon="-72.50702">
        <ele>218.75</ele>
      </trkpt>
      <trkpt lat="45.22083" lon="-72.50768">
        <ele>215.04</ele>
      </trkpt>
      <trkpt lat="45.2202833" lon="-72.50809">
        <ele>215.86</ele>
      </trkpt>
      <trkpt lat="45.2197367" lon="-72.5085">
        <ele>216.23</ele>
      </trkpt>
      <trkpt lat="45.21919" lon="-72.50891">
        <ele>217.31</ele>
      </trkpt>
      <trkpt lat="45.21898" lon="-72.5091">
        <ele>217.45</ele>
      </trkpt>
      <trkpt lat="45.21913" lon="-72.50986">
        <ele>215.7</ele>
      </trkpt>
      <trkpt lat="45.21933" lon="-72.51052">
        <ele>214.89</ele>
      </trkpt>
      <trkpt lat="45.219625" lon="-72.51123">
        <ele>212.38</ele>
      </trkpt>
      <trkpt lat="45.21992" lon="-72.51194">
        <ele>211.84</ele>
      </trkpt>
      <trkpt lat="45.2202" lon="-72.51254">
        <ele>212.58</ele>
      </trkpt>
      <trkpt lat="45.22048" lon="-72.51314">
        <ele>212.19</ele>
      </trkpt>
      <trkpt lat="45.2208567" lon="-72.5139967">
        <ele>209.79</ele>
      </trkpt>
      <trkpt lat="45.2212333" lon="-72.5148533">
        <ele>209.94</ele>
      </trkpt>
      <trkpt lat="45.22161" lon="-72.51571">
        <ele>209.28</ele>
      </trkpt>
      <trkpt lat="45.22181" lon="-72.51627">
        <ele>208.9</ele>
      </trkpt>
      <trkpt lat="45.22188" lon="-72.51695">
        <ele>208.92</ele>
      </trkpt>
      <trkpt lat="45.22192" lon="-72.51783">
        <ele>209.18</ele>
      </trkpt>
      <trkpt lat="45.22196" lon="-72.51871">
        <ele>209.73</ele>
      </trkpt>
      <trkpt lat="45.22201" lon="-72.51898">
        <ele>209.67</ele>
      </trkpt>
      <trkpt lat="45.2221" lon="-72.51929">
        <ele>209.15</ele>
      </trkpt>
      <trkpt lat="45.2224" lon="-72.52006">
        <ele>208.26</ele>
      </trkpt>
      <trkpt lat="45.22249" lon="-72.52033">
        <ele>208.18</ele>
      </trkpt>
      <trkpt lat="45.22266" lon="-72.52095">
        <ele>207.98</ele>
      </trkpt>
      <trkpt lat="45.22275" lon="-72.5214">
        <ele>207.5</ele>
      </trkpt>
      <trkpt lat="45.22279" lon="-72.52211">
        <ele>206.96</ele>
      </trkpt>
      <trkpt lat="45.22279" lon="-72.52248">
        <ele>206.46</ele>
      </trkpt>
      <trkpt lat="45.22277" lon="-72.52283">
        <ele>206.14</ele>
      </trkpt>
      <trkpt lat="45.22272" lon="-72.52306">
        <ele>205.46</ele>
      </trkpt>
      <trkpt lat="45.22259" lon="-72.52336">
        <ele>204.72</ele>
      </trkpt>
      <trkpt lat="45.22258" lon="-72.52337">
        <ele>204.72</ele>
      </trkpt>
      <trkpt lat="45.22192" lon="-72.52412">
        <ele>201.65</ele>
      </trkpt>
      <trkpt lat="45.221425" lon="-72.524615">
        <ele>201.75</ele>
      </trkpt>
      <trkpt lat="45.22093" lon="-72.52511">
        <ele>202.67</ele>
      </trkpt>
      <trkpt lat="45.22121" lon="-72.5261175">
        <ele>202.03</ele>
      </trkpt>
      <trkpt lat="45.22149" lon="-72.527125">
        <ele>201.74</ele>
      </trkpt>
      <trkpt lat="45.22177" lon="-72.5281325">
        <ele>202.07</ele>
      </trkpt>
      <trkpt lat="45.22205" lon="-72.52914">
        <ele>202.45</ele>
      </trkpt>
      <trkpt lat="45.22218" lon="-72.52972">
        <ele>202.78</ele>
      </trkpt>
      <trkpt lat="45.22227" lon="-72.53042">
        <ele>202.68</ele>
      </trkpt>
      <trkpt lat="45.2222967" lon="-72.53128">
        <ele>202.53</ele>
      </trkpt>
      <trkpt lat="45.2223233" lon="-72.53214">
        <ele>202.51</ele>
      </trkpt>
      <trkpt lat="45.22235" lon="-72.533">
        <ele>202.06</ele>
      </trkpt>
      <trkpt lat="45.22231" lon="-72.53398">
        <ele>200.13</ele>
      </trkpt>
      <trkpt lat="45.222325" lon="-72.53497">
        <ele>199.44</ele>
      </trkpt>
      <trkpt lat="45.22234" lon="-72.53596">
        <ele>199.99</ele>
      </trkpt>
      <trkpt lat="45.22238" lon="-72.5368233">
        <ele>204.94</ele>
      </trkpt>
      <trkpt lat="45.22242" lon="-72.5376867">
        <ele>211.62</ele>
      </trkpt>
      <trkpt lat="45.22246" lon="-72.53855">
        <ele>212.95</ele>
      </trkpt>
      <trkpt lat="45.22263" lon="-72.53954">
        <ele>219.16</ele>
      </trkpt>
      <trkpt lat="45.22259" lon="-72.53977">
        <ele>220.15</ele>
      </trkpt>
      <trkpt lat="45.22248" lon="-72.54007">
        <ele>223.13</ele>
      </trkpt>
      <trkpt lat="45.22232" lon="-72.54042">
        <ele>223.99</ele>
      </trkpt>
      <trkpt lat="45.22203" lon="-72.54096">
        <ele>229.58</ele>
      </trkpt>
      <trkpt lat="45.22193" lon="-72.5411">
        <ele>231.51</ele>
      </trkpt>
      <trkpt lat="45.22159" lon="-72.54145">
        <ele>234.13</ele>
      </trkpt>
      <trkpt lat="45.22149" lon="-72.54158">
        <ele>236.56</ele>
      </trkpt>
      <trkpt lat="45.22148" lon="-72.54158">
        <ele>236.71</ele>
      </trkpt>
      <trkpt lat="45.22141" lon="-72.54174">
        <ele>239.02</ele>
      </trkpt>
      <trkpt lat="45.22136" lon="-72.54209">
        <ele>240.79</ele>
      </trkpt>
      <trkpt lat="45.22139" lon="-72.5424">
        <ele>242.73</ele>
      </trkpt>
      <trkpt lat="45.22154" lon="-72.5428">
        <ele>244.67</ele>
      </trkpt>
      <trkpt lat="45.22198" lon="-72.54353">
        <ele>248.23</ele>
      </trkpt>
      <trkpt lat="45.22242" lon="-72.54426">
        <ele>253.17</ele>
      </trkpt>
      <trkpt lat="45.22258" lon="-72.54459">
        <ele>255.22</ele>
      </trkpt>
      <trkpt lat="45.2226" lon="-72.54465">
        <ele>255.22</ele>
      </trkpt>
      <trkpt lat="45.222635" lon="-72.545895">
        <ele>255.99</ele>
      </trkpt>
      <trkpt lat="45.22267" lon="-72.54714">
        <ele>252.93</ele>
      </trkpt>
      <trkpt lat="45.2226833" lon="-72.54825">
        <ele>254.99</ele>
      </trkpt>
      <trkpt lat="45.2226967" lon="-72.54936">
        <ele>258.58</ele>
      </trkpt>
      <trkpt lat="45.22271" lon="-72.55047">
        <ele>264.22</ele>
      </trkpt>
      <trkpt lat="45.222755" lon="-72.551115">
        <ele>268.3</ele>
      </trkpt>
      <trkpt lat="45.2228" lon="-72.55176">
        <ele>273.89</ele>
      </trkpt>
      <trkpt lat="45.222816" lon="-72.552798">
        <ele>275.78</ele>
      </trkpt>
      <trkpt lat="45.222832" lon="-72.553836">
        <ele>276.59</ele>
      </trkpt>
      <trkpt lat="45.222848" lon="-72.554874">
        <ele>274.75</ele>
      </trkpt>
      <trkpt lat="45.222864" lon="-72.555912">
        <ele>270.12</ele>
      </trkpt>
      <trkpt lat="45.22288" lon="-72.55695">
        <ele>267.68</ele>
      </trkpt>
      <trkpt lat="45.22287" lon="-72.55762">
        <ele>265.26</ele>
      </trkpt>
      <trkpt lat="45.22282" lon="-72.55816">
        <ele>259.95</ele>
      </trkpt>
      <trkpt lat="45.22283" lon="-72.559055">
        <ele>255.19</ele>
      </trkpt>
      <trkpt lat="45.22284" lon="-72.55995">
        <ele>253.55</ele>
      </trkpt>
      <trkpt lat="45.22282" lon="-72.56095">
        <ele>256.85</ele>
      </trkpt>
      <trkpt lat="45.2228" lon="-72.56195">
        <ele>262.96</ele>
      </trkpt>
      <trkpt lat="45.22278" lon="-72.56295">
        <ele>265.21</ele>
      </trkpt>
      <trkpt lat="45.22276" lon="-72.56395">
        <ele>271.32</ele>
      </trkpt>
      <trkpt lat="45.22276" lon="-72.56396">
        <ele>271.32</ele>
      </trkpt>
      <trkpt lat="45.22274" lon="-72.5649533">
        <ele>276.45</ele>
      </trkpt>
      <trkpt lat="45.22272" lon="-72.5659467">
        <ele>283.79</ele>
      </trkpt>
      <trkpt lat="45.2227" lon="-72.56694">
        <ele>286.26</ele>
      </trkpt>
      <trkpt lat="45.2226863" lon="-72.5680588">
        <ele>286.04</ele>
      </trkpt>
      <trkpt lat="45.2226726" lon="-72.5691775">
        <ele>282.24</ele>
      </trkpt>
      <trkpt lat="45.2226588" lon="-72.5702963">
        <ele>278.37</ele>
      </trkpt>
      <trkpt lat="45.2226451" lon="-72.571415">
        <ele>272.55</ele>
      </trkpt>
      <trkpt lat="45.2226313" lon="-72.5725338">
        <ele>266.29</ele>
      </trkpt>
      <trkpt lat="45.2226176" lon="-72.5736525">
        <ele>259.75</ele>
      </trkpt>
      <trkpt lat="45.2226038" lon="-72.5747713">
        <ele>252.21</ele>
      </trkpt>
      <trkpt lat="45.22259" lon="-72.57589">
        <ele>245.4</ele>
      </trkpt>
      <trkpt lat="45.222595" lon="-72.57667">
        <ele>238.66</ele>
      </trkpt>
      <trkpt lat="45.2226" lon="-72.57745">
        <ele>233</ele>
      </trkpt>
      <trkpt lat="45.2226401" lon="-72.5786544">
        <ele>227.8</ele>
      </trkpt>
      <trkpt lat="45.2226802" lon="-72.5798589">
        <ele>221.52</ele>
      </trkpt>
      <trkpt lat="45.2227203" lon="-72.5810633">
        <ele>217.36</ele>
      </trkpt>
      <trkpt lat="45.2227604" lon="-72.5822677">
        <ele>214.62</ele>
      </trkpt>
      <trkpt lat="45.2228004" lon="-72.5834722">
        <ele>207.91</ele>
      </trkpt>
      <trkpt lat="45.2228405" lon="-72.5846766">
        <ele>205.06</ele>
      </trkpt>
      <trkpt lat="45.2228805" lon="-72.585881">
        <ele>202.19</ele>
      </trkpt>
      <trkpt lat="45.2229205" lon="-72.5870855">
        <ele>200.4</ele>
      </trkpt>
      <trkpt lat="45.2229605" lon="-72.5882899">
        <ele>201.07</ele>
      </trkpt>
      <trkpt lat="45.2230005" lon="-72.5894944">
        <ele>204.67</ele>
      </trkpt>
      <trkpt lat="45.2230405" lon="-72.5906988">
        <ele>209</ele>
      </trkpt>
      <trkpt lat="45.2230805" lon="-72.5919033">
        <ele>211.54</ele>
      </trkpt>
      <trkpt lat="45.2231204" lon="-72.5931077">
        <ele>214.11</ele>
      </trkpt>
      <trkpt lat="45.2231604" lon="-72.5943122">
        <ele>215.9</ele>
      </trkpt>
      <trkpt lat="45.2232003" lon="-72.5955166">
        <ele>218.94</ele>
      </trkpt>
      <trkpt lat="45.2232402" lon="-72.5967211">
        <ele>219.39</ele>
      </trkpt>
      <trkpt lat="45.2232801" lon="-72.5979255">
        <ele>221.03</ele>
      </trkpt>
      <trkpt lat="45.22332" lon="-72.59913">
        <ele>220.92</ele>
      </trkpt>
      <trkpt lat="45.2233772" lon="-72.6002514">
        <ele>218.19</ele>
      </trkpt>
      <trkpt lat="45.2234343" lon="-72.6013728">
        <ele>213.51</ele>
      </trkpt>
      <trkpt lat="45.2234915" lon="-72.6024943">
        <ele>210</ele>
      </trkpt>
      <trkpt lat="45.2235486" lon="-72.6036157">
        <ele>210.26</ele>
      </trkpt>
      <trkpt lat="45.2236058" lon="-72.6047371">
        <ele>213.95</ele>
      </trkpt>
      <trkpt lat="45.2236629" lon="-72.6058586">
        <ele>216.16</ele>
      </trkpt>
      <trkpt lat="45.22372" lon="-72.60698">
        <ele>214.51</ele>
      </trkpt>
      <trkpt lat="45.2237743" lon="-72.6082243">
        <ele>210.99</ele>
      </trkpt>
      <trkpt lat="45.2238286" lon="-72.6094686">
        <ele>209.27</ele>
      </trkpt>
      <trkpt lat="45.2238829" lon="-72.6107128">
        <ele>209.95</ele>
      </trkpt>
      <trkpt lat="45.2239372" lon="-72.6119571">
        <ele>211.84</ele>
      </trkpt>
      <trkpt lat="45.2239915" lon="-72.6132014">
        <ele>214.76</ele>
      </trkpt>
      <trkpt lat="45.2240458" lon="-72.6144457">
        <ele>214.82</ele>
      </trkpt>
      <trkpt lat="45.2241" lon="-72.61569">
        <ele>216.95</ele>
      </trkpt>
      <trkpt lat="45.2241" lon="-72.61569">
        <ele>216.97</ele>
      </trkpt>
      <trkpt lat="45.224152" lon="-72.616902">
        <ele>215.88</ele>
      </trkpt>
      <trkpt lat="45.224204" lon="-72.618114">
        <ele>213.77</ele>
      </trkpt>
      <trkpt lat="45.224256" lon="-72.619326">
        <ele>214.54</ele>
      </trkpt>
      <trkpt lat="45.224308" lon="-72.620538">
        <ele>217.43</ele>
      </trkpt>
      <trkpt lat="45.22436" lon="-72.62175">
        <ele>217.54</ele>
      </trkpt>
      <trkpt lat="45.22524" lon="-72.62174">
        <ele>219.44</ele>
      </trkpt>
      <trkpt lat="45.22612" lon="-72.62173">
        <ele>224.25</ele>
      </trkpt>
      <trkpt lat="45.227" lon="-72.62172">
        <ele>227.73</ele>
      </trkpt>
      <trkpt lat="45.22788" lon="-72.62171">
        <ele>232.22</ele>
      </trkpt>
      <trkpt lat="45.22876" lon="-72.6217">
        <ele>233.97</ele>
      </trkpt>
      <trkpt lat="45.22964" lon="-72.62169">
        <ele>234.25</ele>
      </trkpt>
      <trkpt lat="45.23033" lon="-72.62168">
        <ele>234.53</ele>
      </trkpt>
      <trkpt lat="45.231065" lon="-72.62164">
        <ele>237.62</ele>
      </trkpt>
      <trkpt lat="45.2318" lon="-72.6216">
        <ele>243.03</ele>
      </trkpt>
      <trkpt lat="45.2324667" lon="-72.6216">
        <ele>243.23</ele>
      </trkpt>
      <trkpt lat="45.2331333" lon="-72.6216">
        <ele>243.79</ele>
      </trkpt>
      <trkpt lat="45.2338" lon="-72.6216">
        <ele>245.49</ele>
      </trkpt>
      <trkpt lat="45.234595" lon="-72.621555">
        <ele>247.38</ele>
      </trkpt>
      <trkpt lat="45.23539" lon="-72.62151">
        <ele>250.72</ele>
      </trkpt>
      <trkpt lat="45.23538" lon="-72.62151">
        <ele>250.7</ele>
      </trkpt>
      <trkpt lat="45.2361625" lon="-72.6214525">
        <ele>256.85</ele>
      </trkpt>
      <trkpt lat="45.236945" lon="-72.621395">
        <ele>260.86</ele>
      </trkpt>
      <trkpt lat="45.2377275" lon="-72.6213375">
        <ele>262.3</ele>
      </trkpt>
      <trkpt lat="45.23851" lon="-72.62128">
        <ele>263.99</ele>
      </trkpt>
      <trkpt lat="45.23926" lon="-72.62117">
        <ele>260.35</ele>
      </trkpt>
      <trkpt lat="45.24003" lon="-72.62111">
        <ele>256.27</ele>
      </trkpt>
      <trkpt lat="45.2407" lon="-72.62115">
        <ele>253.93</ele>
      </trkpt>
      <trkpt lat="45.24137" lon="-72.62129">
        <ele>253.22</ele>
      </trkpt>
      <trkpt lat="45.24208" lon="-72.62151">
        <ele>250.72</ele>
      </trkpt>
      <trkpt lat="45.24285" lon="-72.62183">
        <ele>249.27</ele>
      </trkpt>
      <trkpt lat="45.2431" lon="-72.62214">
        <ele>249.14</ele>
      </trkpt>
      <trkpt lat="45.24339" lon="-72.62272">
        <ele>247.99</ele>
      </trkpt>
      <trkpt lat="45.24357" lon="-72.623345">
        <ele>245.47</ele>
      </trkpt>
      <trkpt lat="45.24375" lon="-72.62397">
        <ele>243.81</ele>
      </trkpt>
      <trkpt lat="45.24386" lon="-72.62415">
        <ele>242.68</ele>
      </trkpt>
      <trkpt lat="45.2443633" lon="-72.6247933">
        <ele>235.82</ele>
      </trkpt>
      <trkpt lat="45.2448667" lon="-72.6254367">
        <ele>232.79</ele>
      </trkpt>
      <trkpt lat="45.24537" lon="-72.62608">
        <ele>230.37</ele>
      </trkpt>
      <trkpt lat="45.24588" lon="-72.62679">
        <ele>231.11</ele>
      </trkpt>
      <trkpt lat="45.24641" lon="-72.62743">
        <ele>234.23</ele>
      </trkpt>
      <trkpt lat="45.24669" lon="-72.62768">
        <ele>233.67</ele>
      </trkpt>
      <trkpt lat="45.24714" lon="-72.62792">
        <ele>228.85</ele>
      </trkpt>
      <trkpt lat="45.24734" lon="-72.628">
        <ele>228.85</ele>
      </trkpt>
      <trkpt lat="45.24758" lon="-72.62801">
        <ele>226.85</ele>
      </trkpt>
      <trkpt lat="45.24795" lon="-72.628">
        <ele>224.64</ele>
      </trkpt>
      <trkpt lat="45.24791" lon="-72.62872">
        <ele>227.72</ele>
      </trkpt>
      <trkpt lat="45.24787" lon="-72.62944">
        <ele>230.72</ele>
      </trkpt>
      <trkpt lat="45.24776" lon="-72.63051">
        <ele>232.67</ele>
      </trkpt>
      <trkpt lat="45.247645" lon="-72.631135">
        <ele>233.97</ele>
      </trkpt>
      <trkpt lat="45.24753" lon="-72.63176">
        <ele>236.1</ele>
      </trkpt>
      <trkpt lat="45.24717" lon="-72.63274">
        <ele>237.19</ele>
      </trkpt>
      <trkpt lat="45.24694" lon="-72.63361">
        <ele>237.66</ele>
      </trkpt>
      <trkpt lat="45.24678" lon="-72.6345">
        <ele>234.12</ele>
      </trkpt>
      <trkpt lat="45.24673" lon="-72.6347">
        <ele>233.73</ele>
      </trkpt>
      <trkpt lat="45.24672" lon="-72.6347">
        <ele>233.73</ele>
      </trkpt>
      <trkpt lat="45.24645" lon="-72.6358">
        <ele>234.19</ele>
      </trkpt>
      <trkpt lat="45.24624" lon="-72.63643">
        <ele>234.68</ele>
      </trkpt>
      <trkpt lat="45.24604" lon="-72.63741">
        <ele>232.14</ele>
      </trkpt>
      <trkpt lat="45.24591" lon="-72.63775">
        <ele>231.73</ele>
      </trkpt>
      <trkpt lat="45.24545" lon="-72.638535">
        <ele>230.11</ele>
      </trkpt>
      <trkpt lat="45.24499" lon="-72.63932">
        <ele>228.63</ele>
      </trkpt>
      <trkpt lat="45.24459" lon="-72.63995">
        <ele>228.66</ele>
      </trkpt>
      <trkpt lat="45.24445" lon="-72.64026">
        <ele>228.43</ele>
      </trkpt>
      <trkpt lat="45.24418" lon="-72.64107">
        <ele>226.2</ele>
      </trkpt>
      <trkpt lat="45.24396" lon="-72.641905">
        <ele>224.34</ele>
      </trkpt>
      <trkpt lat="45.24374" lon="-72.64274">
        <ele>221.1</ele>
      </trkpt>
      <trkpt lat="45.24358" lon="-72.64363">
        <ele>219.61</ele>
      </trkpt>
      <trkpt lat="45.24327" lon="-72.6447">
        <ele>215.94</ele>
      </trkpt>
      <trkpt lat="45.24306" lon="-72.6456">
        <ele>213.29</ele>
      </trkpt>
      <trkpt lat="45.24305" lon="-72.64571">
        <ele>212.17</ele>
      </trkpt>
      <trkpt lat="45.2429" lon="-72.64636">
        <ele>209.53</ele>
      </trkpt>
      <trkpt lat="45.24264" lon="-72.6473">
        <ele>206.31</ele>
      </trkpt>
      <trkpt lat="45.24233" lon="-72.64833">
        <ele>203.37</ele>
      </trkpt>
      <trkpt lat="45.24201" lon="-72.6495">
        <ele>199.3</ele>
      </trkpt>
      <trkpt lat="45.24167" lon="-72.65039">
        <ele>195.45</ele>
      </trkpt>
      <trkpt lat="45.24123" lon="-72.65111">
        <ele>193.44</ele>
      </trkpt>
      <trkpt lat="45.2409" lon="-72.65177">
        <ele>196.7</ele>
      </trkpt>
      <trkpt lat="45.24047" lon="-72.65232">
        <ele>196.08</ele>
      </trkpt>
      <trkpt lat="45.24012" lon="-72.65285">
        <ele>194.76</ele>
      </trkpt>
      <trkpt lat="45.23998" lon="-72.65312">
        <ele>194.75</ele>
      </trkpt>
      <trkpt lat="45.23973" lon="-72.6537">
        <ele>194.58</ele>
      </trkpt>
      <trkpt lat="45.23941" lon="-72.6546">
        <ele>192.39</ele>
      </trkpt>
      <trkpt lat="45.23898" lon="-72.655565">
        <ele>188.15</ele>
      </trkpt>
      <trkpt lat="45.23855" lon="-72.65653">
        <ele>184.54</ele>
      </trkpt>
      <trkpt lat="45.2381" lon="-72.65745">
        <ele>184.66</ele>
      </trkpt>
      <trkpt lat="45.238848" lon="-72.657414">
        <ele>182.23</ele>
      </trkpt>
      <trkpt lat="45.239596" lon="-72.657378">
        <ele>178.74</ele>
      </trkpt>
      <trkpt lat="45.240344" lon="-72.657342">
        <ele>176.47</ele>
      </trkpt>
      <trkpt lat="45.241092" lon="-72.657306">
        <ele>170.31</ele>
      </trkpt>
      <trkpt lat="45.24184" lon="-72.65727">
        <ele>166.05</ele>
      </trkpt>
      <trkpt lat="45.242715" lon="-72.657195">
        <ele>164.19</ele>
      </trkpt>
      <trkpt lat="45.24359" lon="-72.65712">
        <ele>171.16</ele>
      </trkpt>
      <trkpt lat="45.24358" lon="-72.65712">
        <ele>171.09</ele>
      </trkpt>
      <trkpt lat="45.244145" lon="-72.65709">
        <ele>177.46</ele>
      </trkpt>
      <trkpt lat="45.24471" lon="-72.65706">
        <ele>181.41</ele>
      </trkpt>
      <trkpt lat="45.2453867" lon="-72.65699">
        <ele>184.37</ele>
      </trkpt>
      <trkpt lat="45.2460633" lon="-72.65692">
        <ele>185.11</ele>
      </trkpt>
      <trkpt lat="45.24674" lon="-72.65685">
        <ele>187.18</ele>
      </trkpt>
      <trkpt lat="45.24762" lon="-72.65672">
        <ele>190.78</ele>
      </trkpt>
      <trkpt lat="45.24801" lon="-72.6567">
        <ele>192.59</ele>
      </trkpt>
      <trkpt lat="45.2487733" lon="-72.6567167">
        <ele>191.06</ele>
      </trkpt>
      <trkpt lat="45.2495367" lon="-72.6567333">
        <ele>189.35</ele>
      </trkpt>
      <trkpt lat="45.2503" lon="-72.65675">
        <ele>188.12</ele>
      </trkpt>
      <trkpt lat="45.25116" lon="-72.65679">
        <ele>187.14</ele>
      </trkpt>
      <trkpt lat="45.25201" lon="-72.65679">
        <ele>185.91</ele>
      </trkpt>
      <trkpt lat="45.25277" lon="-72.656755">
        <ele>178.02</ele>
      </trkpt>
      <trkpt lat="45.25353" lon="-72.65672">
        <ele>173.16</ele>
      </trkpt>
      <trkpt lat="45.25429" lon="-72.656685">
        <ele>171.73</ele>
      </trkpt>
      <trkpt lat="45.25505" lon="-72.65665">
        <ele>163.8</ele>
      </trkpt>
      <trkpt lat="45.25591" lon="-72.6566333">
        <ele>153.34</ele>
      </trkpt>
      <trkpt lat="45.25677" lon="-72.6566167">
        <ele>152.38</ele>
      </trkpt>
      <trkpt lat="45.25763" lon="-72.6566">
        <ele>155.65</ele>
      </trkpt>
      <trkpt lat="45.25787" lon="-72.65662">
        <ele>155.66</ele>
      </trkpt>
      <trkpt lat="45.25872" lon="-72.65665">
        <ele>151.3</ele>
      </trkpt>
      <trkpt lat="45.25957" lon="-72.65668">
        <ele>149.48</ele>
      </trkpt>
      <trkpt lat="45.25957" lon="-72.65668">
        <ele>149.47</ele>
      </trkpt>
      <trkpt lat="45.260175" lon="-72.656685">
        <ele>152.1</ele>
      </trkpt>
      <trkpt lat="45.26078" lon="-72.65669">
        <ele>155.07</ele>
      </trkpt>
      <trkpt lat="45.26124" lon="-72.65664">
        <ele>157.1</ele>
      </trkpt>
      <trkpt lat="45.26131" lon="-72.65581">
        <ele>158.28</ele>
      </trkpt>
      <trkpt lat="45.26128" lon="-72.65532">
        <ele>158.77</ele>
      </trkpt>
      <trkpt lat="45.26118" lon="-72.654465">
        <ele>159.62</ele>
      </trkpt>
      <trkpt lat="45.26108" lon="-72.65361">
        <ele>162.2</ele>
      </trkpt>
      <trkpt lat="45.2610567" lon="-72.65243">
        <ele>162.93</ele>
      </trkpt>
      <trkpt lat="45.2610333" lon="-72.65125">
        <ele>158.19</ele>
      </trkpt>
      <trkpt lat="45.26101" lon="-72.65007">
        <ele>156.26</ele>
      </trkpt>
      <trkpt lat="45.26095" lon="-72.64938">
        <ele>158.93</ele>
      </trkpt>
      <trkpt lat="45.26087" lon="-72.64851">
        <ele>160.11</ele>
      </trkpt>
      <trkpt lat="45.26081" lon="-72.64819">
        <ele>160.72</ele>
      </trkpt>
      <trkpt lat="45.26078" lon="-72.64739">
        <ele>163.07</ele>
      </trkpt>
      <trkpt lat="45.26078" lon="-72.64661">
        <ele>167.92</ele>
      </trkpt>
      <trkpt lat="45.26078" lon="-72.64583">
        <ele>168.13</ele>
      </trkpt>
      <trkpt lat="45.2608" lon="-72.64508">
        <ele>166.32</ele>
      </trkpt>
      <trkpt lat="45.26127" lon="-72.64525">
        <ele>166.43</ele>
      </trkpt>
      <trkpt lat="45.26193" lon="-72.64546">
        <ele>168.71</ele>
      </trkpt>
      <trkpt lat="45.262395" lon="-72.645635">
        <ele>170.94</ele>
      </trkpt>
      <trkpt lat="45.26286" lon="-72.64581">
        <ele>173.44</ele>
      </trkpt>
      <trkpt lat="45.26344" lon="-72.64599">
        <ele>176.98</ele>
      </trkpt>
      <trkpt lat="45.26344" lon="-72.64599">
        <ele>176.94</ele>
      </trkpt>
      <trkpt lat="45.26392" lon="-72.64613">
        <ele>179.02</ele>
      </trkpt>
      <trkpt lat="45.264585" lon="-72.646375">
        <ele>180.69</ele>
      </trkpt>
      <trkpt lat="45.26525" lon="-72.64662">
        <ele>179.75</ele>
      </trkpt>
      <trkpt lat="45.26572" lon="-72.64663">
        <ele>177.25</ele>
      </trkpt>
      <trkpt lat="45.26602" lon="-72.64658">
        <ele>176.22</ele>
      </trkpt>
      <trkpt lat="45.266635" lon="-72.64642">
        <ele>175.56</ele>
      </trkpt>
      <trkpt lat="45.26725" lon="-72.64626">
        <ele>173.53</ele>
      </trkpt>
      <trkpt lat="45.26761" lon="-72.64635">
        <ele>173.12</ele>
      </trkpt>
      <trkpt lat="45.26776" lon="-72.64644">
        <ele>173.03</ele>
      </trkpt>
      <trkpt lat="45.26795" lon="-72.64663">
        <ele>172.97</ele>
      </trkpt>
      <trkpt lat="45.26818" lon="-72.64725">
        <ele>170.72</ele>
      </trkpt>
      <trkpt lat="45.268425" lon="-72.64797">
        <ele>164.75</ele>
      </trkpt>
      <trkpt lat="45.26867" lon="-72.64869">
        <ele>161.91</ele>
      </trkpt>
      <trkpt lat="45.26886" lon="-72.64918">
        <ele>162.22</ele>
      </trkpt>
      <trkpt lat="45.26929" lon="-72.65017">
        <ele>169.2</ele>
      </trkpt>
      <trkpt lat="45.26953" lon="-72.65061">
        <ele>171.78</ele>
      </trkpt>
      <trkpt lat="45.27005" lon="-72.65114">
        <ele>177.39</ele>
      </trkpt>
      <trkpt lat="45.270435" lon="-72.651575">
        <ele>180.08</ele>
      </trkpt>
      <trkpt lat="45.27082" lon="-72.65201">
        <ele>180.74</ele>
      </trkpt>
      <trkpt lat="45.27082" lon="-72.65201">
        <ele>180.74</ele>
      </trkpt>
      <trkpt lat="45.27139" lon="-72.65267">
        <ele>181.29</ele>
      </trkpt>
      <trkpt lat="45.27142" lon="-72.65294">
        <ele>179.81</ele>
      </trkpt>
      <trkpt lat="45.27128" lon="-72.654195">
        <ele>173.88</ele>
      </trkpt>
      <trkpt lat="45.27114" lon="-72.65545">
        <ele>169.95</ele>
      </trkpt>
      <trkpt lat="45.27098" lon="-72.65652">
        <ele>167.38</ele>
      </trkpt>
      <trkpt lat="45.27082" lon="-72.65759">
        <ele>167.12</ele>
      </trkpt>
      <trkpt lat="45.2706733" lon="-72.65883">
        <ele>164.73</ele>
      </trkpt>
      <trkpt lat="45.2705267" lon="-72.66007">
        <ele>159.3</ele>
      </trkpt>
      <trkpt lat="45.27038" lon="-72.66131">
        <ele>156.19</ele>
      </trkpt>
      <trkpt lat="45.27023" lon="-72.66243">
        <ele>155.56</ele>
      </trkpt>
      <trkpt lat="45.27021" lon="-72.66297">
        <ele>155.38</ele>
      </trkpt>
      <trkpt lat="45.27024" lon="-72.66422">
        <ele>152.12</ele>
      </trkpt>
      <trkpt lat="45.27017" lon="-72.66486">
        <ele>149.7</ele>
      </trkpt>
      <trkpt lat="45.2699833" lon="-72.6657333">
        <ele>146.37</ele>
      </trkpt>
      <trkpt lat="45.2697967" lon="-72.6666067">
        <ele>143.37</ele>
      </trkpt>
      <trkpt lat="45.26961" lon="-72.66748">
        <ele>140.53</ele>
      </trkpt>
      <trkpt lat="45.26961" lon="-72.66749">
        <ele>140.52</ele>
      </trkpt>
      <trkpt lat="45.26951" lon="-72.66798">
        <ele>139.95</ele>
      </trkpt>
      <trkpt lat="45.26942" lon="-72.66864">
        <ele>138.3</ele>
      </trkpt>
      <trkpt lat="45.26938" lon="-72.66937">
        <ele>136.93</ele>
      </trkpt>
      <trkpt lat="45.26937" lon="-72.66991">
        <ele>136.51</ele>
      </trkpt>
      <trkpt lat="45.26944" lon="-72.67018">
        <ele>136.41</ele>
      </trkpt>
      <trkpt lat="45.26961" lon="-72.67041">
        <ele>136.43</ele>
      </trkpt>
      <trkpt lat="45.270025" lon="-72.67084">
        <ele>136.9</ele>
      </trkpt>
      <trkpt lat="45.27044" lon="-72.67127">
        <ele>136.92</ele>
      </trkpt>
    </trkseg>
  </trk>
</gpx>