<?xml version='1.0' encoding='utf-8'?>
<gpx xmlns="http://www.topografix.com/GPX/1/1" xmlns:xsi="http://www.w3.org/2001/XMLSchema-instance" version="1.1" creator="Gravelle Estrie" xsi:schemaLocation="http://www.topografix.com/GPX/1/1 http://www.topografix.com/GPX/1/1/gpx.xsd">
  <metadata>
    <name>Storm Boy 50KM/742MD+</name>
  </metadata>
  <trk>
    <name>Storm Boy 50KM/742MD+</name>
    <trkseg>
      <trkpt lat="45.27055" lon="-72.67138">
        <ele>137.43</ele>
      </trkpt>
      <trkpt lat="45.271" lon="-72.67183">
        <ele>137.66</ele>
      </trkpt>
      <trkpt lat="45.27145" lon="-72.67228">
        <ele>138.3</ele>
      </trkpt>
      <trkpt lat="45.27176" lon="-72.67264">
        <ele>139.48</ele>
      </trkpt>
      <trkpt lat="45.27226" lon="-72.67336">
        <ele>143.02</ele>
      </trkpt>
      <trkpt lat="45.27244" lon="-72.67384">
        <ele>143.98</ele>
      </trkpt>
      <trkpt lat="45.2718" lon="-72.67407">
        <ele>143.02</ele>
      </trkpt>
      <trkpt lat="45.27116" lon="-72.6743">
        <ele>142.68</ele>
      </trkpt>
      <trkpt lat="45.27058" lon="-72.67443">
        <ele>144.24</ele>
      </trkpt>
      <trkpt lat="45.27" lon="-72.67456">
        <ele>145.95</ele>
      </trkpt>
      <trkpt lat="45.26921" lon="-72.67492">
        <ele>146.8</ele>
      </trkpt>
      <trkpt lat="45.26865" lon="-72.67523">
        <ele>145.6</ele>
      </trkpt>
      <trkpt lat="45.26852" lon="-72.67533">
        <ele>144.55</ele>
      </trkpt>
      <trkpt lat="45.26852" lon="-72.67534">
        <ele>144.47</ele>
      </trkpt>
      <trkpt lat="45.26797" lon="-72.67578">
        <ele>139.41</ele>
      </trkpt>
      <trkpt lat="45.26768" lon="-72.67617">
        <ele>136.73</ele>
      </trkpt>
      <trkpt lat="45.26723" lon="-72.67658">
        <ele>136.21</ele>
      </trkpt>
      <trkpt lat="45.26646" lon="-72.67702">
        <ele>136.83</ele>
      </trkpt>
      <trkpt lat="45.2662" lon="-72.67725">
        <ele>137.45</ele>
      </trkpt>
      <trkpt lat="45.26587" lon="-72.6777">
        <ele>137.93</ele>
      </trkpt>
      <trkpt lat="45.2656" lon="-72.67819">
        <ele>138.62</ele>
      </trkpt>
      <trkpt lat="45.26516" lon="-72.67917">
        <ele>137.12</ele>
      </trkpt>
      <trkpt lat="45.26498" lon="-72.679955">
        <ele>137.47</ele>
      </trkpt>
      <trkpt lat="45.2648" lon="-72.68074">
        <ele>136.55</ele>
      </trkpt>
      <trkpt lat="45.26461" lon="-72.681365">
        <ele>136.03</ele>
      </trkpt>
      <trkpt lat="45.26442" lon="-72.68199">
        <ele>136.22</ele>
      </trkpt>
      <trkpt lat="45.26432" lon="-72.68271">
        <ele>137.77</ele>
      </trkpt>
      <trkpt lat="45.26428" lon="-72.68337">
        <ele>137.87</ele>
      </trkpt>
      <trkpt lat="45.26424" lon="-72.68403">
        <ele>136.62</ele>
      </trkpt>
      <trkpt lat="45.26391" lon="-72.68348">
        <ele>137.13</ele>
      </trkpt>
      <trkpt lat="45.26358" lon="-72.68293">
        <ele>139.23</ele>
      </trkpt>
      <trkpt lat="45.26332" lon="-72.68262">
        <ele>139.72</ele>
      </trkpt>
      <trkpt lat="45.262815" lon="-72.68213">
        <ele>140.58</ele>
      </trkpt>
      <trkpt lat="45.26231" lon="-72.68164">
        <ele>144.51</ele>
      </trkpt>
      <trkpt lat="45.26187" lon="-72.6811">
        <ele>150.12</ele>
      </trkpt>
      <trkpt lat="45.26137" lon="-72.68029">
        <ele>153.31</ele>
      </trkpt>
      <trkpt lat="45.26093" lon="-72.67929">
        <ele>150.5</ele>
      </trkpt>
      <trkpt lat="45.26049" lon="-72.67829">
        <ele>155.83</ele>
      </trkpt>
      <trkpt lat="45.26043" lon="-72.6781">
        <ele>158.62</ele>
      </trkpt>
      <trkpt lat="45.2604" lon="-72.67787">
        <ele>160.49</ele>
      </trkpt>
      <trkpt lat="45.26041" lon="-72.67762">
        <ele>162.17</ele>
      </trkpt>
      <trkpt lat="45.26051" lon="-72.6773">
        <ele>162.41</ele>
      </trkpt>
      <trkpt lat="45.26068" lon="-72.67689">
        <ele>159.64</ele>
      </trkpt>
      <trkpt lat="45.26075" lon="-72.6765">
        <ele>155.72</ele>
      </trkpt>
      <trkpt lat="45.26074" lon="-72.67622">
        <ele>154.63</ele>
      </trkpt>
      <trkpt lat="45.26065" lon="-72.67582">
        <ele>152.96</ele>
      </trkpt>
      <trkpt lat="45.26039" lon="-72.67525">
        <ele>152.59</ele>
      </trkpt>
      <trkpt lat="45.26039" lon="-72.67525">
        <ele>152.59</ele>
      </trkpt>
      <trkpt lat="45.2602" lon="-72.67479">
        <ele>152.01</ele>
      </trkpt>
      <trkpt lat="45.25984" lon="-72.6742">
        <ele>150.4</ele>
      </trkpt>
      <trkpt lat="45.25929" lon="-72.67355">
        <ele>148.35</ele>
      </trkpt>
      <trkpt lat="45.25909" lon="-72.67322">
        <ele>147.01</ele>
      </trkpt>
      <trkpt lat="45.25901" lon="-72.6729">
        <ele>146.18</ele>
      </trkpt>
      <trkpt lat="45.2589775" lon="-72.671625">
        <ele>142.69</ele>
      </trkpt>
      <trkpt lat="45.258945" lon="-72.67035">
        <ele>144.28</ele>
      </trkpt>
      <trkpt lat="45.2589125" lon="-72.669075">
        <ele>144.43</ele>
      </trkpt>
      <trkpt lat="45.25888" lon="-72.6678">
        <ele>141.37</ele>
      </trkpt>
      <trkpt lat="45.25889" lon="-72.66741">
        <ele>141.21</ele>
      </trkpt>
      <trkpt lat="45.25894" lon="-72.66708">
        <ele>141.22</ele>
      </trkpt>
      <trkpt lat="45.25902" lon="-72.66681">
        <ele>141.28</ele>
      </trkpt>
      <trkpt lat="45.25942" lon="-72.66579">
        <ele>144.75</ele>
      </trkpt>
      <trkpt lat="45.25966" lon="-72.665095">
        <ele>152.78</ele>
      </trkpt>
      <trkpt lat="45.2599" lon="-72.6644">
        <ele>152.58</ele>
      </trkpt>
      <trkpt lat="45.26016" lon="-72.66318">
        <ele>150.21</ele>
      </trkpt>
      <trkpt lat="45.260356" lon="-72.662186">
        <ele>150.15</ele>
      </trkpt>
      <trkpt lat="45.260552" lon="-72.661192">
        <ele>150.84</ele>
      </trkpt>
      <trkpt lat="45.260748" lon="-72.660198">
        <ele>152.85</ele>
      </trkpt>
      <trkpt lat="45.260944" lon="-72.659204">
        <ele>153.41</ele>
      </trkpt>
      <trkpt lat="45.26114" lon="-72.65821">
        <ele>152.24</ele>
      </trkpt>
      <trkpt lat="45.26119" lon="-72.657425">
        <ele>154.18</ele>
      </trkpt>
      <trkpt lat="45.26124" lon="-72.65664">
        <ele>157.06</ele>
      </trkpt>
      <trkpt lat="45.26078" lon="-72.65669">
        <ele>154.47</ele>
      </trkpt>
      <trkpt lat="45.260095" lon="-72.656685">
        <ele>151.77</ele>
      </trkpt>
      <trkpt lat="45.25941" lon="-72.65668">
        <ele>149.58</ele>
      </trkpt>
      <trkpt lat="45.25864" lon="-72.65665">
        <ele>151.61</ele>
      </trkpt>
      <trkpt lat="45.25787" lon="-72.65662">
        <ele>155.68</ele>
      </trkpt>
      <trkpt lat="45.25763" lon="-72.6566">
        <ele>155.73</ele>
      </trkpt>
      <trkpt lat="45.25677" lon="-72.6566167">
        <ele>152.97</ele>
      </trkpt>
      <trkpt lat="45.25591" lon="-72.6566333">
        <ele>154.25</ele>
      </trkpt>
      <trkpt lat="45.25505" lon="-72.65665">
        <ele>162.27</ele>
      </trkpt>
      <trkpt lat="45.2542533" lon="-72.65669">
        <ele>172.32</ele>
      </trkpt>
      <trkpt lat="45.2534567" lon="-72.65673">
        <ele>173.57</ele>
      </trkpt>
      <trkpt lat="45.25266" lon="-72.65677">
        <ele>179.34</ele>
      </trkpt>
      <trkpt lat="45.25264" lon="-72.65677">
        <ele>179.59</ele>
      </trkpt>
      <trkpt lat="45.25201" lon="-72.65679">
        <ele>185.94</ele>
      </trkpt>
      <trkpt lat="45.25116" lon="-72.65679">
        <ele>187.56</ele>
      </trkpt>
      <trkpt lat="45.2503" lon="-72.65675">
        <ele>188.16</ele>
      </trkpt>
      <trkpt lat="45.2495367" lon="-72.6567333">
        <ele>189.44</ele>
      </trkpt>
      <trkpt lat="45.2487733" lon="-72.6567167">
        <ele>192.11</ele>
      </trkpt>
      <trkpt lat="45.24801" lon="-72.6567">
        <ele>192.82</ele>
      </trkpt>
      <trkpt lat="45.24762" lon="-72.65672">
        <ele>191.13</ele>
      </trkpt>
      <trkpt lat="45.24674" lon="-72.65685">
        <ele>187.26</ele>
      </trkpt>
      <trkpt lat="45.2460633" lon="-72.65692">
        <ele>184.85</ele>
      </trkpt>
      <trkpt lat="45.2453867" lon="-72.65699">
        <ele>184.1</ele>
      </trkpt>
      <trkpt lat="45.24471" lon="-72.65706">
        <ele>180.65</ele>
      </trkpt>
      <trkpt lat="45.24423" lon="-72.65708">
        <ele>176.69</ele>
      </trkpt>
      <trkpt lat="45.24375" lon="-72.6571">
        <ele>171.72</ele>
      </trkpt>
      <trkpt lat="45.2431133" lon="-72.6571567">
        <ele>164.66</ele>
      </trkpt>
      <trkpt lat="45.2424767" lon="-72.6572133">
        <ele>162.26</ele>
      </trkpt>
      <trkpt lat="45.24184" lon="-72.65727">
        <ele>164.59</ele>
      </trkpt>
      <trkpt lat="45.241092" lon="-72.657306">
        <ele>170</ele>
      </trkpt>
      <trkpt lat="45.240344" lon="-72.657342">
        <ele>176.62</ele>
      </trkpt>
      <trkpt lat="45.239596" lon="-72.657378">
        <ele>178.89</ele>
      </trkpt>
      <trkpt lat="45.238848" lon="-72.657414">
        <ele>182.17</ele>
      </trkpt>
      <trkpt lat="45.2381" lon="-72.65745">
        <ele>184.35</ele>
      </trkpt>
      <trkpt lat="45.237695" lon="-72.658395">
        <ele>185.54</ele>
      </trkpt>
      <trkpt lat="45.23729" lon="-72.65934">
        <ele>187.55</ele>
      </trkpt>
      <trkpt lat="45.236925" lon="-72.6601">
        <ele>190.11</ele>
      </trkpt>
      <trkpt lat="45.23656" lon="-72.66086">
        <ele>189.17</ele>
      </trkpt>
      <trkpt lat="45.23617" lon="-72.66159">
        <ele>185.08</ele>
      </trkpt>
      <trkpt lat="45.235715" lon="-72.66253">
        <ele>182.77</ele>
      </trkpt>
      <trkpt lat="45.23526" lon="-72.66347">
        <ele>181.94</ele>
      </trkpt>
      <trkpt lat="45.23507" lon="-72.66396">
        <ele>181.02</ele>
      </trkpt>
      <trkpt lat="45.23495" lon="-72.66445">
        <ele>177.82</ele>
      </trkpt>
      <trkpt lat="45.23487" lon="-72.66493">
        <ele>174.53</ele>
      </trkpt>
      <trkpt lat="45.23467" lon="-72.66566">
        <ele>171.4</ele>
      </trkpt>
      <trkpt lat="45.23463" lon="-72.66593">
        <ele>169.88</ele>
      </trkpt>
      <trkpt lat="45.234555" lon="-72.666805">
        <ele>161.86</ele>
      </trkpt>
      <trkpt lat="45.23448" lon="-72.66768">
        <ele>156.34</ele>
      </trkpt>
      <trkpt lat="45.23445" lon="-72.668475">
        <ele>148.96</ele>
      </trkpt>
      <trkpt lat="45.23442" lon="-72.66927">
        <ele>143.16</ele>
      </trkpt>
      <trkpt lat="45.23428" lon="-72.67035">
        <ele>139.75</ele>
      </trkpt>
      <trkpt lat="45.23415" lon="-72.67103">
        <ele>137.69</ele>
      </trkpt>
      <trkpt lat="45.23409" lon="-72.67125">
        <ele>137.49</ele>
      </trkpt>
      <trkpt lat="45.23382" lon="-72.67197">
        <ele>139.14</ele>
      </trkpt>
      <trkpt lat="45.233545" lon="-72.672505">
        <ele>142.35</ele>
      </trkpt>
      <trkpt lat="45.23327" lon="-72.67304">
        <ele>144.03</ele>
      </trkpt>
      <trkpt lat="45.23304" lon="-72.67358">
        <ele>144.18</ele>
      </trkpt>
      <trkpt lat="45.23304" lon="-72.67359">
        <ele>144.17</ele>
      </trkpt>
      <trkpt lat="45.233" lon="-72.67368">
        <ele>144.03</ele>
      </trkpt>
      <trkpt lat="45.23287" lon="-72.67416">
        <ele>142.4</ele>
      </trkpt>
      <trkpt lat="45.23274" lon="-72.67474">
        <ele>139.62</ele>
      </trkpt>
      <trkpt lat="45.232575" lon="-72.67566">
        <ele>133.38</ele>
      </trkpt>
      <trkpt lat="45.23241" lon="-72.67658">
        <ele>124.93</ele>
      </trkpt>
      <trkpt lat="45.23237" lon="-72.67698">
        <ele>122.62</ele>
      </trkpt>
      <trkpt lat="45.23213" lon="-72.67775">
        <ele>118.94</ele>
      </trkpt>
      <trkpt lat="45.23182" lon="-72.67863">
        <ele>118.28</ele>
      </trkpt>
      <trkpt lat="45.2315367" lon="-72.6795567">
        <ele>118.66</ele>
      </trkpt>
      <trkpt lat="45.2312533" lon="-72.6804833">
        <ele>119.71</ele>
      </trkpt>
      <trkpt lat="45.23097" lon="-72.68141">
        <ele>118.83</ele>
      </trkpt>
      <trkpt lat="45.23075" lon="-72.68239">
        <ele>119.59</ele>
      </trkpt>
      <trkpt lat="45.23069" lon="-72.68275">
        <ele>119.68</ele>
      </trkpt>
      <trkpt lat="45.23058" lon="-72.68303">
        <ele>119.59</ele>
      </trkpt>
      <trkpt lat="45.23044" lon="-72.68329">
        <ele>119.14</ele>
      </trkpt>
      <trkpt lat="45.23034" lon="-72.68343">
        <ele>119.05</ele>
      </trkpt>
      <trkpt lat="45.22998" lon="-72.68406">
        <ele>120.07</ele>
      </trkpt>
      <trkpt lat="45.22969" lon="-72.68454">
        <ele>121.96</ele>
      </trkpt>
      <trkpt lat="45.22938" lon="-72.68495">
        <ele>124.23</ele>
      </trkpt>
      <trkpt lat="45.22909" lon="-72.68521">
        <ele>124.62</ele>
      </trkpt>
      <trkpt lat="45.22874" lon="-72.68535">
        <ele>123.07</ele>
      </trkpt>
      <trkpt lat="45.22853" lon="-72.68549">
        <ele>122.8</ele>
      </trkpt>
      <trkpt lat="45.22842" lon="-72.68554">
        <ele>123.02</ele>
      </trkpt>
      <trkpt lat="45.22835" lon="-72.68562">
        <ele>123.02</ele>
      </trkpt>
      <trkpt lat="45.22814" lon="-72.68589">
        <ele>123.65</ele>
      </trkpt>
      <trkpt lat="45.22797" lon="-72.68615">
        <ele>123.13</ele>
      </trkpt>
      <trkpt lat="45.22777" lon="-72.68651">
        <ele>121.46</ele>
      </trkpt>
      <trkpt lat="45.22739" lon="-72.68705">
        <ele>121</ele>
      </trkpt>
      <trkpt lat="45.22681" lon="-72.68774">
        <ele>117.82</ele>
      </trkpt>
      <trkpt lat="45.22661" lon="-72.68687">
        <ele>119.13</ele>
      </trkpt>
      <trkpt lat="45.2265" lon="-72.68607">
        <ele>122.62</ele>
      </trkpt>
      <trkpt lat="45.22653" lon="-72.6851">
        <ele>127.08</ele>
      </trkpt>
      <trkpt lat="45.2265" lon="-72.68482">
        <ele>127.81</ele>
      </trkpt>
      <trkpt lat="45.22643" lon="-72.6845">
        <ele>127.88</ele>
      </trkpt>
      <trkpt lat="45.22622" lon="-72.683895">
        <ele>127.51</ele>
      </trkpt>
      <trkpt lat="45.22601" lon="-72.68329">
        <ele>126.9</ele>
      </trkpt>
      <trkpt lat="45.22563" lon="-72.68232">
        <ele>126.68</ele>
      </trkpt>
      <trkpt lat="45.22563" lon="-72.68232">
        <ele>126.67</ele>
      </trkpt>
      <trkpt lat="45.22537" lon="-72.68167">
        <ele>125.73</ele>
      </trkpt>
      <trkpt lat="45.22511" lon="-72.68102">
        <ele>125.62</ele>
      </trkpt>
      <trkpt lat="45.22478" lon="-72.6803">
        <ele>125.56</ele>
      </trkpt>
      <trkpt lat="45.22445" lon="-72.67958">
        <ele>126.44</ele>
      </trkpt>
      <trkpt lat="45.22442" lon="-72.67944">
        <ele>126.44</ele>
      </trkpt>
      <trkpt lat="45.22418" lon="-72.678885">
        <ele>127.77</ele>
      </trkpt>
      <trkpt lat="45.22394" lon="-72.67833">
        <ele>128.99</ele>
      </trkpt>
      <trkpt lat="45.22362" lon="-72.677655">
        <ele>130.17</ele>
      </trkpt>
      <trkpt lat="45.2233" lon="-72.67698">
        <ele>130.02</ele>
      </trkpt>
      <trkpt lat="45.22307" lon="-72.67644">
        <ele>129.82</ele>
      </trkpt>
      <trkpt lat="45.2228275" lon="-72.6753425">
        <ele>130.63</ele>
      </trkpt>
      <trkpt lat="45.222585" lon="-72.674245">
        <ele>131.15</ele>
      </trkpt>
      <trkpt lat="45.2223425" lon="-72.6731475">
        <ele>129.89</ele>
      </trkpt>
      <trkpt lat="45.2221" lon="-72.67205">
        <ele>131.1</ele>
      </trkpt>
      <trkpt lat="45.2219" lon="-72.67132">
        <ele>137.37</ele>
      </trkpt>
      <trkpt lat="45.2216267" lon="-72.6704767">
        <ele>142.53</ele>
      </trkpt>
      <trkpt lat="45.2213533" lon="-72.6696333">
        <ele>146.79</ele>
      </trkpt>
      <trkpt lat="45.22108" lon="-72.66879">
        <ele>154.4</ele>
      </trkpt>
      <trkpt lat="45.221" lon="-72.66816">
        <ele>160.58</ele>
      </trkpt>
      <trkpt lat="45.22107" lon="-72.667375">
        <ele>163.51</ele>
      </trkpt>
      <trkpt lat="45.22114" lon="-72.66659">
        <ele>164.02</ele>
      </trkpt>
      <trkpt lat="45.22115" lon="-72.66615">
        <ele>166.44</ele>
      </trkpt>
      <trkpt lat="45.22112" lon="-72.66574">
        <ele>169.47</ele>
      </trkpt>
      <trkpt lat="45.22113" lon="-72.66511">
        <ele>176.4</ele>
      </trkpt>
      <trkpt lat="45.221205" lon="-72.66435">
        <ele>178.75</ele>
      </trkpt>
      <trkpt lat="45.22128" lon="-72.66359">
        <ele>179</ele>
      </trkpt>
      <trkpt lat="45.2213067" lon="-72.66273">
        <ele>180.09</ele>
      </trkpt>
      <trkpt lat="45.2213333" lon="-72.66187">
        <ele>184.69</ele>
      </trkpt>
      <trkpt lat="45.22136" lon="-72.66101">
        <ele>190.74</ele>
      </trkpt>
      <trkpt lat="45.22142" lon="-72.66033">
        <ele>194.28</ele>
      </trkpt>
      <trkpt lat="45.22153" lon="-72.65956">
        <ele>198.34</ele>
      </trkpt>
      <trkpt lat="45.22156" lon="-72.65918">
        <ele>199.82</ele>
      </trkpt>
      <trkpt lat="45.22156" lon="-72.65919">
        <ele>199.8</ele>
      </trkpt>
      <trkpt lat="45.22162" lon="-72.65856">
        <ele>201.04</ele>
      </trkpt>
      <trkpt lat="45.22166" lon="-72.65783">
        <ele>199.1</ele>
      </trkpt>
      <trkpt lat="45.221645" lon="-72.657085">
        <ele>197.57</ele>
      </trkpt>
      <trkpt lat="45.22163" lon="-72.65634">
        <ele>197.44</ele>
      </trkpt>
      <trkpt lat="45.22166" lon="-72.65588">
        <ele>198</ele>
      </trkpt>
      <trkpt lat="45.221765" lon="-72.65492">
        <ele>197.41</ele>
      </trkpt>
      <trkpt lat="45.22187" lon="-72.65396">
        <ele>199.46</ele>
      </trkpt>
      <trkpt lat="45.22197" lon="-72.65334">
        <ele>202.26</ele>
      </trkpt>
      <trkpt lat="45.22218" lon="-72.65231">
        <ele>204.59</ele>
      </trkpt>
      <trkpt lat="45.22227" lon="-72.65201">
        <ele>205.91</ele>
      </trkpt>
      <trkpt lat="45.22253" lon="-72.65138">
        <ele>212.26</ele>
      </trkpt>
      <trkpt lat="45.22257" lon="-72.65123">
        <ele>213.37</ele>
      </trkpt>
      <trkpt lat="45.22258" lon="-72.65105">
        <ele>214.56</ele>
      </trkpt>
      <trkpt lat="45.22253" lon="-72.6503">
        <ele>214.44</ele>
      </trkpt>
      <trkpt lat="45.22241" lon="-72.64958">
        <ele>212.57</ele>
      </trkpt>
      <trkpt lat="45.22227" lon="-72.64895">
        <ele>212.44</ele>
      </trkpt>
      <trkpt lat="45.22224" lon="-72.64823">
        <ele>212.28</ele>
      </trkpt>
      <trkpt lat="45.22225" lon="-72.64731">
        <ele>213.4</ele>
      </trkpt>
      <trkpt lat="45.22221" lon="-72.64663">
        <ele>215.86</ele>
      </trkpt>
      <trkpt lat="45.22223" lon="-72.64577">
        <ele>219.7</ele>
      </trkpt>
      <trkpt lat="45.22244" lon="-72.64475">
        <ele>221.03</ele>
      </trkpt>
      <trkpt lat="45.22245" lon="-72.64385">
        <ele>217.02</ele>
      </trkpt>
      <trkpt lat="45.22248" lon="-72.64347">
        <ele>215.48</ele>
      </trkpt>
      <trkpt lat="45.2217733" lon="-72.64382">
        <ele>209.78</ele>
      </trkpt>
      <trkpt lat="45.2210667" lon="-72.64417">
        <ele>204.06</ele>
      </trkpt>
      <trkpt lat="45.22036" lon="-72.64452">
        <ele>199.66</ele>
      </trkpt>
      <trkpt lat="45.21966" lon="-72.64488">
        <ele>194.84</ele>
      </trkpt>
      <trkpt lat="45.21896" lon="-72.64524">
        <ele>193.49</ele>
      </trkpt>
      <trkpt lat="45.21826" lon="-72.6456">
        <ele>191.69</ele>
      </trkpt>
      <trkpt lat="45.2175667" lon="-72.64599">
        <ele>188.61</ele>
      </trkpt>
      <trkpt lat="45.2168733" lon="-72.64638">
        <ele>186.52</ele>
      </trkpt>
      <trkpt lat="45.21618" lon="-72.64677">
        <ele>183.11</ele>
      </trkpt>
      <trkpt lat="45.2155733" lon="-72.64713">
        <ele>175.82</ele>
      </trkpt>
      <trkpt lat="45.2149667" lon="-72.64749">
        <ele>171.19</ele>
      </trkpt>
      <trkpt lat="45.21436" lon="-72.64785">
        <ele>166.29</ele>
      </trkpt>
      <trkpt lat="45.21435" lon="-72.64785">
        <ele>166.22</ele>
      </trkpt>
      <trkpt lat="45.2135525" lon="-72.648315">
        <ele>165.1</ele>
      </trkpt>
      <trkpt lat="45.212755" lon="-72.64878">
        <ele>172.74</ele>
      </trkpt>
      <trkpt lat="45.2119575" lon="-72.649245">
        <ele>177.48</ele>
      </trkpt>
      <trkpt lat="45.21116" lon="-72.64971">
        <ele>179.33</ele>
      </trkpt>
      <trkpt lat="45.21098" lon="-72.64981">
        <ele>179.87</ele>
      </trkpt>
      <trkpt lat="45.21068" lon="-72.65007">
        <ele>180.93</ele>
      </trkpt>
      <trkpt lat="45.21061" lon="-72.65011">
        <ele>182.03</ele>
      </trkpt>
      <trkpt lat="45.21043" lon="-72.65016">
        <ele>182.43</ele>
      </trkpt>
      <trkpt lat="45.20958" lon="-72.650255">
        <ele>187.77</ele>
      </trkpt>
      <trkpt lat="45.20873" lon="-72.65035">
        <ele>190.46</ele>
      </trkpt>
      <trkpt lat="45.20858" lon="-72.65039">
        <ele>190.67</ele>
      </trkpt>
      <trkpt lat="45.20826" lon="-72.65042">
        <ele>190.27</ele>
      </trkpt>
      <trkpt lat="45.20804" lon="-72.65039">
        <ele>189.53</ele>
      </trkpt>
      <trkpt lat="45.20743" lon="-72.650405">
        <ele>186.67</ele>
      </trkpt>
      <trkpt lat="45.20682" lon="-72.65042">
        <ele>184.69</ele>
      </trkpt>
      <trkpt lat="45.20642" lon="-72.65039">
        <ele>184.16</ele>
      </trkpt>
      <trkpt lat="45.205575" lon="-72.650445">
        <ele>183.33</ele>
      </trkpt>
      <trkpt lat="45.20473" lon="-72.6505">
        <ele>185.05</ele>
      </trkpt>
      <trkpt lat="45.203885" lon="-72.650555">
        <ele>187.05</ele>
      </trkpt>
      <trkpt lat="45.20304" lon="-72.65061">
        <ele>188.65</ele>
      </trkpt>
      <trkpt lat="45.2023" lon="-72.65063">
        <ele>185.87</ele>
      </trkpt>
      <trkpt lat="45.20229" lon="-72.65063">
        <ele>185.84</ele>
      </trkpt>
      <trkpt lat="45.201415" lon="-72.650645">
        <ele>184.17</ele>
      </trkpt>
      <trkpt lat="45.20054" lon="-72.65066">
        <ele>182.94</ele>
      </trkpt>
      <trkpt lat="45.19989" lon="-72.6507167">
        <ele>179.03</ele>
      </trkpt>
      <trkpt lat="45.19924" lon="-72.6507733">
        <ele>175.01</ele>
      </trkpt>
      <trkpt lat="45.19859" lon="-72.65083">
        <ele>173.51</ele>
      </trkpt>
      <trkpt lat="45.1978267" lon="-72.6508683">
        <ele>172.93</ele>
      </trkpt>
      <trkpt lat="45.1970633" lon="-72.6509067">
        <ele>171.82</ele>
      </trkpt>
      <trkpt lat="45.1963" lon="-72.650945">
        <ele>170.17</ele>
      </trkpt>
      <trkpt lat="45.1955367" lon="-72.6509833">
        <ele>168.64</ele>
      </trkpt>
      <trkpt lat="45.1947733" lon="-72.6510217">
        <ele>167.13</ele>
      </trkpt>
      <trkpt lat="45.19401" lon="-72.65106">
        <ele>167.29</ele>
      </trkpt>
      <trkpt lat="45.193155" lon="-72.6511117">
        <ele>166.37</ele>
      </trkpt>
      <trkpt lat="45.1923" lon="-72.6511633">
        <ele>165.02</ele>
      </trkpt>
      <trkpt lat="45.191445" lon="-72.651215">
        <ele>162.45</ele>
      </trkpt>
      <trkpt lat="45.19059" lon="-72.6512667">
        <ele>156.06</ele>
      </trkpt>
      <trkpt lat="45.189735" lon="-72.6513183">
        <ele>154.38</ele>
      </trkpt>
      <trkpt lat="45.18888" lon="-72.65137">
        <ele>152.03</ele>
      </trkpt>
      <trkpt lat="45.1880533" lon="-72.6514133">
        <ele>152.43</ele>
      </trkpt>
      <trkpt lat="45.1872267" lon="-72.6514567">
        <ele>158.01</ele>
      </trkpt>
      <trkpt lat="45.1864" lon="-72.6515">
        <ele>165.87</ele>
      </trkpt>
      <trkpt lat="45.18639" lon="-72.65151">
        <ele>165.96</ele>
      </trkpt>
      <trkpt lat="45.185925" lon="-72.65153">
        <ele>167.02</ele>
      </trkpt>
      <trkpt lat="45.18546" lon="-72.65155">
        <ele>167.03</ele>
      </trkpt>
      <trkpt lat="45.18505" lon="-72.6516">
        <ele>165.91</ele>
      </trkpt>
      <trkpt lat="45.18473" lon="-72.65169">
        <ele>163.8</ele>
      </trkpt>
      <trkpt lat="45.18463" lon="-72.65174">
        <ele>163.55</ele>
      </trkpt>
      <trkpt lat="45.1844" lon="-72.65178">
        <ele>163.25</ele>
      </trkpt>
      <trkpt lat="45.18406" lon="-72.65168">
        <ele>161.57</ele>
      </trkpt>
      <trkpt lat="45.18399" lon="-72.65168">
        <ele>161.22</ele>
      </trkpt>
      <trkpt lat="45.18387" lon="-72.65164">
        <ele>160.48</ele>
      </trkpt>
      <trkpt lat="45.1835" lon="-72.6516">
        <ele>156.71</ele>
      </trkpt>
      <trkpt lat="45.18321" lon="-72.65164">
        <ele>154.17</ele>
      </trkpt>
      <trkpt lat="45.182745" lon="-72.651645">
        <ele>147.61</ele>
      </trkpt>
      <trkpt lat="45.18228" lon="-72.65165">
        <ele>143.46</ele>
      </trkpt>
      <trkpt lat="45.181755" lon="-72.65169">
        <ele>138.88</ele>
      </trkpt>
      <trkpt lat="45.18123" lon="-72.65173">
        <ele>136.21</ele>
      </trkpt>
      <trkpt lat="45.180615" lon="-72.651755">
        <ele>140.07</ele>
      </trkpt>
      <trkpt lat="45.18" lon="-72.65178">
        <ele>142.9</ele>
      </trkpt>
      <trkpt lat="45.180255" lon="-72.65066">
        <ele>141.47</ele>
      </trkpt>
      <trkpt lat="45.18051" lon="-72.64954">
        <ele>138.4</ele>
      </trkpt>
      <trkpt lat="45.18058" lon="-72.64936">
        <ele>138.4</ele>
      </trkpt>
      <trkpt lat="45.18095" lon="-72.64885">
        <ele>137.13</ele>
      </trkpt>
      <trkpt lat="45.18132" lon="-72.64834">
        <ele>133.89</ele>
      </trkpt>
      <trkpt lat="45.18173" lon="-72.6477">
        <ele>132.6</ele>
      </trkpt>
      <trkpt lat="45.18206" lon="-72.64717">
        <ele>132.32</ele>
      </trkpt>
      <trkpt lat="45.18239" lon="-72.64664">
        <ele>133.02</ele>
      </trkpt>
      <trkpt lat="45.18259" lon="-72.64628">
        <ele>133.32</ele>
      </trkpt>
      <trkpt lat="45.18265" lon="-72.64613">
        <ele>133.03</ele>
      </trkpt>
      <trkpt lat="45.18271" lon="-72.64581">
        <ele>132.23</ele>
      </trkpt>
      <trkpt lat="45.18271" lon="-72.64523">
        <ele>129.06</ele>
      </trkpt>
      <trkpt lat="45.1826633" lon="-72.6442467">
        <ele>127.34</ele>
      </trkpt>
      <trkpt lat="45.1826167" lon="-72.6432633">
        <ele>126.7</ele>
      </trkpt>
      <trkpt lat="45.18257" lon="-72.64228">
        <ele>126.64</ele>
      </trkpt>
      <trkpt lat="45.18257" lon="-72.64228">
        <ele>126.64</ele>
      </trkpt>
      <trkpt lat="45.1825125" lon="-72.641105">
        <ele>127.68</ele>
      </trkpt>
      <trkpt lat="45.182455" lon="-72.63993">
        <ele>131.44</ele>
      </trkpt>
      <trkpt lat="45.1823975" lon="-72.638755">
        <ele>131.88</ele>
      </trkpt>
      <trkpt lat="45.18234" lon="-72.63758">
        <ele>135.1</ele>
      </trkpt>
      <trkpt lat="45.1823033" lon="-72.6365967">
        <ele>135.16</ele>
      </trkpt>
      <trkpt lat="45.1822667" lon="-72.6356133">
        <ele>136.62</ele>
      </trkpt>
      <trkpt lat="45.18223" lon="-72.63463">
        <ele>137.1</ele>
      </trkpt>
      <trkpt lat="45.18222" lon="-72.63378">
        <ele>139.73</ele>
      </trkpt>
      <trkpt lat="45.18226" lon="-72.63324">
        <ele>143.59</ele>
      </trkpt>
      <trkpt lat="45.18226" lon="-72.63292">
        <ele>146.99</ele>
      </trkpt>
      <trkpt lat="45.18219" lon="-72.6323">
        <ele>150.37</ele>
      </trkpt>
      <trkpt lat="45.18201" lon="-72.63167">
        <ele>150.24</ele>
      </trkpt>
      <trkpt lat="45.18187" lon="-72.63135">
        <ele>149.49</ele>
      </trkpt>
      <trkpt lat="45.18159" lon="-72.63082">
        <ele>149.17</ele>
      </trkpt>
      <trkpt lat="45.18146" lon="-72.63065">
        <ele>149.41</ele>
      </trkpt>
      <trkpt lat="45.1813" lon="-72.6305">
        <ele>149.45</ele>
      </trkpt>
      <trkpt lat="45.18073" lon="-72.63002">
        <ele>148.61</ele>
      </trkpt>
      <trkpt lat="45.18046" lon="-72.6297">
        <ele>147.52</ele>
      </trkpt>
      <trkpt lat="45.18039" lon="-72.62952">
        <ele>146.52</ele>
      </trkpt>
      <trkpt lat="45.18034" lon="-72.62931">
        <ele>146.52</ele>
      </trkpt>
      <trkpt lat="45.1803" lon="-72.62872">
        <ele>141.79</ele>
      </trkpt>
      <trkpt lat="45.18032" lon="-72.62836">
        <ele>140.32</ele>
      </trkpt>
      <trkpt lat="45.18045" lon="-72.6274933">
        <ele>138.52</ele>
      </trkpt>
      <trkpt lat="45.18058" lon="-72.6266267">
        <ele>145.98</ele>
      </trkpt>
      <trkpt lat="45.18071" lon="-72.62576">
        <ele>150.66</ele>
      </trkpt>
      <trkpt lat="45.18076" lon="-72.62553">
        <ele>150.91</ele>
      </trkpt>
      <trkpt lat="45.18098" lon="-72.62496">
        <ele>149.66</ele>
      </trkpt>
      <trkpt lat="45.18128" lon="-72.624065">
        <ele>145.93</ele>
      </trkpt>
      <trkpt lat="45.18158" lon="-72.62317">
        <ele>146.77</ele>
      </trkpt>
      <trkpt lat="45.18174" lon="-72.62285">
        <ele>147.98</ele>
      </trkpt>
      <trkpt lat="45.18235" lon="-72.62208">
        <ele>152.63</ele>
      </trkpt>
      <trkpt lat="45.18287" lon="-72.6214467">
        <ele>157.88</ele>
      </trkpt>
      <trkpt lat="45.18339" lon="-72.6208133">
        <ele>162.46</ele>
      </trkpt>
      <trkpt lat="45.18391" lon="-72.62018">
        <ele>162.19</ele>
      </trkpt>
      <trkpt lat="45.1836233" lon="-72.6189833">
        <ele>159.76</ele>
      </trkpt>
      <trkpt lat="45.1833367" lon="-72.6177867">
        <ele>157.37</ele>
      </trkpt>
      <trkpt lat="45.18305" lon="-72.61659">
        <ele>156.57</ele>
      </trkpt>
      <trkpt lat="45.1828175" lon="-72.61558">
        <ele>162.07</ele>
      </trkpt>
      <trkpt lat="45.182585" lon="-72.61457">
        <ele>165.25</ele>
      </trkpt>
      <trkpt lat="45.1823525" lon="-72.61356">
        <ele>167.24</ele>
      </trkpt>
      <trkpt lat="45.18212" lon="-72.61255">
        <ele>174.05</ele>
      </trkpt>
      <trkpt lat="45.18202" lon="-72.61161">
        <ele>181.4</ele>
      </trkpt>
      <trkpt lat="45.181975" lon="-72.610915">
        <ele>189.39</ele>
      </trkpt>
      <trkpt lat="45.18193" lon="-72.61022">
        <ele>193.61</ele>
      </trkpt>
      <trkpt lat="45.181895" lon="-72.60948">
        <ele>195.83</ele>
      </trkpt>
      <trkpt lat="45.18186" lon="-72.60874">
        <ele>195.95</ele>
      </trkpt>
      <trkpt lat="45.18182" lon="-72.6083">
        <ele>195.69</ele>
      </trkpt>
      <trkpt lat="45.181665" lon="-72.60718">
        <ele>193.82</ele>
      </trkpt>
      <trkpt lat="45.18151" lon="-72.60606">
        <ele>196.19</ele>
      </trkpt>
      <trkpt lat="45.18141" lon="-72.60557">
        <ele>198.31</ele>
      </trkpt>
      <trkpt lat="45.18133" lon="-72.60526">
        <ele>198.65</ele>
      </trkpt>
      <trkpt lat="45.18121" lon="-72.60499">
        <ele>198.7</ele>
      </trkpt>
      <trkpt lat="45.18075" lon="-72.60415">
        <ele>199.21</ele>
      </trkpt>
      <trkpt lat="45.180445" lon="-72.6035">
        <ele>198.33</ele>
      </trkpt>
      <trkpt lat="45.18014" lon="-72.60285">
        <ele>197.94</ele>
      </trkpt>
      <trkpt lat="45.17991" lon="-72.60219">
        <ele>196.35</ele>
      </trkpt>
      <trkpt lat="45.17991" lon="-72.60219">
        <ele>196.35</ele>
      </trkpt>
      <trkpt lat="45.17981" lon="-72.60194">
        <ele>195.46</ele>
      </trkpt>
      <trkpt lat="45.17953" lon="-72.60145">
        <ele>193.18</ele>
      </trkpt>
      <trkpt lat="45.1794" lon="-72.60115">
        <ele>192.78</ele>
      </trkpt>
      <trkpt lat="45.17924" lon="-72.60047">
        <ele>192.43</ele>
      </trkpt>
      <trkpt lat="45.17908" lon="-72.59999">
        <ele>192.42</ele>
      </trkpt>
      <trkpt lat="45.17892" lon="-72.59962">
        <ele>192.19</ele>
      </trkpt>
      <trkpt lat="45.1789" lon="-72.59952">
        <ele>192.19</ele>
      </trkpt>
      <trkpt lat="45.17885" lon="-72.59908">
        <ele>191.76</ele>
      </trkpt>
      <trkpt lat="45.17895" lon="-72.59832">
        <ele>195.36</ele>
      </trkpt>
      <trkpt lat="45.17895" lon="-72.598">
        <ele>196.68</ele>
      </trkpt>
      <trkpt lat="45.17888" lon="-72.59743">
        <ele>198.11</ele>
      </trkpt>
      <trkpt lat="45.17867" lon="-72.596595">
        <ele>200.67</ele>
      </trkpt>
      <trkpt lat="45.17846" lon="-72.59576">
        <ele>202.7</ele>
      </trkpt>
      <trkpt lat="45.1784" lon="-72.59541">
        <ele>203.29</ele>
      </trkpt>
      <trkpt lat="45.17837" lon="-72.59492">
        <ele>204.24</ele>
      </trkpt>
      <trkpt lat="45.17837" lon="-72.59447">
        <ele>205.12</ele>
      </trkpt>
      <trkpt lat="45.17845" lon="-72.59375">
        <ele>209.16</ele>
      </trkpt>
      <trkpt lat="45.17857" lon="-72.59331">
        <ele>211.96</ele>
      </trkpt>
      <trkpt lat="45.17893" lon="-72.59218">
        <ele>218.75</ele>
      </trkpt>
      <trkpt lat="45.17924" lon="-72.5915">
        <ele>221.06</ele>
      </trkpt>
      <trkpt lat="45.179495" lon="-72.590835">
        <ele>223.19</ele>
      </trkpt>
      <trkpt lat="45.17975" lon="-72.59017">
        <ele>224.56</ele>
      </trkpt>
      <trkpt lat="45.17997" lon="-72.58968">
        <ele>225.94</ele>
      </trkpt>
      <trkpt lat="45.18023" lon="-72.58927">
        <ele>226.4</ele>
      </trkpt>
      <trkpt lat="45.18063" lon="-72.58873">
        <ele>229.29</ele>
      </trkpt>
      <trkpt lat="45.18116" lon="-72.58803">
        <ele>234.34</ele>
      </trkpt>
      <trkpt lat="45.18131" lon="-72.58789">
        <ele>235.2</ele>
      </trkpt>
      <trkpt lat="45.18191" lon="-72.58739">
        <ele>237</ele>
      </trkpt>
      <trkpt lat="45.182575" lon="-72.58697">
        <ele>238.66</ele>
      </trkpt>
      <trkpt lat="45.18324" lon="-72.58655">
        <ele>238.49</ele>
      </trkpt>
      <trkpt lat="45.183645" lon="-72.586255">
        <ele>237.92</ele>
      </trkpt>
      <trkpt lat="45.18405" lon="-72.58596">
        <ele>238.61</ele>
      </trkpt>
      <trkpt lat="45.18448" lon="-72.5856">
        <ele>241.05</ele>
      </trkpt>
      <trkpt lat="45.18491" lon="-72.58524">
        <ele>242.07</ele>
      </trkpt>
      <trkpt lat="45.18554" lon="-72.58466">
        <ele>240.79</ele>
      </trkpt>
      <trkpt lat="45.18623" lon="-72.58396">
        <ele>239.19</ele>
      </trkpt>
      <trkpt lat="45.18692" lon="-72.5832601">
        <ele>238.92</ele>
      </trkpt>
      <trkpt lat="45.18761" lon="-72.5825601">
        <ele>238.7</ele>
      </trkpt>
      <trkpt lat="45.1883" lon="-72.5818601">
        <ele>235.63</ele>
      </trkpt>
      <trkpt lat="45.18899" lon="-72.58116">
        <ele>230.9</ele>
      </trkpt>
      <trkpt lat="45.18968" lon="-72.58046">
        <ele>227.08</ele>
      </trkpt>
      <trkpt lat="45.18996" lon="-72.58014">
        <ele>224.07</ele>
      </trkpt>
      <trkpt lat="45.19045" lon="-72.57941">
        <ele>218.38</ele>
      </trkpt>
      <trkpt lat="45.19094" lon="-72.57868">
        <ele>216.59</ele>
      </trkpt>
      <trkpt lat="45.19094" lon="-72.57869">
        <ele>216.61</ele>
      </trkpt>
      <trkpt lat="45.19152" lon="-72.57785">
        <ele>215.44</ele>
      </trkpt>
      <trkpt lat="45.1921" lon="-72.5770333">
        <ele>213.04</ele>
      </trkpt>
      <trkpt lat="45.19268" lon="-72.5762167">
        <ele>211.31</ele>
      </trkpt>
      <trkpt lat="45.19326" lon="-72.5754">
        <ele>212.26</ele>
      </trkpt>
      <trkpt lat="45.19348" lon="-72.57503">
        <ele>212.95</ele>
      </trkpt>
      <trkpt lat="45.19381" lon="-72.57437">
        <ele>212.98</ele>
      </trkpt>
      <trkpt lat="45.19399" lon="-72.57388">
        <ele>210.95</ele>
      </trkpt>
      <trkpt lat="45.19402" lon="-72.57364">
        <ele>209.77</ele>
      </trkpt>
      <trkpt lat="45.19402" lon="-72.57289">
        <ele>205.97</ele>
      </trkpt>
      <trkpt lat="45.194" lon="-72.5727">
        <ele>205.88</ele>
      </trkpt>
      <trkpt lat="45.19392" lon="-72.57244">
        <ele>206.23</ele>
      </trkpt>
      <trkpt lat="45.19396" lon="-72.5724">
        <ele>206.23</ele>
      </trkpt>
      <trkpt lat="45.19399" lon="-72.57234">
        <ele>206.12</ele>
      </trkpt>
      <trkpt lat="45.19405" lon="-72.57181">
        <ele>206.52</ele>
      </trkpt>
      <trkpt lat="45.19412" lon="-72.57173">
        <ele>206.68</ele>
      </trkpt>
      <trkpt lat="45.19379" lon="-72.57101">
        <ele>208.12</ele>
      </trkpt>
      <trkpt lat="45.19366" lon="-72.57078">
        <ele>208.35</ele>
      </trkpt>
      <trkpt lat="45.19317" lon="-72.56998">
        <ele>208.11</ele>
      </trkpt>
      <trkpt lat="45.19302" lon="-72.56979">
        <ele>206.49</ele>
      </trkpt>
      <trkpt lat="45.19261" lon="-72.56935">
        <ele>204.73</ele>
      </trkpt>
      <trkpt lat="45.19234" lon="-72.56902">
        <ele>204.59</ele>
      </trkpt>
      <trkpt lat="45.19199" lon="-72.5685">
        <ele>204.91</ele>
      </trkpt>
      <trkpt lat="45.19175" lon="-72.56805">
        <ele>205.66</ele>
      </trkpt>
      <trkpt lat="45.1913433" lon="-72.5671233">
        <ele>204.63</ele>
      </trkpt>
      <trkpt lat="45.1909367" lon="-72.5661967">
        <ele>205.5</ele>
      </trkpt>
      <trkpt lat="45.19053" lon="-72.56527">
        <ele>206.15</ele>
      </trkpt>
      <trkpt lat="45.1900925" lon="-72.5642975">
        <ele>206.74</ele>
      </trkpt>
      <trkpt lat="45.189655" lon="-72.563325">
        <ele>207.49</ele>
      </trkpt>
      <trkpt lat="45.1892175" lon="-72.5623525">
        <ele>208.34</ele>
      </trkpt>
      <trkpt lat="45.18878" lon="-72.56138">
        <ele>209.45</ele>
      </trkpt>
      <trkpt lat="45.1885167" lon="-72.56059">
        <ele>209.59</ele>
      </trkpt>
      <trkpt lat="45.1882533" lon="-72.5598">
        <ele>209.21</ele>
      </trkpt>
      <trkpt lat="45.18799" lon="-72.55901">
        <ele>209.99</ele>
      </trkpt>
      <trkpt lat="45.18773" lon="-72.5582">
        <ele>210.73</ele>
      </trkpt>
      <trkpt lat="45.18759" lon="-72.55749">
        <ele>212.2</ele>
      </trkpt>
      <trkpt lat="45.18757" lon="-72.55718">
        <ele>213.18</ele>
      </trkpt>
      <trkpt lat="45.18756" lon="-72.55655">
        <ele>215.66</ele>
      </trkpt>
      <trkpt lat="45.18758" lon="-72.5561">
        <ele>216.09</ele>
      </trkpt>
      <trkpt lat="45.18764" lon="-72.55544">
        <ele>217.89</ele>
      </trkpt>
      <trkpt lat="45.1877067" lon="-72.5544067">
        <ele>223.36</ele>
      </trkpt>
      <trkpt lat="45.1877733" lon="-72.5533733">
        <ele>226.74</ele>
      </trkpt>
      <trkpt lat="45.18784" lon="-72.55234">
        <ele>226.84</ele>
      </trkpt>
      <trkpt lat="45.18786" lon="-72.55109">
        <ele>228.28</ele>
      </trkpt>
      <trkpt lat="45.18786" lon="-72.5500667">
        <ele>230.51</ele>
      </trkpt>
      <trkpt lat="45.18786" lon="-72.5490433">
        <ele>231.14</ele>
      </trkpt>
      <trkpt lat="45.18786" lon="-72.54802">
        <ele>231.05</ele>
      </trkpt>
      <trkpt lat="45.18831" lon="-72.5472633">
        <ele>234.26</ele>
      </trkpt>
      <trkpt lat="45.18876" lon="-72.5465067">
        <ele>245.35</ele>
      </trkpt>
      <trkpt lat="45.18921" lon="-72.54575">
        <ele>251.18</ele>
      </trkpt>
      <trkpt lat="45.18933" lon="-72.54545">
        <ele>252.99</ele>
      </trkpt>
      <trkpt lat="45.18933" lon="-72.54547">
        <ele>252.86</ele>
      </trkpt>
      <trkpt lat="45.189595" lon="-72.54485">
        <ele>256.16</ele>
      </trkpt>
      <trkpt lat="45.18986" lon="-72.54423">
        <ele>258.9</ele>
      </trkpt>
      <trkpt lat="45.19005" lon="-72.54356">
        <ele>261.43</ele>
      </trkpt>
      <trkpt lat="45.190215" lon="-72.542645">
        <ele>266.3</ele>
      </trkpt>
      <trkpt lat="45.19038" lon="-72.54173">
        <ele>273.63</ele>
      </trkpt>
      <trkpt lat="45.19049" lon="-72.54137">
        <ele>275.47</ele>
      </trkpt>
      <trkpt lat="45.1910333" lon="-72.5404567">
        <ele>281.86</ele>
      </trkpt>
      <trkpt lat="45.1915767" lon="-72.5395434">
        <ele>284.95</ele>
      </trkpt>
      <trkpt lat="45.19212" lon="-72.53863">
        <ele>289.23</ele>
      </trkpt>
      <trkpt lat="45.192685" lon="-72.53783">
        <ele>289.93</ele>
      </trkpt>
      <trkpt lat="45.19325" lon="-72.53703">
        <ele>289.51</ele>
      </trkpt>
      <trkpt lat="45.19374" lon="-72.53606">
        <ele>291.5</ele>
      </trkpt>
      <trkpt lat="45.1941515" lon="-72.53513">
        <ele>294.55</ele>
      </trkpt>
      <trkpt lat="45.1945629" lon="-72.5342001">
        <ele>295.29</ele>
      </trkpt>
      <trkpt lat="45.1949743" lon="-72.5332701">
        <ele>297.94</ele>
      </trkpt>
      <trkpt lat="45.1953858" lon="-72.5323401">
        <ele>300.85</ele>
      </trkpt>
      <trkpt lat="45.1957972" lon="-72.5314101">
        <ele>300.63</ele>
      </trkpt>
      <trkpt lat="45.1962086" lon="-72.53048">
        <ele>300.42</ele>
      </trkpt>
      <trkpt lat="45.19662" lon="-72.52955">
        <ele>301.78</ele>
      </trkpt>
      <trkpt lat="45.196985" lon="-72.52868">
        <ele>303.69</ele>
      </trkpt>
      <trkpt lat="45.19735" lon="-72.52781">
        <ele>301.62</ele>
      </trkpt>
      <trkpt lat="45.1977967" lon="-72.5268367">
        <ele>302.93</ele>
      </trkpt>
      <trkpt lat="45.1982433" lon="-72.5258633">
        <ele>303.91</ele>
      </trkpt>
      <trkpt lat="45.19869" lon="-72.52489">
        <ele>306.67</ele>
      </trkpt>
      <trkpt lat="45.19868" lon="-72.52489">
        <ele>306.65</ele>
      </trkpt>
      <trkpt lat="45.19914" lon="-72.523895">
        <ele>310.06</ele>
      </trkpt>
      <trkpt lat="45.1996" lon="-72.5229001">
        <ele>311.97</ele>
      </trkpt>
      <trkpt lat="45.20006" lon="-72.5219051">
        <ele>315.27</ele>
      </trkpt>
      <trkpt lat="45.20052" lon="-72.5209101">
        <ele>318.43</ele>
      </trkpt>
      <trkpt lat="45.20098" lon="-72.519915">
        <ele>317.45</ele>
      </trkpt>
      <trkpt lat="45.20144" lon="-72.51892">
        <ele>318.05</ele>
      </trkpt>
      <trkpt lat="45.20194" lon="-72.5178625">
        <ele>314.23</ele>
      </trkpt>
      <trkpt lat="45.20244" lon="-72.516805">
        <ele>313.46</ele>
      </trkpt>
      <trkpt lat="45.20294" lon="-72.5157475">
        <ele>313.54</ele>
      </trkpt>
      <trkpt lat="45.20344" lon="-72.51469">
        <ele>309</ele>
      </trkpt>
      <trkpt lat="45.2038925" lon="-72.513705">
        <ele>300.3</ele>
      </trkpt>
      <trkpt lat="45.204345" lon="-72.51272">
        <ele>298.43</ele>
      </trkpt>
      <trkpt lat="45.2047975" lon="-72.511735">
        <ele>295.99</ele>
      </trkpt>
      <trkpt lat="45.20525" lon="-72.51075">
        <ele>290.25</ele>
      </trkpt>
      <trkpt lat="45.20538" lon="-72.51053">
        <ele>288.29</ele>
      </trkpt>
      <trkpt lat="45.20594" lon="-72.50999">
        <ele>278</ele>
      </trkpt>
      <trkpt lat="45.206495" lon="-72.509475">
        <ele>268.78</ele>
      </trkpt>
      <trkpt lat="45.20705" lon="-72.50896">
        <ele>261.58</ele>
      </trkpt>
      <trkpt lat="45.20765" lon="-72.50842">
        <ele>250.85</ele>
      </trkpt>
      <trkpt lat="45.20808" lon="-72.50812">
        <ele>246.21</ele>
      </trkpt>
      <trkpt lat="45.20858" lon="-72.5086633">
        <ele>240.57</ele>
      </trkpt>
      <trkpt lat="45.20908" lon="-72.5092067">
        <ele>236.57</ele>
      </trkpt>
      <trkpt lat="45.20958" lon="-72.50975">
        <ele>230.5</ele>
      </trkpt>
      <trkpt lat="45.209975" lon="-72.51013">
        <ele>228.04</ele>
      </trkpt>
      <trkpt lat="45.21037" lon="-72.51051">
        <ele>226.06</ele>
      </trkpt>
      <trkpt lat="45.21037" lon="-72.51051">
        <ele>226.05</ele>
      </trkpt>
      <trkpt lat="45.21085" lon="-72.51097">
        <ele>224.78</ele>
      </trkpt>
      <trkpt lat="45.21125" lon="-72.51128">
        <ele>219.09</ele>
      </trkpt>
      <trkpt lat="45.21147" lon="-72.51137">
        <ele>217.61</ele>
      </trkpt>
      <trkpt lat="45.21215" lon="-72.51156">
        <ele>212.43</ele>
      </trkpt>
      <trkpt lat="45.2124" lon="-72.51158">
        <ele>211.16</ele>
      </trkpt>
      <trkpt lat="45.21299" lon="-72.51153">
        <ele>210.42</ele>
      </trkpt>
      <trkpt lat="45.21345" lon="-72.511455">
        <ele>209.06</ele>
      </trkpt>
      <trkpt lat="45.21391" lon="-72.51138">
        <ele>207.9</ele>
      </trkpt>
      <trkpt lat="45.21454" lon="-72.5113">
        <ele>207</ele>
      </trkpt>
      <trkpt lat="45.21517" lon="-72.51122">
        <ele>207.49</ele>
      </trkpt>
      <trkpt lat="45.21543" lon="-72.51115">
        <ele>207.71</ele>
      </trkpt>
      <trkpt lat="45.21563" lon="-72.51107">
        <ele>208.46</ele>
      </trkpt>
      <trkpt lat="45.21588" lon="-72.51092">
        <ele>209.14</ele>
      </trkpt>
      <trkpt lat="45.216335" lon="-72.510615">
        <ele>208.93</ele>
      </trkpt>
      <trkpt lat="45.21679" lon="-72.51031">
        <ele>206.31</ele>
      </trkpt>
      <trkpt lat="45.21746" lon="-72.50982">
        <ele>206.19</ele>
      </trkpt>
      <trkpt lat="45.21801" lon="-72.50959">
        <ele>207.58</ele>
      </trkpt>
      <trkpt lat="45.21856" lon="-72.50936">
        <ele>214.41</ele>
      </trkpt>
      <trkpt lat="45.21876" lon="-72.50927">
        <ele>215.87</ele>
      </trkpt>
      <trkpt lat="45.21898" lon="-72.5091">
        <ele>217.57</ele>
      </trkpt>
      <trkpt lat="45.21913" lon="-72.50986">
        <ele>216.2</ele>
      </trkpt>
      <trkpt lat="45.21933" lon="-72.51052">
        <ele>215.06</ele>
      </trkpt>
      <trkpt lat="45.219665" lon="-72.511315">
        <ele>212.55</ele>
      </trkpt>
      <trkpt lat="45.22" lon="-72.51211">
        <ele>212.06</ele>
      </trkpt>
      <trkpt lat="45.22" lon="-72.51211">
        <ele>212.06</ele>
      </trkpt>
      <trkpt lat="45.22048" lon="-72.51314">
        <ele>212.33</ele>
      </trkpt>
      <trkpt lat="45.22082" lon="-72.51391">
        <ele>210.38</ele>
      </trkpt>
      <trkpt lat="45.22116" lon="-72.51468">
        <ele>210.26</ele>
      </trkpt>
      <trkpt lat="45.22161" lon="-72.51571">
        <ele>209.52</ele>
      </trkpt>
      <trkpt lat="45.22181" lon="-72.51627">
        <ele>209.08</ele>
      </trkpt>
      <trkpt lat="45.22188" lon="-72.51695">
        <ele>209.17</ele>
      </trkpt>
      <trkpt lat="45.22192" lon="-72.51783">
        <ele>209.51</ele>
      </trkpt>
      <trkpt lat="45.22196" lon="-72.51871">
        <ele>209.91</ele>
      </trkpt>
      <trkpt lat="45.22201" lon="-72.51898">
        <ele>209.85</ele>
      </trkpt>
      <trkpt lat="45.2221" lon="-72.51929">
        <ele>209.61</ele>
      </trkpt>
      <trkpt lat="45.2224" lon="-72.52006">
        <ele>208.71</ele>
      </trkpt>
      <trkpt lat="45.22249" lon="-72.52033">
        <ele>208.63</ele>
      </trkpt>
      <trkpt lat="45.22266" lon="-72.52095">
        <ele>208.17</ele>
      </trkpt>
      <trkpt lat="45.22275" lon="-72.5214">
        <ele>207.88</ele>
      </trkpt>
      <trkpt lat="45.22279" lon="-72.52211">
        <ele>206.85</ele>
      </trkpt>
      <trkpt lat="45.22279" lon="-72.52248">
        <ele>206.85</ele>
      </trkpt>
      <trkpt lat="45.22277" lon="-72.52283">
        <ele>206.32</ele>
      </trkpt>
      <trkpt lat="45.22272" lon="-72.52306">
        <ele>205.86</ele>
      </trkpt>
      <trkpt lat="45.22259" lon="-72.52337">
        <ele>205.08</ele>
      </trkpt>
      <trkpt lat="45.22192" lon="-72.52412">
        <ele>201.94</ele>
      </trkpt>
      <trkpt lat="45.221425" lon="-72.524615">
        <ele>201.99</ele>
      </trkpt>
      <trkpt lat="45.22093" lon="-72.52511">
        <ele>202.92</ele>
      </trkpt>
      <trkpt lat="45.22121" lon="-72.5261175">
        <ele>202.61</ele>
      </trkpt>
      <trkpt lat="45.22149" lon="-72.527125">
        <ele>202.09</ele>
      </trkpt>
      <trkpt lat="45.22177" lon="-72.5281325">
        <ele>202.38</ele>
      </trkpt>
      <trkpt lat="45.22205" lon="-72.52914">
        <ele>202.66</ele>
      </trkpt>
      <trkpt lat="45.22218" lon="-72.52972">
        <ele>203.11</ele>
      </trkpt>
      <trkpt lat="45.22227" lon="-72.53042">
        <ele>203.03</ele>
      </trkpt>
      <trkpt lat="45.2222967" lon="-72.53128">
        <ele>202.73</ele>
      </trkpt>
      <trkpt lat="45.2223233" lon="-72.53214">
        <ele>202.58</ele>
      </trkpt>
      <trkpt lat="45.22235" lon="-72.533">
        <ele>202.26</ele>
      </trkpt>
      <trkpt lat="45.22231" lon="-72.53398">
        <ele>200.82</ele>
      </trkpt>
      <trkpt lat="45.222325" lon="-72.53497">
        <ele>199.69</ele>
      </trkpt>
      <trkpt lat="45.22234" lon="-72.53596">
        <ele>200.19</ele>
      </trkpt>
      <trkpt lat="45.22258" lon="-72.536">
        <ele>200.49</ele>
      </trkpt>
      <trkpt lat="45.2234" lon="-72.53595">
        <ele>202.32</ele>
      </trkpt>
      <trkpt lat="45.22385" lon="-72.53604">
        <ele>202.27</ele>
      </trkpt>
      <trkpt lat="45.2243" lon="-72.53613">
        <ele>202.62</ele>
      </trkpt>
      <trkpt lat="45.22462" lon="-72.53618">
        <ele>203.41</ele>
      </trkpt>
      <trkpt lat="45.22511" lon="-72.53617">
        <ele>203.96</ele>
      </trkpt>
      <trkpt lat="45.2258633" lon="-72.5360633">
        <ele>202.52</ele>
      </trkpt>
      <trkpt lat="45.2266167" lon="-72.5359567">
        <ele>202.29</ele>
      </trkpt>
      <trkpt lat="45.22737" lon="-72.53585">
        <ele>202.23</ele>
      </trkpt>
      <trkpt lat="45.22817" lon="-72.53579">
        <ele>202.29</ele>
      </trkpt>
      <trkpt lat="45.2289467" lon="-72.5357667">
        <ele>201.91</ele>
      </trkpt>
      <trkpt lat="45.2297233" lon="-72.5357433">
        <ele>200.3</ele>
      </trkpt>
      <trkpt lat="45.2305" lon="-72.53572">
        <ele>200.83</ele>
      </trkpt>
      <trkpt lat="45.23114" lon="-72.53574">
        <ele>201.22</ele>
      </trkpt>
      <trkpt lat="45.231925" lon="-72.535825">
        <ele>202.82</ele>
      </trkpt>
      <trkpt lat="45.23271" lon="-72.53591">
        <ele>207.62</ele>
      </trkpt>
      <trkpt lat="45.23286" lon="-72.53591">
        <ele>207.93</ele>
      </trkpt>
      <trkpt lat="45.233365" lon="-72.535775">
        <ele>208.38</ele>
      </trkpt>
      <trkpt lat="45.23387" lon="-72.53564">
        <ele>208.02</ele>
      </trkpt>
      <trkpt lat="45.23444" lon="-72.535575">
        <ele>207.44</ele>
      </trkpt>
      <trkpt lat="45.23501" lon="-72.53551">
        <ele>207.73</ele>
      </trkpt>
      <trkpt lat="45.23528" lon="-72.53554">
        <ele>207.87</ele>
      </trkpt>
      <trkpt lat="45.2356" lon="-72.53563">
        <ele>207.59</ele>
      </trkpt>
      <trkpt lat="45.23574" lon="-72.53569">
        <ele>207.28</ele>
      </trkpt>
      <trkpt lat="45.23592" lon="-72.53582">
        <ele>206.96</ele>
      </trkpt>
      <trkpt lat="45.23604" lon="-72.53597">
        <ele>206.45</ele>
      </trkpt>
      <trkpt lat="45.23604" lon="-72.53597">
        <ele>206.45</ele>
      </trkpt>
      <trkpt lat="45.23643" lon="-72.53641">
        <ele>205.02</ele>
      </trkpt>
      <trkpt lat="45.23701" lon="-72.53716">
        <ele>203.84</ele>
      </trkpt>
      <trkpt lat="45.2374" lon="-72.53772">
        <ele>204.05</ele>
      </trkpt>
      <trkpt lat="45.237845" lon="-72.538335">
        <ele>205.05</ele>
      </trkpt>
      <trkpt lat="45.23829" lon="-72.53895">
        <ele>206.77</ele>
      </trkpt>
      <trkpt lat="45.23878" lon="-72.53955">
        <ele>208.12</ele>
      </trkpt>
      <trkpt lat="45.23912" lon="-72.53989">
        <ele>207.67</ele>
      </trkpt>
      <trkpt lat="45.23941" lon="-72.54014">
        <ele>206.46</ele>
      </trkpt>
      <trkpt lat="45.2397" lon="-72.54034">
        <ele>205.23</ele>
      </trkpt>
      <trkpt lat="45.24008" lon="-72.54074">
        <ele>204.88</ele>
      </trkpt>
      <trkpt lat="45.24025" lon="-72.54102">
        <ele>205.11</ele>
      </trkpt>
      <trkpt lat="45.24069" lon="-72.54213">
        <ele>203.32</ele>
      </trkpt>
      <trkpt lat="45.24092" lon="-72.54278">
        <ele>205</ele>
      </trkpt>
      <trkpt lat="45.24126" lon="-72.54396">
        <ele>204.46</ele>
      </trkpt>
      <trkpt lat="45.2413" lon="-72.54419">
        <ele>204.73</ele>
      </trkpt>
      <trkpt lat="45.24131" lon="-72.54437">
        <ele>205.17</ele>
      </trkpt>
      <trkpt lat="45.24128" lon="-72.54482">
        <ele>206.56</ele>
      </trkpt>
      <trkpt lat="45.24129" lon="-72.54513">
        <ele>207.29</ele>
      </trkpt>
      <trkpt lat="45.24137" lon="-72.54536">
        <ele>207.38</ele>
      </trkpt>
      <trkpt lat="45.24187" lon="-72.546165">
        <ele>204.99</ele>
      </trkpt>
      <trkpt lat="45.24237" lon="-72.54697">
        <ele>203.94</ele>
      </trkpt>
      <trkpt lat="45.24265" lon="-72.54749">
        <ele>202.32</ele>
      </trkpt>
      <trkpt lat="45.24297" lon="-72.54812">
        <ele>200</ele>
      </trkpt>
      <trkpt lat="45.24338" lon="-72.54903">
        <ele>199.68</ele>
      </trkpt>
      <trkpt lat="45.24353" lon="-72.54956">
        <ele>200.04</ele>
      </trkpt>
      <trkpt lat="45.24382" lon="-72.55041">
        <ele>200.22</ele>
      </trkpt>
      <trkpt lat="45.24382" lon="-72.55041">
        <ele>200.22</ele>
      </trkpt>
      <trkpt lat="45.24408" lon="-72.55086">
        <ele>200.28</ele>
      </trkpt>
      <trkpt lat="45.24415" lon="-72.55103">
        <ele>200.43</ele>
      </trkpt>
      <trkpt lat="45.24418" lon="-72.55153">
        <ele>200.52</ele>
      </trkpt>
      <trkpt lat="45.24414" lon="-72.552705">
        <ele>203.22</ele>
      </trkpt>
      <trkpt lat="45.2441" lon="-72.55388">
        <ele>206.65</ele>
      </trkpt>
      <trkpt lat="45.2440711" lon="-72.555076">
        <ele>207.5</ele>
      </trkpt>
      <trkpt lat="45.2440421" lon="-72.556272">
        <ele>209.61</ele>
      </trkpt>
      <trkpt lat="45.2440131" lon="-72.557468">
        <ele>210.78</ele>
      </trkpt>
      <trkpt lat="45.2439841" lon="-72.558664">
        <ele>209.78</ele>
      </trkpt>
      <trkpt lat="45.2439552" lon="-72.55986">
        <ele>209.62</ele>
      </trkpt>
      <trkpt lat="45.2439261" lon="-72.561056">
        <ele>210.02</ele>
      </trkpt>
      <trkpt lat="45.2438971" lon="-72.562252">
        <ele>210.94</ele>
      </trkpt>
      <trkpt lat="45.2438681" lon="-72.563448">
        <ele>211.8</ele>
      </trkpt>
      <trkpt lat="45.2438391" lon="-72.564644">
        <ele>212.31</ele>
      </trkpt>
      <trkpt lat="45.24381" lon="-72.56584">
        <ele>212.38</ele>
      </trkpt>
      <trkpt lat="45.24381" lon="-72.56583">
        <ele>212.38</ele>
      </trkpt>
      <trkpt lat="45.2437788" lon="-72.5670713">
        <ele>213.4</ele>
      </trkpt>
      <trkpt lat="45.2437476" lon="-72.5683125">
        <ele>215.76</ele>
      </trkpt>
      <trkpt lat="45.2437164" lon="-72.5695538">
        <ele>219.31</ele>
      </trkpt>
      <trkpt lat="45.2436851" lon="-72.570795">
        <ele>222.58</ele>
      </trkpt>
      <trkpt lat="45.2436539" lon="-72.5720363">
        <ele>227.21</ele>
      </trkpt>
      <trkpt lat="45.2436226" lon="-72.5732775">
        <ele>231.08</ele>
      </trkpt>
      <trkpt lat="45.2435913" lon="-72.5745188">
        <ele>232.82</ele>
      </trkpt>
      <trkpt lat="45.24356" lon="-72.57576">
        <ele>234.19</ele>
      </trkpt>
      <trkpt lat="45.243565" lon="-72.576495">
        <ele>233.99</ele>
      </trkpt>
      <trkpt lat="45.24357" lon="-72.57723">
        <ele>233.69</ele>
      </trkpt>
      <trkpt lat="45.24357" lon="-72.57723">
        <ele>233.69</ele>
      </trkpt>
      <trkpt lat="45.243634" lon="-72.578358">
        <ele>233.28</ele>
      </trkpt>
      <trkpt lat="45.243698" lon="-72.579486">
        <ele>232.99</ele>
      </trkpt>
      <trkpt lat="45.243762" lon="-72.580614">
        <ele>232.14</ele>
      </trkpt>
      <trkpt lat="45.243826" lon="-72.581742">
        <ele>232.18</ele>
      </trkpt>
      <trkpt lat="45.24389" lon="-72.58287">
        <ele>231.7</ele>
      </trkpt>
      <trkpt lat="45.2439486" lon="-72.5840871">
        <ele>231.81</ele>
      </trkpt>
      <trkpt lat="45.2440072" lon="-72.5853043">
        <ele>231.85</ele>
      </trkpt>
      <trkpt lat="45.2440658" lon="-72.5865214">
        <ele>232.31</ele>
      </trkpt>
      <trkpt lat="45.2441244" lon="-72.5877386">
        <ele>233.25</ele>
      </trkpt>
      <trkpt lat="45.2441829" lon="-72.5889557">
        <ele>235.08</ele>
      </trkpt>
      <trkpt lat="45.2442415" lon="-72.5901728">
        <ele>239.67</ele>
      </trkpt>
      <trkpt lat="45.2443" lon="-72.59139">
        <ele>243.14</ele>
      </trkpt>
      <trkpt lat="45.24469" lon="-72.59138">
        <ele>242.9</ele>
      </trkpt>
      <trkpt lat="45.24495" lon="-72.59147">
        <ele>242.43</ele>
      </trkpt>
      <trkpt lat="45.24529" lon="-72.59169">
        <ele>242</ele>
      </trkpt>
      <trkpt lat="45.245915" lon="-72.59214">
        <ele>242.08</ele>
      </trkpt>
      <trkpt lat="45.24654" lon="-72.59259">
        <ele>242.55</ele>
      </trkpt>
      <trkpt lat="45.24689" lon="-72.59276">
        <ele>241.89</ele>
      </trkpt>
      <trkpt lat="45.24771" lon="-72.59308">
        <ele>239.61</ele>
      </trkpt>
      <trkpt lat="45.2483" lon="-72.59326">
        <ele>240.31</ele>
      </trkpt>
      <trkpt lat="45.248795" lon="-72.59337">
        <ele>240.58</ele>
      </trkpt>
      <trkpt lat="45.24929" lon="-72.59348">
        <ele>240.96</ele>
      </trkpt>
      <trkpt lat="45.24978" lon="-72.59361">
        <ele>242.44</ele>
      </trkpt>
      <trkpt lat="45.25027" lon="-72.59374">
        <ele>245.05</ele>
      </trkpt>
      <trkpt lat="45.25092" lon="-72.59328">
        <ele>246.25</ele>
      </trkpt>
      <trkpt lat="45.250965" lon="-72.593965">
        <ele>246.64</ele>
      </trkpt>
      <trkpt lat="45.25101" lon="-72.59465">
        <ele>249.28</ele>
      </trkpt>
      <trkpt lat="45.2510433" lon="-72.5955133">
        <ele>250.41</ele>
      </trkpt>
      <trkpt lat="45.2510767" lon="-72.5963767">
        <ele>249.74</ele>
      </trkpt>
      <trkpt lat="45.25111" lon="-72.59724">
        <ele>249.28</ele>
      </trkpt>
      <trkpt lat="45.25121" lon="-72.59756">
        <ele>249.39</ele>
      </trkpt>
      <trkpt lat="45.25164" lon="-72.598225">
        <ele>250.47</ele>
      </trkpt>
      <trkpt lat="45.25207" lon="-72.59889">
        <ele>248.8</ele>
      </trkpt>
      <trkpt lat="45.2522" lon="-72.59912">
        <ele>247.93</ele>
      </trkpt>
      <trkpt lat="45.25237" lon="-72.59953">
        <ele>247.93</ele>
      </trkpt>
      <trkpt lat="45.25246" lon="-72.60015">
        <ele>249.38</ele>
      </trkpt>
      <trkpt lat="45.25249" lon="-72.600935">
        <ele>253.26</ele>
      </trkpt>
      <trkpt lat="45.25252" lon="-72.60172">
        <ele>256.73</ele>
      </trkpt>
      <trkpt lat="45.25254" lon="-72.60191">
        <ele>256.62</ele>
      </trkpt>
      <trkpt lat="45.25261" lon="-72.6021">
        <ele>256.22</ele>
      </trkpt>
      <trkpt lat="45.25279" lon="-72.60226">
        <ele>255.18</ele>
      </trkpt>
      <trkpt lat="45.25334" lon="-72.602575">
        <ele>254.59</ele>
      </trkpt>
      <trkpt lat="45.25389" lon="-72.60289">
        <ele>253.79</ele>
      </trkpt>
      <trkpt lat="45.25397" lon="-72.60297">
        <ele>253.17</ele>
      </trkpt>
      <trkpt lat="45.25433" lon="-72.60315">
        <ele>248.46</ele>
      </trkpt>
      <trkpt lat="45.25461" lon="-72.60338">
        <ele>246.22</ele>
      </trkpt>
      <trkpt lat="45.25506" lon="-72.603785">
        <ele>243.09</ele>
      </trkpt>
      <trkpt lat="45.25551" lon="-72.60419">
        <ele>241.81</ele>
      </trkpt>
      <trkpt lat="45.25577" lon="-72.60449">
        <ele>242.57</ele>
      </trkpt>
      <trkpt lat="45.25611" lon="-72.60512">
        <ele>244.35</ele>
      </trkpt>
      <trkpt lat="45.25646" lon="-72.60598">
        <ele>240.93</ele>
      </trkpt>
      <trkpt lat="45.25668" lon="-72.60673">
        <ele>238.51</ele>
      </trkpt>
      <trkpt lat="45.256865" lon="-72.607605">
        <ele>234.64</ele>
      </trkpt>
      <trkpt lat="45.25705" lon="-72.60848">
        <ele>234.52</ele>
      </trkpt>
      <trkpt lat="45.257245" lon="-72.609595">
        <ele>236.57</ele>
      </trkpt>
      <trkpt lat="45.25744" lon="-72.61071">
        <ele>236.48</ele>
      </trkpt>
      <trkpt lat="45.2575" lon="-72.6118">
        <ele>235.09</ele>
      </trkpt>
      <trkpt lat="45.257525" lon="-72.61258">
        <ele>235.38</ele>
      </trkpt>
      <trkpt lat="45.25755" lon="-72.61336">
        <ele>236.12</ele>
      </trkpt>
      <trkpt lat="45.25751" lon="-72.61385">
        <ele>234.72</ele>
      </trkpt>
      <trkpt lat="45.25756" lon="-72.61426">
        <ele>231.15</ele>
      </trkpt>
      <trkpt lat="45.25765" lon="-72.61461">
        <ele>230</ele>
      </trkpt>
      <trkpt lat="45.25797" lon="-72.61555">
        <ele>226.17</ele>
      </trkpt>
      <trkpt lat="45.25822" lon="-72.61642">
        <ele>223.91</ele>
      </trkpt>
      <trkpt lat="45.25836" lon="-72.61708">
        <ele>220.55</ele>
      </trkpt>
      <trkpt lat="45.25847" lon="-72.61775">
        <ele>219.88</ele>
      </trkpt>
      <trkpt lat="45.25853" lon="-72.61829">
        <ele>218.06</ele>
      </trkpt>
      <trkpt lat="45.25862" lon="-72.61949">
        <ele>217.12</ele>
      </trkpt>
      <trkpt lat="45.258695" lon="-72.62068">
        <ele>216.52</ele>
      </trkpt>
      <trkpt lat="45.25877" lon="-72.62187">
        <ele>214.38</ele>
      </trkpt>
      <trkpt lat="45.25883" lon="-72.6230767">
        <ele>206.47</ele>
      </trkpt>
      <trkpt lat="45.25889" lon="-72.6242833">
        <ele>203.34</ele>
      </trkpt>
      <trkpt lat="45.25895" lon="-72.62549">
        <ele>202.77</ele>
      </trkpt>
      <trkpt lat="45.258255" lon="-72.625695">
        <ele>204.28</ele>
      </trkpt>
      <trkpt lat="45.25756" lon="-72.6259">
        <ele>208.04</ele>
      </trkpt>
      <trkpt lat="45.25775" lon="-72.626705">
        <ele>202.48</ele>
      </trkpt>
      <trkpt lat="45.25794" lon="-72.62751">
        <ele>196.7</ele>
      </trkpt>
      <trkpt lat="45.258155" lon="-72.628095">
        <ele>191.73</ele>
      </trkpt>
      <trkpt lat="45.25837" lon="-72.62868">
        <ele>189.15</ele>
      </trkpt>
      <trkpt lat="45.25853" lon="-72.62916">
        <ele>187.9</ele>
      </trkpt>
      <trkpt lat="45.25874" lon="-72.62993">
        <ele>185.85</ele>
      </trkpt>
      <trkpt lat="45.25899" lon="-72.63042">
        <ele>183.05</ele>
      </trkpt>
      <trkpt lat="45.25927" lon="-72.63074">
        <ele>180.57</ele>
      </trkpt>
      <trkpt lat="45.25944" lon="-72.63109">
        <ele>176.9</ele>
      </trkpt>
      <trkpt lat="45.25977" lon="-72.63183">
        <ele>172.52</ele>
      </trkpt>
      <trkpt lat="45.25983" lon="-72.63202">
        <ele>170.79</ele>
      </trkpt>
      <trkpt lat="45.25993" lon="-72.63257">
        <ele>168.98</ele>
      </trkpt>
      <trkpt lat="45.26006" lon="-72.6337">
        <ele>166.64</ele>
      </trkpt>
      <trkpt lat="45.26004" lon="-72.63396">
        <ele>165.67</ele>
      </trkpt>
      <trkpt lat="45.25995" lon="-72.63435">
        <ele>163.66</ele>
      </trkpt>
      <trkpt lat="45.2599" lon="-72.63476">
        <ele>161.26</ele>
      </trkpt>
      <trkpt lat="45.26002" lon="-72.63575">
        <ele>158.54</ele>
      </trkpt>
      <trkpt lat="45.26014" lon="-72.63674">
        <ele>157.71</ele>
      </trkpt>
      <trkpt lat="45.26026" lon="-72.63773">
        <ele>157.18</ele>
      </trkpt>
      <trkpt lat="45.26026" lon="-72.63773">
        <ele>157.18</ele>
      </trkpt>
      <trkpt lat="45.2604" lon="-72.638865">
        <ele>156.33</ele>
      </trkpt>
      <trkpt lat="45.26054" lon="-72.64">
        <ele>155.41</ele>
      </trkpt>
      <trkpt lat="45.2606633" lon="-72.64109">
        <ele>154.27</ele>
      </trkpt>
      <trkpt lat="45.2607867" lon="-72.64218">
        <ele>153.98</ele>
      </trkpt>
      <trkpt lat="45.26091" lon="-72.64327">
        <ele>159.59</ele>
      </trkpt>
      <trkpt lat="45.26091" lon="-72.64358">
        <ele>161.13</ele>
      </trkpt>
      <trkpt lat="45.260855" lon="-72.64433">
        <ele>164.17</ele>
      </trkpt>
      <trkpt lat="45.2608" lon="-72.64508">
        <ele>166.42</ele>
      </trkpt>
      <trkpt lat="45.26127" lon="-72.64525">
        <ele>166.53</ele>
      </trkpt>
      <trkpt lat="45.26193" lon="-72.64546">
        <ele>168.72</ele>
      </trkpt>
      <trkpt lat="45.262395" lon="-72.645635">
        <ele>171.2</ele>
      </trkpt>
      <trkpt lat="45.26286" lon="-72.64581">
        <ele>174.44</ele>
      </trkpt>
      <trkpt lat="45.26339" lon="-72.64597">
        <ele>176.97</ele>
      </trkpt>
      <trkpt lat="45.26392" lon="-72.64613">
        <ele>179.36</ele>
      </trkpt>
      <trkpt lat="45.264585" lon="-72.646375">
        <ele>180.6</ele>
      </trkpt>
      <trkpt lat="45.26525" lon="-72.64662">
        <ele>179.79</ele>
      </trkpt>
      <trkpt lat="45.26572" lon="-72.64663">
        <ele>177.25</ele>
      </trkpt>
      <trkpt lat="45.26602" lon="-72.64658">
        <ele>176.51</ele>
      </trkpt>
      <trkpt lat="45.266555" lon="-72.64644">
        <ele>175.94</ele>
      </trkpt>
      <trkpt lat="45.26709" lon="-72.6463">
        <ele>174.53</ele>
      </trkpt>
      <trkpt lat="45.26708" lon="-72.6463">
        <ele>174.58</ele>
      </trkpt>
      <trkpt lat="45.26725" lon="-72.64626">
        <ele>174.18</ele>
      </trkpt>
      <trkpt lat="45.26761" lon="-72.64635">
        <ele>173.43</ele>
      </trkpt>
      <trkpt lat="45.26776" lon="-72.64644">
        <ele>173.39</ele>
      </trkpt>
      <trkpt lat="45.26795" lon="-72.64663">
        <ele>173.32</ele>
      </trkpt>
      <trkpt lat="45.26818" lon="-72.64725">
        <ele>170.83</ele>
      </trkpt>
      <trkpt lat="45.268425" lon="-72.64797">
        <ele>165.87</ele>
      </trkpt>
      <trkpt lat="45.26867" lon="-72.64869">
        <ele>162.71</ele>
      </trkpt>
      <trkpt lat="45.26886" lon="-72.64918">
        <ele>163.03</ele>
      </trkpt>
      <trkpt lat="45.26929" lon="-72.65017">
        <ele>169.26</ele>
      </trkpt>
      <trkpt lat="45.26953" lon="-72.65061">
        <ele>172.75</ele>
      </trkpt>
      <trkpt lat="45.27005" lon="-72.65114">
        <ele>177.64</ele>
      </trkpt>
      <trkpt lat="45.27072" lon="-72.651905">
        <ele>180.77</ele>
      </trkpt>
      <trkpt lat="45.27139" lon="-72.65267">
        <ele>181.51</ele>
      </trkpt>
      <trkpt lat="45.27142" lon="-72.65294">
        <ele>179.98</ele>
      </trkpt>
      <trkpt lat="45.27128" lon="-72.654195">
        <ele>173.9</ele>
      </trkpt>
      <trkpt lat="45.27114" lon="-72.65545">
        <ele>170.02</ele>
      </trkpt>
      <trkpt lat="45.27098" lon="-72.65652">
        <ele>167.55</ele>
      </trkpt>
      <trkpt lat="45.27082" lon="-72.65759">
        <ele>167.36</ele>
      </trkpt>
      <trkpt lat="45.2706733" lon="-72.65883">
        <ele>165.1</ele>
      </trkpt>
      <trkpt lat="45.2705267" lon="-72.66007">
        <ele>159.69</ele>
      </trkpt>
      <trkpt lat="45.27038" lon="-72.66131">
        <ele>156.67</ele>
      </trkpt>
      <trkpt lat="45.27024" lon="-72.66233">
        <ele>156.05</ele>
      </trkpt>
      <trkpt lat="45.27024" lon="-72.66234">
        <ele>156.05</ele>
      </trkpt>
      <trkpt lat="45.27021" lon="-72.66297">
        <ele>155.75</ele>
      </trkpt>
      <trkpt lat="45.27024" lon="-72.66422">
        <ele>151.9</ele>
      </trkpt>
      <trkpt lat="45.27017" lon="-72.66486">
        <ele>150.11</ele>
      </trkpt>
      <trkpt lat="45.26995" lon="-72.6659">
        <ele>145.91</ele>
      </trkpt>
      <trkpt lat="45.26973" lon="-72.66694">
        <ele>142.21</ele>
      </trkpt>
      <trkpt lat="45.26951" lon="-72.66798">
        <ele>139.61</ele>
      </trkpt>
      <trkpt lat="45.26942" lon="-72.66864">
        <ele>138.39</ele>
      </trkpt>
      <trkpt lat="45.26938" lon="-72.66937">
        <ele>137.06</ele>
      </trkpt>
      <trkpt lat="45.26937" lon="-72.66991">
        <ele>136.67</ele>
      </trkpt>
      <trkpt lat="45.26944" lon="-72.67018">
        <ele>136.62</ele>
      </trkpt>
      <trkpt lat="45.26961" lon="-72.67041">
        <ele>136.66</ele>
      </trkpt>
      <trkpt lat="45.27008" lon="-72.670895">
        <ele>137.15</ele>
      </trkpt>
      <trkpt lat="45.27055" lon="-72.67138">
        <ele>137.43</ele>
      </trkpt>
    </trkseg>
  </trk>
</gpx>