<?xml version='1.0' encoding='utf-8'?>
<gpx xmlns="http://www.topografix.com/GPX/1/1" xmlns:xsi="http://www.w3.org/2001/XMLSchema-instance" version="1.1" creator="Gravelle Estrie" xsi:schemaLocation="http://www.topografix.com/GPX/1/1 http://www.topografix.com/GPX/1/1/gpx.xsd">
  <metadata>
    <name>Sutton</name>
  </metadata>
  <trk>
    <name>Sutton</name>
    <trkseg>
      <trkpt lat="45.10705" lon="-72.61562">
        <ele>181.5</ele>
      </trkpt>
      <trkpt lat="45.10639" lon="-72.61525">
        <ele>181.4</ele>
      </trkpt>
      <trkpt lat="45.10592" lon="-72.61507">
        <ele>180.3</ele>
      </trkpt>
      <trkpt lat="45.10568" lon="-72.61507">
        <ele>180.3</ele>
      </trkpt>
      <trkpt lat="45.10531" lon="-72.6151">
        <ele>179.3</ele>
      </trkpt>
      <trkpt lat="45.10517" lon="-72.61516">
        <ele>178.9</ele>
      </trkpt>
      <trkpt lat="45.10485" lon="-72.61538">
        <ele>178.1</ele>
      </trkpt>
      <trkpt lat="45.1047" lon="-72.61556">
        <ele>177.7</ele>
      </trkpt>
      <trkpt lat="45.10435" lon="-72.616055">
        <ele>176.9</ele>
      </trkpt>
      <trkpt lat="45.104" lon="-72.61655">
        <ele>175.6</ele>
      </trkpt>
      <trkpt lat="45.103403" lon="-72.617456">
        <ele>174.2</ele>
      </trkpt>
      <trkpt lat="45.102806" lon="-72.618363">
        <ele>172.7</ele>
      </trkpt>
      <trkpt lat="45.10221" lon="-72.61927">
        <ele>170.8</ele>
      </trkpt>
      <trkpt lat="45.10185" lon="-72.61976">
        <ele>170.1</ele>
      </trkpt>
      <trkpt lat="45.10148" lon="-72.62017">
        <ele>169.5</ele>
      </trkpt>
      <trkpt lat="45.101025" lon="-72.62057">
        <ele>168.8</ele>
      </trkpt>
      <trkpt lat="45.10057" lon="-72.62097">
        <ele>168.6</ele>
      </trkpt>
      <trkpt lat="45.10008" lon="-72.621365">
        <ele>168.1</ele>
      </trkpt>
      <trkpt lat="45.09959" lon="-72.62176">
        <ele>167.2</ele>
      </trkpt>
      <trkpt lat="45.0996" lon="-72.62176">
        <ele>167.2</ele>
      </trkpt>
      <trkpt lat="45.099053" lon="-72.62221">
        <ele>166.7</ele>
      </trkpt>
      <trkpt lat="45.098506" lon="-72.62266">
        <ele>167.3</ele>
      </trkpt>
      <trkpt lat="45.09796" lon="-72.62311">
        <ele>167.9</ele>
      </trkpt>
      <trkpt lat="45.097335" lon="-72.623545">
        <ele>166.6</ele>
      </trkpt>
      <trkpt lat="45.09671" lon="-72.62398">
        <ele>165.1</ele>
      </trkpt>
      <trkpt lat="45.09648" lon="-72.62413">
        <ele>164.8</ele>
      </trkpt>
      <trkpt lat="45.09649" lon="-72.62412">
        <ele>164.8</ele>
      </trkpt>
      <trkpt lat="45.09584" lon="-72.624533">
        <ele>163.9</ele>
      </trkpt>
      <trkpt lat="45.09519" lon="-72.624946">
        <ele>163.2</ele>
      </trkpt>
      <trkpt lat="45.09454" lon="-72.62536">
        <ele>162.9</ele>
      </trkpt>
      <trkpt lat="45.09405" lon="-72.62559">
        <ele>162.9</ele>
      </trkpt>
      <trkpt lat="45.09373" lon="-72.62568">
        <ele>162.4</ele>
      </trkpt>
      <trkpt lat="45.09291" lon="-72.62584">
        <ele>162.5</ele>
      </trkpt>
      <trkpt lat="45.09209" lon="-72.626">
        <ele>162.9</ele>
      </trkpt>
      <trkpt lat="45.091405" lon="-72.626155">
        <ele>162.7</ele>
      </trkpt>
      <trkpt lat="45.09072" lon="-72.62631">
        <ele>162.7</ele>
      </trkpt>
      <trkpt lat="45.09065" lon="-72.62666">
        <ele>162.4</ele>
      </trkpt>
      <trkpt lat="45.09052" lon="-72.62759">
        <ele>161</ele>
      </trkpt>
      <trkpt lat="45.09039" lon="-72.62852">
        <ele>161.8</ele>
      </trkpt>
      <trkpt lat="45.09023" lon="-72.62949">
        <ele>164.3</ele>
      </trkpt>
      <trkpt lat="45.09007" lon="-72.63046">
        <ele>167.2</ele>
      </trkpt>
      <trkpt lat="45.089935" lon="-72.63134">
        <ele>169.3</ele>
      </trkpt>
      <trkpt lat="45.0898" lon="-72.63222">
        <ele>169.5</ele>
      </trkpt>
      <trkpt lat="45.089715" lon="-72.632915">
        <ele>169.7</ele>
      </trkpt>
      <trkpt lat="45.08963" lon="-72.63361">
        <ele>170.8</ele>
      </trkpt>
      <trkpt lat="45.08951" lon="-72.63477">
        <ele>174.8</ele>
      </trkpt>
      <trkpt lat="45.08951" lon="-72.63479">
        <ele>174.8</ele>
      </trkpt>
      <trkpt lat="45.08943" lon="-72.63594">
        <ele>179.5</ele>
      </trkpt>
      <trkpt lat="45.08935" lon="-72.63709">
        <ele>181.4</ele>
      </trkpt>
      <trkpt lat="45.089335" lon="-72.63803">
        <ele>181.6</ele>
      </trkpt>
      <trkpt lat="45.08932" lon="-72.63897">
        <ele>179.5</ele>
      </trkpt>
      <trkpt lat="45.08927" lon="-72.64023">
        <ele>181.2</ele>
      </trkpt>
      <trkpt lat="45.08927" lon="-72.641166">
        <ele>183</ele>
      </trkpt>
      <trkpt lat="45.08927" lon="-72.642103">
        <ele>187.3</ele>
      </trkpt>
      <trkpt lat="45.08927" lon="-72.64304">
        <ele>192.9</ele>
      </trkpt>
      <trkpt lat="45.08927" lon="-72.644179">
        <ele>199.5</ele>
      </trkpt>
      <trkpt lat="45.08927" lon="-72.64532">
        <ele>208.1</ele>
      </trkpt>
      <trkpt lat="45.0893" lon="-72.64568">
        <ele>209.4</ele>
      </trkpt>
      <trkpt lat="45.08942" lon="-72.64635">
        <ele>211</ele>
      </trkpt>
      <trkpt lat="45.089685" lon="-72.647224">
        <ele>207</ele>
      </trkpt>
      <trkpt lat="45.08995" lon="-72.6481">
        <ele>198.6</ele>
      </trkpt>
      <trkpt lat="45.09011" lon="-72.64874">
        <ele>198.5</ele>
      </trkpt>
      <trkpt lat="45.09014" lon="-72.64939">
        <ele>202.4</ele>
      </trkpt>
      <trkpt lat="45.09014" lon="-72.65003">
        <ele>204.7</ele>
      </trkpt>
      <trkpt lat="45.09014" lon="-72.651023">
        <ele>200.5</ele>
      </trkpt>
      <trkpt lat="45.09014" lon="-72.652016">
        <ele>188.8</ele>
      </trkpt>
      <trkpt lat="45.09014" lon="-72.65301">
        <ele>179.5</ele>
      </trkpt>
      <trkpt lat="45.09014" lon="-72.653">
        <ele>179.5</ele>
      </trkpt>
      <trkpt lat="45.09014" lon="-72.653685">
        <ele>172.2</ele>
      </trkpt>
      <trkpt lat="45.09014" lon="-72.65437">
        <ele>166.3</ele>
      </trkpt>
      <trkpt lat="45.09007" lon="-72.655">
        <ele>159.7</ele>
      </trkpt>
      <trkpt lat="45.08992" lon="-72.655785">
        <ele>154.6</ele>
      </trkpt>
      <trkpt lat="45.08977" lon="-72.65657">
        <ele>157.7</ele>
      </trkpt>
      <trkpt lat="45.08969" lon="-72.65716">
        <ele>160.4</ele>
      </trkpt>
      <trkpt lat="45.08958" lon="-72.6576">
        <ele>161.8</ele>
      </trkpt>
      <trkpt lat="45.0889" lon="-72.657419">
        <ele>161.7</ele>
      </trkpt>
      <trkpt lat="45.08822" lon="-72.65724">
        <ele>157.6</ele>
      </trkpt>
      <trkpt lat="45.0875" lon="-72.657094">
        <ele>155.7</ele>
      </trkpt>
      <trkpt lat="45.08678" lon="-72.656949">
        <ele>156.5</ele>
      </trkpt>
      <trkpt lat="45.08606" lon="-72.656804">
        <ele>162.2</ele>
      </trkpt>
      <trkpt lat="45.08534" lon="-72.65666">
        <ele>167</ele>
      </trkpt>
      <trkpt lat="45.08519" lon="-72.65661">
        <ele>166.6</ele>
      </trkpt>
      <trkpt lat="45.08504" lon="-72.65652">
        <ele>166</ele>
      </trkpt>
      <trkpt lat="45.08489" lon="-72.65638">
        <ele>165.7</ele>
      </trkpt>
      <trkpt lat="45.08443" lon="-72.65567">
        <ele>166.9</ele>
      </trkpt>
      <trkpt lat="45.08398" lon="-72.65486">
        <ele>169.2</ele>
      </trkpt>
      <trkpt lat="45.0836" lon="-72.654133">
        <ele>168.3</ele>
      </trkpt>
      <trkpt lat="45.08322" lon="-72.653406">
        <ele>165.4</ele>
      </trkpt>
      <trkpt lat="45.08284" lon="-72.65268">
        <ele>163.2</ele>
      </trkpt>
      <trkpt lat="45.08244" lon="-72.651934">
        <ele>164.7</ele>
      </trkpt>
      <trkpt lat="45.08204" lon="-72.65119">
        <ele>164.9</ele>
      </trkpt>
      <trkpt lat="45.08172" lon="-72.650519">
        <ele>165.5</ele>
      </trkpt>
      <trkpt lat="45.0814" lon="-72.64985">
        <ele>164.4</ele>
      </trkpt>
      <trkpt lat="45.08119" lon="-72.64954">
        <ele>163.8</ele>
      </trkpt>
      <trkpt lat="45.08099" lon="-72.64936">
        <ele>163.6</ele>
      </trkpt>
      <trkpt lat="45.08037" lon="-72.64881">
        <ele>160.6</ele>
      </trkpt>
      <trkpt lat="45.079783" lon="-72.648339">
        <ele>156.3</ele>
      </trkpt>
      <trkpt lat="45.079196" lon="-72.647869">
        <ele>156.2</ele>
      </trkpt>
      <trkpt lat="45.07861" lon="-72.6474">
        <ele>158.8</ele>
      </trkpt>
      <trkpt lat="45.07803" lon="-72.646969">
        <ele>157.3</ele>
      </trkpt>
      <trkpt lat="45.07745" lon="-72.64654">
        <ele>153</ele>
      </trkpt>
      <trkpt lat="45.07692" lon="-72.64622">
        <ele>152.6</ele>
      </trkpt>
      <trkpt lat="45.07651" lon="-72.646">
        <ele>155.1</ele>
      </trkpt>
      <trkpt lat="45.07619" lon="-72.64587">
        <ele>156.5</ele>
      </trkpt>
      <trkpt lat="45.07617" lon="-72.646">
        <ele>156.5</ele>
      </trkpt>
      <trkpt lat="45.07626" lon="-72.64658">
        <ele>156.7</ele>
      </trkpt>
      <trkpt lat="45.07625" lon="-72.6468">
        <ele>157.2</ele>
      </trkpt>
      <trkpt lat="45.07622" lon="-72.64694">
        <ele>157.5</ele>
      </trkpt>
      <trkpt lat="45.07616" lon="-72.64703">
        <ele>157.9</ele>
      </trkpt>
      <trkpt lat="45.07601" lon="-72.6472">
        <ele>159.1</ele>
      </trkpt>
      <trkpt lat="45.07531" lon="-72.647765">
        <ele>164.5</ele>
      </trkpt>
      <trkpt lat="45.07461" lon="-72.64833">
        <ele>173.2</ele>
      </trkpt>
      <trkpt lat="45.07436" lon="-72.64847">
        <ele>173.9</ele>
      </trkpt>
      <trkpt lat="45.07382" lon="-72.64873">
        <ele>180.3</ele>
      </trkpt>
      <trkpt lat="45.07305" lon="-72.64914">
        <ele>184.5</ele>
      </trkpt>
      <trkpt lat="45.07255" lon="-72.649425">
        <ele>186.8</ele>
      </trkpt>
      <trkpt lat="45.07205" lon="-72.64971">
        <ele>190.5</ele>
      </trkpt>
      <trkpt lat="45.07193" lon="-72.6498">
        <ele>191.4</ele>
      </trkpt>
      <trkpt lat="45.07188" lon="-72.64986">
        <ele>191.4</ele>
      </trkpt>
      <trkpt lat="45.0717" lon="-72.65021">
        <ele>192.4</ele>
      </trkpt>
      <trkpt lat="45.07145" lon="-72.65088">
        <ele>192.4</ele>
      </trkpt>
      <trkpt lat="45.0713" lon="-72.65151">
        <ele>190.7</ele>
      </trkpt>
      <trkpt lat="45.07127" lon="-72.65224">
        <ele>189.9</ele>
      </trkpt>
      <trkpt lat="45.07124" lon="-72.65297">
        <ele>190.3</ele>
      </trkpt>
      <trkpt lat="45.0712" lon="-72.654156">
        <ele>191.9</ele>
      </trkpt>
      <trkpt lat="45.07116" lon="-72.655343">
        <ele>199.2</ele>
      </trkpt>
      <trkpt lat="45.07112" lon="-72.65653">
        <ele>204.5</ele>
      </trkpt>
      <trkpt lat="45.07113" lon="-72.657239">
        <ele>206.4</ele>
      </trkpt>
      <trkpt lat="45.07114" lon="-72.65795">
        <ele>209.6</ele>
      </trkpt>
      <trkpt lat="45.07122" lon="-72.65868">
        <ele>209.6</ele>
      </trkpt>
      <trkpt lat="45.071275" lon="-72.659614">
        <ele>211.8</ele>
      </trkpt>
      <trkpt lat="45.07133" lon="-72.66055">
        <ele>214.3</ele>
      </trkpt>
      <trkpt lat="45.0714" lon="-72.66108">
        <ele>215.9</ele>
      </trkpt>
      <trkpt lat="45.07145" lon="-72.66131">
        <ele>216.1</ele>
      </trkpt>
      <trkpt lat="45.07156" lon="-72.66167">
        <ele>216.6</ele>
      </trkpt>
      <trkpt lat="45.07184" lon="-72.662294">
        <ele>219.1</ele>
      </trkpt>
      <trkpt lat="45.07212" lon="-72.66292">
        <ele>225</ele>
      </trkpt>
      <trkpt lat="45.07262" lon="-72.663929">
        <ele>230.5</ele>
      </trkpt>
      <trkpt lat="45.07312" lon="-72.66494">
        <ele>236.6</ele>
      </trkpt>
      <trkpt lat="45.07321" lon="-72.66516">
        <ele>237.2</ele>
      </trkpt>
      <trkpt lat="45.0733" lon="-72.66547">
        <ele>237.7</ele>
      </trkpt>
      <trkpt lat="45.07351" lon="-72.66668">
        <ele>241.7</ele>
      </trkpt>
      <trkpt lat="45.07353" lon="-72.66691">
        <ele>244.1</ele>
      </trkpt>
      <trkpt lat="45.07355" lon="-72.668159">
        <ele>246.9</ele>
      </trkpt>
      <trkpt lat="45.07357" lon="-72.66941">
        <ele>247.5</ele>
      </trkpt>
      <trkpt lat="45.073573" lon="-72.670273">
        <ele>248.8</ele>
      </trkpt>
      <trkpt lat="45.073576" lon="-72.671136">
        <ele>250.1</ele>
      </trkpt>
      <trkpt lat="45.07358" lon="-72.672">
        <ele>251.8</ele>
      </trkpt>
      <trkpt lat="45.073545" lon="-72.67297">
        <ele>251.7</ele>
      </trkpt>
      <trkpt lat="45.07351" lon="-72.67394">
        <ele>251.7</ele>
      </trkpt>
      <trkpt lat="45.0735" lon="-72.67519">
        <ele>249.6</ele>
      </trkpt>
      <trkpt lat="45.0737" lon="-72.676399">
        <ele>241</ele>
      </trkpt>
      <trkpt lat="45.0739" lon="-72.67761">
        <ele>240.3</ele>
      </trkpt>
      <trkpt lat="45.07405" lon="-72.678679">
        <ele>241.6</ele>
      </trkpt>
      <trkpt lat="45.0742" lon="-72.67975">
        <ele>243.5</ele>
      </trkpt>
      <trkpt lat="45.074357" lon="-72.680792">
        <ele>247.7</ele>
      </trkpt>
      <trkpt lat="45.074515" lon="-72.681834">
        <ele>256.1</ele>
      </trkpt>
      <trkpt lat="45.074672" lon="-72.682877">
        <ele>263.3</ele>
      </trkpt>
      <trkpt lat="45.07483" lon="-72.68392">
        <ele>265.6</ele>
      </trkpt>
      <trkpt lat="45.074943" lon="-72.684963">
        <ele>260</ele>
      </trkpt>
      <trkpt lat="45.075056" lon="-72.686006">
        <ele>257.7</ele>
      </trkpt>
      <trkpt lat="45.07517" lon="-72.68705">
        <ele>255.1</ele>
      </trkpt>
      <trkpt lat="45.075285" lon="-72.688014">
        <ele>253.9</ele>
      </trkpt>
      <trkpt lat="45.0754" lon="-72.68898">
        <ele>252.6</ele>
      </trkpt>
      <trkpt lat="45.075504" lon="-72.689991">
        <ele>252.8</ele>
      </trkpt>
      <trkpt lat="45.075608" lon="-72.691003">
        <ele>251.7</ele>
      </trkpt>
      <trkpt lat="45.075712" lon="-72.692015">
        <ele>250.1</ele>
      </trkpt>
      <trkpt lat="45.075816" lon="-72.693027">
        <ele>245.8</ele>
      </trkpt>
      <trkpt lat="45.07592" lon="-72.69404">
        <ele>244.1</ele>
      </trkpt>
      <trkpt lat="45.07593" lon="-72.69449">
        <ele>243.9</ele>
      </trkpt>
      <trkpt lat="45.075078" lon="-72.694498">
        <ele>239.8</ele>
      </trkpt>
      <trkpt lat="45.074227" lon="-72.694507">
        <ele>239.9</ele>
      </trkpt>
      <trkpt lat="45.073376" lon="-72.694516">
        <ele>239</ele>
      </trkpt>
      <trkpt lat="45.072525" lon="-72.694525">
        <ele>238.2</ele>
      </trkpt>
      <trkpt lat="45.071673" lon="-72.694533">
        <ele>238.5</ele>
      </trkpt>
      <trkpt lat="45.070822" lon="-72.694542">
        <ele>239.1</ele>
      </trkpt>
      <trkpt lat="45.069971" lon="-72.694551">
        <ele>240.4</ele>
      </trkpt>
      <trkpt lat="45.06912" lon="-72.69456">
        <ele>243</ele>
      </trkpt>
      <trkpt lat="45.068419" lon="-72.69458">
        <ele>241.2</ele>
      </trkpt>
      <trkpt lat="45.06772" lon="-72.6946">
        <ele>236.2</ele>
      </trkpt>
      <trkpt lat="45.06771" lon="-72.6946">
        <ele>236.1</ele>
      </trkpt>
      <trkpt lat="45.06736" lon="-72.69461">
        <ele>233.4</ele>
      </trkpt>
      <trkpt lat="45.066624" lon="-72.694569">
        <ele>229.7</ele>
      </trkpt>
      <trkpt lat="45.06589" lon="-72.69453">
        <ele>224.7</ele>
      </trkpt>
      <trkpt lat="45.065113" lon="-72.69453">
        <ele>221.6</ele>
      </trkpt>
      <trkpt lat="45.064336" lon="-72.69453">
        <ele>221.3</ele>
      </trkpt>
      <trkpt lat="45.06356" lon="-72.69453">
        <ele>221.7</ele>
      </trkpt>
      <trkpt lat="45.062673" lon="-72.69455">
        <ele>218.2</ele>
      </trkpt>
      <trkpt lat="45.061786" lon="-72.69457">
        <ele>216.6</ele>
      </trkpt>
      <trkpt lat="45.0609" lon="-72.69459">
        <ele>217.9</ele>
      </trkpt>
      <trkpt lat="45.06061" lon="-72.69499">
        <ele>215.2</ele>
      </trkpt>
      <trkpt lat="45.06042" lon="-72.69546">
        <ele>214</ele>
      </trkpt>
      <trkpt lat="45.06035" lon="-72.69575">
        <ele>214</ele>
      </trkpt>
      <trkpt lat="45.06034" lon="-72.6962">
        <ele>214.4</ele>
      </trkpt>
      <trkpt lat="45.06035" lon="-72.69677">
        <ele>215.9</ele>
      </trkpt>
      <trkpt lat="45.0604" lon="-72.69714">
        <ele>217.3</ele>
      </trkpt>
      <trkpt lat="45.06052" lon="-72.69775">
        <ele>222.9</ele>
      </trkpt>
      <trkpt lat="45.06065" lon="-72.69869">
        <ele>228.2</ele>
      </trkpt>
      <trkpt lat="45.06068" lon="-72.69902">
        <ele>230.1</ele>
      </trkpt>
      <trkpt lat="45.06067" lon="-72.69949">
        <ele>234.6</ele>
      </trkpt>
      <trkpt lat="45.06063" lon="-72.6999">
        <ele>237</ele>
      </trkpt>
      <trkpt lat="45.060515" lon="-72.700625">
        <ele>239.8</ele>
      </trkpt>
      <trkpt lat="45.0604" lon="-72.70135">
        <ele>241.7</ele>
      </trkpt>
      <trkpt lat="45.06035" lon="-72.70218">
        <ele>243.5</ele>
      </trkpt>
      <trkpt lat="45.06034" lon="-72.70303">
        <ele>246.4</ele>
      </trkpt>
      <trkpt lat="45.06037" lon="-72.7038">
        <ele>248.4</ele>
      </trkpt>
      <trkpt lat="45.06037" lon="-72.70483">
        <ele>253.4</ele>
      </trkpt>
      <trkpt lat="45.06041" lon="-72.70532">
        <ele>254.6</ele>
      </trkpt>
      <trkpt lat="45.06044" lon="-72.70634">
        <ele>256.1</ele>
      </trkpt>
      <trkpt lat="45.06043" lon="-72.70724">
        <ele>257.5</ele>
      </trkpt>
      <trkpt lat="45.06043" lon="-72.70725">
        <ele>257.5</ele>
      </trkpt>
      <trkpt lat="45.06043" lon="-72.708505">
        <ele>257.7</ele>
      </trkpt>
      <trkpt lat="45.06043" lon="-72.70976">
        <ele>261.4</ele>
      </trkpt>
      <trkpt lat="45.060416" lon="-72.71076">
        <ele>265.1</ele>
      </trkpt>
      <trkpt lat="45.060403" lon="-72.71176">
        <ele>269.5</ele>
      </trkpt>
      <trkpt lat="45.06039" lon="-72.71276">
        <ele>270.9</ele>
      </trkpt>
      <trkpt lat="45.059515" lon="-72.712747">
        <ele>274.5</ele>
      </trkpt>
      <trkpt lat="45.05864" lon="-72.712734">
        <ele>281.3</ele>
      </trkpt>
      <trkpt lat="45.057765" lon="-72.712722">
        <ele>287.9</ele>
      </trkpt>
      <trkpt lat="45.05689" lon="-72.71271">
        <ele>297.6</ele>
      </trkpt>
      <trkpt lat="45.05617" lon="-72.71275">
        <ele>302</ele>
      </trkpt>
      <trkpt lat="45.05569" lon="-72.71271">
        <ele>304.4</ele>
      </trkpt>
      <trkpt lat="45.05512" lon="-72.71262">
        <ele>309.5</ele>
      </trkpt>
      <trkpt lat="45.05477" lon="-72.71262">
        <ele>311.9</ele>
      </trkpt>
      <trkpt lat="45.05419" lon="-72.71271">
        <ele>312.8</ele>
      </trkpt>
      <trkpt lat="45.05338" lon="-72.71275">
        <ele>314</ele>
      </trkpt>
      <trkpt lat="45.05258" lon="-72.71282">
        <ele>314.8</ele>
      </trkpt>
      <trkpt lat="45.05257" lon="-72.71282">
        <ele>314.8</ele>
      </trkpt>
      <trkpt lat="45.05176" lon="-72.71289">
        <ele>315.7</ele>
      </trkpt>
      <trkpt lat="45.050919" lon="-72.71293">
        <ele>312.5</ele>
      </trkpt>
      <trkpt lat="45.05008" lon="-72.71297">
        <ele>307.6</ele>
      </trkpt>
      <trkpt lat="45.049183" lon="-72.712986">
        <ele>305</ele>
      </trkpt>
      <trkpt lat="45.048286" lon="-72.713003">
        <ele>303.2</ele>
      </trkpt>
      <trkpt lat="45.04739" lon="-72.71302">
        <ele>300</ele>
      </trkpt>
      <trkpt lat="45.046895" lon="-72.71302">
        <ele>295.9</ele>
      </trkpt>
      <trkpt lat="45.0464" lon="-72.71302">
        <ele>292.7</ele>
      </trkpt>
      <trkpt lat="45.045625" lon="-72.71306">
        <ele>287.5</ele>
      </trkpt>
      <trkpt lat="45.04485" lon="-72.7131">
        <ele>277.9</ele>
      </trkpt>
      <trkpt lat="45.04436" lon="-72.71316">
        <ele>271.2</ele>
      </trkpt>
      <trkpt lat="45.043519" lon="-72.71318">
        <ele>266.6</ele>
      </trkpt>
      <trkpt lat="45.04268" lon="-72.7132">
        <ele>271.1</ele>
      </trkpt>
      <trkpt lat="45.042194" lon="-72.7132">
        <ele>275.1</ele>
      </trkpt>
      <trkpt lat="45.04171" lon="-72.7132">
        <ele>278.5</ele>
      </trkpt>
      <trkpt lat="45.04117" lon="-72.713179">
        <ele>281.1</ele>
      </trkpt>
      <trkpt lat="45.04063" lon="-72.71316">
        <ele>283</ele>
      </trkpt>
      <trkpt lat="45.039943" lon="-72.713159">
        <ele>283.3</ele>
      </trkpt>
      <trkpt lat="45.039256" lon="-72.713159">
        <ele>283.8</ele>
      </trkpt>
      <trkpt lat="45.03857" lon="-72.71316">
        <ele>283.7</ele>
      </trkpt>
      <trkpt lat="45.03776" lon="-72.713144">
        <ele>284.6</ele>
      </trkpt>
      <trkpt lat="45.03695" lon="-72.713129">
        <ele>286.7</ele>
      </trkpt>
      <trkpt lat="45.03614" lon="-72.713114">
        <ele>285.6</ele>
      </trkpt>
      <trkpt lat="45.03533" lon="-72.713099">
        <ele>282.7</ele>
      </trkpt>
      <trkpt lat="45.03452" lon="-72.713084">
        <ele>278.6</ele>
      </trkpt>
      <trkpt lat="45.03371" lon="-72.71307">
        <ele>274</ele>
      </trkpt>
      <trkpt lat="45.03304" lon="-72.71302">
        <ele>271.3</ele>
      </trkpt>
      <trkpt lat="45.03278" lon="-72.71294">
        <ele>271.3</ele>
      </trkpt>
      <trkpt lat="45.03246" lon="-72.71281">
        <ele>271.5</ele>
      </trkpt>
      <trkpt lat="45.03189" lon="-72.71253">
        <ele>272.6</ele>
      </trkpt>
      <trkpt lat="45.03156" lon="-72.71244">
        <ele>272.7</ele>
      </trkpt>
      <trkpt lat="45.03139" lon="-72.71243">
        <ele>273.2</ele>
      </trkpt>
      <trkpt lat="45.03089" lon="-72.71244">
        <ele>274.2</ele>
      </trkpt>
      <trkpt lat="45.03003" lon="-72.71255">
        <ele>274.6</ele>
      </trkpt>
      <trkpt lat="45.02917" lon="-72.71266">
        <ele>272.5</ele>
      </trkpt>
      <trkpt lat="45.02841" lon="-72.7128">
        <ele>272.4</ele>
      </trkpt>
      <trkpt lat="45.027754" lon="-72.712865">
        <ele>272.3</ele>
      </trkpt>
      <trkpt lat="45.0271" lon="-72.71293">
        <ele>272.7</ele>
      </trkpt>
      <trkpt lat="45.026505" lon="-72.71293">
        <ele>273</ele>
      </trkpt>
      <trkpt lat="45.02591" lon="-72.71293">
        <ele>274</ele>
      </trkpt>
      <trkpt lat="45.02507" lon="-72.71284">
        <ele>272.9</ele>
      </trkpt>
      <trkpt lat="45.024215" lon="-72.712774">
        <ele>270.3</ele>
      </trkpt>
      <trkpt lat="45.02336" lon="-72.71271">
        <ele>267.4</ele>
      </trkpt>
      <trkpt lat="45.02273" lon="-72.71268">
        <ele>264.9</ele>
      </trkpt>
      <trkpt lat="45.021994" lon="-72.712649">
        <ele>262</ele>
      </trkpt>
      <trkpt lat="45.02126" lon="-72.71262">
        <ele>259.9</ele>
      </trkpt>
      <trkpt lat="45.02056" lon="-72.71262">
        <ele>255.7</ele>
      </trkpt>
      <trkpt lat="45.01974" lon="-72.71265">
        <ele>253</ele>
      </trkpt>
      <trkpt lat="45.01961" lon="-72.71158">
        <ele>252</ele>
      </trkpt>
      <trkpt lat="45.01946" lon="-72.7106">
        <ele>251.4</ele>
      </trkpt>
      <trkpt lat="45.01928" lon="-72.70985">
        <ele>251</ele>
      </trkpt>
      <trkpt lat="45.01913" lon="-72.70934">
        <ele>250.7</ele>
      </trkpt>
      <trkpt lat="45.018905" lon="-72.708639">
        <ele>250.5</ele>
      </trkpt>
      <trkpt lat="45.01868" lon="-72.70794">
        <ele>249.9</ele>
      </trkpt>
      <trkpt lat="45.018336" lon="-72.706843">
        <ele>248.3</ele>
      </trkpt>
      <trkpt lat="45.017993" lon="-72.705746">
        <ele>246.7</ele>
      </trkpt>
      <trkpt lat="45.01765" lon="-72.70465">
        <ele>245.2</ele>
      </trkpt>
      <trkpt lat="45.01744" lon="-72.70384">
        <ele>242.9</ele>
      </trkpt>
      <trkpt lat="45.0173" lon="-72.703034">
        <ele>238.3</ele>
      </trkpt>
      <trkpt lat="45.01716" lon="-72.70223">
        <ele>237.5</ele>
      </trkpt>
      <trkpt lat="45.01696" lon="-72.7017">
        <ele>233.2</ele>
      </trkpt>
      <trkpt lat="45.01675" lon="-72.70125">
        <ele>229.8</ele>
      </trkpt>
      <trkpt lat="45.01646" lon="-72.70084">
        <ele>228.4</ele>
      </trkpt>
      <trkpt lat="45.01614" lon="-72.7005">
        <ele>225.4</ele>
      </trkpt>
      <trkpt lat="45.0161" lon="-72.70038">
        <ele>224.7</ele>
      </trkpt>
      <trkpt lat="45.01616" lon="-72.7">
        <ele>221.4</ele>
      </trkpt>
      <trkpt lat="45.01613" lon="-72.69985">
        <ele>219.4</ele>
      </trkpt>
      <trkpt lat="45.01574" lon="-72.69902">
        <ele>209</ele>
      </trkpt>
      <trkpt lat="45.01565" lon="-72.69866">
        <ele>203.2</ele>
      </trkpt>
      <trkpt lat="45.015642" lon="-72.697599">
        <ele>197.4</ele>
      </trkpt>
      <trkpt lat="45.015635" lon="-72.696539">
        <ele>203.9</ele>
      </trkpt>
      <trkpt lat="45.015627" lon="-72.695479">
        <ele>215.8</ele>
      </trkpt>
      <trkpt lat="45.01562" lon="-72.69442">
        <ele>219.8</ele>
      </trkpt>
      <trkpt lat="45.015595" lon="-72.693199">
        <ele>211.2</ele>
      </trkpt>
      <trkpt lat="45.01557" lon="-72.69198">
        <ele>197.1</ele>
      </trkpt>
      <trkpt lat="45.01559" lon="-72.69168">
        <ele>194.1</ele>
      </trkpt>
      <trkpt lat="45.0157" lon="-72.69135">
        <ele>190.7</ele>
      </trkpt>
      <trkpt lat="45.01607" lon="-72.69038">
        <ele>184.5</ele>
      </trkpt>
      <trkpt lat="45.01644" lon="-72.68941">
        <ele>181</ele>
      </trkpt>
      <trkpt lat="45.01681" lon="-72.68844">
        <ele>179.2</ele>
      </trkpt>
      <trkpt lat="45.01715" lon="-72.687512">
        <ele>180.7</ele>
      </trkpt>
      <trkpt lat="45.01749" lon="-72.686585">
        <ele>181.1</ele>
      </trkpt>
      <trkpt lat="45.01783" lon="-72.685657">
        <ele>181</ele>
      </trkpt>
      <trkpt lat="45.01817" lon="-72.68473">
        <ele>180.2</ele>
      </trkpt>
      <trkpt lat="45.01822" lon="-72.6845">
        <ele>179.4</ele>
      </trkpt>
      <trkpt lat="45.01825" lon="-72.68427">
        <ele>179</ele>
      </trkpt>
      <trkpt lat="45.01832" lon="-72.683515">
        <ele>177.7</ele>
      </trkpt>
      <trkpt lat="45.01839" lon="-72.68276">
        <ele>177.3</ele>
      </trkpt>
      <trkpt lat="45.018485" lon="-72.68158">
        <ele>174.7</ele>
      </trkpt>
      <trkpt lat="45.01858" lon="-72.6804">
        <ele>166.9</ele>
      </trkpt>
      <trkpt lat="45.018676" lon="-72.67953">
        <ele>163</ele>
      </trkpt>
      <trkpt lat="45.018773" lon="-72.67866">
        <ele>159.9</ele>
      </trkpt>
      <trkpt lat="45.01887" lon="-72.67779">
        <ele>155.3</ele>
      </trkpt>
      <trkpt lat="45.01902" lon="-72.6772">
        <ele>151.3</ele>
      </trkpt>
      <trkpt lat="45.019315" lon="-72.676555">
        <ele>149.2</ele>
      </trkpt>
      <trkpt lat="45.01961" lon="-72.67591">
        <ele>149.6</ele>
      </trkpt>
      <trkpt lat="45.01977" lon="-72.67563">
        <ele>148.8</ele>
      </trkpt>
      <trkpt lat="45.02022" lon="-72.67501">
        <ele>144.3</ele>
      </trkpt>
      <trkpt lat="45.02071" lon="-72.67439">
        <ele>143.7</ele>
      </trkpt>
      <trkpt lat="45.021065" lon="-72.673915">
        <ele>146.6</ele>
      </trkpt>
      <trkpt lat="45.02142" lon="-72.67344">
        <ele>151.4</ele>
      </trkpt>
      <trkpt lat="45.021805" lon="-72.67295">
        <ele>154</ele>
      </trkpt>
      <trkpt lat="45.02219" lon="-72.67246">
        <ele>154.6</ele>
      </trkpt>
      <trkpt lat="45.02248" lon="-72.67206">
        <ele>153.6</ele>
      </trkpt>
      <trkpt lat="45.02248" lon="-72.67207">
        <ele>153.6</ele>
      </trkpt>
      <trkpt lat="45.02298" lon="-72.67138">
        <ele>151.2</ele>
      </trkpt>
      <trkpt lat="45.0234" lon="-72.670845">
        <ele>149.4</ele>
      </trkpt>
      <trkpt lat="45.02382" lon="-72.67031">
        <ele>148.2</ele>
      </trkpt>
      <trkpt lat="45.0239" lon="-72.67026">
        <ele>147.9</ele>
      </trkpt>
      <trkpt lat="45.02405" lon="-72.67022">
        <ele>147.6</ele>
      </trkpt>
      <trkpt lat="45.02431" lon="-72.67022">
        <ele>146.3</ele>
      </trkpt>
      <trkpt lat="45.02512" lon="-72.67053">
        <ele>139.5</ele>
      </trkpt>
      <trkpt lat="45.02534" lon="-72.67049">
        <ele>138.5</ele>
      </trkpt>
      <trkpt lat="45.02548" lon="-72.67044">
        <ele>137.7</ele>
      </trkpt>
      <trkpt lat="45.02573" lon="-72.67026">
        <ele>136.8</ele>
      </trkpt>
      <trkpt lat="45.02632" lon="-72.6697">
        <ele>139.2</ele>
      </trkpt>
      <trkpt lat="45.026865" lon="-72.66909">
        <ele>142.8</ele>
      </trkpt>
      <trkpt lat="45.02741" lon="-72.66848">
        <ele>142.5</ele>
      </trkpt>
      <trkpt lat="45.02802" lon="-72.66801">
        <ele>138.7</ele>
      </trkpt>
      <trkpt lat="45.02863" lon="-72.66754">
        <ele>136.3</ele>
      </trkpt>
      <trkpt lat="45.02914" lon="-72.66722">
        <ele>136.4</ele>
      </trkpt>
      <trkpt lat="45.02934" lon="-72.66713">
        <ele>136.9</ele>
      </trkpt>
      <trkpt lat="45.02947" lon="-72.66704">
        <ele>136.9</ele>
      </trkpt>
      <trkpt lat="45.03001" lon="-72.66629">
        <ele>136</ele>
      </trkpt>
      <trkpt lat="45.03023" lon="-72.6661">
        <ele>136.4</ele>
      </trkpt>
      <trkpt lat="45.03079" lon="-72.66574">
        <ele>136.7</ele>
      </trkpt>
      <trkpt lat="45.03128" lon="-72.66534">
        <ele>136.7</ele>
      </trkpt>
      <trkpt lat="45.03177" lon="-72.66494">
        <ele>136.8</ele>
      </trkpt>
      <trkpt lat="45.03223" lon="-72.6645">
        <ele>137.8</ele>
      </trkpt>
      <trkpt lat="45.03242" lon="-72.66426">
        <ele>138.3</ele>
      </trkpt>
      <trkpt lat="45.03268" lon="-72.66382">
        <ele>138.6</ele>
      </trkpt>
      <trkpt lat="45.0328" lon="-72.6635">
        <ele>139.1</ele>
      </trkpt>
      <trkpt lat="45.0328" lon="-72.66318">
        <ele>140.2</ele>
      </trkpt>
      <trkpt lat="45.03351" lon="-72.662792">
        <ele>141.9</ele>
      </trkpt>
      <trkpt lat="45.03422" lon="-72.662405">
        <ele>145.3</ele>
      </trkpt>
      <trkpt lat="45.03493" lon="-72.662017">
        <ele>149.4</ele>
      </trkpt>
      <trkpt lat="45.03564" lon="-72.66163">
        <ele>152.5</ele>
      </trkpt>
      <trkpt lat="45.03594" lon="-72.66144">
        <ele>153.4</ele>
      </trkpt>
      <trkpt lat="45.03641" lon="-72.66108">
        <ele>154.1</ele>
      </trkpt>
      <trkpt lat="45.03683" lon="-72.66205">
        <ele>154.8</ele>
      </trkpt>
      <trkpt lat="45.037075" lon="-72.662664">
        <ele>157</ele>
      </trkpt>
      <trkpt lat="45.03732" lon="-72.66328">
        <ele>157.7</ele>
      </trkpt>
      <trkpt lat="45.037685" lon="-72.664199">
        <ele>159.3</ele>
      </trkpt>
      <trkpt lat="45.03805" lon="-72.66512">
        <ele>156.2</ele>
      </trkpt>
      <trkpt lat="45.03837" lon="-72.666059">
        <ele>155.3</ele>
      </trkpt>
      <trkpt lat="45.03869" lon="-72.667">
        <ele>160.8</ele>
      </trkpt>
      <trkpt lat="45.03913" lon="-72.66705">
        <ele>160.8</ele>
      </trkpt>
      <trkpt lat="45.03992" lon="-72.667249">
        <ele>161.4</ele>
      </trkpt>
      <trkpt lat="45.04071" lon="-72.66745">
        <ele>165.2</ele>
      </trkpt>
      <trkpt lat="45.0415" lon="-72.66789">
        <ele>166.4</ele>
      </trkpt>
      <trkpt lat="45.04193" lon="-72.66829">
        <ele>170.1</ele>
      </trkpt>
      <trkpt lat="45.04217" lon="-72.66856">
        <ele>171.4</ele>
      </trkpt>
      <trkpt lat="45.04236" lon="-72.66883">
        <ele>172.7</ele>
      </trkpt>
      <trkpt lat="45.042695" lon="-72.669409">
        <ele>174.5</ele>
      </trkpt>
      <trkpt lat="45.04303" lon="-72.66999">
        <ele>175.8</ele>
      </trkpt>
      <trkpt lat="45.043534" lon="-72.670875">
        <ele>177.9</ele>
      </trkpt>
      <trkpt lat="45.044038" lon="-72.671761">
        <ele>181.9</ele>
      </trkpt>
      <trkpt lat="45.044542" lon="-72.672647">
        <ele>183.8</ele>
      </trkpt>
      <trkpt lat="45.045046" lon="-72.673533">
        <ele>188.8</ele>
      </trkpt>
      <trkpt lat="45.04555" lon="-72.67442">
        <ele>194</ele>
      </trkpt>
      <trkpt lat="45.046096" lon="-72.675389">
        <ele>199.9</ele>
      </trkpt>
      <trkpt lat="45.046643" lon="-72.676359">
        <ele>206.3</ele>
      </trkpt>
      <trkpt lat="45.04719" lon="-72.67733">
        <ele>210.1</ele>
      </trkpt>
      <trkpt lat="45.04744" lon="-72.67761">
        <ele>210.9</ele>
      </trkpt>
      <trkpt lat="45.0476" lon="-72.6777">
        <ele>211.1</ele>
      </trkpt>
      <trkpt lat="45.04781" lon="-72.67782">
        <ele>210.9</ele>
      </trkpt>
      <trkpt lat="45.04848" lon="-72.67798">
        <ele>209.6</ele>
      </trkpt>
      <trkpt lat="45.04862" lon="-72.67805">
        <ele>209.4</ele>
      </trkpt>
      <trkpt lat="45.04869" lon="-72.67811">
        <ele>209.3</ele>
      </trkpt>
      <trkpt lat="45.0488" lon="-72.67829">
        <ele>209.3</ele>
      </trkpt>
      <trkpt lat="45.04909" lon="-72.67896">
        <ele>210.4</ele>
      </trkpt>
      <trkpt lat="45.04934" lon="-72.679769">
        <ele>214.6</ele>
      </trkpt>
      <trkpt lat="45.04959" lon="-72.68058">
        <ele>219</ele>
      </trkpt>
      <trkpt lat="45.049895" lon="-72.681629">
        <ele>225.1</ele>
      </trkpt>
      <trkpt lat="45.0502" lon="-72.68268">
        <ele>227.9</ele>
      </trkpt>
      <trkpt lat="45.050423" lon="-72.683616">
        <ele>230.9</ele>
      </trkpt>
      <trkpt lat="45.050646" lon="-72.684553">
        <ele>233.8</ele>
      </trkpt>
      <trkpt lat="45.05087" lon="-72.68549">
        <ele>238</ele>
      </trkpt>
      <trkpt lat="45.05097" lon="-72.68617">
        <ele>240.4</ele>
      </trkpt>
      <trkpt lat="45.051043" lon="-72.687079">
        <ele>242.5</ele>
      </trkpt>
      <trkpt lat="45.051116" lon="-72.687989">
        <ele>243.7</ele>
      </trkpt>
      <trkpt lat="45.05119" lon="-72.6889">
        <ele>245.6</ele>
      </trkpt>
      <trkpt lat="45.05125" lon="-72.68933">
        <ele>246.1</ele>
      </trkpt>
      <trkpt lat="45.05134" lon="-72.68966">
        <ele>246.3</ele>
      </trkpt>
      <trkpt lat="45.05139" lon="-72.68978">
        <ele>246.3</ele>
      </trkpt>
      <trkpt lat="45.0516" lon="-72.69009">
        <ele>245.9</ele>
      </trkpt>
      <trkpt lat="45.05216" lon="-72.69064">
        <ele>245.4</ele>
      </trkpt>
      <trkpt lat="45.052766" lon="-72.691173">
        <ele>244.8</ele>
      </trkpt>
      <trkpt lat="45.053373" lon="-72.691706">
        <ele>245.3</ele>
      </trkpt>
      <trkpt lat="45.05398" lon="-72.69224">
        <ele>245.4</ele>
      </trkpt>
      <trkpt lat="45.05457" lon="-72.692793">
        <ele>244.6</ele>
      </trkpt>
      <trkpt lat="45.05516" lon="-72.693346">
        <ele>242.4</ele>
      </trkpt>
      <trkpt lat="45.05575" lon="-72.6939">
        <ele>239.8</ele>
      </trkpt>
      <trkpt lat="45.05591" lon="-72.69412">
        <ele>239.5</ele>
      </trkpt>
      <trkpt lat="45.05601" lon="-72.69431">
        <ele>240</ele>
      </trkpt>
      <trkpt lat="45.05604" lon="-72.69444">
        <ele>240.3</ele>
      </trkpt>
      <trkpt lat="45.05622" lon="-72.695554">
        <ele>242.7</ele>
      </trkpt>
      <trkpt lat="45.0564" lon="-72.69667">
        <ele>244.3</ele>
      </trkpt>
      <trkpt lat="45.05656" lon="-72.69727">
        <ele>245</ele>
      </trkpt>
      <trkpt lat="45.05686" lon="-72.69793">
        <ele>244.9</ele>
      </trkpt>
      <trkpt lat="45.05699" lon="-72.69816">
        <ele>244.2</ele>
      </trkpt>
      <trkpt lat="45.05716" lon="-72.69838">
        <ele>242.8</ele>
      </trkpt>
      <trkpt lat="45.05734" lon="-72.69852">
        <ele>242.2</ele>
      </trkpt>
      <trkpt lat="45.057955" lon="-72.698899">
        <ele>241.5</ele>
      </trkpt>
      <trkpt lat="45.05857" lon="-72.69928">
        <ele>242.5</ele>
      </trkpt>
      <trkpt lat="45.05929" lon="-72.69995">
        <ele>244.7</ele>
      </trkpt>
      <trkpt lat="45.05975" lon="-72.70031">
        <ele>243.9</ele>
      </trkpt>
      <trkpt lat="45.05993" lon="-72.70053">
        <ele>243</ele>
      </trkpt>
      <trkpt lat="45.06011" lon="-72.7008">
        <ele>242.6</ele>
      </trkpt>
      <trkpt lat="45.0604" lon="-72.70135">
        <ele>241.7</ele>
      </trkpt>
      <trkpt lat="45.06035" lon="-72.70218">
        <ele>243.5</ele>
      </trkpt>
      <trkpt lat="45.06034" lon="-72.70303">
        <ele>246.4</ele>
      </trkpt>
      <trkpt lat="45.06037" lon="-72.7038">
        <ele>249.5</ele>
      </trkpt>
      <trkpt lat="45.06037" lon="-72.70483">
        <ele>253.7</ele>
      </trkpt>
      <trkpt lat="45.06041" lon="-72.70532">
        <ele>254.6</ele>
      </trkpt>
      <trkpt lat="45.06044" lon="-72.70634">
        <ele>256.8</ele>
      </trkpt>
      <trkpt lat="45.060436" lon="-72.70748">
        <ele>257.5</ele>
      </trkpt>
      <trkpt lat="45.060433" lon="-72.70862">
        <ele>258.1</ele>
      </trkpt>
      <trkpt lat="45.06043" lon="-72.70976">
        <ele>261.4</ele>
      </trkpt>
      <trkpt lat="45.060416" lon="-72.71076">
        <ele>265.1</ele>
      </trkpt>
      <trkpt lat="45.060403" lon="-72.71176">
        <ele>269.7</ele>
      </trkpt>
      <trkpt lat="45.06039" lon="-72.71276">
        <ele>270.9</ele>
      </trkpt>
      <trkpt lat="45.0604" lon="-72.713773">
        <ele>273.2</ele>
      </trkpt>
      <trkpt lat="45.06041" lon="-72.714786">
        <ele>276.6</ele>
      </trkpt>
      <trkpt lat="45.06042" lon="-72.7158">
        <ele>280.6</ele>
      </trkpt>
      <trkpt lat="45.06045" lon="-72.71687">
        <ele>286.5</ele>
      </trkpt>
      <trkpt lat="45.06049" lon="-72.71749">
        <ele>288.9</ele>
      </trkpt>
      <trkpt lat="45.06054" lon="-72.7179">
        <ele>290.6</ele>
      </trkpt>
      <trkpt lat="45.06063" lon="-72.71831">
        <ele>291.3</ele>
      </trkpt>
      <trkpt lat="45.06079" lon="-72.7188">
        <ele>293.2</ele>
      </trkpt>
      <trkpt lat="45.061153" lon="-72.719723">
        <ele>296.1</ele>
      </trkpt>
      <trkpt lat="45.061516" lon="-72.720646">
        <ele>301.3</ele>
      </trkpt>
      <trkpt lat="45.06188" lon="-72.72157">
        <ele>309.1</ele>
      </trkpt>
      <trkpt lat="45.0621" lon="-72.72237">
        <ele>315.6</ele>
      </trkpt>
      <trkpt lat="45.06238" lon="-72.72348">
        <ele>321.8</ele>
      </trkpt>
      <trkpt lat="45.0626" lon="-72.72445">
        <ele>330.3</ele>
      </trkpt>
      <trkpt lat="45.06272" lon="-72.72526">
        <ele>333.9</ele>
      </trkpt>
      <trkpt lat="45.06283" lon="-72.72614">
        <ele>332.8</ele>
      </trkpt>
      <trkpt lat="45.062915" lon="-72.727189">
        <ele>330.9</ele>
      </trkpt>
      <trkpt lat="45.063" lon="-72.72824">
        <ele>328</ele>
      </trkpt>
      <trkpt lat="45.063096" lon="-72.729239">
        <ele>322.6</ele>
      </trkpt>
      <trkpt lat="45.063193" lon="-72.730239">
        <ele>313.1</ele>
      </trkpt>
      <trkpt lat="45.06329" lon="-72.73124">
        <ele>306.6</ele>
      </trkpt>
      <trkpt lat="45.06345" lon="-72.732489">
        <ele>298.1</ele>
      </trkpt>
      <trkpt lat="45.06361" lon="-72.73374">
        <ele>287.5</ele>
      </trkpt>
      <trkpt lat="45.06373" lon="-72.73446">
        <ele>284.3</ele>
      </trkpt>
      <trkpt lat="45.0639" lon="-72.73515">
        <ele>284.7</ele>
      </trkpt>
      <trkpt lat="45.06394" lon="-72.73591">
        <ele>288.6</ele>
      </trkpt>
      <trkpt lat="45.06386" lon="-72.7363">
        <ele>291.8</ele>
      </trkpt>
      <trkpt lat="45.0638" lon="-72.73648">
        <ele>292.5</ele>
      </trkpt>
      <trkpt lat="45.06354" lon="-72.73697">
        <ele>295.2</ele>
      </trkpt>
      <trkpt lat="45.06306" lon="-72.737735">
        <ele>298.1</ele>
      </trkpt>
      <trkpt lat="45.06258" lon="-72.7385">
        <ele>303.2</ele>
      </trkpt>
      <trkpt lat="45.061995" lon="-72.739395">
        <ele>308.5</ele>
      </trkpt>
      <trkpt lat="45.06141" lon="-72.74029">
        <ele>315.3</ele>
      </trkpt>
      <trkpt lat="45.0611" lon="-72.741075">
        <ele>321.2</ele>
      </trkpt>
      <trkpt lat="45.06079" lon="-72.74186">
        <ele>327.8</ele>
      </trkpt>
      <trkpt lat="45.060486" lon="-72.7428">
        <ele>331.6</ele>
      </trkpt>
      <trkpt lat="45.060182" lon="-72.74374">
        <ele>334.6</ele>
      </trkpt>
      <trkpt lat="45.059878" lon="-72.74468">
        <ele>340.3</ele>
      </trkpt>
      <trkpt lat="45.059574" lon="-72.74562">
        <ele>346.5</ele>
      </trkpt>
      <trkpt lat="45.05927" lon="-72.74656">
        <ele>351.1</ele>
      </trkpt>
      <trkpt lat="45.05897" lon="-72.74735">
        <ele>354.8</ele>
      </trkpt>
      <trkpt lat="45.05867" lon="-72.74814">
        <ele>359.4</ele>
      </trkpt>
      <trkpt lat="45.05846" lon="-72.74872">
        <ele>361.4</ele>
      </trkpt>
      <trkpt lat="45.05836" lon="-72.74907">
        <ele>363.5</ele>
      </trkpt>
      <trkpt lat="45.05831" lon="-72.74946">
        <ele>365.3</ele>
      </trkpt>
      <trkpt lat="45.05831" lon="-72.74987">
        <ele>368.1</ele>
      </trkpt>
      <trkpt lat="45.05833" lon="-72.75027">
        <ele>370.1</ele>
      </trkpt>
      <trkpt lat="45.05841" lon="-72.7509">
        <ele>372.1</ele>
      </trkpt>
      <trkpt lat="45.05852" lon="-72.75138">
        <ele>371.8</ele>
      </trkpt>
      <trkpt lat="45.05862" lon="-72.75175">
        <ele>370.8</ele>
      </trkpt>
      <trkpt lat="45.05878" lon="-72.7521">
        <ele>369.9</ele>
      </trkpt>
      <trkpt lat="45.0592" lon="-72.75313">
        <ele>364.3</ele>
      </trkpt>
      <trkpt lat="45.05937" lon="-72.75362">
        <ele>360.5</ele>
      </trkpt>
      <trkpt lat="45.059626" lon="-72.754649">
        <ele>354.5</ele>
      </trkpt>
      <trkpt lat="45.059883" lon="-72.755679">
        <ele>344.6</ele>
      </trkpt>
      <trkpt lat="45.06014" lon="-72.75671">
        <ele>337.4</ele>
      </trkpt>
      <trkpt lat="45.060415" lon="-72.757634">
        <ele>333.4</ele>
      </trkpt>
      <trkpt lat="45.06069" lon="-72.75856">
        <ele>325.4</ele>
      </trkpt>
      <trkpt lat="45.06083" lon="-72.75914">
        <ele>323.2</ele>
      </trkpt>
      <trkpt lat="45.06091" lon="-72.75975">
        <ele>318.8</ele>
      </trkpt>
      <trkpt lat="45.06096" lon="-72.76052">
        <ele>315</ele>
      </trkpt>
      <trkpt lat="45.060986" lon="-72.761672">
        <ele>310.4</ele>
      </trkpt>
      <trkpt lat="45.061012" lon="-72.762824">
        <ele>310</ele>
      </trkpt>
      <trkpt lat="45.061038" lon="-72.763977">
        <ele>309.5</ele>
      </trkpt>
      <trkpt lat="45.061065" lon="-72.765129">
        <ele>304.1</ele>
      </trkpt>
      <trkpt lat="45.061091" lon="-72.766282">
        <ele>294.5</ele>
      </trkpt>
      <trkpt lat="45.061117" lon="-72.767434">
        <ele>282.6</ele>
      </trkpt>
      <trkpt lat="45.061143" lon="-72.768587">
        <ele>272.2</ele>
      </trkpt>
      <trkpt lat="45.06117" lon="-72.76974">
        <ele>267.3</ele>
      </trkpt>
      <trkpt lat="45.061168" lon="-72.77078">
        <ele>266.7</ele>
      </trkpt>
      <trkpt lat="45.061166" lon="-72.77182">
        <ele>264.9</ele>
      </trkpt>
      <trkpt lat="45.061164" lon="-72.77286">
        <ele>262.9</ele>
      </trkpt>
      <trkpt lat="45.061162" lon="-72.7739">
        <ele>259.4</ele>
      </trkpt>
      <trkpt lat="45.06116" lon="-72.77494">
        <ele>255.2</ele>
      </trkpt>
      <trkpt lat="45.06113" lon="-72.775907">
        <ele>252.5</ele>
      </trkpt>
      <trkpt lat="45.0611" lon="-72.776875">
        <ele>248.9</ele>
      </trkpt>
      <trkpt lat="45.06107" lon="-72.777842">
        <ele>244.2</ele>
      </trkpt>
      <trkpt lat="45.06104" lon="-72.77881">
        <ele>241.8</ele>
      </trkpt>
      <trkpt lat="45.06104" lon="-72.77882">
        <ele>241.8</ele>
      </trkpt>
      <trkpt lat="45.060987" lon="-72.77992">
        <ele>238.7</ele>
      </trkpt>
      <trkpt lat="45.060935" lon="-72.78102">
        <ele>235.3</ele>
      </trkpt>
      <trkpt lat="45.060882" lon="-72.78212">
        <ele>233.2</ele>
      </trkpt>
      <trkpt lat="45.06083" lon="-72.78322">
        <ele>231.1</ele>
      </trkpt>
      <trkpt lat="45.06079" lon="-72.784278">
        <ele>227.9</ele>
      </trkpt>
      <trkpt lat="45.06075" lon="-72.785336">
        <ele>225.2</ele>
      </trkpt>
      <trkpt lat="45.06071" lon="-72.786394">
        <ele>222.8</ele>
      </trkpt>
      <trkpt lat="45.06067" lon="-72.787452">
        <ele>219.1</ele>
      </trkpt>
      <trkpt lat="45.06063" lon="-72.78851">
        <ele>216.6</ele>
      </trkpt>
      <trkpt lat="45.060598" lon="-72.789534">
        <ele>211.9</ele>
      </trkpt>
      <trkpt lat="45.060566" lon="-72.790558">
        <ele>209.1</ele>
      </trkpt>
      <trkpt lat="45.060534" lon="-72.791582">
        <ele>207.2</ele>
      </trkpt>
      <trkpt lat="45.060502" lon="-72.792606">
        <ele>205.4</ele>
      </trkpt>
      <trkpt lat="45.06047" lon="-72.79363">
        <ele>204.9</ele>
      </trkpt>
      <trkpt lat="45.060461" lon="-72.794768">
        <ele>202</ele>
      </trkpt>
      <trkpt lat="45.060453" lon="-72.795906">
        <ele>199.8</ele>
      </trkpt>
      <trkpt lat="45.060445" lon="-72.797045">
        <ele>197.9</ele>
      </trkpt>
      <trkpt lat="45.060436" lon="-72.798183">
        <ele>195.2</ele>
      </trkpt>
      <trkpt lat="45.060428" lon="-72.799321">
        <ele>193.2</ele>
      </trkpt>
      <trkpt lat="45.06042" lon="-72.80046">
        <ele>191.1</ele>
      </trkpt>
      <trkpt lat="45.060422" lon="-72.801604">
        <ele>189.5</ele>
      </trkpt>
      <trkpt lat="45.060424" lon="-72.802748">
        <ele>188.7</ele>
      </trkpt>
      <trkpt lat="45.060426" lon="-72.803893">
        <ele>187</ele>
      </trkpt>
      <trkpt lat="45.060429" lon="-72.805037">
        <ele>185</ele>
      </trkpt>
      <trkpt lat="45.060431" lon="-72.806182">
        <ele>180.2</ele>
      </trkpt>
      <trkpt lat="45.060433" lon="-72.807326">
        <ele>176.4</ele>
      </trkpt>
      <trkpt lat="45.060435" lon="-72.808471">
        <ele>172.6</ele>
      </trkpt>
      <trkpt lat="45.060437" lon="-72.809615">
        <ele>170.7</ele>
      </trkpt>
      <trkpt lat="45.06044" lon="-72.81076">
        <ele>170.2</ele>
      </trkpt>
      <trkpt lat="45.06049" lon="-72.81165">
        <ele>169.4</ele>
      </trkpt>
      <trkpt lat="45.06059" lon="-72.812324">
        <ele>168.9</ele>
      </trkpt>
      <trkpt lat="45.06069" lon="-72.813">
        <ele>167.7</ele>
      </trkpt>
      <trkpt lat="45.06077" lon="-72.81376">
        <ele>162.6</ele>
      </trkpt>
      <trkpt lat="45.060835" lon="-72.814899">
        <ele>154.6</ele>
      </trkpt>
      <trkpt lat="45.0609" lon="-72.81604">
        <ele>149.3</ele>
      </trkpt>
      <trkpt lat="45.06094" lon="-72.817024">
        <ele>145.6</ele>
      </trkpt>
      <trkpt lat="45.06098" lon="-72.81801">
        <ele>144</ele>
      </trkpt>
      <trkpt lat="45.061025" lon="-72.819239">
        <ele>140.7</ele>
      </trkpt>
      <trkpt lat="45.06107" lon="-72.82047">
        <ele>142.2</ele>
      </trkpt>
      <trkpt lat="45.06095" lon="-72.82124">
        <ele>148</ele>
      </trkpt>
      <trkpt lat="45.06095" lon="-72.82125">
        <ele>148.1</ele>
      </trkpt>
      <trkpt lat="45.06084" lon="-72.82177">
        <ele>151.9</ele>
      </trkpt>
      <trkpt lat="45.06078" lon="-72.82217">
        <ele>153.9</ele>
      </trkpt>
      <trkpt lat="45.060733" lon="-72.823246">
        <ele>157.6</ele>
      </trkpt>
      <trkpt lat="45.060686" lon="-72.824323">
        <ele>159.9</ele>
      </trkpt>
      <trkpt lat="45.06064" lon="-72.8254">
        <ele>164.5</ele>
      </trkpt>
      <trkpt lat="45.06014" lon="-72.8258">
        <ele>164.4</ele>
      </trkpt>
      <trkpt lat="45.05977" lon="-72.82619">
        <ele>164.9</ele>
      </trkpt>
      <trkpt lat="45.0596" lon="-72.82639">
        <ele>165</ele>
      </trkpt>
      <trkpt lat="45.05926" lon="-72.82692">
        <ele>165.7</ele>
      </trkpt>
      <trkpt lat="45.05883" lon="-72.82779">
        <ele>166.1</ele>
      </trkpt>
      <trkpt lat="45.058456" lon="-72.828593">
        <ele>164.4</ele>
      </trkpt>
      <trkpt lat="45.058083" lon="-72.829396">
        <ele>160.3</ele>
      </trkpt>
      <trkpt lat="45.05771" lon="-72.8302">
        <ele>158.9</ele>
      </trkpt>
      <trkpt lat="45.05751" lon="-72.83074">
        <ele>157.2</ele>
      </trkpt>
      <trkpt lat="45.05742" lon="-72.83104">
        <ele>156.1</ele>
      </trkpt>
      <trkpt lat="45.05742" lon="-72.83105">
        <ele>156.1</ele>
      </trkpt>
      <trkpt lat="45.05719" lon="-72.83193">
        <ele>152.4</ele>
      </trkpt>
      <trkpt lat="45.05711" lon="-72.83233">
        <ele>148.4</ele>
      </trkpt>
      <trkpt lat="45.05699" lon="-72.83335">
        <ele>144.4</ele>
      </trkpt>
      <trkpt lat="45.05687" lon="-72.83437">
        <ele>136.6</ele>
      </trkpt>
      <trkpt lat="45.05675" lon="-72.83516">
        <ele>127.9</ele>
      </trkpt>
      <trkpt lat="45.05667" lon="-72.83551">
        <ele>126.8</ele>
      </trkpt>
      <trkpt lat="45.05656" lon="-72.83584">
        <ele>122.2</ele>
      </trkpt>
      <trkpt lat="45.05636" lon="-72.83629">
        <ele>118.4</ele>
      </trkpt>
      <trkpt lat="45.05618" lon="-72.83663">
        <ele>114.1</ele>
      </trkpt>
      <trkpt lat="45.056" lon="-72.8369">
        <ele>110.9</ele>
      </trkpt>
      <trkpt lat="45.05568" lon="-72.83732">
        <ele>107.7</ele>
      </trkpt>
      <trkpt lat="45.0554" lon="-72.83761">
        <ele>106.2</ele>
      </trkpt>
      <trkpt lat="45.05549" lon="-72.83784">
        <ele>105.7</ele>
      </trkpt>
      <trkpt lat="45.0555" lon="-72.83865">
        <ele>103.7</ele>
      </trkpt>
      <trkpt lat="45.05556" lon="-72.83903">
        <ele>104</ele>
      </trkpt>
      <trkpt lat="45.05587" lon="-72.83906">
        <ele>105.3</ele>
      </trkpt>
      <trkpt lat="45.05611" lon="-72.83905">
        <ele>107.1</ele>
      </trkpt>
      <trkpt lat="45.05622" lon="-72.83901">
        <ele>107.7</ele>
      </trkpt>
      <trkpt lat="45.056935" lon="-72.83856">
        <ele>113.7</ele>
      </trkpt>
      <trkpt lat="45.05765" lon="-72.83811">
        <ele>120.5</ele>
      </trkpt>
      <trkpt lat="45.05776" lon="-72.83806">
        <ele>121.3</ele>
      </trkpt>
      <trkpt lat="45.058545" lon="-72.837965">
        <ele>129.8</ele>
      </trkpt>
      <trkpt lat="45.05933" lon="-72.83787">
        <ele>136.8</ele>
      </trkpt>
      <trkpt lat="45.05933" lon="-72.83788">
        <ele>136.7</ele>
      </trkpt>
      <trkpt lat="45.05951" lon="-72.83785">
        <ele>139.1</ele>
      </trkpt>
      <trkpt lat="45.060014" lon="-72.837869">
        <ele>143.2</ele>
      </trkpt>
      <trkpt lat="45.06052" lon="-72.83789">
        <ele>147.9</ele>
      </trkpt>
      <trkpt lat="45.0609" lon="-72.83798">
        <ele>153.6</ele>
      </trkpt>
      <trkpt lat="45.0616" lon="-72.83819">
        <ele>158.9</ele>
      </trkpt>
      <trkpt lat="45.06199" lon="-72.83833">
        <ele>160.7</ele>
      </trkpt>
      <trkpt lat="45.062701" lon="-72.838719">
        <ele>162.7</ele>
      </trkpt>
      <trkpt lat="45.063413" lon="-72.839109">
        <ele>165.1</ele>
      </trkpt>
      <trkpt lat="45.064125" lon="-72.839499">
        <ele>167.5</ele>
      </trkpt>
      <trkpt lat="45.064836" lon="-72.839889">
        <ele>171.7</ele>
      </trkpt>
      <trkpt lat="45.065548" lon="-72.840279">
        <ele>178.7</ele>
      </trkpt>
      <trkpt lat="45.06626" lon="-72.84067">
        <ele>187.6</ele>
      </trkpt>
      <trkpt lat="45.06707" lon="-72.84099">
        <ele>193.5</ele>
      </trkpt>
      <trkpt lat="45.06774" lon="-72.841184">
        <ele>198.5</ele>
      </trkpt>
      <trkpt lat="45.06841" lon="-72.84138">
        <ele>200.4</ele>
      </trkpt>
      <trkpt lat="45.068904" lon="-72.841469">
        <ele>197.8</ele>
      </trkpt>
      <trkpt lat="45.0694" lon="-72.84156">
        <ele>191.7</ele>
      </trkpt>
      <trkpt lat="45.06984" lon="-72.84157">
        <ele>189.6</ele>
      </trkpt>
      <trkpt lat="45.070646" lon="-72.841568">
        <ele>188.8</ele>
      </trkpt>
      <trkpt lat="45.071452" lon="-72.841566">
        <ele>188.8</ele>
      </trkpt>
      <trkpt lat="45.072258" lon="-72.841564">
        <ele>183</ele>
      </trkpt>
      <trkpt lat="45.073064" lon="-72.841562">
        <ele>172.2</ele>
      </trkpt>
      <trkpt lat="45.07387" lon="-72.84156">
        <ele>168.1</ele>
      </trkpt>
      <trkpt lat="45.074634" lon="-72.841515">
        <ele>176.9</ele>
      </trkpt>
      <trkpt lat="45.0754" lon="-72.84147">
        <ele>185</ele>
      </trkpt>
      <trkpt lat="45.0757" lon="-72.84137">
        <ele>185.9</ele>
      </trkpt>
      <trkpt lat="45.076363" lon="-72.84103">
        <ele>184.7</ele>
      </trkpt>
      <trkpt lat="45.077026" lon="-72.84069">
        <ele>185.3</ele>
      </trkpt>
      <trkpt lat="45.07769" lon="-72.84035">
        <ele>186.3</ele>
      </trkpt>
      <trkpt lat="45.07816" lon="-72.84019">
        <ele>187</ele>
      </trkpt>
      <trkpt lat="45.07869" lon="-72.84008">
        <ele>192.3</ele>
      </trkpt>
      <trkpt lat="45.07905" lon="-72.84004">
        <ele>195.7</ele>
      </trkpt>
      <trkpt lat="45.07954" lon="-72.8399">
        <ele>194.5</ele>
      </trkpt>
      <trkpt lat="45.0802" lon="-72.83994">
        <ele>190</ele>
      </trkpt>
      <trkpt lat="45.08054" lon="-72.83991">
        <ele>188</ele>
      </trkpt>
      <trkpt lat="45.08082" lon="-72.83986">
        <ele>185.5</ele>
      </trkpt>
      <trkpt lat="45.08115" lon="-72.83976">
        <ele>184.2</ele>
      </trkpt>
      <trkpt lat="45.08157" lon="-72.83954">
        <ele>183.8</ele>
      </trkpt>
      <trkpt lat="45.08177" lon="-72.83932">
        <ele>184.4</ele>
      </trkpt>
      <trkpt lat="45.08223" lon="-72.83878">
        <ele>186.2</ele>
      </trkpt>
      <trkpt lat="45.08284" lon="-72.83833">
        <ele>189.3</ele>
      </trkpt>
      <trkpt lat="45.08296" lon="-72.83825">
        <ele>190.3</ele>
      </trkpt>
      <trkpt lat="45.08307" lon="-72.8382">
        <ele>190.3</ele>
      </trkpt>
      <trkpt lat="45.0834" lon="-72.83816">
        <ele>193.9</ele>
      </trkpt>
      <trkpt lat="45.0837" lon="-72.83816">
        <ele>194.8</ele>
      </trkpt>
      <trkpt lat="45.08383" lon="-72.8382">
        <ele>194.8</ele>
      </trkpt>
      <trkpt lat="45.08416" lon="-72.83821">
        <ele>194.4</ele>
      </trkpt>
      <trkpt lat="45.08471" lon="-72.83812">
        <ele>194.8</ele>
      </trkpt>
      <trkpt lat="45.08499" lon="-72.83802">
        <ele>195.7</ele>
      </trkpt>
      <trkpt lat="45.085415" lon="-72.837705">
        <ele>197.5</ele>
      </trkpt>
      <trkpt lat="45.08584" lon="-72.83739">
        <ele>198.8</ele>
      </trkpt>
      <trkpt lat="45.08611" lon="-72.83713">
        <ele>199.8</ele>
      </trkpt>
      <trkpt lat="45.0864" lon="-72.83675">
        <ele>201.8</ele>
      </trkpt>
      <trkpt lat="45.08674" lon="-72.836175">
        <ele>203.5</ele>
      </trkpt>
      <trkpt lat="45.08708" lon="-72.8356">
        <ele>207.2</ele>
      </trkpt>
      <trkpt lat="45.087523" lon="-72.83502">
        <ele>209.3</ele>
      </trkpt>
      <trkpt lat="45.087966" lon="-72.83444">
        <ele>209.8</ele>
      </trkpt>
      <trkpt lat="45.08841" lon="-72.83386">
        <ele>210.5</ele>
      </trkpt>
      <trkpt lat="45.08862" lon="-72.83369">
        <ele>211.1</ele>
      </trkpt>
      <trkpt lat="45.08907" lon="-72.83341">
        <ele>212.9</ele>
      </trkpt>
      <trkpt lat="45.08924" lon="-72.83332">
        <ele>214</ele>
      </trkpt>
      <trkpt lat="45.09005" lon="-72.83283">
        <ele>217.4</ele>
      </trkpt>
      <trkpt lat="45.09004" lon="-72.83283">
        <ele>217.4</ele>
      </trkpt>
      <trkpt lat="45.09051" lon="-72.83257">
        <ele>218.2</ele>
      </trkpt>
      <trkpt lat="45.09096" lon="-72.83242">
        <ele>218.6</ele>
      </trkpt>
      <trkpt lat="45.09148" lon="-72.83229">
        <ele>217.5</ele>
      </trkpt>
      <trkpt lat="45.0917" lon="-72.83225">
        <ele>217</ele>
      </trkpt>
      <trkpt lat="45.09193" lon="-72.83225">
        <ele>216.8</ele>
      </trkpt>
      <trkpt lat="45.09208" lon="-72.83225">
        <ele>216.2</ele>
      </trkpt>
      <trkpt lat="45.09257" lon="-72.83233">
        <ele>214.2</ele>
      </trkpt>
      <trkpt lat="45.09333" lon="-72.832513">
        <ele>212.5</ele>
      </trkpt>
      <trkpt lat="45.09409" lon="-72.832696">
        <ele>213.9</ele>
      </trkpt>
      <trkpt lat="45.09485" lon="-72.83288">
        <ele>217</ele>
      </trkpt>
      <trkpt lat="45.09553" lon="-72.83301">
        <ele>220.5</ele>
      </trkpt>
      <trkpt lat="45.09579" lon="-72.83305">
        <ele>221.1</ele>
      </trkpt>
      <trkpt lat="45.09599" lon="-72.83301">
        <ele>221.4</ele>
      </trkpt>
      <trkpt lat="45.09665" lon="-72.83283">
        <ele>221.5</ele>
      </trkpt>
      <trkpt lat="45.097215" lon="-72.83258">
        <ele>220.8</ele>
      </trkpt>
      <trkpt lat="45.09778" lon="-72.83233">
        <ele>219.4</ele>
      </trkpt>
      <trkpt lat="45.09811" lon="-72.83212">
        <ele>218.1</ele>
      </trkpt>
      <trkpt lat="45.09866" lon="-72.83175">
        <ele>214.2</ele>
      </trkpt>
      <trkpt lat="45.099165" lon="-72.831505">
        <ele>209.7</ele>
      </trkpt>
      <trkpt lat="45.09967" lon="-72.83126">
        <ele>205.9</ele>
      </trkpt>
      <trkpt lat="45.10021" lon="-72.83108">
        <ele>202.9</ele>
      </trkpt>
      <trkpt lat="45.10087" lon="-72.83077">
        <ele>200.7</ele>
      </trkpt>
      <trkpt lat="45.10174" lon="-72.830455">
        <ele>198</ele>
      </trkpt>
      <trkpt lat="45.10261" lon="-72.83014">
        <ele>196.3</ele>
      </trkpt>
      <trkpt lat="45.10277" lon="-72.83005">
        <ele>195.8</ele>
      </trkpt>
      <trkpt lat="45.1031" lon="-72.82992">
        <ele>194.2</ele>
      </trkpt>
      <trkpt lat="45.10338" lon="-72.82983">
        <ele>191.8</ele>
      </trkpt>
      <trkpt lat="45.10381" lon="-72.82978">
        <ele>186</ele>
      </trkpt>
      <trkpt lat="45.10434" lon="-72.82975">
        <ele>179.5</ele>
      </trkpt>
      <trkpt lat="45.10518" lon="-72.829789">
        <ele>171.2</ele>
      </trkpt>
      <trkpt lat="45.10602" lon="-72.82983">
        <ele>162</ele>
      </trkpt>
      <trkpt lat="45.106773" lon="-72.829879">
        <ele>157</ele>
      </trkpt>
      <trkpt lat="45.107526" lon="-72.829929">
        <ele>152.2</ele>
      </trkpt>
      <trkpt lat="45.10828" lon="-72.82998">
        <ele>147.9</ele>
      </trkpt>
      <trkpt lat="45.10875" lon="-72.830019">
        <ele>146.5</ele>
      </trkpt>
      <trkpt lat="45.10922" lon="-72.83006">
        <ele>145.5</ele>
      </trkpt>
      <trkpt lat="45.109873" lon="-72.830163">
        <ele>142.9</ele>
      </trkpt>
      <trkpt lat="45.110526" lon="-72.830266">
        <ele>142.3</ele>
      </trkpt>
      <trkpt lat="45.11118" lon="-72.83037">
        <ele>141.9</ele>
      </trkpt>
      <trkpt lat="45.11157" lon="-72.83036">
        <ele>142</ele>
      </trkpt>
      <trkpt lat="45.11216" lon="-72.83023">
        <ele>143.4</ele>
      </trkpt>
      <trkpt lat="45.11257" lon="-72.83019">
        <ele>143.8</ele>
      </trkpt>
      <trkpt lat="45.113416" lon="-72.83013">
        <ele>142</ele>
      </trkpt>
      <trkpt lat="45.114263" lon="-72.83007">
        <ele>139.9</ele>
      </trkpt>
      <trkpt lat="45.11511" lon="-72.83001">
        <ele>138.4</ele>
      </trkpt>
      <trkpt lat="45.116005" lon="-72.82998">
        <ele>136.5</ele>
      </trkpt>
      <trkpt lat="45.1169" lon="-72.82995">
        <ele>138</ele>
      </trkpt>
      <trkpt lat="45.11717" lon="-72.82943">
        <ele>137.2</ele>
      </trkpt>
      <trkpt lat="45.11751" lon="-72.82898">
        <ele>135.3</ele>
      </trkpt>
      <trkpt lat="45.118166" lon="-72.82826">
        <ele>134.9</ele>
      </trkpt>
      <trkpt lat="45.118823" lon="-72.82754">
        <ele>137.6</ele>
      </trkpt>
      <trkpt lat="45.11948" lon="-72.82682">
        <ele>142.7</ele>
      </trkpt>
      <trkpt lat="45.11992" lon="-72.82625">
        <ele>146.1</ele>
      </trkpt>
      <trkpt lat="45.120375" lon="-72.82551">
        <ele>147.8</ele>
      </trkpt>
      <trkpt lat="45.12083" lon="-72.82477">
        <ele>149.7</ele>
      </trkpt>
      <trkpt lat="45.12112" lon="-72.8244">
        <ele>150.1</ele>
      </trkpt>
      <trkpt lat="45.121717" lon="-72.823707">
        <ele>150.7</ele>
      </trkpt>
      <trkpt lat="45.122315" lon="-72.823015">
        <ele>151</ele>
      </trkpt>
      <trkpt lat="45.122912" lon="-72.822322">
        <ele>150.7</ele>
      </trkpt>
      <trkpt lat="45.12351" lon="-72.82163">
        <ele>151</ele>
      </trkpt>
      <trkpt lat="45.12391" lon="-72.82115">
        <ele>150.8</ele>
      </trkpt>
      <trkpt lat="45.12413" lon="-72.82082">
        <ele>150.6</ele>
      </trkpt>
      <trkpt lat="45.12412" lon="-72.82082">
        <ele>150.6</ele>
      </trkpt>
      <trkpt lat="45.12453" lon="-72.82021">
        <ele>150.3</ele>
      </trkpt>
      <trkpt lat="45.12489" lon="-72.81952">
        <ele>150.1</ele>
      </trkpt>
      <trkpt lat="45.12512" lon="-72.81895">
        <ele>150.1</ele>
      </trkpt>
      <trkpt lat="45.12549" lon="-72.817964">
        <ele>150.9</ele>
      </trkpt>
      <trkpt lat="45.12586" lon="-72.816978">
        <ele>153.5</ele>
      </trkpt>
      <trkpt lat="45.12623" lon="-72.815992">
        <ele>153.4</ele>
      </trkpt>
      <trkpt lat="45.1266" lon="-72.815006">
        <ele>149.1</ele>
      </trkpt>
      <trkpt lat="45.12697" lon="-72.81402">
        <ele>142.2</ele>
      </trkpt>
      <trkpt lat="45.127205" lon="-72.81335">
        <ele>137.7</ele>
      </trkpt>
      <trkpt lat="45.12744" lon="-72.81268">
        <ele>135.2</ele>
      </trkpt>
      <trkpt lat="45.127766" lon="-72.811626">
        <ele>134.3</ele>
      </trkpt>
      <trkpt lat="45.128092" lon="-72.810572">
        <ele>134.9</ele>
      </trkpt>
      <trkpt lat="45.128418" lon="-72.809518">
        <ele>134.6</ele>
      </trkpt>
      <trkpt lat="45.128745" lon="-72.808465">
        <ele>132.8</ele>
      </trkpt>
      <trkpt lat="45.129071" lon="-72.807411">
        <ele>132.6</ele>
      </trkpt>
      <trkpt lat="45.129397" lon="-72.806357">
        <ele>136.7</ele>
      </trkpt>
      <trkpt lat="45.129723" lon="-72.805303">
        <ele>143.2</ele>
      </trkpt>
      <trkpt lat="45.13005" lon="-72.80425">
        <ele>146.8</ele>
      </trkpt>
      <trkpt lat="45.13019" lon="-72.80364">
        <ele>147.5</ele>
      </trkpt>
      <trkpt lat="45.13025" lon="-72.80292">
        <ele>148.3</ele>
      </trkpt>
      <trkpt lat="45.130255" lon="-72.80181">
        <ele>152.4</ele>
      </trkpt>
      <trkpt lat="45.13026" lon="-72.8007">
        <ele>156.5</ele>
      </trkpt>
      <trkpt lat="45.12938" lon="-72.80072">
        <ele>156.6</ele>
      </trkpt>
      <trkpt lat="45.12938" lon="-72.79961">
        <ele>158.9</ele>
      </trkpt>
      <trkpt lat="45.12938" lon="-72.7985">
        <ele>160.2</ele>
      </trkpt>
      <trkpt lat="45.129391" lon="-72.797345">
        <ele>161.3</ele>
      </trkpt>
      <trkpt lat="45.129403" lon="-72.79619">
        <ele>164</ele>
      </trkpt>
      <trkpt lat="45.129415" lon="-72.795035">
        <ele>166.1</ele>
      </trkpt>
      <trkpt lat="45.129426" lon="-72.79388">
        <ele>168.6</ele>
      </trkpt>
      <trkpt lat="45.129438" lon="-72.792725">
        <ele>169.9</ele>
      </trkpt>
      <trkpt lat="45.12945" lon="-72.79157">
        <ele>171.3</ele>
      </trkpt>
      <trkpt lat="45.129453" lon="-72.790666">
        <ele>171.9</ele>
      </trkpt>
      <trkpt lat="45.129456" lon="-72.789763">
        <ele>173.3</ele>
      </trkpt>
      <trkpt lat="45.12946" lon="-72.78886">
        <ele>176.1</ele>
      </trkpt>
      <trkpt lat="45.12945" lon="-72.78827">
        <ele>179.3</ele>
      </trkpt>
      <trkpt lat="45.12944" lon="-72.78779">
        <ele>182.2</ele>
      </trkpt>
      <trkpt lat="45.12928" lon="-72.78679">
        <ele>185.3</ele>
      </trkpt>
      <trkpt lat="45.129106" lon="-72.785779">
        <ele>187.9</ele>
      </trkpt>
      <trkpt lat="45.128933" lon="-72.784769">
        <ele>191</ele>
      </trkpt>
      <trkpt lat="45.12876" lon="-72.78376">
        <ele>192.9</ele>
      </trkpt>
      <trkpt lat="45.1287" lon="-72.78353">
        <ele>194.1</ele>
      </trkpt>
      <trkpt lat="45.12863" lon="-72.78335">
        <ele>194.1</ele>
      </trkpt>
      <trkpt lat="45.12848" lon="-72.78321">
        <ele>194.5</ele>
      </trkpt>
      <trkpt lat="45.12777" lon="-72.782609">
        <ele>195</ele>
      </trkpt>
      <trkpt lat="45.12706" lon="-72.78201">
        <ele>196.3</ele>
      </trkpt>
      <trkpt lat="45.126373" lon="-72.781447">
        <ele>198.2</ele>
      </trkpt>
      <trkpt lat="45.125687" lon="-72.780884">
        <ele>198.5</ele>
      </trkpt>
      <trkpt lat="45.125001" lon="-72.780322">
        <ele>198</ele>
      </trkpt>
      <trkpt lat="45.124315" lon="-72.779759">
        <ele>197.1</ele>
      </trkpt>
      <trkpt lat="45.123628" lon="-72.779197">
        <ele>195.9</ele>
      </trkpt>
      <trkpt lat="45.122942" lon="-72.778634">
        <ele>194</ele>
      </trkpt>
      <trkpt lat="45.122256" lon="-72.778072">
        <ele>193.2</ele>
      </trkpt>
      <trkpt lat="45.12157" lon="-72.77751">
        <ele>192.5</ele>
      </trkpt>
      <trkpt lat="45.120923" lon="-72.776976">
        <ele>190.8</ele>
      </trkpt>
      <trkpt lat="45.120276" lon="-72.776443">
        <ele>189</ele>
      </trkpt>
      <trkpt lat="45.11963" lon="-72.77591">
        <ele>187.9</ele>
      </trkpt>
      <trkpt lat="45.11961" lon="-72.77485">
        <ele>185.6</ele>
      </trkpt>
      <trkpt lat="45.119605" lon="-72.773626">
        <ele>183</ele>
      </trkpt>
      <trkpt lat="45.1196" lon="-72.772403">
        <ele>182.9</ele>
      </trkpt>
      <trkpt lat="45.119595" lon="-72.771179">
        <ele>182.1</ele>
      </trkpt>
      <trkpt lat="45.11959" lon="-72.769956">
        <ele>181.9</ele>
      </trkpt>
      <trkpt lat="45.119585" lon="-72.768733">
        <ele>183.4</ele>
      </trkpt>
      <trkpt lat="45.11958" lon="-72.76751">
        <ele>184.8</ele>
      </trkpt>
      <trkpt lat="45.11957" lon="-72.766299">
        <ele>186</ele>
      </trkpt>
      <trkpt lat="45.11956" lon="-72.765089">
        <ele>189.9</ele>
      </trkpt>
      <trkpt lat="45.11955" lon="-72.76388">
        <ele>192.9</ele>
      </trkpt>
      <trkpt lat="45.119517" lon="-72.762917">
        <ele>193.7</ele>
      </trkpt>
      <trkpt lat="45.119485" lon="-72.761954">
        <ele>193.9</ele>
      </trkpt>
      <trkpt lat="45.119452" lon="-72.760992">
        <ele>194.3</ele>
      </trkpt>
      <trkpt lat="45.11942" lon="-72.76003">
        <ele>194.9</ele>
      </trkpt>
      <trkpt lat="45.11939" lon="-72.758776">
        <ele>195.6</ele>
      </trkpt>
      <trkpt lat="45.11936" lon="-72.757523">
        <ele>196.1</ele>
      </trkpt>
      <trkpt lat="45.11933" lon="-72.75627">
        <ele>197.5</ele>
      </trkpt>
      <trkpt lat="45.11929" lon="-72.75589">
        <ele>197.5</ele>
      </trkpt>
      <trkpt lat="45.11922" lon="-72.7556">
        <ele>197.5</ele>
      </trkpt>
      <trkpt lat="45.11908" lon="-72.75524">
        <ele>197.3</ele>
      </trkpt>
      <trkpt lat="45.11889" lon="-72.75488">
        <ele>197.1</ele>
      </trkpt>
      <trkpt lat="45.118475" lon="-72.754259">
        <ele>196.8</ele>
      </trkpt>
      <trkpt lat="45.11806" lon="-72.75364">
        <ele>196</ele>
      </trkpt>
      <trkpt lat="45.117715" lon="-72.753169">
        <ele>194.3</ele>
      </trkpt>
      <trkpt lat="45.11737" lon="-72.7527">
        <ele>194.4</ele>
      </trkpt>
      <trkpt lat="45.1168" lon="-72.752039">
        <ele>196.7</ele>
      </trkpt>
      <trkpt lat="45.11623" lon="-72.75138">
        <ele>197.4</ele>
      </trkpt>
      <trkpt lat="45.11576" lon="-72.750846">
        <ele>197.5</ele>
      </trkpt>
      <trkpt lat="45.11529" lon="-72.750313">
        <ele>198.1</ele>
      </trkpt>
      <trkpt lat="45.11482" lon="-72.74978">
        <ele>200.5</ele>
      </trkpt>
      <trkpt lat="45.11416" lon="-72.749033">
        <ele>207.2</ele>
      </trkpt>
      <trkpt lat="45.1135" lon="-72.748286">
        <ele>213.5</ele>
      </trkpt>
      <trkpt lat="45.11284" lon="-72.74754">
        <ele>219.6</ele>
      </trkpt>
      <trkpt lat="45.11278" lon="-72.74749">
        <ele>219.6</ele>
      </trkpt>
      <trkpt lat="45.11237" lon="-72.74745">
        <ele>220.3</ele>
      </trkpt>
      <trkpt lat="45.11188" lon="-72.74749">
        <ele>220.5</ele>
      </trkpt>
      <trkpt lat="45.11124" lon="-72.74749">
        <ele>219.4</ele>
      </trkpt>
      <trkpt lat="45.11037" lon="-72.747555">
        <ele>216.9</ele>
      </trkpt>
      <trkpt lat="45.1095" lon="-72.74762">
        <ele>220.1</ele>
      </trkpt>
      <trkpt lat="45.10908" lon="-72.74762">
        <ele>221.6</ele>
      </trkpt>
      <trkpt lat="45.10897" lon="-72.74758">
        <ele>222.7</ele>
      </trkpt>
      <trkpt lat="45.10887" lon="-72.74753">
        <ele>223.4</ele>
      </trkpt>
      <trkpt lat="45.1088" lon="-72.74745">
        <ele>223.4</ele>
      </trkpt>
      <trkpt lat="45.10866" lon="-72.74722">
        <ele>225.4</ele>
      </trkpt>
      <trkpt lat="45.10829" lon="-72.74647">
        <ele>229.5</ele>
      </trkpt>
      <trkpt lat="45.10774" lon="-72.74557">
        <ele>234.2</ele>
      </trkpt>
      <trkpt lat="45.10759" lon="-72.74535">
        <ele>236.3</ele>
      </trkpt>
      <trkpt lat="45.10729" lon="-72.74499">
        <ele>238</ele>
      </trkpt>
      <trkpt lat="45.10698" lon="-72.74467">
        <ele>238.2</ele>
      </trkpt>
      <trkpt lat="45.10662" lon="-72.74446">
        <ele>238.4</ele>
      </trkpt>
      <trkpt lat="45.10637" lon="-72.74437">
        <ele>239</ele>
      </trkpt>
      <trkpt lat="45.105643" lon="-72.744143">
        <ele>242.6</ele>
      </trkpt>
      <trkpt lat="45.104916" lon="-72.743916">
        <ele>247.1</ele>
      </trkpt>
      <trkpt lat="45.10419" lon="-72.74369">
        <ele>248.1</ele>
      </trkpt>
      <trkpt lat="45.10343" lon="-72.74341">
        <ele>248.1</ele>
      </trkpt>
      <trkpt lat="45.103512" lon="-72.742175">
        <ele>248.4</ele>
      </trkpt>
      <trkpt lat="45.103595" lon="-72.74094">
        <ele>249.7</ele>
      </trkpt>
      <trkpt lat="45.103677" lon="-72.739705">
        <ele>252.9</ele>
      </trkpt>
      <trkpt lat="45.10376" lon="-72.73847">
        <ele>254.8</ele>
      </trkpt>
      <trkpt lat="45.103842" lon="-72.737235">
        <ele>255.5</ele>
      </trkpt>
      <trkpt lat="45.103925" lon="-72.736">
        <ele>258</ele>
      </trkpt>
      <trkpt lat="45.104007" lon="-72.734765">
        <ele>263.7</ele>
      </trkpt>
      <trkpt lat="45.10409" lon="-72.73353">
        <ele>269.7</ele>
      </trkpt>
      <trkpt lat="45.10422" lon="-72.7323">
        <ele>274.8</ele>
      </trkpt>
      <trkpt lat="45.10435" lon="-72.73107">
        <ele>274.2</ele>
      </trkpt>
      <trkpt lat="45.10444" lon="-72.73003">
        <ele>273.8</ele>
      </trkpt>
      <trkpt lat="45.1045" lon="-72.72886">
        <ele>274.6</ele>
      </trkpt>
      <trkpt lat="45.10449" lon="-72.72842">
        <ele>274.7</ele>
      </trkpt>
      <trkpt lat="45.10436" lon="-72.727374">
        <ele>275.5</ele>
      </trkpt>
      <trkpt lat="45.10423" lon="-72.72633">
        <ele>278.8</ele>
      </trkpt>
      <trkpt lat="45.104098" lon="-72.725229">
        <ele>279.6</ele>
      </trkpt>
      <trkpt lat="45.103967" lon="-72.724129">
        <ele>280.1</ele>
      </trkpt>
      <trkpt lat="45.103835" lon="-72.723029">
        <ele>283.6</ele>
      </trkpt>
      <trkpt lat="45.103704" lon="-72.721929">
        <ele>291.7</ele>
      </trkpt>
      <trkpt lat="45.103572" lon="-72.720829">
        <ele>301.6</ele>
      </trkpt>
      <trkpt lat="45.103441" lon="-72.719729">
        <ele>313.4</ele>
      </trkpt>
      <trkpt lat="45.10331" lon="-72.71863">
        <ele>317.5</ele>
      </trkpt>
      <trkpt lat="45.10317" lon="-72.717613">
        <ele>315.1</ele>
      </trkpt>
      <trkpt lat="45.10303" lon="-72.716597">
        <ele>306.3</ele>
      </trkpt>
      <trkpt lat="45.10289" lon="-72.715581">
        <ele>295.3</ele>
      </trkpt>
      <trkpt lat="45.10275" lon="-72.714565">
        <ele>284.1</ele>
      </trkpt>
      <trkpt lat="45.10261" lon="-72.71355">
        <ele>274.6</ele>
      </trkpt>
      <trkpt lat="45.102475" lon="-72.712364">
        <ele>267.6</ele>
      </trkpt>
      <trkpt lat="45.10234" lon="-72.71118">
        <ele>263.2</ele>
      </trkpt>
      <trkpt lat="45.10238" lon="-72.710008">
        <ele>257</ele>
      </trkpt>
      <trkpt lat="45.10242" lon="-72.708836">
        <ele>250.4</ele>
      </trkpt>
      <trkpt lat="45.10246" lon="-72.707664">
        <ele>247</ele>
      </trkpt>
      <trkpt lat="45.1025" lon="-72.706492">
        <ele>246.9</ele>
      </trkpt>
      <trkpt lat="45.10254" lon="-72.70532">
        <ele>242.5</ele>
      </trkpt>
      <trkpt lat="45.102596" lon="-72.704126">
        <ele>243.5</ele>
      </trkpt>
      <trkpt lat="45.102653" lon="-72.702933">
        <ele>254.5</ele>
      </trkpt>
      <trkpt lat="45.10271" lon="-72.70174">
        <ele>260.9</ele>
      </trkpt>
      <trkpt lat="45.10278" lon="-72.70089">
        <ele>261.8</ele>
      </trkpt>
      <trkpt lat="45.1028" lon="-72.69972">
        <ele>265.3</ele>
      </trkpt>
      <trkpt lat="45.10284" lon="-72.69946">
        <ele>264.7</ele>
      </trkpt>
      <trkpt lat="45.10292" lon="-72.69918">
        <ele>263.4</ele>
      </trkpt>
      <trkpt lat="45.10337" lon="-72.69847">
        <ele>256.4</ele>
      </trkpt>
      <trkpt lat="45.10348" lon="-72.69816">
        <ele>254.6</ele>
      </trkpt>
      <trkpt lat="45.10358" lon="-72.6977">
        <ele>253</ele>
      </trkpt>
      <trkpt lat="45.10368" lon="-72.6969">
        <ele>251.7</ele>
      </trkpt>
      <trkpt lat="45.10384" lon="-72.69614">
        <ele>254.3</ele>
      </trkpt>
      <trkpt lat="45.10386" lon="-72.69578">
        <ele>254.8</ele>
      </trkpt>
      <trkpt lat="45.10381" lon="-72.69564">
        <ele>254.6</ele>
      </trkpt>
      <trkpt lat="45.10371" lon="-72.69551">
        <ele>254.2</ele>
      </trkpt>
      <trkpt lat="45.10338" lon="-72.6952">
        <ele>251.7</ele>
      </trkpt>
      <trkpt lat="45.10329" lon="-72.6951">
        <ele>249.2</ele>
      </trkpt>
      <trkpt lat="45.10318" lon="-72.6949">
        <ele>248.1</ele>
      </trkpt>
      <trkpt lat="45.10288" lon="-72.69414">
        <ele>242.6</ele>
      </trkpt>
      <trkpt lat="45.10264" lon="-72.69378">
        <ele>237.3</ele>
      </trkpt>
      <trkpt lat="45.1019" lon="-72.69314">
        <ele>233.6</ele>
      </trkpt>
      <trkpt lat="45.101465" lon="-72.692669">
        <ele>239.4</ele>
      </trkpt>
      <trkpt lat="45.10103" lon="-72.6922">
        <ele>246.6</ele>
      </trkpt>
      <trkpt lat="45.10053" lon="-72.69149">
        <ele>244.5</ele>
      </trkpt>
      <trkpt lat="45.10027" lon="-72.69095">
        <ele>241.1</ele>
      </trkpt>
      <trkpt lat="45.10017" lon="-72.69077">
        <ele>239.5</ele>
      </trkpt>
      <trkpt lat="45.10005" lon="-72.69064">
        <ele>236.9</ele>
      </trkpt>
      <trkpt lat="45.09984" lon="-72.6905">
        <ele>235.7</ele>
      </trkpt>
      <trkpt lat="45.09929" lon="-72.69027">
        <ele>232</ele>
      </trkpt>
      <trkpt lat="45.09915" lon="-72.69014">
        <ele>230.1</ele>
      </trkpt>
      <trkpt lat="45.09895" lon="-72.68992">
        <ele>227.4</ele>
      </trkpt>
      <trkpt lat="45.09879" lon="-72.68956">
        <ele>223.9</ele>
      </trkpt>
      <trkpt lat="45.09868" lon="-72.6892">
        <ele>220.7</ele>
      </trkpt>
      <trkpt lat="45.09856" lon="-72.68832">
        <ele>215.8</ele>
      </trkpt>
      <trkpt lat="45.09851" lon="-72.68813">
        <ele>213.7</ele>
      </trkpt>
      <trkpt lat="45.09832" lon="-72.68768">
        <ele>209.5</ele>
      </trkpt>
      <trkpt lat="45.09806" lon="-72.68723">
        <ele>206.8</ele>
      </trkpt>
      <trkpt lat="45.09794" lon="-72.68697">
        <ele>206.9</ele>
      </trkpt>
      <trkpt lat="45.09777" lon="-72.68647">
        <ele>209.8</ele>
      </trkpt>
      <trkpt lat="45.097685" lon="-72.685774">
        <ele>209.9</ele>
      </trkpt>
      <trkpt lat="45.0976" lon="-72.68508">
        <ele>205.1</ele>
      </trkpt>
      <trkpt lat="45.09753" lon="-72.68394">
        <ele>201.3</ele>
      </trkpt>
      <trkpt lat="45.09742" lon="-72.68339">
        <ele>200.5</ele>
      </trkpt>
      <trkpt lat="45.09718" lon="-72.68267">
        <ele>198.2</ele>
      </trkpt>
      <trkpt lat="45.09712" lon="-72.68217">
        <ele>196.7</ele>
      </trkpt>
      <trkpt lat="45.09709" lon="-72.68173">
        <ele>196.1</ele>
      </trkpt>
      <trkpt lat="45.09686" lon="-72.68079">
        <ele>193.6</ele>
      </trkpt>
      <trkpt lat="45.09677" lon="-72.680164">
        <ele>193.1</ele>
      </trkpt>
      <trkpt lat="45.09668" lon="-72.67954">
        <ele>193.4</ele>
      </trkpt>
      <trkpt lat="45.09655" lon="-72.67891">
        <ele>195.3</ele>
      </trkpt>
      <trkpt lat="45.09651" lon="-72.67856">
        <ele>198</ele>
      </trkpt>
      <trkpt lat="45.0965" lon="-72.67828">
        <ele>198.9</ele>
      </trkpt>
      <trkpt lat="45.0966" lon="-72.67748">
        <ele>202</ele>
      </trkpt>
      <trkpt lat="45.09672" lon="-72.67675">
        <ele>205.9</ele>
      </trkpt>
      <trkpt lat="45.09672" lon="-72.6757">
        <ele>206.8</ele>
      </trkpt>
      <trkpt lat="45.09672" lon="-72.67465">
        <ele>207.5</ele>
      </trkpt>
      <trkpt lat="45.09669" lon="-72.673959">
        <ele>207</ele>
      </trkpt>
      <trkpt lat="45.09666" lon="-72.67327">
        <ele>203.1</ele>
      </trkpt>
      <trkpt lat="45.0966" lon="-72.67268">
        <ele>201.8</ele>
      </trkpt>
      <trkpt lat="45.09656" lon="-72.6725">
        <ele>201.8</ele>
      </trkpt>
      <trkpt lat="45.09643" lon="-72.67215">
        <ele>201.5</ele>
      </trkpt>
      <trkpt lat="45.09635" lon="-72.67206">
        <ele>201.3</ele>
      </trkpt>
      <trkpt lat="45.09627" lon="-72.67197">
        <ele>201.3</ele>
      </trkpt>
      <trkpt lat="45.09607" lon="-72.67138">
        <ele>200.4</ele>
      </trkpt>
      <trkpt lat="45.09596" lon="-72.67071">
        <ele>199.3</ele>
      </trkpt>
      <trkpt lat="45.09585" lon="-72.67036">
        <ele>197.9</ele>
      </trkpt>
      <trkpt lat="45.09568" lon="-72.66991">
        <ele>197.9</ele>
      </trkpt>
      <trkpt lat="45.09543" lon="-72.66933">
        <ele>198.3</ele>
      </trkpt>
      <trkpt lat="45.09511" lon="-72.6688">
        <ele>197.6</ele>
      </trkpt>
      <trkpt lat="45.09506" lon="-72.66861">
        <ele>197.9</ele>
      </trkpt>
      <trkpt lat="45.09506" lon="-72.66838">
        <ele>198</ele>
      </trkpt>
      <trkpt lat="45.09513" lon="-72.66807">
        <ele>197.5</ele>
      </trkpt>
      <trkpt lat="45.095355" lon="-72.667445">
        <ele>194.5</ele>
      </trkpt>
      <trkpt lat="45.09558" lon="-72.66682">
        <ele>192.2</ele>
      </trkpt>
      <trkpt lat="45.09582" lon="-72.66592">
        <ele>190.5</ele>
      </trkpt>
      <trkpt lat="45.09605" lon="-72.66477">
        <ele>189.6</ele>
      </trkpt>
      <trkpt lat="45.09621" lon="-72.66363">
        <ele>182.3</ele>
      </trkpt>
      <trkpt lat="45.09628" lon="-72.66283">
        <ele>183.1</ele>
      </trkpt>
      <trkpt lat="45.096285" lon="-72.661785">
        <ele>186.5</ele>
      </trkpt>
      <trkpt lat="45.09629" lon="-72.66074">
        <ele>187.1</ele>
      </trkpt>
      <trkpt lat="45.09646" lon="-72.65984">
        <ele>183.3</ele>
      </trkpt>
      <trkpt lat="45.09561" lon="-72.659679">
        <ele>178.2</ele>
      </trkpt>
      <trkpt lat="45.09476" lon="-72.65952">
        <ele>172.3</ele>
      </trkpt>
      <trkpt lat="45.0939" lon="-72.65925">
        <ele>167.9</ele>
      </trkpt>
      <trkpt lat="45.09333" lon="-72.65904">
        <ele>166.3</ele>
      </trkpt>
      <trkpt lat="45.092535" lon="-72.658724">
        <ele>162.7</ele>
      </trkpt>
      <trkpt lat="45.09174" lon="-72.658409">
        <ele>159.5</ele>
      </trkpt>
      <trkpt lat="45.090945" lon="-72.658094">
        <ele>157.3</ele>
      </trkpt>
      <trkpt lat="45.09015" lon="-72.65778">
        <ele>158.3</ele>
      </trkpt>
      <trkpt lat="45.08958" lon="-72.6576">
        <ele>161.8</ele>
      </trkpt>
      <trkpt lat="45.08969" lon="-72.65716">
        <ele>160.4</ele>
      </trkpt>
      <trkpt lat="45.08977" lon="-72.65657">
        <ele>157.7</ele>
      </trkpt>
      <trkpt lat="45.08992" lon="-72.655785">
        <ele>154.7</ele>
      </trkpt>
      <trkpt lat="45.09007" lon="-72.655">
        <ele>159.7</ele>
      </trkpt>
      <trkpt lat="45.09014" lon="-72.65437">
        <ele>166.3</ele>
      </trkpt>
      <trkpt lat="45.09014" lon="-72.653284">
        <ele>175.9</ele>
      </trkpt>
      <trkpt lat="45.09014" lon="-72.652199">
        <ele>188.8</ele>
      </trkpt>
      <trkpt lat="45.09014" lon="-72.651114">
        <ele>200.5</ele>
      </trkpt>
      <trkpt lat="45.09014" lon="-72.65003">
        <ele>204.7</ele>
      </trkpt>
      <trkpt lat="45.09014" lon="-72.64939">
        <ele>202.4</ele>
      </trkpt>
      <trkpt lat="45.09011" lon="-72.64874">
        <ele>198.3</ele>
      </trkpt>
      <trkpt lat="45.08995" lon="-72.6481">
        <ele>199</ele>
      </trkpt>
      <trkpt lat="45.089685" lon="-72.647224">
        <ele>207</ele>
      </trkpt>
      <trkpt lat="45.08942" lon="-72.64635">
        <ele>211</ele>
      </trkpt>
      <trkpt lat="45.0893" lon="-72.64568">
        <ele>209.4</ele>
      </trkpt>
      <trkpt lat="45.08927" lon="-72.64532">
        <ele>208.1</ele>
      </trkpt>
      <trkpt lat="45.08927" lon="-72.644047">
        <ele>199.5</ele>
      </trkpt>
      <trkpt lat="45.08927" lon="-72.642775">
        <ele>192.1</ele>
      </trkpt>
      <trkpt lat="45.08927" lon="-72.641502">
        <ele>184.1</ele>
      </trkpt>
      <trkpt lat="45.08927" lon="-72.64023">
        <ele>181.2</ele>
      </trkpt>
      <trkpt lat="45.08932" lon="-72.63897">
        <ele>179.7</ele>
      </trkpt>
      <trkpt lat="45.089335" lon="-72.63803">
        <ele>181.6</ele>
      </trkpt>
      <trkpt lat="45.08935" lon="-72.63709">
        <ele>181.4</ele>
      </trkpt>
      <trkpt lat="45.089415" lon="-72.636085">
        <ele>179.9</ele>
      </trkpt>
      <trkpt lat="45.08948" lon="-72.63508">
        <ele>176.4</ele>
      </trkpt>
      <trkpt lat="45.089555" lon="-72.634345">
        <ele>172.6</ele>
      </trkpt>
      <trkpt lat="45.08963" lon="-72.63361">
        <ele>170.5</ele>
      </trkpt>
      <trkpt lat="45.089715" lon="-72.632915">
        <ele>169.7</ele>
      </trkpt>
      <trkpt lat="45.0898" lon="-72.63222">
        <ele>169.5</ele>
      </trkpt>
      <trkpt lat="45.089935" lon="-72.63134">
        <ele>169.3</ele>
      </trkpt>
      <trkpt lat="45.09007" lon="-72.63046">
        <ele>167.2</ele>
      </trkpt>
      <trkpt lat="45.09023" lon="-72.62949">
        <ele>164.3</ele>
      </trkpt>
      <trkpt lat="45.09039" lon="-72.62852">
        <ele>161.8</ele>
      </trkpt>
      <trkpt lat="45.09052" lon="-72.62759">
        <ele>160.9</ele>
      </trkpt>
      <trkpt lat="45.09065" lon="-72.62666">
        <ele>162.4</ele>
      </trkpt>
      <trkpt lat="45.09072" lon="-72.62631">
        <ele>162.7</ele>
      </trkpt>
      <trkpt lat="45.091405" lon="-72.626155">
        <ele>162.7</ele>
      </trkpt>
      <trkpt lat="45.09209" lon="-72.626">
        <ele>162.9</ele>
      </trkpt>
      <trkpt lat="45.09291" lon="-72.62584">
        <ele>162.5</ele>
      </trkpt>
      <trkpt lat="45.09373" lon="-72.62568">
        <ele>162.4</ele>
      </trkpt>
      <trkpt lat="45.09405" lon="-72.62559">
        <ele>162.9</ele>
      </trkpt>
      <trkpt lat="45.09454" lon="-72.62536">
        <ele>163</ele>
      </trkpt>
      <trkpt lat="45.095263" lon="-72.6249">
        <ele>163.7</ele>
      </trkpt>
      <trkpt lat="45.095986" lon="-72.62444">
        <ele>164.1</ele>
      </trkpt>
      <trkpt lat="45.09671" lon="-72.62398">
        <ele>165.1</ele>
      </trkpt>
      <trkpt lat="45.097335" lon="-72.623545">
        <ele>167</ele>
      </trkpt>
      <trkpt lat="45.09796" lon="-72.62311">
        <ele>167.9</ele>
      </trkpt>
      <trkpt lat="45.098636" lon="-72.62255">
        <ele>167</ele>
      </trkpt>
      <trkpt lat="45.099313" lon="-72.62199">
        <ele>166.9</ele>
      </trkpt>
      <trkpt lat="45.09999" lon="-72.62143">
        <ele>167.9</ele>
      </trkpt>
      <trkpt lat="45.10057" lon="-72.62097">
        <ele>168.6</ele>
      </trkpt>
      <trkpt lat="45.101025" lon="-72.62057">
        <ele>169.2</ele>
      </trkpt>
      <trkpt lat="45.10148" lon="-72.62017">
        <ele>169.5</ele>
      </trkpt>
      <trkpt lat="45.10185" lon="-72.61976">
        <ele>170.1</ele>
      </trkpt>
      <trkpt lat="45.10221" lon="-72.61927">
        <ele>170.8</ele>
      </trkpt>
      <trkpt lat="45.102806" lon="-72.618363">
        <ele>172.9</ele>
      </trkpt>
      <trkpt lat="45.103403" lon="-72.617456">
        <ele>174.2</ele>
      </trkpt>
      <trkpt lat="45.104" lon="-72.61655">
        <ele>175.6</ele>
      </trkpt>
      <trkpt lat="45.10435" lon="-72.616055">
        <ele>177.1</ele>
      </trkpt>
      <trkpt lat="45.1047" lon="-72.61556">
        <ele>177.9</ele>
      </trkpt>
      <trkpt lat="45.10485" lon="-72.61538">
        <ele>178.1</ele>
      </trkpt>
      <trkpt lat="45.10512" lon="-72.6152">
        <ele>178.9</ele>
      </trkpt>
      <trkpt lat="45.10517" lon="-72.61516">
        <ele>178.9</ele>
      </trkpt>
      <trkpt lat="45.10531" lon="-72.6151">
        <ele>179.3</ele>
      </trkpt>
      <trkpt lat="45.1054" lon="-72.61509">
        <ele>179.8</ele>
      </trkpt>
      <trkpt lat="45.10592" lon="-72.61507">
        <ele>180.9</ele>
      </trkpt>
      <trkpt lat="45.10639" lon="-72.61525">
        <ele>181.4</ele>
      </trkpt>
      <trkpt lat="45.10705" lon="-72.61562">
        <ele>181.5</ele>
      </trkpt>
    </trkseg>
  </trk>
</gpx>