<?xml version='1.0' encoding='utf-8'?>
<gpx xmlns="http://www.topografix.com/GPX/1/1" xmlns:xsi="http://www.w3.org/2001/XMLSchema-instance" version="1.1" creator="Gravelle Estrie" xsi:schemaLocation="http://www.topografix.com/GPX/1/1 http://www.topografix.com/GPX/1/1/gpx.xsd">
  <metadata>
    <name>Take Yours, I'll Take Mine</name>
  </metadata>
  <trk>
    <name>Take Yours, I'll Take Mine</name>
    <trkseg>
      <trkpt lat="45.0502" lon="-72.39142">
        <ele>191.1</ele>
      </trkpt>
      <trkpt lat="45.05072" lon="-72.39148">
        <ele>191.7</ele>
      </trkpt>
      <trkpt lat="45.05066" lon="-72.39204">
        <ele>193.7</ele>
      </trkpt>
      <trkpt lat="45.051179" lon="-72.392084">
        <ele>194.2</ele>
      </trkpt>
      <trkpt lat="45.0517" lon="-72.39213">
        <ele>194.2</ele>
      </trkpt>
      <trkpt lat="45.05206" lon="-72.39215">
        <ele>193.6</ele>
      </trkpt>
      <trkpt lat="45.0523" lon="-72.3922">
        <ele>192.3</ele>
      </trkpt>
      <trkpt lat="45.05282" lon="-72.3924">
        <ele>191.4</ele>
      </trkpt>
      <trkpt lat="45.05353" lon="-72.39271">
        <ele>190.8</ele>
      </trkpt>
      <trkpt lat="45.05402" lon="-72.39286">
        <ele>190.3</ele>
      </trkpt>
      <trkpt lat="45.05457" lon="-72.392909">
        <ele>190.7</ele>
      </trkpt>
      <trkpt lat="45.05512" lon="-72.39296">
        <ele>192</ele>
      </trkpt>
      <trkpt lat="45.05557" lon="-72.39292">
        <ele>193.3</ele>
      </trkpt>
      <trkpt lat="45.05584" lon="-72.39283">
        <ele>194.6</ele>
      </trkpt>
      <trkpt lat="45.056365" lon="-72.39258">
        <ele>195.6</ele>
      </trkpt>
      <trkpt lat="45.05689" lon="-72.39233">
        <ele>196.7</ele>
      </trkpt>
      <trkpt lat="45.057435" lon="-72.3921">
        <ele>196.6</ele>
      </trkpt>
      <trkpt lat="45.05798" lon="-72.39187">
        <ele>196.1</ele>
      </trkpt>
      <trkpt lat="45.058445" lon="-72.39169">
        <ele>194.5</ele>
      </trkpt>
      <trkpt lat="45.05891" lon="-72.39151">
        <ele>193.4</ele>
      </trkpt>
      <trkpt lat="45.05951" lon="-72.391325">
        <ele>192</ele>
      </trkpt>
      <trkpt lat="45.06011" lon="-72.39114">
        <ele>190.9</ele>
      </trkpt>
      <trkpt lat="45.060915" lon="-72.390922">
        <ele>188.3</ele>
      </trkpt>
      <trkpt lat="45.06172" lon="-72.390705">
        <ele>184.3</ele>
      </trkpt>
      <trkpt lat="45.062525" lon="-72.390487">
        <ele>183.7</ele>
      </trkpt>
      <trkpt lat="45.06333" lon="-72.39027">
        <ele>184.5</ele>
      </trkpt>
      <trkpt lat="45.06402" lon="-72.390113">
        <ele>183.5</ele>
      </trkpt>
      <trkpt lat="45.06471" lon="-72.389956">
        <ele>183.4</ele>
      </trkpt>
      <trkpt lat="45.0654" lon="-72.3898">
        <ele>186.1</ele>
      </trkpt>
      <trkpt lat="45.066" lon="-72.38967">
        <ele>188.4</ele>
      </trkpt>
      <trkpt lat="45.0666" lon="-72.38954">
        <ele>189.4</ele>
      </trkpt>
      <trkpt lat="45.06748" lon="-72.38932">
        <ele>189.1</ele>
      </trkpt>
      <trkpt lat="45.06836" lon="-72.3891">
        <ele>190</ele>
      </trkpt>
      <trkpt lat="45.06924" lon="-72.38888">
        <ele>191.2</ele>
      </trkpt>
      <trkpt lat="45.06963" lon="-72.38883">
        <ele>191.9</ele>
      </trkpt>
      <trkpt lat="45.07049" lon="-72.38875">
        <ele>193.2</ele>
      </trkpt>
      <trkpt lat="45.07086" lon="-72.38875">
        <ele>193.4</ele>
      </trkpt>
      <trkpt lat="45.07135" lon="-72.38879">
        <ele>193.5</ele>
      </trkpt>
      <trkpt lat="45.07191" lon="-72.3889">
        <ele>193.4</ele>
      </trkpt>
      <trkpt lat="45.072634" lon="-72.389064">
        <ele>191.6</ele>
      </trkpt>
      <trkpt lat="45.07336" lon="-72.38923">
        <ele>188.8</ele>
      </trkpt>
      <trkpt lat="45.07334" lon="-72.38905">
        <ele>188.1</ele>
      </trkpt>
      <trkpt lat="45.0733" lon="-72.38896">
        <ele>188.1</ele>
      </trkpt>
      <trkpt lat="45.07324" lon="-72.38889">
        <ele>188.1</ele>
      </trkpt>
      <trkpt lat="45.07289" lon="-72.3887">
        <ele>186.5</ele>
      </trkpt>
      <trkpt lat="45.0728" lon="-72.38861">
        <ele>186</ele>
      </trkpt>
      <trkpt lat="45.07261" lon="-72.38813">
        <ele>183.7</ele>
      </trkpt>
      <trkpt lat="45.07259" lon="-72.38803">
        <ele>183.6</ele>
      </trkpt>
      <trkpt lat="45.07259" lon="-72.38789">
        <ele>183.5</ele>
      </trkpt>
      <trkpt lat="45.07266" lon="-72.38758">
        <ele>183.6</ele>
      </trkpt>
      <trkpt lat="45.07299" lon="-72.38702">
        <ele>184</ele>
      </trkpt>
      <trkpt lat="45.07339" lon="-72.38622">
        <ele>184.4</ele>
      </trkpt>
      <trkpt lat="45.07378" lon="-72.385376">
        <ele>187.1</ele>
      </trkpt>
      <trkpt lat="45.07417" lon="-72.384533">
        <ele>189.6</ele>
      </trkpt>
      <trkpt lat="45.07456" lon="-72.38369">
        <ele>190.6</ele>
      </trkpt>
      <trkpt lat="45.07474" lon="-72.38325">
        <ele>191.7</ele>
      </trkpt>
      <trkpt lat="45.07491" lon="-72.38233">
        <ele>194.3</ele>
      </trkpt>
      <trkpt lat="45.07491" lon="-72.38234">
        <ele>194.3</ele>
      </trkpt>
      <trkpt lat="45.07495" lon="-72.38217">
        <ele>194.7</ele>
      </trkpt>
      <trkpt lat="45.07504" lon="-72.3819">
        <ele>195</ele>
      </trkpt>
      <trkpt lat="45.07515" lon="-72.38167">
        <ele>195.2</ele>
      </trkpt>
      <trkpt lat="45.07562" lon="-72.38091">
        <ele>197.5</ele>
      </trkpt>
      <trkpt lat="45.07583" lon="-72.38041">
        <ele>198.2</ele>
      </trkpt>
      <trkpt lat="45.07613" lon="-72.37984">
        <ele>198</ele>
      </trkpt>
      <trkpt lat="45.07632" lon="-72.37943">
        <ele>198.9</ele>
      </trkpt>
      <trkpt lat="45.07648" lon="-72.37916">
        <ele>198.9</ele>
      </trkpt>
      <trkpt lat="45.07662" lon="-72.37882">
        <ele>198</ele>
      </trkpt>
      <trkpt lat="45.07673" lon="-72.37849">
        <ele>197.3</ele>
      </trkpt>
      <trkpt lat="45.07683" lon="-72.3778">
        <ele>197.5</ele>
      </trkpt>
      <trkpt lat="45.07694" lon="-72.37723">
        <ele>199.8</ele>
      </trkpt>
      <trkpt lat="45.07712" lon="-72.37608">
        <ele>200.3</ele>
      </trkpt>
      <trkpt lat="45.07715" lon="-72.37572">
        <ele>200.8</ele>
      </trkpt>
      <trkpt lat="45.077175" lon="-72.374895">
        <ele>202.3</ele>
      </trkpt>
      <trkpt lat="45.0772" lon="-72.37407">
        <ele>202.7</ele>
      </trkpt>
      <trkpt lat="45.07724" lon="-72.3737">
        <ele>203.3</ele>
      </trkpt>
      <trkpt lat="45.07737" lon="-72.37321">
        <ele>206.6</ele>
      </trkpt>
      <trkpt lat="45.07765" lon="-72.37258">
        <ele>208.9</ele>
      </trkpt>
      <trkpt lat="45.07786" lon="-72.37228">
        <ele>209.3</ele>
      </trkpt>
      <trkpt lat="45.07835" lon="-72.37169">
        <ele>212</ele>
      </trkpt>
      <trkpt lat="45.07848" lon="-72.37147">
        <ele>213.8</ele>
      </trkpt>
      <trkpt lat="45.07853" lon="-72.37133">
        <ele>214.6</ele>
      </trkpt>
      <trkpt lat="45.07852" lon="-72.37066">
        <ele>220.2</ele>
      </trkpt>
      <trkpt lat="45.07854" lon="-72.37035">
        <ele>221.5</ele>
      </trkpt>
      <trkpt lat="45.07868" lon="-72.36919">
        <ele>230.3</ele>
      </trkpt>
      <trkpt lat="45.07878" lon="-72.36887">
        <ele>232</ele>
      </trkpt>
      <trkpt lat="45.07885" lon="-72.36878">
        <ele>232.5</ele>
      </trkpt>
      <trkpt lat="45.07898" lon="-72.36868">
        <ele>232.9</ele>
      </trkpt>
      <trkpt lat="45.07952" lon="-72.36841">
        <ele>233.8</ele>
      </trkpt>
      <trkpt lat="45.0801" lon="-72.36793">
        <ele>237.2</ele>
      </trkpt>
      <trkpt lat="45.08044" lon="-72.3676">
        <ele>238.8</ele>
      </trkpt>
      <trkpt lat="45.08109" lon="-72.36691">
        <ele>243.4</ele>
      </trkpt>
      <trkpt lat="45.08165" lon="-72.366235">
        <ele>246.1</ele>
      </trkpt>
      <trkpt lat="45.08221" lon="-72.36556">
        <ele>248.9</ele>
      </trkpt>
      <trkpt lat="45.08252" lon="-72.36529">
        <ele>250.3</ele>
      </trkpt>
      <trkpt lat="45.08294" lon="-72.36474">
        <ele>250.9</ele>
      </trkpt>
      <trkpt lat="45.08326" lon="-72.36414">
        <ele>251.2</ele>
      </trkpt>
      <trkpt lat="45.08325" lon="-72.36414">
        <ele>251.2</ele>
      </trkpt>
      <trkpt lat="45.08336" lon="-72.36381">
        <ele>251.9</ele>
      </trkpt>
      <trkpt lat="45.08348" lon="-72.36319">
        <ele>253.4</ele>
      </trkpt>
      <trkpt lat="45.08368" lon="-72.36255">
        <ele>257</ele>
      </trkpt>
      <trkpt lat="45.08385" lon="-72.3621">
        <ele>259.7</ele>
      </trkpt>
      <trkpt lat="45.084" lon="-72.3618">
        <ele>260.8</ele>
      </trkpt>
      <trkpt lat="45.08427" lon="-72.36143">
        <ele>262.1</ele>
      </trkpt>
      <trkpt lat="45.08457" lon="-72.36108">
        <ele>262.2</ele>
      </trkpt>
      <trkpt lat="45.08474" lon="-72.36094">
        <ele>262</ele>
      </trkpt>
      <trkpt lat="45.08494" lon="-72.3608">
        <ele>262</ele>
      </trkpt>
      <trkpt lat="45.08537" lon="-72.36018">
        <ele>263.3</ele>
      </trkpt>
      <trkpt lat="45.0858" lon="-72.35956">
        <ele>266.3</ele>
      </trkpt>
      <trkpt lat="45.08593" lon="-72.35933">
        <ele>266.8</ele>
      </trkpt>
      <trkpt lat="45.08604" lon="-72.35906">
        <ele>267.7</ele>
      </trkpt>
      <trkpt lat="45.08624" lon="-72.35846">
        <ele>269.7</ele>
      </trkpt>
      <trkpt lat="45.08645" lon="-72.35794">
        <ele>271.8</ele>
      </trkpt>
      <trkpt lat="45.08671" lon="-72.35756">
        <ele>274.1</ele>
      </trkpt>
      <trkpt lat="45.08692" lon="-72.35733">
        <ele>276.1</ele>
      </trkpt>
      <trkpt lat="45.08703" lon="-72.35724">
        <ele>276.7</ele>
      </trkpt>
      <trkpt lat="45.08723" lon="-72.35714">
        <ele>278.5</ele>
      </trkpt>
      <trkpt lat="45.08746" lon="-72.35696">
        <ele>280</ele>
      </trkpt>
      <trkpt lat="45.08762" lon="-72.35677">
        <ele>281.6</ele>
      </trkpt>
      <trkpt lat="45.08791" lon="-72.35621">
        <ele>286</ele>
      </trkpt>
      <trkpt lat="45.08818" lon="-72.35547">
        <ele>289.9</ele>
      </trkpt>
      <trkpt lat="45.08842" lon="-72.35459">
        <ele>295.1</ele>
      </trkpt>
      <trkpt lat="45.08882" lon="-72.35356">
        <ele>300.9</ele>
      </trkpt>
      <trkpt lat="45.08898" lon="-72.35298">
        <ele>306.4</ele>
      </trkpt>
      <trkpt lat="45.089065" lon="-72.352355">
        <ele>311.4</ele>
      </trkpt>
      <trkpt lat="45.08915" lon="-72.35173">
        <ele>312.8</ele>
      </trkpt>
      <trkpt lat="45.08922" lon="-72.35159">
        <ele>313.3</ele>
      </trkpt>
      <trkpt lat="45.08974" lon="-72.35085">
        <ele>319.5</ele>
      </trkpt>
      <trkpt lat="45.09026" lon="-72.35011">
        <ele>324</ele>
      </trkpt>
      <trkpt lat="45.0904" lon="-72.34984">
        <ele>326.3</ele>
      </trkpt>
      <trkpt lat="45.090555" lon="-72.34906">
        <ele>330.4</ele>
      </trkpt>
      <trkpt lat="45.09071" lon="-72.34828">
        <ele>331.1</ele>
      </trkpt>
      <trkpt lat="45.09077" lon="-72.34806">
        <ele>330.6</ele>
      </trkpt>
      <trkpt lat="45.09111" lon="-72.34718">
        <ele>327.7</ele>
      </trkpt>
      <trkpt lat="45.091353" lon="-72.34635">
        <ele>326.5</ele>
      </trkpt>
      <trkpt lat="45.091596" lon="-72.34552">
        <ele>325.2</ele>
      </trkpt>
      <trkpt lat="45.09184" lon="-72.34469">
        <ele>325.7</ele>
      </trkpt>
      <trkpt lat="45.09217" lon="-72.34402">
        <ele>329.3</ele>
      </trkpt>
      <trkpt lat="45.0925" lon="-72.34335">
        <ele>335.2</ele>
      </trkpt>
      <trkpt lat="45.09296" lon="-72.34261">
        <ele>336.4</ele>
      </trkpt>
      <trkpt lat="45.09342" lon="-72.34187">
        <ele>341.7</ele>
      </trkpt>
      <trkpt lat="45.09362" lon="-72.34147">
        <ele>343.9</ele>
      </trkpt>
      <trkpt lat="45.09369" lon="-72.34129">
        <ele>345.8</ele>
      </trkpt>
      <trkpt lat="45.09385" lon="-72.34052">
        <ele>347.2</ele>
      </trkpt>
      <trkpt lat="45.0939" lon="-72.33968">
        <ele>349.7</ele>
      </trkpt>
      <trkpt lat="45.09393" lon="-72.338915">
        <ele>354</ele>
      </trkpt>
      <trkpt lat="45.09396" lon="-72.33815">
        <ele>358.2</ele>
      </trkpt>
      <trkpt lat="45.09393" lon="-72.33772">
        <ele>360.4</ele>
      </trkpt>
      <trkpt lat="45.09383" lon="-72.33735">
        <ele>363.3</ele>
      </trkpt>
      <trkpt lat="45.09356" lon="-72.33669">
        <ele>365.3</ele>
      </trkpt>
      <trkpt lat="45.09344" lon="-72.33658">
        <ele>365.6</ele>
      </trkpt>
      <trkpt lat="45.09338" lon="-72.33654">
        <ele>366.2</ele>
      </trkpt>
      <trkpt lat="45.09321" lon="-72.33655">
        <ele>367.3</ele>
      </trkpt>
      <trkpt lat="45.09306" lon="-72.33654">
        <ele>369</ele>
      </trkpt>
      <trkpt lat="45.09291" lon="-72.33633">
        <ele>370.3</ele>
      </trkpt>
      <trkpt lat="45.0929" lon="-72.33615">
        <ele>370.6</ele>
      </trkpt>
      <trkpt lat="45.09291" lon="-72.33595">
        <ele>371.4</ele>
      </trkpt>
      <trkpt lat="45.09296" lon="-72.3356">
        <ele>373</ele>
      </trkpt>
      <trkpt lat="45.09308" lon="-72.33519">
        <ele>376</ele>
      </trkpt>
      <trkpt lat="45.0932" lon="-72.33493">
        <ele>378.7</ele>
      </trkpt>
      <trkpt lat="45.09326" lon="-72.33476">
        <ele>378.7</ele>
      </trkpt>
      <trkpt lat="45.09333" lon="-72.33417">
        <ele>382.2</ele>
      </trkpt>
      <trkpt lat="45.09333" lon="-72.33385">
        <ele>382.4</ele>
      </trkpt>
      <trkpt lat="45.09333" lon="-72.33386">
        <ele>382.4</ele>
      </trkpt>
      <trkpt lat="45.093305" lon="-72.332784">
        <ele>383.1</ele>
      </trkpt>
      <trkpt lat="45.09328" lon="-72.33171">
        <ele>381.5</ele>
      </trkpt>
      <trkpt lat="45.093265" lon="-72.330769">
        <ele>377.8</ele>
      </trkpt>
      <trkpt lat="45.09325" lon="-72.32983">
        <ele>372.7</ele>
      </trkpt>
      <trkpt lat="45.093245" lon="-72.328959">
        <ele>368.6</ele>
      </trkpt>
      <trkpt lat="45.09324" lon="-72.32809">
        <ele>365.8</ele>
      </trkpt>
      <trkpt lat="45.09412" lon="-72.32819">
        <ele>365.6</ele>
      </trkpt>
      <trkpt lat="45.095" lon="-72.32839">
        <ele>364.1</ele>
      </trkpt>
      <trkpt lat="45.0958" lon="-72.32862">
        <ele>363.5</ele>
      </trkpt>
      <trkpt lat="45.09612" lon="-72.32866">
        <ele>362.9</ele>
      </trkpt>
      <trkpt lat="45.09686" lon="-72.32871">
        <ele>361.2</ele>
      </trkpt>
      <trkpt lat="45.09762" lon="-72.32866">
        <ele>362.5</ele>
      </trkpt>
      <trkpt lat="45.0982" lon="-72.328595">
        <ele>359.7</ele>
      </trkpt>
      <trkpt lat="45.09878" lon="-72.32853">
        <ele>358.4</ele>
      </trkpt>
      <trkpt lat="45.099595" lon="-72.328499">
        <ele>357.2</ele>
      </trkpt>
      <trkpt lat="45.10041" lon="-72.328468">
        <ele>357.2</ele>
      </trkpt>
      <trkpt lat="45.101225" lon="-72.328437">
        <ele>357.2</ele>
      </trkpt>
      <trkpt lat="45.10204" lon="-72.328406">
        <ele>358.3</ele>
      </trkpt>
      <trkpt lat="45.102855" lon="-72.328375">
        <ele>359.2</ele>
      </trkpt>
      <trkpt lat="45.10367" lon="-72.328344">
        <ele>361.1</ele>
      </trkpt>
      <trkpt lat="45.104485" lon="-72.328313">
        <ele>361.9</ele>
      </trkpt>
      <trkpt lat="45.1053" lon="-72.328282">
        <ele>361.1</ele>
      </trkpt>
      <trkpt lat="45.106115" lon="-72.328251">
        <ele>361.4</ele>
      </trkpt>
      <trkpt lat="45.10693" lon="-72.32822">
        <ele>362.2</ele>
      </trkpt>
      <trkpt lat="45.107669" lon="-72.328173">
        <ele>363.4</ele>
      </trkpt>
      <trkpt lat="45.108409" lon="-72.328126">
        <ele>362.6</ele>
      </trkpt>
      <trkpt lat="45.10915" lon="-72.32808">
        <ele>362.9</ele>
      </trkpt>
      <trkpt lat="45.109659" lon="-72.32808">
        <ele>366.1</ele>
      </trkpt>
      <trkpt lat="45.11017" lon="-72.32808">
        <ele>367</ele>
      </trkpt>
      <trkpt lat="45.11061" lon="-72.32808">
        <ele>366.9</ele>
      </trkpt>
      <trkpt lat="45.111059" lon="-72.328045">
        <ele>368.2</ele>
      </trkpt>
      <trkpt lat="45.11151" lon="-72.32801">
        <ele>371.2</ele>
      </trkpt>
      <trkpt lat="45.11183" lon="-72.32808">
        <ele>373</ele>
      </trkpt>
      <trkpt lat="45.11202" lon="-72.32817">
        <ele>376.6</ele>
      </trkpt>
      <trkpt lat="45.11223" lon="-72.32831">
        <ele>379</ele>
      </trkpt>
      <trkpt lat="45.11264" lon="-72.32862">
        <ele>384.3</ele>
      </trkpt>
      <trkpt lat="45.11311" lon="-72.3292">
        <ele>388.5</ele>
      </trkpt>
      <trkpt lat="45.1135" lon="-72.329779">
        <ele>389.9</ele>
      </trkpt>
      <trkpt lat="45.11389" lon="-72.33036">
        <ele>391.3</ele>
      </trkpt>
      <trkpt lat="45.11404" lon="-72.33054">
        <ele>392.4</ele>
      </trkpt>
      <trkpt lat="45.11448" lon="-72.3309">
        <ele>393.8</ele>
      </trkpt>
      <trkpt lat="45.11521" lon="-72.3313">
        <ele>395.6</ele>
      </trkpt>
      <trkpt lat="45.11561" lon="-72.33148">
        <ele>396.4</ele>
      </trkpt>
      <trkpt lat="45.11584" lon="-72.33153">
        <ele>398.5</ele>
      </trkpt>
      <trkpt lat="45.11617" lon="-72.33153">
        <ele>398.5</ele>
      </trkpt>
      <trkpt lat="45.11637" lon="-72.33154">
        <ele>399</ele>
      </trkpt>
      <trkpt lat="45.11699" lon="-72.3319">
        <ele>401.4</ele>
      </trkpt>
      <trkpt lat="45.11764" lon="-72.3323">
        <ele>402.4</ele>
      </trkpt>
      <trkpt lat="45.11823" lon="-72.33269">
        <ele>403.6</ele>
      </trkpt>
      <trkpt lat="45.11877" lon="-72.33312">
        <ele>404</ele>
      </trkpt>
      <trkpt lat="45.11918" lon="-72.333399">
        <ele>404.1</ele>
      </trkpt>
      <trkpt lat="45.11959" lon="-72.33368">
        <ele>403.5</ele>
      </trkpt>
      <trkpt lat="45.12006" lon="-72.33413">
        <ele>402.6</ele>
      </trkpt>
      <trkpt lat="45.12028" lon="-72.33426">
        <ele>402.4</ele>
      </trkpt>
      <trkpt lat="45.12068" lon="-72.3344">
        <ele>402.9</ele>
      </trkpt>
      <trkpt lat="45.121375" lon="-72.334819">
        <ele>402.4</ele>
      </trkpt>
      <trkpt lat="45.12207" lon="-72.33524">
        <ele>402.7</ele>
      </trkpt>
      <trkpt lat="45.1223" lon="-72.33533">
        <ele>402.8</ele>
      </trkpt>
      <trkpt lat="45.12248" lon="-72.33534">
        <ele>403.1</ele>
      </trkpt>
      <trkpt lat="45.12302" lon="-72.33533">
        <ele>404</ele>
      </trkpt>
      <trkpt lat="45.123669" lon="-72.335379">
        <ele>406.2</ele>
      </trkpt>
      <trkpt lat="45.12432" lon="-72.33543">
        <ele>406.8</ele>
      </trkpt>
      <trkpt lat="45.124795" lon="-72.335534">
        <ele>407.3</ele>
      </trkpt>
      <trkpt lat="45.12527" lon="-72.33564">
        <ele>407</ele>
      </trkpt>
      <trkpt lat="45.12585" lon="-72.33574">
        <ele>405.4</ele>
      </trkpt>
      <trkpt lat="45.12585" lon="-72.33573">
        <ele>405.4</ele>
      </trkpt>
      <trkpt lat="45.12632" lon="-72.33579">
        <ele>405.1</ele>
      </trkpt>
      <trkpt lat="45.12695" lon="-72.33579">
        <ele>403.8</ele>
      </trkpt>
      <trkpt lat="45.12719" lon="-72.33569">
        <ele>403.8</ele>
      </trkpt>
      <trkpt lat="45.12727" lon="-72.3356">
        <ele>403.8</ele>
      </trkpt>
      <trkpt lat="45.12737" lon="-72.33539">
        <ele>403.8</ele>
      </trkpt>
      <trkpt lat="45.12751" lon="-72.33502">
        <ele>403.6</ele>
      </trkpt>
      <trkpt lat="45.12771" lon="-72.3343">
        <ele>403.1</ele>
      </trkpt>
      <trkpt lat="45.1282" lon="-72.33377">
        <ele>401.7</ele>
      </trkpt>
      <trkpt lat="45.12859" lon="-72.33327">
        <ele>401.3</ele>
      </trkpt>
      <trkpt lat="45.12883" lon="-72.33305">
        <ele>402.1</ele>
      </trkpt>
      <trkpt lat="45.12894" lon="-72.33278">
        <ele>403.7</ele>
      </trkpt>
      <trkpt lat="45.12897" lon="-72.33241">
        <ele>407</ele>
      </trkpt>
      <trkpt lat="45.12904" lon="-72.33207">
        <ele>408.9</ele>
      </trkpt>
      <trkpt lat="45.1291" lon="-72.33189">
        <ele>413.3</ele>
      </trkpt>
      <trkpt lat="45.1293" lon="-72.33148">
        <ele>416.1</ele>
      </trkpt>
      <trkpt lat="45.12952" lon="-72.33122">
        <ele>420.7</ele>
      </trkpt>
      <trkpt lat="45.12972" lon="-72.33108">
        <ele>422.8</ele>
      </trkpt>
      <trkpt lat="45.12985" lon="-72.33103">
        <ele>424.3</ele>
      </trkpt>
      <trkpt lat="45.12993" lon="-72.33095">
        <ele>425.2</ele>
      </trkpt>
      <trkpt lat="45.13006" lon="-72.33077">
        <ele>427.3</ele>
      </trkpt>
      <trkpt lat="45.13013" lon="-72.33054">
        <ele>428.4</ele>
      </trkpt>
      <trkpt lat="45.13019" lon="-72.33045">
        <ele>428.9</ele>
      </trkpt>
      <trkpt lat="45.13037" lon="-72.33027">
        <ele>429.2</ele>
      </trkpt>
      <trkpt lat="45.13047" lon="-72.33022">
        <ele>428.7</ele>
      </trkpt>
      <trkpt lat="45.13067" lon="-72.32996">
        <ele>426.1</ele>
      </trkpt>
      <trkpt lat="45.13096" lon="-72.32938">
        <ele>422.6</ele>
      </trkpt>
      <trkpt lat="45.13108" lon="-72.32898">
        <ele>421.6</ele>
      </trkpt>
      <trkpt lat="45.13123" lon="-72.32862">
        <ele>420.5</ele>
      </trkpt>
      <trkpt lat="45.131575" lon="-72.32815">
        <ele>417.3</ele>
      </trkpt>
      <trkpt lat="45.13192" lon="-72.32768">
        <ele>414.2</ele>
      </trkpt>
      <trkpt lat="45.13231" lon="-72.32692">
        <ele>407.5</ele>
      </trkpt>
      <trkpt lat="45.13274" lon="-72.3262">
        <ele>411</ele>
      </trkpt>
      <trkpt lat="45.13314" lon="-72.32544">
        <ele>414.1</ele>
      </trkpt>
      <trkpt lat="45.13333" lon="-72.32512">
        <ele>415.7</ele>
      </trkpt>
      <trkpt lat="45.13352" lon="-72.32495">
        <ele>417.3</ele>
      </trkpt>
      <trkpt lat="45.13363" lon="-72.32486">
        <ele>417.9</ele>
      </trkpt>
      <trkpt lat="45.13415" lon="-72.32468">
        <ele>419.9</ele>
      </trkpt>
      <trkpt lat="45.13492" lon="-72.32446">
        <ele>417.8</ele>
      </trkpt>
      <trkpt lat="45.13532" lon="-72.32442">
        <ele>417.1</ele>
      </trkpt>
      <trkpt lat="45.135785" lon="-72.324459">
        <ele>417.8</ele>
      </trkpt>
      <trkpt lat="45.13625" lon="-72.3245">
        <ele>417</ele>
      </trkpt>
      <trkpt lat="45.13686" lon="-72.32446">
        <ele>415.1</ele>
      </trkpt>
      <trkpt lat="45.13756" lon="-72.3244">
        <ele>415.9</ele>
      </trkpt>
      <trkpt lat="45.13788" lon="-72.32433">
        <ele>415.7</ele>
      </trkpt>
      <trkpt lat="45.13845" lon="-72.32419">
        <ele>414.6</ele>
      </trkpt>
      <trkpt lat="45.1389" lon="-72.324">
        <ele>414.4</ele>
      </trkpt>
      <trkpt lat="45.13943" lon="-72.32369">
        <ele>414.4</ele>
      </trkpt>
      <trkpt lat="45.13997" lon="-72.32325">
        <ele>413.5</ele>
      </trkpt>
      <trkpt lat="45.14016" lon="-72.32307">
        <ele>413.3</ele>
      </trkpt>
      <trkpt lat="45.14044" lon="-72.32284">
        <ele>413.9</ele>
      </trkpt>
      <trkpt lat="45.14064" lon="-72.32271">
        <ele>414.5</ele>
      </trkpt>
      <trkpt lat="45.14101" lon="-72.32243">
        <ele>415.5</ele>
      </trkpt>
      <trkpt lat="45.14145" lon="-72.32204">
        <ele>418</ele>
      </trkpt>
      <trkpt lat="45.14178" lon="-72.32185">
        <ele>419.1</ele>
      </trkpt>
      <trkpt lat="45.14255" lon="-72.32154">
        <ele>418.7</ele>
      </trkpt>
      <trkpt lat="45.14322" lon="-72.32141">
        <ele>415.1</ele>
      </trkpt>
      <trkpt lat="45.1441" lon="-72.32124">
        <ele>408.2</ele>
      </trkpt>
      <trkpt lat="45.144903" lon="-72.320953">
        <ele>404.8</ele>
      </trkpt>
      <trkpt lat="45.145706" lon="-72.320666">
        <ele>399.5</ele>
      </trkpt>
      <trkpt lat="45.14651" lon="-72.32038">
        <ele>393.8</ele>
      </trkpt>
      <trkpt lat="45.14727" lon="-72.32002">
        <ele>391</ele>
      </trkpt>
      <trkpt lat="45.14752" lon="-72.31984">
        <ele>390.4</ele>
      </trkpt>
      <trkpt lat="45.14784" lon="-72.31952">
        <ele>386.5</ele>
      </trkpt>
      <trkpt lat="45.14792" lon="-72.3194">
        <ele>385.4</ele>
      </trkpt>
      <trkpt lat="45.14827" lon="-72.31908">
        <ele>380.6</ele>
      </trkpt>
      <trkpt lat="45.14847" lon="-72.31895">
        <ele>379.8</ele>
      </trkpt>
      <trkpt lat="45.14877" lon="-72.31883">
        <ele>376.3</ele>
      </trkpt>
      <trkpt lat="45.14876" lon="-72.31883">
        <ele>376.5</ele>
      </trkpt>
      <trkpt lat="45.14902" lon="-72.31872">
        <ele>374.1</ele>
      </trkpt>
      <trkpt lat="45.14922" lon="-72.31868">
        <ele>372.7</ele>
      </trkpt>
      <trkpt lat="45.14946" lon="-72.31868">
        <ele>370.8</ele>
      </trkpt>
      <trkpt lat="45.14969" lon="-72.31872">
        <ele>369</ele>
      </trkpt>
      <trkpt lat="45.14984" lon="-72.31872">
        <ele>367.1</ele>
      </trkpt>
      <trkpt lat="45.14991" lon="-72.31868">
        <ele>367.1</ele>
      </trkpt>
      <trkpt lat="45.15025" lon="-72.31846">
        <ele>363.1</ele>
      </trkpt>
      <trkpt lat="45.15094" lon="-72.318146">
        <ele>357.9</ele>
      </trkpt>
      <trkpt lat="45.15163" lon="-72.317833">
        <ele>355.2</ele>
      </trkpt>
      <trkpt lat="45.15232" lon="-72.31752">
        <ele>352.5</ele>
      </trkpt>
      <trkpt lat="45.1526" lon="-72.31746">
        <ele>350.6</ele>
      </trkpt>
      <trkpt lat="45.15315" lon="-72.31738">
        <ele>345.2</ele>
      </trkpt>
      <trkpt lat="45.15361" lon="-72.31725">
        <ele>339.8</ele>
      </trkpt>
      <trkpt lat="45.15418" lon="-72.31716">
        <ele>336</ele>
      </trkpt>
      <trkpt lat="45.15483" lon="-72.31729">
        <ele>333.8</ele>
      </trkpt>
      <trkpt lat="45.15528" lon="-72.317429">
        <ele>332.9</ele>
      </trkpt>
      <trkpt lat="45.15573" lon="-72.31757">
        <ele>333.1</ele>
      </trkpt>
      <trkpt lat="45.15648" lon="-72.31769">
        <ele>335.9</ele>
      </trkpt>
      <trkpt lat="45.157295" lon="-72.317702">
        <ele>334.6</ele>
      </trkpt>
      <trkpt lat="45.15811" lon="-72.317714">
        <ele>331.6</ele>
      </trkpt>
      <trkpt lat="45.158925" lon="-72.317727">
        <ele>323.8</ele>
      </trkpt>
      <trkpt lat="45.15974" lon="-72.31774">
        <ele>315.6</ele>
      </trkpt>
      <trkpt lat="45.16009" lon="-72.31774">
        <ele>312.1</ele>
      </trkpt>
      <trkpt lat="45.16079" lon="-72.31755">
        <ele>306.9</ele>
      </trkpt>
      <trkpt lat="45.16101" lon="-72.31739">
        <ele>306.3</ele>
      </trkpt>
      <trkpt lat="45.160815" lon="-72.316204">
        <ele>302.6</ele>
      </trkpt>
      <trkpt lat="45.16062" lon="-72.31502">
        <ele>300.4</ele>
      </trkpt>
      <trkpt lat="45.160535" lon="-72.314339">
        <ele>297.6</ele>
      </trkpt>
      <trkpt lat="45.16045" lon="-72.31366">
        <ele>292</ele>
      </trkpt>
      <trkpt lat="45.16052" lon="-72.31287">
        <ele>287.6</ele>
      </trkpt>
      <trkpt lat="45.16071" lon="-72.31201">
        <ele>287</ele>
      </trkpt>
      <trkpt lat="45.16072" lon="-72.31174">
        <ele>287.3</ele>
      </trkpt>
      <trkpt lat="45.16066" lon="-72.31099">
        <ele>287</ele>
      </trkpt>
      <trkpt lat="45.16063" lon="-72.31085">
        <ele>285.8</ele>
      </trkpt>
      <trkpt lat="45.16059" lon="-72.31058">
        <ele>284.7</ele>
      </trkpt>
      <trkpt lat="45.160395" lon="-72.309904">
        <ele>282.3</ele>
      </trkpt>
      <trkpt lat="45.1602" lon="-72.30923">
        <ele>278.3</ele>
      </trkpt>
      <trkpt lat="45.16009" lon="-72.30892">
        <ele>277.5</ele>
      </trkpt>
      <trkpt lat="45.15987" lon="-72.30851">
        <ele>274</ele>
      </trkpt>
      <trkpt lat="45.15981" lon="-72.30833">
        <ele>274</ele>
      </trkpt>
      <trkpt lat="45.1597" lon="-72.30816">
        <ele>271.9</ele>
      </trkpt>
      <trkpt lat="45.159213" lon="-72.307236">
        <ele>262.5</ele>
      </trkpt>
      <trkpt lat="45.158726" lon="-72.306313">
        <ele>262.3</ele>
      </trkpt>
      <trkpt lat="45.15824" lon="-72.30539">
        <ele>264</ele>
      </trkpt>
      <trkpt lat="45.15793" lon="-72.304759">
        <ele>260</ele>
      </trkpt>
      <trkpt lat="45.15762" lon="-72.30413">
        <ele>255.8</ele>
      </trkpt>
      <trkpt lat="45.1573" lon="-72.30324">
        <ele>251.8</ele>
      </trkpt>
      <trkpt lat="45.15716" lon="-72.30292">
        <ele>250.1</ele>
      </trkpt>
      <trkpt lat="45.15701" lon="-72.3027">
        <ele>247.6</ele>
      </trkpt>
      <trkpt lat="45.15661" lon="-72.302224">
        <ele>240.3</ele>
      </trkpt>
      <trkpt lat="45.15621" lon="-72.30175">
        <ele>236.3</ele>
      </trkpt>
      <trkpt lat="45.15605" lon="-72.30149">
        <ele>232.8</ele>
      </trkpt>
      <trkpt lat="45.15579" lon="-72.30096">
        <ele>227.1</ele>
      </trkpt>
      <trkpt lat="45.15565" lon="-72.3006">
        <ele>223</ele>
      </trkpt>
      <trkpt lat="45.15534" lon="-72.29965">
        <ele>218.2</ele>
      </trkpt>
      <trkpt lat="45.15513" lon="-72.29907">
        <ele>220.1</ele>
      </trkpt>
      <trkpt lat="45.155" lon="-72.29889">
        <ele>221.3</ele>
      </trkpt>
      <trkpt lat="45.15487" lon="-72.2988">
        <ele>223.2</ele>
      </trkpt>
      <trkpt lat="45.15473" lon="-72.29872">
        <ele>225.8</ele>
      </trkpt>
      <trkpt lat="45.15404" lon="-72.29862">
        <ele>232.4</ele>
      </trkpt>
      <trkpt lat="45.15371" lon="-72.29854">
        <ele>234.9</ele>
      </trkpt>
      <trkpt lat="45.15315" lon="-72.2984">
        <ele>240.5</ele>
      </trkpt>
      <trkpt lat="45.15228" lon="-72.29831">
        <ele>240.3</ele>
      </trkpt>
      <trkpt lat="45.1518" lon="-72.29817">
        <ele>237.1</ele>
      </trkpt>
      <trkpt lat="45.15148" lon="-72.2979">
        <ele>236.2</ele>
      </trkpt>
      <trkpt lat="45.15135" lon="-72.29764">
        <ele>235.9</ele>
      </trkpt>
      <trkpt lat="45.15131" lon="-72.29732">
        <ele>235.3</ele>
      </trkpt>
      <trkpt lat="45.1514" lon="-72.29653">
        <ele>230</ele>
      </trkpt>
      <trkpt lat="45.151445" lon="-72.295835">
        <ele>225.9</ele>
      </trkpt>
      <trkpt lat="45.15149" lon="-72.29514">
        <ele>222.2</ele>
      </trkpt>
      <trkpt lat="45.15149" lon="-72.29499">
        <ele>221.4</ele>
      </trkpt>
      <trkpt lat="45.15145" lon="-72.29481">
        <ele>220.5</ele>
      </trkpt>
      <trkpt lat="45.15135" lon="-72.29469">
        <ele>219.6</ele>
      </trkpt>
      <trkpt lat="45.15116" lon="-72.29464">
        <ele>218.7</ele>
      </trkpt>
      <trkpt lat="45.150595" lon="-72.29469">
        <ele>220.9</ele>
      </trkpt>
      <trkpt lat="45.15003" lon="-72.29474">
        <ele>227.3</ele>
      </trkpt>
      <trkpt lat="45.14917" lon="-72.29482">
        <ele>239.7</ele>
      </trkpt>
      <trkpt lat="45.148459" lon="-72.294865">
        <ele>247.6</ele>
      </trkpt>
      <trkpt lat="45.14775" lon="-72.29491">
        <ele>253.5</ele>
      </trkpt>
      <trkpt lat="45.146884" lon="-72.294853">
        <ele>258.3</ele>
      </trkpt>
      <trkpt lat="45.146018" lon="-72.294797">
        <ele>264.6</ele>
      </trkpt>
      <trkpt lat="45.145152" lon="-72.294741">
        <ele>271.9</ele>
      </trkpt>
      <trkpt lat="45.144286" lon="-72.294685">
        <ele>279.2</ele>
      </trkpt>
      <trkpt lat="45.14342" lon="-72.29463">
        <ele>282.3</ele>
      </trkpt>
      <trkpt lat="45.14288" lon="-72.294589">
        <ele>282.8</ele>
      </trkpt>
      <trkpt lat="45.14234" lon="-72.29455">
        <ele>282.8</ele>
      </trkpt>
      <trkpt lat="45.14164" lon="-72.29448">
        <ele>281.7</ele>
      </trkpt>
      <trkpt lat="45.14079" lon="-72.294439">
        <ele>280.4</ele>
      </trkpt>
      <trkpt lat="45.13994" lon="-72.294399">
        <ele>276.9</ele>
      </trkpt>
      <trkpt lat="45.13909" lon="-72.294359">
        <ele>274.7</ele>
      </trkpt>
      <trkpt lat="45.13824" lon="-72.294319">
        <ele>273.5</ele>
      </trkpt>
      <trkpt lat="45.13739" lon="-72.294279">
        <ele>274</ele>
      </trkpt>
      <trkpt lat="45.13654" lon="-72.294239">
        <ele>273.4</ele>
      </trkpt>
      <trkpt lat="45.13569" lon="-72.2942">
        <ele>272.9</ele>
      </trkpt>
      <trkpt lat="45.134826" lon="-72.294206">
        <ele>273.8</ele>
      </trkpt>
      <trkpt lat="45.133963" lon="-72.294213">
        <ele>274.2</ele>
      </trkpt>
      <trkpt lat="45.1331" lon="-72.29422">
        <ele>273.5</ele>
      </trkpt>
      <trkpt lat="45.132235" lon="-72.29425">
        <ele>272.1</ele>
      </trkpt>
      <trkpt lat="45.13137" lon="-72.29428">
        <ele>270.8</ele>
      </trkpt>
      <trkpt lat="45.130794" lon="-72.294279">
        <ele>269.8</ele>
      </trkpt>
      <trkpt lat="45.13022" lon="-72.29428">
        <ele>268.4</ele>
      </trkpt>
      <trkpt lat="45.129629" lon="-72.294325">
        <ele>267.4</ele>
      </trkpt>
      <trkpt lat="45.12904" lon="-72.29437">
        <ele>265.4</ele>
      </trkpt>
      <trkpt lat="45.12851" lon="-72.29451">
        <ele>263.3</ele>
      </trkpt>
      <trkpt lat="45.12807" lon="-72.29468">
        <ele>260.7</ele>
      </trkpt>
      <trkpt lat="45.1274" lon="-72.29504">
        <ele>255.1</ele>
      </trkpt>
      <trkpt lat="45.1266" lon="-72.29554">
        <ele>248.7</ele>
      </trkpt>
      <trkpt lat="45.126195" lon="-72.29583">
        <ele>246.8</ele>
      </trkpt>
      <trkpt lat="45.12579" lon="-72.29612">
        <ele>246.8</ele>
      </trkpt>
      <trkpt lat="45.125136" lon="-72.296566">
        <ele>251.3</ele>
      </trkpt>
      <trkpt lat="45.124483" lon="-72.297013">
        <ele>259.7</ele>
      </trkpt>
      <trkpt lat="45.12383" lon="-72.29746">
        <ele>267.3</ele>
      </trkpt>
      <trkpt lat="45.123375" lon="-72.29775">
        <ele>270.5</ele>
      </trkpt>
      <trkpt lat="45.12292" lon="-72.29804">
        <ele>273.9</ele>
      </trkpt>
      <trkpt lat="45.122415" lon="-72.298315">
        <ele>276.7</ele>
      </trkpt>
      <trkpt lat="45.12191" lon="-72.29859">
        <ele>279</ele>
      </trkpt>
      <trkpt lat="45.1219" lon="-72.29859">
        <ele>279</ele>
      </trkpt>
      <trkpt lat="45.12139" lon="-72.29892">
        <ele>281.9</ele>
      </trkpt>
      <trkpt lat="45.12088" lon="-72.29925">
        <ele>284.4</ele>
      </trkpt>
      <trkpt lat="45.12033" lon="-72.29962">
        <ele>287</ele>
      </trkpt>
      <trkpt lat="45.11978" lon="-72.29999">
        <ele>290.4</ele>
      </trkpt>
      <trkpt lat="45.11923" lon="-72.30036">
        <ele>291.8</ele>
      </trkpt>
      <trkpt lat="45.11888" lon="-72.3005">
        <ele>292.4</ele>
      </trkpt>
      <trkpt lat="45.1183" lon="-72.30069">
        <ele>293.4</ele>
      </trkpt>
      <trkpt lat="45.117473" lon="-72.300836">
        <ele>293.8</ele>
      </trkpt>
      <trkpt lat="45.116646" lon="-72.300983">
        <ele>294.4</ele>
      </trkpt>
      <trkpt lat="45.11582" lon="-72.30113">
        <ele>295.5</ele>
      </trkpt>
      <trkpt lat="45.11493" lon="-72.301266">
        <ele>296.3</ele>
      </trkpt>
      <trkpt lat="45.11404" lon="-72.301402">
        <ele>297.2</ele>
      </trkpt>
      <trkpt lat="45.11315" lon="-72.301538">
        <ele>298</ele>
      </trkpt>
      <trkpt lat="45.11226" lon="-72.301674">
        <ele>300.5</ele>
      </trkpt>
      <trkpt lat="45.11137" lon="-72.30181">
        <ele>303.5</ele>
      </trkpt>
      <trkpt lat="45.110693" lon="-72.30192">
        <ele>305.1</ele>
      </trkpt>
      <trkpt lat="45.110016" lon="-72.30203">
        <ele>306.1</ele>
      </trkpt>
      <trkpt lat="45.10934" lon="-72.30214">
        <ele>306.4</ele>
      </trkpt>
      <trkpt lat="45.10898" lon="-72.30225">
        <ele>306.4</ele>
      </trkpt>
      <trkpt lat="45.108385" lon="-72.30245">
        <ele>305.5</ele>
      </trkpt>
      <trkpt lat="45.10779" lon="-72.30265">
        <ele>304</ele>
      </trkpt>
      <trkpt lat="45.106946" lon="-72.302908">
        <ele>299.9</ele>
      </trkpt>
      <trkpt lat="45.106102" lon="-72.303166">
        <ele>296.2</ele>
      </trkpt>
      <trkpt lat="45.105258" lon="-72.303424">
        <ele>293.3</ele>
      </trkpt>
      <trkpt lat="45.104414" lon="-72.303682">
        <ele>291.9</ele>
      </trkpt>
      <trkpt lat="45.10357" lon="-72.30394">
        <ele>292.9</ele>
      </trkpt>
      <trkpt lat="45.102866" lon="-72.30411">
        <ele>294.9</ele>
      </trkpt>
      <trkpt lat="45.102163" lon="-72.30428">
        <ele>296.3</ele>
      </trkpt>
      <trkpt lat="45.10146" lon="-72.30445">
        <ele>297</ele>
      </trkpt>
      <trkpt lat="45.10063" lon="-72.304716">
        <ele>296.9</ele>
      </trkpt>
      <trkpt lat="45.0998" lon="-72.304983">
        <ele>294.5</ele>
      </trkpt>
      <trkpt lat="45.09897" lon="-72.30525">
        <ele>288.5</ele>
      </trkpt>
      <trkpt lat="45.09832" lon="-72.3054">
        <ele>283.7</ele>
      </trkpt>
      <trkpt lat="45.09831" lon="-72.3054">
        <ele>283.6</ele>
      </trkpt>
      <trkpt lat="45.09804" lon="-72.30546">
        <ele>281.2</ele>
      </trkpt>
      <trkpt lat="45.09731" lon="-72.305588">
        <ele>276.6</ele>
      </trkpt>
      <trkpt lat="45.09658" lon="-72.305716">
        <ele>275</ele>
      </trkpt>
      <trkpt lat="45.09585" lon="-72.305844">
        <ele>275.1</ele>
      </trkpt>
      <trkpt lat="45.09512" lon="-72.305972">
        <ele>273.3</ele>
      </trkpt>
      <trkpt lat="45.09439" lon="-72.3061">
        <ele>269.3</ele>
      </trkpt>
      <trkpt lat="45.09385" lon="-72.30611">
        <ele>265.8</ele>
      </trkpt>
      <trkpt lat="45.093103" lon="-72.306046">
        <ele>263.6</ele>
      </trkpt>
      <trkpt lat="45.092356" lon="-72.305983">
        <ele>262.1</ele>
      </trkpt>
      <trkpt lat="45.09161" lon="-72.30592">
        <ele>258.9</ele>
      </trkpt>
      <trkpt lat="45.0913" lon="-72.30588">
        <ele>257.7</ele>
      </trkpt>
      <trkpt lat="45.091" lon="-72.30579">
        <ele>256.9</ele>
      </trkpt>
      <trkpt lat="45.09067" lon="-72.30561">
        <ele>256.5</ele>
      </trkpt>
      <trkpt lat="45.089993" lon="-72.305233">
        <ele>256.1</ele>
      </trkpt>
      <trkpt lat="45.089316" lon="-72.304856">
        <ele>254.2</ele>
      </trkpt>
      <trkpt lat="45.08864" lon="-72.30448">
        <ele>251.1</ele>
      </trkpt>
      <trkpt lat="45.08802" lon="-72.30404">
        <ele>251.1</ele>
      </trkpt>
      <trkpt lat="45.08767" lon="-72.30392">
        <ele>252.1</ele>
      </trkpt>
      <trkpt lat="45.08699" lon="-72.303779">
        <ele>260.3</ele>
      </trkpt>
      <trkpt lat="45.08631" lon="-72.30364">
        <ele>266.3</ele>
      </trkpt>
      <trkpt lat="45.08599" lon="-72.3035">
        <ele>271</ele>
      </trkpt>
      <trkpt lat="45.08574" lon="-72.30336">
        <ele>273.1</ele>
      </trkpt>
      <trkpt lat="45.08524" lon="-72.30292">
        <ele>277</ele>
      </trkpt>
      <trkpt lat="45.0851" lon="-72.30284">
        <ele>278</ele>
      </trkpt>
      <trkpt lat="45.0848" lon="-72.30265">
        <ele>282.1</ele>
      </trkpt>
      <trkpt lat="45.08398" lon="-72.302247">
        <ele>288</ele>
      </trkpt>
      <trkpt lat="45.08316" lon="-72.301844">
        <ele>290.9</ele>
      </trkpt>
      <trkpt lat="45.08234" lon="-72.301442">
        <ele>293.1</ele>
      </trkpt>
      <trkpt lat="45.08152" lon="-72.30104">
        <ele>295.2</ele>
      </trkpt>
      <trkpt lat="45.08123" lon="-72.30095">
        <ele>295.9</ele>
      </trkpt>
      <trkpt lat="45.08053" lon="-72.30086">
        <ele>298.5</ele>
      </trkpt>
      <trkpt lat="45.07984" lon="-72.30104">
        <ele>301.3</ele>
      </trkpt>
      <trkpt lat="45.07953" lon="-72.3012">
        <ele>302</ele>
      </trkpt>
      <trkpt lat="45.078713" lon="-72.301673">
        <ele>302.7</ele>
      </trkpt>
      <trkpt lat="45.077896" lon="-72.302146">
        <ele>304.2</ele>
      </trkpt>
      <trkpt lat="45.07708" lon="-72.30262">
        <ele>307</ele>
      </trkpt>
      <trkpt lat="45.07682" lon="-72.30279">
        <ele>309.1</ele>
      </trkpt>
      <trkpt lat="45.07608" lon="-72.30338">
        <ele>315.8</ele>
      </trkpt>
      <trkpt lat="45.07534" lon="-72.30386">
        <ele>318.3</ele>
      </trkpt>
      <trkpt lat="45.07467" lon="-72.30408">
        <ele>317.5</ele>
      </trkpt>
      <trkpt lat="45.07422" lon="-72.30435">
        <ele>316.2</ele>
      </trkpt>
      <trkpt lat="45.073665" lon="-72.304735">
        <ele>316.1</ele>
      </trkpt>
      <trkpt lat="45.07311" lon="-72.30512">
        <ele>316.1</ele>
      </trkpt>
      <trkpt lat="45.072417" lon="-72.30555">
        <ele>316.5</ele>
      </trkpt>
      <trkpt lat="45.071725" lon="-72.30598">
        <ele>315.9</ele>
      </trkpt>
      <trkpt lat="45.071032" lon="-72.30641">
        <ele>315.8</ele>
      </trkpt>
      <trkpt lat="45.07034" lon="-72.30684">
        <ele>317.3</ele>
      </trkpt>
      <trkpt lat="45.06986" lon="-72.307165">
        <ele>318.4</ele>
      </trkpt>
      <trkpt lat="45.06938" lon="-72.30749">
        <ele>319.3</ele>
      </trkpt>
      <trkpt lat="45.06898" lon="-72.3078">
        <ele>319.7</ele>
      </trkpt>
      <trkpt lat="45.06837" lon="-72.308205">
        <ele>320.3</ele>
      </trkpt>
      <trkpt lat="45.06776" lon="-72.30861">
        <ele>320.4</ele>
      </trkpt>
      <trkpt lat="45.067112" lon="-72.308992">
        <ele>318.9</ele>
      </trkpt>
      <trkpt lat="45.066465" lon="-72.309375">
        <ele>317.6</ele>
      </trkpt>
      <trkpt lat="45.065817" lon="-72.309757">
        <ele>317</ele>
      </trkpt>
      <trkpt lat="45.06517" lon="-72.31014">
        <ele>316.6</ele>
      </trkpt>
      <trkpt lat="45.06494" lon="-72.31026">
        <ele>316.4</ele>
      </trkpt>
      <trkpt lat="45.06473" lon="-72.31035">
        <ele>316.4</ele>
      </trkpt>
      <trkpt lat="45.06407" lon="-72.31052">
        <ele>316.5</ele>
      </trkpt>
      <trkpt lat="45.063585" lon="-72.310595">
        <ele>316.8</ele>
      </trkpt>
      <trkpt lat="45.0631" lon="-72.31067">
        <ele>317.1</ele>
      </trkpt>
      <trkpt lat="45.06246" lon="-72.3108">
        <ele>316.6</ele>
      </trkpt>
      <trkpt lat="45.06187" lon="-72.31098">
        <ele>315.8</ele>
      </trkpt>
      <trkpt lat="45.06128" lon="-72.31116">
        <ele>314.7</ele>
      </trkpt>
      <trkpt lat="45.06069" lon="-72.31134">
        <ele>314.9</ele>
      </trkpt>
      <trkpt lat="45.06022" lon="-72.31147">
        <ele>315.1</ele>
      </trkpt>
      <trkpt lat="45.05983" lon="-72.31147">
        <ele>315.7</ele>
      </trkpt>
      <trkpt lat="45.05929" lon="-72.31138">
        <ele>317.4</ele>
      </trkpt>
      <trkpt lat="45.05876" lon="-72.31121">
        <ele>318.3</ele>
      </trkpt>
      <trkpt lat="45.058005" lon="-72.311069">
        <ele>318.8</ele>
      </trkpt>
      <trkpt lat="45.05725" lon="-72.31093">
        <ele>319.3</ele>
      </trkpt>
      <trkpt lat="45.0567" lon="-72.3108">
        <ele>320.2</ele>
      </trkpt>
      <trkpt lat="45.056195" lon="-72.310594">
        <ele>320.7</ele>
      </trkpt>
      <trkpt lat="45.05569" lon="-72.31039">
        <ele>321.7</ele>
      </trkpt>
      <trkpt lat="45.05521" lon="-72.31005">
        <ele>324.2</ele>
      </trkpt>
      <trkpt lat="45.0547" lon="-72.30963">
        <ele>327.7</ele>
      </trkpt>
      <trkpt lat="45.05459" lon="-72.30955">
        <ele>327.9</ele>
      </trkpt>
      <trkpt lat="45.05435" lon="-72.3095">
        <ele>327.8</ele>
      </trkpt>
      <trkpt lat="45.05378" lon="-72.30923">
        <ele>327</ele>
      </trkpt>
      <trkpt lat="45.05331" lon="-72.30896">
        <ele>327.2</ele>
      </trkpt>
      <trkpt lat="45.05256" lon="-72.308524">
        <ele>327.8</ele>
      </trkpt>
      <trkpt lat="45.05181" lon="-72.30809">
        <ele>327.8</ele>
      </trkpt>
      <trkpt lat="45.05182" lon="-72.309084">
        <ele>320.3</ele>
      </trkpt>
      <trkpt lat="45.05183" lon="-72.31008">
        <ele>316.4</ele>
      </trkpt>
      <trkpt lat="45.051865" lon="-72.311139">
        <ele>314.2</ele>
      </trkpt>
      <trkpt lat="45.0519" lon="-72.3122">
        <ele>310.7</ele>
      </trkpt>
      <trkpt lat="45.05185" lon="-72.31308">
        <ele>304.6</ele>
      </trkpt>
      <trkpt lat="45.05168" lon="-72.31362">
        <ele>302.4</ele>
      </trkpt>
      <trkpt lat="45.0513" lon="-72.314695">
        <ele>297.4</ele>
      </trkpt>
      <trkpt lat="45.05092" lon="-72.31577">
        <ele>296.6</ele>
      </trkpt>
      <trkpt lat="45.050545" lon="-72.31691">
        <ele>294.6</ele>
      </trkpt>
      <trkpt lat="45.05017" lon="-72.31805">
        <ele>294.4</ele>
      </trkpt>
      <trkpt lat="45.04989" lon="-72.318873">
        <ele>298.3</ele>
      </trkpt>
      <trkpt lat="45.04961" lon="-72.319696">
        <ele>301.5</ele>
      </trkpt>
      <trkpt lat="45.04933" lon="-72.32052">
        <ele>302.6</ele>
      </trkpt>
      <trkpt lat="45.04893" lon="-72.321623">
        <ele>303.7</ele>
      </trkpt>
      <trkpt lat="45.04853" lon="-72.322726">
        <ele>305.3</ele>
      </trkpt>
      <trkpt lat="45.04813" lon="-72.32383">
        <ele>306.8</ele>
      </trkpt>
      <trkpt lat="45.04797" lon="-72.32446">
        <ele>306.3</ele>
      </trkpt>
      <trkpt lat="45.04792" lon="-72.32481">
        <ele>306.1</ele>
      </trkpt>
      <trkpt lat="45.047855" lon="-72.32582">
        <ele>304.8</ele>
      </trkpt>
      <trkpt lat="45.04779" lon="-72.32683">
        <ele>302.1</ele>
      </trkpt>
      <trkpt lat="45.04775" lon="-72.32768">
        <ele>299.7</ele>
      </trkpt>
      <trkpt lat="45.04771" lon="-72.32853">
        <ele>298.8</ele>
      </trkpt>
      <trkpt lat="45.04767" lon="-72.32938">
        <ele>298.7</ele>
      </trkpt>
      <trkpt lat="45.04765" lon="-72.32956">
        <ele>298.7</ele>
      </trkpt>
      <trkpt lat="45.04757" lon="-72.32984">
        <ele>298.8</ele>
      </trkpt>
      <trkpt lat="45.04742" lon="-72.33019">
        <ele>298.6</ele>
      </trkpt>
      <trkpt lat="45.047115" lon="-72.33076">
        <ele>297.7</ele>
      </trkpt>
      <trkpt lat="45.04681" lon="-72.33133">
        <ele>297.2</ele>
      </trkpt>
      <trkpt lat="45.0468" lon="-72.33133">
        <ele>297.2</ele>
      </trkpt>
      <trkpt lat="45.0466" lon="-72.33171">
        <ele>296.9</ele>
      </trkpt>
      <trkpt lat="45.04614" lon="-72.332505">
        <ele>293.3</ele>
      </trkpt>
      <trkpt lat="45.04568" lon="-72.3333">
        <ele>290.4</ele>
      </trkpt>
      <trkpt lat="45.04522" lon="-72.334095">
        <ele>288.6</ele>
      </trkpt>
      <trkpt lat="45.04476" lon="-72.33489">
        <ele>286.2</ele>
      </trkpt>
      <trkpt lat="45.04437" lon="-72.33578">
        <ele>281.4</ele>
      </trkpt>
      <trkpt lat="45.04427" lon="-72.33619">
        <ele>279.9</ele>
      </trkpt>
      <trkpt lat="45.044145" lon="-72.336815">
        <ele>277.8</ele>
      </trkpt>
      <trkpt lat="45.04402" lon="-72.33744">
        <ele>277.2</ele>
      </trkpt>
      <trkpt lat="45.04394" lon="-72.33771">
        <ele>276.8</ele>
      </trkpt>
      <trkpt lat="45.04375" lon="-72.33824">
        <ele>276</ele>
      </trkpt>
      <trkpt lat="45.04356" lon="-72.33869">
        <ele>275.6</ele>
      </trkpt>
      <trkpt lat="45.04334" lon="-72.33909">
        <ele>275.3</ele>
      </trkpt>
      <trkpt lat="45.04321" lon="-72.33923">
        <ele>275.2</ele>
      </trkpt>
      <trkpt lat="45.04286" lon="-72.33949">
        <ele>274.2</ele>
      </trkpt>
      <trkpt lat="45.042125" lon="-72.339945">
        <ele>272.4</ele>
      </trkpt>
      <trkpt lat="45.04139" lon="-72.3404">
        <ele>269.4</ele>
      </trkpt>
      <trkpt lat="45.040756" lon="-72.34083">
        <ele>266.4</ele>
      </trkpt>
      <trkpt lat="45.040123" lon="-72.34126">
        <ele>264</ele>
      </trkpt>
      <trkpt lat="45.03949" lon="-72.34169">
        <ele>263.6</ele>
      </trkpt>
      <trkpt lat="45.03945" lon="-72.34168">
        <ele>263.6</ele>
      </trkpt>
      <trkpt lat="45.03956" lon="-72.34269">
        <ele>260.3</ele>
      </trkpt>
      <trkpt lat="45.03979" lon="-72.34388">
        <ele>257</ele>
      </trkpt>
      <trkpt lat="45.03984" lon="-72.34404">
        <ele>256.5</ele>
      </trkpt>
      <trkpt lat="45.04018" lon="-72.34514">
        <ele>254.9</ele>
      </trkpt>
      <trkpt lat="45.040385" lon="-72.345944">
        <ele>253.7</ele>
      </trkpt>
      <trkpt lat="45.04059" lon="-72.34675">
        <ele>252</ele>
      </trkpt>
      <trkpt lat="45.040907" lon="-72.347702">
        <ele>247.6</ele>
      </trkpt>
      <trkpt lat="45.041225" lon="-72.348654">
        <ele>244.6</ele>
      </trkpt>
      <trkpt lat="45.041542" lon="-72.349607">
        <ele>239.5</ele>
      </trkpt>
      <trkpt lat="45.04186" lon="-72.35056">
        <ele>234.7</ele>
      </trkpt>
      <trkpt lat="45.04214" lon="-72.3515">
        <ele>232.6</ele>
      </trkpt>
      <trkpt lat="45.04218" lon="-72.35175">
        <ele>232</ele>
      </trkpt>
      <trkpt lat="45.041715" lon="-72.351734">
        <ele>230.8</ele>
      </trkpt>
      <trkpt lat="45.04125" lon="-72.35172">
        <ele>231.6</ele>
      </trkpt>
      <trkpt lat="45.040504" lon="-72.35172">
        <ele>233.9</ele>
      </trkpt>
      <trkpt lat="45.039759" lon="-72.35172">
        <ele>235.9</ele>
      </trkpt>
      <trkpt lat="45.039014" lon="-72.35172">
        <ele>238.6</ele>
      </trkpt>
      <trkpt lat="45.03827" lon="-72.35172">
        <ele>240.9</ele>
      </trkpt>
      <trkpt lat="45.037765" lon="-72.351745">
        <ele>243.2</ele>
      </trkpt>
      <trkpt lat="45.03726" lon="-72.35177">
        <ele>244.9</ele>
      </trkpt>
      <trkpt lat="45.03689" lon="-72.35172">
        <ele>246.8</ele>
      </trkpt>
      <trkpt lat="45.03629" lon="-72.35168">
        <ele>247.6</ele>
      </trkpt>
      <trkpt lat="45.035474" lon="-72.35168">
        <ele>247.5</ele>
      </trkpt>
      <trkpt lat="45.03466" lon="-72.35168">
        <ele>245.5</ele>
      </trkpt>
      <trkpt lat="45.034199" lon="-72.351705">
        <ele>244.5</ele>
      </trkpt>
      <trkpt lat="45.03374" lon="-72.35173">
        <ele>243.3</ele>
      </trkpt>
      <trkpt lat="45.033035" lon="-72.35175">
        <ele>241.4</ele>
      </trkpt>
      <trkpt lat="45.03233" lon="-72.35177">
        <ele>240.6</ele>
      </trkpt>
      <trkpt lat="45.031435" lon="-72.35177">
        <ele>240.5</ele>
      </trkpt>
      <trkpt lat="45.03054" lon="-72.35177">
        <ele>240.8</ele>
      </trkpt>
      <trkpt lat="45.03053" lon="-72.35177">
        <ele>240.8</ele>
      </trkpt>
      <trkpt lat="45.029707" lon="-72.351782">
        <ele>241.5</ele>
      </trkpt>
      <trkpt lat="45.028885" lon="-72.351794">
        <ele>242.1</ele>
      </trkpt>
      <trkpt lat="45.028063" lon="-72.351806">
        <ele>240.8</ele>
      </trkpt>
      <trkpt lat="45.027241" lon="-72.351818">
        <ele>238.7</ele>
      </trkpt>
      <trkpt lat="45.02642" lon="-72.35183">
        <ele>228.7</ele>
      </trkpt>
      <trkpt lat="45.02599" lon="-72.35181">
        <ele>227.6</ele>
      </trkpt>
      <trkpt lat="45.025167" lon="-72.35185">
        <ele>228.2</ele>
      </trkpt>
      <trkpt lat="45.024345" lon="-72.35189">
        <ele>234.6</ele>
      </trkpt>
      <trkpt lat="45.023522" lon="-72.35193">
        <ele>238.8</ele>
      </trkpt>
      <trkpt lat="45.0227" lon="-72.35197">
        <ele>239.4</ele>
      </trkpt>
      <trkpt lat="45.02186" lon="-72.35204">
        <ele>238.3</ele>
      </trkpt>
      <trkpt lat="45.02121" lon="-72.35208">
        <ele>239.7</ele>
      </trkpt>
      <trkpt lat="45.02108" lon="-72.35211">
        <ele>240</ele>
      </trkpt>
      <trkpt lat="45.02092" lon="-72.35235">
        <ele>239.3</ele>
      </trkpt>
      <trkpt lat="45.020525" lon="-72.35319">
        <ele>238.2</ele>
      </trkpt>
      <trkpt lat="45.02013" lon="-72.35403">
        <ele>238</ele>
      </trkpt>
      <trkpt lat="45.019646" lon="-72.355096">
        <ele>234.2</ele>
      </trkpt>
      <trkpt lat="45.019163" lon="-72.356163">
        <ele>227.6</ele>
      </trkpt>
      <trkpt lat="45.01868" lon="-72.35723">
        <ele>218.9</ele>
      </trkpt>
      <trkpt lat="45.018205" lon="-72.35821">
        <ele>214.7</ele>
      </trkpt>
      <trkpt lat="45.01773" lon="-72.35919">
        <ele>211.3</ele>
      </trkpt>
      <trkpt lat="45.01773" lon="-72.3592">
        <ele>211.3</ele>
      </trkpt>
      <trkpt lat="45.017265" lon="-72.36016">
        <ele>207.5</ele>
      </trkpt>
      <trkpt lat="45.0168" lon="-72.36112">
        <ele>204.4</ele>
      </trkpt>
      <trkpt lat="45.016383" lon="-72.362016">
        <ele>201.1</ele>
      </trkpt>
      <trkpt lat="45.015966" lon="-72.362913">
        <ele>198.6</ele>
      </trkpt>
      <trkpt lat="45.01555" lon="-72.36381">
        <ele>195.8</ele>
      </trkpt>
      <trkpt lat="45.01548" lon="-72.36425">
        <ele>194.8</ele>
      </trkpt>
      <trkpt lat="45.01543" lon="-72.36525">
        <ele>193.8</ele>
      </trkpt>
      <trkpt lat="45.01543" lon="-72.36627">
        <ele>193.2</ele>
      </trkpt>
      <trkpt lat="45.01537" lon="-72.36658">
        <ele>193.1</ele>
      </trkpt>
      <trkpt lat="45.0152" lon="-72.36712">
        <ele>192.9</ele>
      </trkpt>
      <trkpt lat="45.01505" lon="-72.36748">
        <ele>192.5</ele>
      </trkpt>
      <trkpt lat="45.014715" lon="-72.36809">
        <ele>191.9</ele>
      </trkpt>
      <trkpt lat="45.01438" lon="-72.3687">
        <ele>191.6</ele>
      </trkpt>
      <trkpt lat="45.01422" lon="-72.36905">
        <ele>191.2</ele>
      </trkpt>
      <trkpt lat="45.01406" lon="-72.36958">
        <ele>190.5</ele>
      </trkpt>
      <trkpt lat="45.01395" lon="-72.37029">
        <ele>190.4</ele>
      </trkpt>
      <trkpt lat="45.01385" lon="-72.37066">
        <ele>190</ele>
      </trkpt>
      <trkpt lat="45.013565" lon="-72.3716">
        <ele>188.3</ele>
      </trkpt>
      <trkpt lat="45.01328" lon="-72.37254">
        <ele>189.8</ele>
      </trkpt>
      <trkpt lat="45.013" lon="-72.37311">
        <ele>189.4</ele>
      </trkpt>
      <trkpt lat="45.01277" lon="-72.37348">
        <ele>187.2</ele>
      </trkpt>
      <trkpt lat="45.01255" lon="-72.37375">
        <ele>183.8</ele>
      </trkpt>
      <trkpt lat="45.01239" lon="-72.37389">
        <ele>182.3</ele>
      </trkpt>
      <trkpt lat="45.01225" lon="-72.37414">
        <ele>178.8</ele>
      </trkpt>
      <trkpt lat="45.01221" lon="-72.37424">
        <ele>178.2</ele>
      </trkpt>
      <trkpt lat="45.01221" lon="-72.37453">
        <ele>176</ele>
      </trkpt>
      <trkpt lat="45.01231" lon="-72.37491">
        <ele>175.9</ele>
      </trkpt>
      <trkpt lat="45.0125" lon="-72.37536">
        <ele>176.4</ele>
      </trkpt>
      <trkpt lat="45.01268" lon="-72.37563">
        <ele>177.1</ele>
      </trkpt>
      <trkpt lat="45.01278" lon="-72.37571">
        <ele>177.7</ele>
      </trkpt>
      <trkpt lat="45.0129" lon="-72.37576">
        <ele>178</ele>
      </trkpt>
      <trkpt lat="45.01316" lon="-72.37585">
        <ele>178.5</ele>
      </trkpt>
      <trkpt lat="45.01351" lon="-72.37589">
        <ele>178.5</ele>
      </trkpt>
      <trkpt lat="45.01425" lon="-72.37572">
        <ele>177.1</ele>
      </trkpt>
      <trkpt lat="45.01506" lon="-72.37563">
        <ele>181.4</ele>
      </trkpt>
      <trkpt lat="45.01545" lon="-72.37563">
        <ele>185.2</ele>
      </trkpt>
      <trkpt lat="45.01565" lon="-72.37568">
        <ele>188.3</ele>
      </trkpt>
      <trkpt lat="45.01584" lon="-72.37578">
        <ele>189.2</ele>
      </trkpt>
      <trkpt lat="45.01584" lon="-72.37577">
        <ele>189.1</ele>
      </trkpt>
      <trkpt lat="45.01613" lon="-72.3759">
        <ele>190.9</ele>
      </trkpt>
      <trkpt lat="45.01681" lon="-72.37631">
        <ele>192.5</ele>
      </trkpt>
      <trkpt lat="45.01754" lon="-72.37693">
        <ele>192.2</ele>
      </trkpt>
      <trkpt lat="45.01777" lon="-72.37706">
        <ele>191.6</ele>
      </trkpt>
      <trkpt lat="45.01858" lon="-72.377599">
        <ele>189.5</ele>
      </trkpt>
      <trkpt lat="45.01939" lon="-72.37814">
        <ele>190.4</ele>
      </trkpt>
      <trkpt lat="45.01996" lon="-72.378579">
        <ele>192.5</ele>
      </trkpt>
      <trkpt lat="45.02053" lon="-72.37902">
        <ele>191.5</ele>
      </trkpt>
      <trkpt lat="45.02099" lon="-72.379494">
        <ele>191.4</ele>
      </trkpt>
      <trkpt lat="45.02145" lon="-72.37997">
        <ele>191.9</ele>
      </trkpt>
      <trkpt lat="45.02188" lon="-72.38036">
        <ele>193.3</ele>
      </trkpt>
      <trkpt lat="45.02222" lon="-72.3806">
        <ele>193.5</ele>
      </trkpt>
      <trkpt lat="45.02272" lon="-72.38083">
        <ele>194.4</ele>
      </trkpt>
      <trkpt lat="45.02289" lon="-72.3809">
        <ele>195</ele>
      </trkpt>
      <trkpt lat="45.02312" lon="-72.38089">
        <ele>195.3</ele>
      </trkpt>
      <trkpt lat="45.02361" lon="-72.38092">
        <ele>195.2</ele>
      </trkpt>
      <trkpt lat="45.02392" lon="-72.381">
        <ele>195.4</ele>
      </trkpt>
      <trkpt lat="45.024385" lon="-72.381229">
        <ele>196.9</ele>
      </trkpt>
      <trkpt lat="45.02485" lon="-72.38146">
        <ele>197</ele>
      </trkpt>
      <trkpt lat="45.02515" lon="-72.38172">
        <ele>196.8</ele>
      </trkpt>
      <trkpt lat="45.0253" lon="-72.38189">
        <ele>196.9</ele>
      </trkpt>
      <trkpt lat="45.02571" lon="-72.38221">
        <ele>197.1</ele>
      </trkpt>
      <trkpt lat="45.026235" lon="-72.382499">
        <ele>197.9</ele>
      </trkpt>
      <trkpt lat="45.02676" lon="-72.38279">
        <ele>198.3</ele>
      </trkpt>
      <trkpt lat="45.027205" lon="-72.382944">
        <ele>198</ele>
      </trkpt>
      <trkpt lat="45.02765" lon="-72.3831">
        <ele>199</ele>
      </trkpt>
      <trkpt lat="45.02811" lon="-72.383199">
        <ele>199.6</ele>
      </trkpt>
      <trkpt lat="45.02857" lon="-72.3833">
        <ele>199.8</ele>
      </trkpt>
      <trkpt lat="45.02854" lon="-72.38418">
        <ele>194.1</ele>
      </trkpt>
      <trkpt lat="45.028526" lon="-72.385086">
        <ele>191.1</ele>
      </trkpt>
      <trkpt lat="45.028513" lon="-72.385993">
        <ele>189.2</ele>
      </trkpt>
      <trkpt lat="45.0285" lon="-72.3869">
        <ele>188.7</ele>
      </trkpt>
      <trkpt lat="45.02849" lon="-72.38709">
        <ele>188.3</ele>
      </trkpt>
      <trkpt lat="45.02825" lon="-72.388177">
        <ele>187</ele>
      </trkpt>
      <trkpt lat="45.02801" lon="-72.389265">
        <ele>187.2</ele>
      </trkpt>
      <trkpt lat="45.02777" lon="-72.390352">
        <ele>187.2</ele>
      </trkpt>
      <trkpt lat="45.02753" lon="-72.39144">
        <ele>186.8</ele>
      </trkpt>
      <trkpt lat="45.02751" lon="-72.39206">
        <ele>186.4</ele>
      </trkpt>
      <trkpt lat="45.02754" lon="-72.392924">
        <ele>185.8</ele>
      </trkpt>
      <trkpt lat="45.02757" lon="-72.39379">
        <ele>185.8</ele>
      </trkpt>
      <trkpt lat="45.02761" lon="-72.394804">
        <ele>185.4</ele>
      </trkpt>
      <trkpt lat="45.02765" lon="-72.39582">
        <ele>186.5</ele>
      </trkpt>
      <trkpt lat="45.02766" lon="-72.39636">
        <ele>186.6</ele>
      </trkpt>
      <trkpt lat="45.027555" lon="-72.39698">
        <ele>186.9</ele>
      </trkpt>
      <trkpt lat="45.02745" lon="-72.3976">
        <ele>186.7</ele>
      </trkpt>
      <trkpt lat="45.027313" lon="-72.398706">
        <ele>186.5</ele>
      </trkpt>
      <trkpt lat="45.027176" lon="-72.399813">
        <ele>185.5</ele>
      </trkpt>
      <trkpt lat="45.02704" lon="-72.40092">
        <ele>184.9</ele>
      </trkpt>
      <trkpt lat="45.02694" lon="-72.40184">
        <ele>185.2</ele>
      </trkpt>
      <trkpt lat="45.02684" lon="-72.40276">
        <ele>185.3</ele>
      </trkpt>
      <trkpt lat="45.0268" lon="-72.40374">
        <ele>185.1</ele>
      </trkpt>
      <trkpt lat="45.0267" lon="-72.40486">
        <ele>184.1</ele>
      </trkpt>
      <trkpt lat="45.026537" lon="-72.406037">
        <ele>184.6</ele>
      </trkpt>
      <trkpt lat="45.026375" lon="-72.407215">
        <ele>184.8</ele>
      </trkpt>
      <trkpt lat="45.026212" lon="-72.408392">
        <ele>183.6</ele>
      </trkpt>
      <trkpt lat="45.02605" lon="-72.40957">
        <ele>184.9</ele>
      </trkpt>
      <trkpt lat="45.025935" lon="-72.41076">
        <ele>185</ele>
      </trkpt>
      <trkpt lat="45.02582" lon="-72.41195">
        <ele>184.5</ele>
      </trkpt>
      <trkpt lat="45.02575" lon="-72.412795">
        <ele>184.4</ele>
      </trkpt>
      <trkpt lat="45.02568" lon="-72.41364">
        <ele>184.5</ele>
      </trkpt>
      <trkpt lat="45.02568" lon="-72.41431">
        <ele>184.2</ele>
      </trkpt>
      <trkpt lat="45.02573" lon="-72.41462">
        <ele>184.1</ele>
      </trkpt>
      <trkpt lat="45.02594" lon="-72.415573">
        <ele>183.7</ele>
      </trkpt>
      <trkpt lat="45.02615" lon="-72.416526">
        <ele>183.9</ele>
      </trkpt>
      <trkpt lat="45.02636" lon="-72.41748">
        <ele>184.2</ele>
      </trkpt>
      <trkpt lat="45.02641" lon="-72.41807">
        <ele>184.4</ele>
      </trkpt>
      <trkpt lat="45.026515" lon="-72.419049">
        <ele>184.3</ele>
      </trkpt>
      <trkpt lat="45.02662" lon="-72.42003">
        <ele>183.9</ele>
      </trkpt>
      <trkpt lat="45.02671" lon="-72.420774">
        <ele>183.6</ele>
      </trkpt>
      <trkpt lat="45.0268" lon="-72.42152">
        <ele>183.4</ele>
      </trkpt>
      <trkpt lat="45.02688" lon="-72.42237">
        <ele>183.1</ele>
      </trkpt>
      <trkpt lat="45.027" lon="-72.42303">
        <ele>182.4</ele>
      </trkpt>
      <trkpt lat="45.027195" lon="-72.423754">
        <ele>182</ele>
      </trkpt>
      <trkpt lat="45.02739" lon="-72.42448">
        <ele>180.9</ele>
      </trkpt>
      <trkpt lat="45.02765" lon="-72.42541">
        <ele>181.1</ele>
      </trkpt>
      <trkpt lat="45.02776" lon="-72.42564">
        <ele>180</ele>
      </trkpt>
      <trkpt lat="45.02789" lon="-72.42585">
        <ele>178.6</ele>
      </trkpt>
      <trkpt lat="45.02813" lon="-72.42603">
        <ele>175.3</ele>
      </trkpt>
      <trkpt lat="45.028825" lon="-72.426464">
        <ele>168</ele>
      </trkpt>
      <trkpt lat="45.02952" lon="-72.4269">
        <ele>161.5</ele>
      </trkpt>
      <trkpt lat="45.030155" lon="-72.426215">
        <ele>161.1</ele>
      </trkpt>
      <trkpt lat="45.03079" lon="-72.42553">
        <ele>160.8</ele>
      </trkpt>
      <trkpt lat="45.030935" lon="-72.426209">
        <ele>159.7</ele>
      </trkpt>
      <trkpt lat="45.03108" lon="-72.42689">
        <ele>159.1</ele>
      </trkpt>
      <trkpt lat="45.03114" lon="-72.42747">
        <ele>158.8</ele>
      </trkpt>
      <trkpt lat="45.03116" lon="-72.42802">
        <ele>158.3</ele>
      </trkpt>
      <trkpt lat="45.03107" lon="-72.42873">
        <ele>158.2</ele>
      </trkpt>
      <trkpt lat="45.03097" lon="-72.42913">
        <ele>158.4</ele>
      </trkpt>
      <trkpt lat="45.03085" lon="-72.42949">
        <ele>158.8</ele>
      </trkpt>
      <trkpt lat="45.03069" lon="-72.42989">
        <ele>159.1</ele>
      </trkpt>
      <trkpt lat="45.03035" lon="-72.43056">
        <ele>160.3</ele>
      </trkpt>
      <trkpt lat="45.03018" lon="-72.43096">
        <ele>161</ele>
      </trkpt>
      <trkpt lat="45.02992" lon="-72.43177">
        <ele>162.2</ele>
      </trkpt>
      <trkpt lat="45.02984" lon="-72.43222">
        <ele>163</ele>
      </trkpt>
      <trkpt lat="45.02982" lon="-72.43267">
        <ele>163.9</ele>
      </trkpt>
      <trkpt lat="45.02984" lon="-72.43288">
        <ele>164.4</ele>
      </trkpt>
      <trkpt lat="45.02987" lon="-72.43316">
        <ele>164.6</ele>
      </trkpt>
      <trkpt lat="45.02995" lon="-72.43365">
        <ele>166</ele>
      </trkpt>
      <trkpt lat="45.03004" lon="-72.434">
        <ele>166.8</ele>
      </trkpt>
      <trkpt lat="45.03019" lon="-72.43438">
        <ele>167.3</ele>
      </trkpt>
      <trkpt lat="45.0305" lon="-72.434979">
        <ele>168.6</ele>
      </trkpt>
      <trkpt lat="45.03081" lon="-72.43558">
        <ele>169.8</ele>
      </trkpt>
      <trkpt lat="45.03128" lon="-72.43634">
        <ele>170.9</ele>
      </trkpt>
      <trkpt lat="45.0319" lon="-72.43725">
        <ele>169.5</ele>
      </trkpt>
      <trkpt lat="45.032355" lon="-72.437864">
        <ele>168.3</ele>
      </trkpt>
      <trkpt lat="45.03281" lon="-72.43848">
        <ele>167.5</ele>
      </trkpt>
      <trkpt lat="45.033285" lon="-72.439019">
        <ele>167.4</ele>
      </trkpt>
      <trkpt lat="45.03376" lon="-72.43956">
        <ele>167.6</ele>
      </trkpt>
      <trkpt lat="45.03444" lon="-72.44037">
        <ele>167</ele>
      </trkpt>
      <trkpt lat="45.0346" lon="-72.44063">
        <ele>167.4</ele>
      </trkpt>
      <trkpt lat="45.03477" lon="-72.44099">
        <ele>168.1</ele>
      </trkpt>
      <trkpt lat="45.03489" lon="-72.44132">
        <ele>169.4</ele>
      </trkpt>
      <trkpt lat="45.0352" lon="-72.44243">
        <ele>172.2</ele>
      </trkpt>
      <trkpt lat="45.035545" lon="-72.443459">
        <ele>171.3</ele>
      </trkpt>
      <trkpt lat="45.03589" lon="-72.44449">
        <ele>165.6</ele>
      </trkpt>
      <trkpt lat="45.03597" lon="-72.44484">
        <ele>163</ele>
      </trkpt>
      <trkpt lat="45.036085" lon="-72.445574">
        <ele>160.3</ele>
      </trkpt>
      <trkpt lat="45.0362" lon="-72.44631">
        <ele>158.9</ele>
      </trkpt>
      <trkpt lat="45.03631" lon="-72.44687">
        <ele>159</ele>
      </trkpt>
      <trkpt lat="45.03646" lon="-72.4474">
        <ele>159.6</ele>
      </trkpt>
      <trkpt lat="45.03667" lon="-72.44794">
        <ele>161.6</ele>
      </trkpt>
      <trkpt lat="45.03685" lon="-72.44834">
        <ele>164.3</ele>
      </trkpt>
      <trkpt lat="45.03708" lon="-72.44873">
        <ele>167.8</ele>
      </trkpt>
      <trkpt lat="45.03761" lon="-72.449499">
        <ele>172.1</ele>
      </trkpt>
      <trkpt lat="45.03814" lon="-72.45027">
        <ele>176.8</ele>
      </trkpt>
      <trkpt lat="45.03869" lon="-72.45089">
        <ele>181.8</ele>
      </trkpt>
      <trkpt lat="45.03907" lon="-72.451244">
        <ele>183.9</ele>
      </trkpt>
      <trkpt lat="45.03945" lon="-72.4516">
        <ele>184.6</ele>
      </trkpt>
      <trkpt lat="45.0396" lon="-72.45175">
        <ele>184.1</ele>
      </trkpt>
      <trkpt lat="45.03981" lon="-72.45206">
        <ele>182.9</ele>
      </trkpt>
      <trkpt lat="45.04012" lon="-72.45268">
        <ele>178.5</ele>
      </trkpt>
      <trkpt lat="45.04049" lon="-72.453704">
        <ele>175.8</ele>
      </trkpt>
      <trkpt lat="45.04086" lon="-72.45473">
        <ele>175.9</ele>
      </trkpt>
      <trkpt lat="45.04137" lon="-72.455674">
        <ele>176.4</ele>
      </trkpt>
      <trkpt lat="45.04188" lon="-72.45662">
        <ele>176.8</ele>
      </trkpt>
      <trkpt lat="45.042195" lon="-72.457159">
        <ele>177.8</ele>
      </trkpt>
      <trkpt lat="45.04251" lon="-72.4577">
        <ele>178.5</ele>
      </trkpt>
      <trkpt lat="45.04281" lon="-72.45818">
        <ele>178.5</ele>
      </trkpt>
      <trkpt lat="45.04313" lon="-72.45854">
        <ele>178.8</ele>
      </trkpt>
      <trkpt lat="45.0434" lon="-72.45881">
        <ele>179.6</ele>
      </trkpt>
      <trkpt lat="45.04407" lon="-72.45935">
        <ele>183.6</ele>
      </trkpt>
      <trkpt lat="45.04447" lon="-72.45957">
        <ele>184.7</ele>
      </trkpt>
      <trkpt lat="45.04486" lon="-72.45975">
        <ele>187.3</ele>
      </trkpt>
      <trkpt lat="45.04521" lon="-72.45981">
        <ele>188.6</ele>
      </trkpt>
      <trkpt lat="45.04585" lon="-72.45989">
        <ele>190.8</ele>
      </trkpt>
      <trkpt lat="45.04658" lon="-72.46003">
        <ele>191.6</ele>
      </trkpt>
      <trkpt lat="45.04677" lon="-72.46013">
        <ele>191.6</ele>
      </trkpt>
      <trkpt lat="45.04713" lon="-72.46038">
        <ele>190.8</ele>
      </trkpt>
      <trkpt lat="45.04752" lon="-72.46075">
        <ele>187.9</ele>
      </trkpt>
      <trkpt lat="45.048025" lon="-72.461434">
        <ele>184.1</ele>
      </trkpt>
      <trkpt lat="45.04853" lon="-72.46212">
        <ele>178.6</ele>
      </trkpt>
      <trkpt lat="45.04889" lon="-72.46252">
        <ele>175.6</ele>
      </trkpt>
      <trkpt lat="45.04933" lon="-72.46289">
        <ele>170.5</ele>
      </trkpt>
      <trkpt lat="45.05005" lon="-72.46348">
        <ele>162.2</ele>
      </trkpt>
      <trkpt lat="45.05053" lon="-72.46388">
        <ele>159.2</ele>
      </trkpt>
      <trkpt lat="45.05092" lon="-72.46433">
        <ele>158.6</ele>
      </trkpt>
      <trkpt lat="45.05106" lon="-72.46455">
        <ele>158.7</ele>
      </trkpt>
      <trkpt lat="45.0512" lon="-72.46486">
        <ele>159</ele>
      </trkpt>
      <trkpt lat="45.05128" lon="-72.46505">
        <ele>159.4</ele>
      </trkpt>
      <trkpt lat="45.05149" lon="-72.46579">
        <ele>161.8</ele>
      </trkpt>
      <trkpt lat="45.05164" lon="-72.466564">
        <ele>163.6</ele>
      </trkpt>
      <trkpt lat="45.05179" lon="-72.46734">
        <ele>167.8</ele>
      </trkpt>
      <trkpt lat="45.05211" lon="-72.46727">
        <ele>168.3</ele>
      </trkpt>
      <trkpt lat="45.05254" lon="-72.46718">
        <ele>168.9</ele>
      </trkpt>
      <trkpt lat="45.05267" lon="-72.46714">
        <ele>169.2</ele>
      </trkpt>
      <trkpt lat="45.05333" lon="-72.46666">
        <ele>170.5</ele>
      </trkpt>
      <trkpt lat="45.05354" lon="-72.4666">
        <ele>170.9</ele>
      </trkpt>
      <trkpt lat="45.05392" lon="-72.46664">
        <ele>171.8</ele>
      </trkpt>
      <trkpt lat="45.05444" lon="-72.46678">
        <ele>172.3</ele>
      </trkpt>
      <trkpt lat="45.05468" lon="-72.46687">
        <ele>172.5</ele>
      </trkpt>
      <trkpt lat="45.05513" lon="-72.46727">
        <ele>173.8</ele>
      </trkpt>
      <trkpt lat="45.05522" lon="-72.46731">
        <ele>174.4</ele>
      </trkpt>
      <trkpt lat="45.05582" lon="-72.46741">
        <ele>177.3</ele>
      </trkpt>
      <trkpt lat="45.05593" lon="-72.46746">
        <ele>178.1</ele>
      </trkpt>
      <trkpt lat="45.05597" lon="-72.46753">
        <ele>178.1</ele>
      </trkpt>
      <trkpt lat="45.05616" lon="-72.46809">
        <ele>181.3</ele>
      </trkpt>
      <trkpt lat="45.05629" lon="-72.46839">
        <ele>182.4</ele>
      </trkpt>
      <trkpt lat="45.05642" lon="-72.46853">
        <ele>182.9</ele>
      </trkpt>
      <trkpt lat="45.05655" lon="-72.46854">
        <ele>182.9</ele>
      </trkpt>
      <trkpt lat="45.05669" lon="-72.46852">
        <ele>183.6</ele>
      </trkpt>
      <trkpt lat="45.057185" lon="-72.46826">
        <ele>185.6</ele>
      </trkpt>
      <trkpt lat="45.05768" lon="-72.468">
        <ele>190.5</ele>
      </trkpt>
      <trkpt lat="45.05811" lon="-72.4677">
        <ele>192.3</ele>
      </trkpt>
      <trkpt lat="45.05854" lon="-72.4674">
        <ele>195.8</ele>
      </trkpt>
      <trkpt lat="45.05882" lon="-72.46727">
        <ele>197.9</ele>
      </trkpt>
      <trkpt lat="45.059473" lon="-72.467196">
        <ele>203.8</ele>
      </trkpt>
      <trkpt lat="45.060126" lon="-72.467123">
        <ele>208.4</ele>
      </trkpt>
      <trkpt lat="45.06078" lon="-72.46705">
        <ele>211.9</ele>
      </trkpt>
      <trkpt lat="45.06096" lon="-72.46709">
        <ele>212.8</ele>
      </trkpt>
      <trkpt lat="45.06142" lon="-72.467204">
        <ele>215.8</ele>
      </trkpt>
      <trkpt lat="45.06188" lon="-72.46732">
        <ele>216.3</ele>
      </trkpt>
      <trkpt lat="45.06241" lon="-72.46723">
        <ele>215.9</ele>
      </trkpt>
      <trkpt lat="45.06309" lon="-72.46698">
        <ele>217</ele>
      </trkpt>
      <trkpt lat="45.06343" lon="-72.46691">
        <ele>218.1</ele>
      </trkpt>
      <trkpt lat="45.06367" lon="-72.46674">
        <ele>218.7</ele>
      </trkpt>
      <trkpt lat="45.06389" lon="-72.46648">
        <ele>219.1</ele>
      </trkpt>
      <trkpt lat="45.064" lon="-72.46633">
        <ele>219.8</ele>
      </trkpt>
      <trkpt lat="45.0641" lon="-72.46607">
        <ele>220.8</ele>
      </trkpt>
      <trkpt lat="45.06433" lon="-72.4653">
        <ele>223.9</ele>
      </trkpt>
      <trkpt lat="45.0647" lon="-72.46449">
        <ele>229.4</ele>
      </trkpt>
      <trkpt lat="45.065" lon="-72.464">
        <ele>234.3</ele>
      </trkpt>
      <trkpt lat="45.06557" lon="-72.46342">
        <ele>236.1</ele>
      </trkpt>
      <trkpt lat="45.06577" lon="-72.46333">
        <ele>236.1</ele>
      </trkpt>
      <trkpt lat="45.06628" lon="-72.46329">
        <ele>236.9</ele>
      </trkpt>
      <trkpt lat="45.06711" lon="-72.46315">
        <ele>237.5</ele>
      </trkpt>
      <trkpt lat="45.06794" lon="-72.46301">
        <ele>240.2</ele>
      </trkpt>
      <trkpt lat="45.06828" lon="-72.46283">
        <ele>243.6</ele>
      </trkpt>
      <trkpt lat="45.06883" lon="-72.46259">
        <ele>247.8</ele>
      </trkpt>
      <trkpt lat="45.06938" lon="-72.46235">
        <ele>249.8</ele>
      </trkpt>
      <trkpt lat="45.06963" lon="-72.46226">
        <ele>250.2</ele>
      </trkpt>
      <trkpt lat="45.07044" lon="-72.46217">
        <ele>247.4</ele>
      </trkpt>
      <trkpt lat="45.07112" lon="-72.46196">
        <ele>243.7</ele>
      </trkpt>
      <trkpt lat="45.07106" lon="-72.46182">
        <ele>242.3</ele>
      </trkpt>
      <trkpt lat="45.0708" lon="-72.46145">
        <ele>240.3</ele>
      </trkpt>
      <trkpt lat="45.0705" lon="-72.46092">
        <ele>238.1</ele>
      </trkpt>
      <trkpt lat="45.07035" lon="-72.46055">
        <ele>237.9</ele>
      </trkpt>
      <trkpt lat="45.07031" lon="-72.46047">
        <ele>237.8</ele>
      </trkpt>
      <trkpt lat="45.0701" lon="-72.459689">
        <ele>238.7</ele>
      </trkpt>
      <trkpt lat="45.06989" lon="-72.45891">
        <ele>242.1</ele>
      </trkpt>
      <trkpt lat="45.06967" lon="-72.45792">
        <ele>248.7</ele>
      </trkpt>
      <trkpt lat="45.06932" lon="-72.45716">
        <ele>254.7</ele>
      </trkpt>
      <trkpt lat="45.06882" lon="-72.45622">
        <ele>259.4</ele>
      </trkpt>
      <trkpt lat="45.06877" lon="-72.45608">
        <ele>259.7</ele>
      </trkpt>
      <trkpt lat="45.06877" lon="-72.45582">
        <ele>260.5</ele>
      </trkpt>
      <trkpt lat="45.06882" lon="-72.45554">
        <ele>261.3</ele>
      </trkpt>
      <trkpt lat="45.06894" lon="-72.45528">
        <ele>262.9</ele>
      </trkpt>
      <trkpt lat="45.06916" lon="-72.45487">
        <ele>266.4</ele>
      </trkpt>
      <trkpt lat="45.0693" lon="-72.45451">
        <ele>269.6</ele>
      </trkpt>
      <trkpt lat="45.06934" lon="-72.4542">
        <ele>273.9</ele>
      </trkpt>
      <trkpt lat="45.06931" lon="-72.45393">
        <ele>275</ele>
      </trkpt>
      <trkpt lat="45.06923" lon="-72.45362">
        <ele>279</ele>
      </trkpt>
      <trkpt lat="45.06925" lon="-72.45308">
        <ele>283.2</ele>
      </trkpt>
      <trkpt lat="45.06933" lon="-72.45241">
        <ele>287.2</ele>
      </trkpt>
      <trkpt lat="45.0695" lon="-72.45157">
        <ele>292.5</ele>
      </trkpt>
      <trkpt lat="45.0697" lon="-72.45107">
        <ele>294.7</ele>
      </trkpt>
      <trkpt lat="45.06992" lon="-72.45">
        <ele>300.4</ele>
      </trkpt>
      <trkpt lat="45.06992" lon="-72.45001">
        <ele>300.4</ele>
      </trkpt>
      <trkpt lat="45.07012" lon="-72.4491">
        <ele>307.5</ele>
      </trkpt>
      <trkpt lat="45.07015" lon="-72.44807">
        <ele>311.7</ele>
      </trkpt>
      <trkpt lat="45.07008" lon="-72.44714">
        <ele>314.4</ele>
      </trkpt>
      <trkpt lat="45.07007" lon="-72.44677">
        <ele>316</ele>
      </trkpt>
      <trkpt lat="45.070185" lon="-72.445985">
        <ele>323.7</ele>
      </trkpt>
      <trkpt lat="45.0703" lon="-72.4452">
        <ele>326.7</ele>
      </trkpt>
      <trkpt lat="45.07033" lon="-72.44435">
        <ele>331.4</ele>
      </trkpt>
      <trkpt lat="45.07028" lon="-72.44377">
        <ele>336.1</ele>
      </trkpt>
      <trkpt lat="45.0702" lon="-72.4435">
        <ele>339.3</ele>
      </trkpt>
      <trkpt lat="45.07" lon="-72.44297">
        <ele>342.3</ele>
      </trkpt>
      <trkpt lat="45.06995" lon="-72.44278">
        <ele>345</ele>
      </trkpt>
      <trkpt lat="45.06996" lon="-72.44243">
        <ele>346.7</ele>
      </trkpt>
      <trkpt lat="45.07008" lon="-72.44216">
        <ele>347.1</ele>
      </trkpt>
      <trkpt lat="45.07022" lon="-72.44193">
        <ele>347.5</ele>
      </trkpt>
      <trkpt lat="45.07065" lon="-72.44104">
        <ele>350.4</ele>
      </trkpt>
      <trkpt lat="45.07095" lon="-72.4405">
        <ele>351.9</ele>
      </trkpt>
      <trkpt lat="45.07104" lon="-72.44028">
        <ele>351.9</ele>
      </trkpt>
      <trkpt lat="45.07108" lon="-72.44006">
        <ele>351.8</ele>
      </trkpt>
      <trkpt lat="45.07106" lon="-72.43973">
        <ele>351.8</ele>
      </trkpt>
      <trkpt lat="45.07099" lon="-72.4394">
        <ele>351.6</ele>
      </trkpt>
      <trkpt lat="45.070805" lon="-72.438739">
        <ele>351.3</ele>
      </trkpt>
      <trkpt lat="45.07062" lon="-72.43808">
        <ele>350.9</ele>
      </trkpt>
      <trkpt lat="45.07056" lon="-72.43764">
        <ele>351.3</ele>
      </trkpt>
      <trkpt lat="45.07054" lon="-72.43714">
        <ele>350.4</ele>
      </trkpt>
      <trkpt lat="45.07065" lon="-72.43629">
        <ele>347.5</ele>
      </trkpt>
      <trkpt lat="45.07079" lon="-72.43581">
        <ele>343.9</ele>
      </trkpt>
      <trkpt lat="45.071185" lon="-72.435095">
        <ele>338.3</ele>
      </trkpt>
      <trkpt lat="45.07158" lon="-72.43438">
        <ele>336.4</ele>
      </trkpt>
      <trkpt lat="45.07168" lon="-72.43414">
        <ele>336.3</ele>
      </trkpt>
      <trkpt lat="45.07182" lon="-72.43351">
        <ele>334.8</ele>
      </trkpt>
      <trkpt lat="45.07181" lon="-72.43324">
        <ele>334.8</ele>
      </trkpt>
      <trkpt lat="45.07178" lon="-72.43302">
        <ele>333.9</ele>
      </trkpt>
      <trkpt lat="45.07159" lon="-72.432">
        <ele>332.2</ele>
      </trkpt>
      <trkpt lat="45.0715" lon="-72.43118">
        <ele>330.2</ele>
      </trkpt>
      <trkpt lat="45.07153" lon="-72.43073">
        <ele>329.7</ele>
      </trkpt>
      <trkpt lat="45.07166" lon="-72.42985">
        <ele>329.4</ele>
      </trkpt>
      <trkpt lat="45.07165" lon="-72.42971">
        <ele>329.4</ele>
      </trkpt>
      <trkpt lat="45.07153" lon="-72.42909">
        <ele>329.3</ele>
      </trkpt>
      <trkpt lat="45.07131" lon="-72.42859">
        <ele>327.6</ele>
      </trkpt>
      <trkpt lat="45.07123" lon="-72.42806">
        <ele>325.9</ele>
      </trkpt>
      <trkpt lat="45.0712" lon="-72.4277">
        <ele>325</ele>
      </trkpt>
      <trkpt lat="45.07119" lon="-72.42681">
        <ele>322.3</ele>
      </trkpt>
      <trkpt lat="45.07113" lon="-72.42564">
        <ele>319</ele>
      </trkpt>
      <trkpt lat="45.07105" lon="-72.42519">
        <ele>316.7</ele>
      </trkpt>
      <trkpt lat="45.07096" lon="-72.42483">
        <ele>313.5</ele>
      </trkpt>
      <trkpt lat="45.0709" lon="-72.42429">
        <ele>311.4</ele>
      </trkpt>
      <trkpt lat="45.07064" lon="-72.42313">
        <ele>308.4</ele>
      </trkpt>
      <trkpt lat="45.07044" lon="-72.42241">
        <ele>306.9</ele>
      </trkpt>
      <trkpt lat="45.07021" lon="-72.42193">
        <ele>302.4</ele>
      </trkpt>
      <trkpt lat="45.07017" lon="-72.42173">
        <ele>302.4</ele>
      </trkpt>
      <trkpt lat="45.06969" lon="-72.42192">
        <ele>305.9</ele>
      </trkpt>
      <trkpt lat="45.06946" lon="-72.42196">
        <ele>308</ele>
      </trkpt>
      <trkpt lat="45.06945" lon="-72.42196">
        <ele>308</ele>
      </trkpt>
      <trkpt lat="45.06913" lon="-72.42201">
        <ele>308.9</ele>
      </trkpt>
      <trkpt lat="45.068644" lon="-72.421989">
        <ele>314.5</ele>
      </trkpt>
      <trkpt lat="45.06816" lon="-72.42197">
        <ele>316.1</ele>
      </trkpt>
      <trkpt lat="45.06798" lon="-72.422">
        <ele>317.7</ele>
      </trkpt>
      <trkpt lat="45.06786" lon="-72.42205">
        <ele>318</ele>
      </trkpt>
      <trkpt lat="45.06728" lon="-72.42237">
        <ele>314.6</ele>
      </trkpt>
      <trkpt lat="45.06705" lon="-72.42246">
        <ele>311.2</ele>
      </trkpt>
      <trkpt lat="45.06665" lon="-72.42259">
        <ele>308.4</ele>
      </trkpt>
      <trkpt lat="45.06623" lon="-72.4226">
        <ele>305.5</ele>
      </trkpt>
      <trkpt lat="45.065779" lon="-72.422594">
        <ele>303.9</ele>
      </trkpt>
      <trkpt lat="45.06533" lon="-72.42259">
        <ele>303.5</ele>
      </trkpt>
      <trkpt lat="45.06469" lon="-72.422573">
        <ele>303.8</ele>
      </trkpt>
      <trkpt lat="45.06405" lon="-72.422556">
        <ele>301.1</ele>
      </trkpt>
      <trkpt lat="45.06341" lon="-72.42254">
        <ele>300.6</ele>
      </trkpt>
      <trkpt lat="45.06325" lon="-72.42255">
        <ele>300.6</ele>
      </trkpt>
      <trkpt lat="45.06317" lon="-72.42259">
        <ele>300.4</ele>
      </trkpt>
      <trkpt lat="45.06306" lon="-72.42272">
        <ele>299.9</ele>
      </trkpt>
      <trkpt lat="45.06269" lon="-72.42322">
        <ele>300.5</ele>
      </trkpt>
      <trkpt lat="45.0624" lon="-72.42369">
        <ele>302.7</ele>
      </trkpt>
      <trkpt lat="45.0622" lon="-72.42403">
        <ele>303.8</ele>
      </trkpt>
      <trkpt lat="45.06206" lon="-72.42433">
        <ele>303.8</ele>
      </trkpt>
      <trkpt lat="45.06197" lon="-72.42456">
        <ele>304.4</ele>
      </trkpt>
      <trkpt lat="45.061855" lon="-72.425235">
        <ele>307.5</ele>
      </trkpt>
      <trkpt lat="45.06174" lon="-72.42591">
        <ele>310.2</ele>
      </trkpt>
      <trkpt lat="45.06144" lon="-72.42689">
        <ele>314.2</ele>
      </trkpt>
      <trkpt lat="45.06128" lon="-72.4277">
        <ele>312.2</ele>
      </trkpt>
      <trkpt lat="45.06113" lon="-72.42859">
        <ele>313.7</ele>
      </trkpt>
      <trkpt lat="45.06093" lon="-72.42918">
        <ele>317.8</ele>
      </trkpt>
      <trkpt lat="45.06082" lon="-72.42944">
        <ele>320.7</ele>
      </trkpt>
      <trkpt lat="45.06076" lon="-72.42953">
        <ele>321.7</ele>
      </trkpt>
      <trkpt lat="45.06067" lon="-72.42954">
        <ele>322.1</ele>
      </trkpt>
      <trkpt lat="45.0605" lon="-72.4295">
        <ele>323.8</ele>
      </trkpt>
      <trkpt lat="45.060035" lon="-72.429289">
        <ele>323.4</ele>
      </trkpt>
      <trkpt lat="45.05957" lon="-72.42908">
        <ele>322.6</ele>
      </trkpt>
      <trkpt lat="45.05876" lon="-72.42863">
        <ele>322</ele>
      </trkpt>
      <trkpt lat="45.05803" lon="-72.428204">
        <ele>321.1</ele>
      </trkpt>
      <trkpt lat="45.0573" lon="-72.42778">
        <ele>319.4</ele>
      </trkpt>
      <trkpt lat="45.056855" lon="-72.427449">
        <ele>317.9</ele>
      </trkpt>
      <trkpt lat="45.05641" lon="-72.42712">
        <ele>315.2</ele>
      </trkpt>
      <trkpt lat="45.05622" lon="-72.42695">
        <ele>313.9</ele>
      </trkpt>
      <trkpt lat="45.05624" lon="-72.427629">
        <ele>322.6</ele>
      </trkpt>
      <trkpt lat="45.05626" lon="-72.42831">
        <ele>322.6</ele>
      </trkpt>
      <trkpt lat="45.05629" lon="-72.42912">
        <ele>322.7</ele>
      </trkpt>
      <trkpt lat="45.056653" lon="-72.430003">
        <ele>322.7</ele>
      </trkpt>
      <trkpt lat="45.057016" lon="-72.430886">
        <ele>322.7</ele>
      </trkpt>
      <trkpt lat="45.05738" lon="-72.43177">
        <ele>322.7</ele>
      </trkpt>
      <trkpt lat="45.0576" lon="-72.43212">
        <ele>322.7</ele>
      </trkpt>
      <trkpt lat="45.05788" lon="-72.43239">
        <ele>322.7</ele>
      </trkpt>
      <trkpt lat="45.05827" lon="-72.43249">
        <ele>322.7</ele>
      </trkpt>
      <trkpt lat="45.05836" lon="-72.43257">
        <ele>392.9</ele>
      </trkpt>
      <trkpt lat="45.05844" lon="-72.4327">
        <ele>392.9</ele>
      </trkpt>
      <trkpt lat="45.05848" lon="-72.43285">
        <ele>392.9</ele>
      </trkpt>
      <trkpt lat="45.05849" lon="-72.43373">
        <ele>392.9</ele>
      </trkpt>
      <trkpt lat="45.05863" lon="-72.43467">
        <ele>392.9</ele>
      </trkpt>
      <trkpt lat="45.05863" lon="-72.43482">
        <ele>392.9</ele>
      </trkpt>
      <trkpt lat="45.0586" lon="-72.43505">
        <ele>392.9</ele>
      </trkpt>
      <trkpt lat="45.05843" lon="-72.43562">
        <ele>392.9</ele>
      </trkpt>
      <trkpt lat="45.05841" lon="-72.43584">
        <ele>392.9</ele>
      </trkpt>
      <trkpt lat="45.05843" lon="-72.43705">
        <ele>392.9</ele>
      </trkpt>
      <trkpt lat="45.05839" lon="-72.43729">
        <ele>392.9</ele>
      </trkpt>
      <trkpt lat="45.05831" lon="-72.43755">
        <ele>392.9</ele>
      </trkpt>
      <trkpt lat="45.05817" lon="-72.43776">
        <ele>392.9</ele>
      </trkpt>
      <trkpt lat="45.05748" lon="-72.43857">
        <ele>392.9</ele>
      </trkpt>
      <trkpt lat="45.05742" lon="-72.43875">
        <ele>392.9</ele>
      </trkpt>
      <trkpt lat="45.05743" lon="-72.43889">
        <ele>392.9</ele>
      </trkpt>
      <trkpt lat="45.0576" lon="-72.4393">
        <ele>392.9</ele>
      </trkpt>
      <trkpt lat="45.0576" lon="-72.43955">
        <ele>392.9</ele>
      </trkpt>
      <trkpt lat="45.05753" lon="-72.43996">
        <ele>392.9</ele>
      </trkpt>
      <trkpt lat="45.05759" lon="-72.4405">
        <ele>460.3</ele>
      </trkpt>
      <trkpt lat="45.057695" lon="-72.441124">
        <ele>460.3</ele>
      </trkpt>
      <trkpt lat="45.0578" lon="-72.44175">
        <ele>460.3</ele>
      </trkpt>
      <trkpt lat="45.05793" lon="-72.442429">
        <ele>460.3</ele>
      </trkpt>
      <trkpt lat="45.05806" lon="-72.44311">
        <ele>460.3</ele>
      </trkpt>
      <trkpt lat="45.05793" lon="-72.442429">
        <ele>460.2</ele>
      </trkpt>
      <trkpt lat="45.0578" lon="-72.44175">
        <ele>460.2</ele>
      </trkpt>
      <trkpt lat="45.057695" lon="-72.441124">
        <ele>460.2</ele>
      </trkpt>
      <trkpt lat="45.05759" lon="-72.4405">
        <ele>460.2</ele>
      </trkpt>
      <trkpt lat="45.05753" lon="-72.43996">
        <ele>392.9</ele>
      </trkpt>
      <trkpt lat="45.0576" lon="-72.43955">
        <ele>392.9</ele>
      </trkpt>
      <trkpt lat="45.0576" lon="-72.4393">
        <ele>392.9</ele>
      </trkpt>
      <trkpt lat="45.05743" lon="-72.43889">
        <ele>392.9</ele>
      </trkpt>
      <trkpt lat="45.05742" lon="-72.43875">
        <ele>392.9</ele>
      </trkpt>
      <trkpt lat="45.05748" lon="-72.43857">
        <ele>392.9</ele>
      </trkpt>
      <trkpt lat="45.05817" lon="-72.43776">
        <ele>392.9</ele>
      </trkpt>
      <trkpt lat="45.05831" lon="-72.43755">
        <ele>392.9</ele>
      </trkpt>
      <trkpt lat="45.05839" lon="-72.43729">
        <ele>392.9</ele>
      </trkpt>
      <trkpt lat="45.05843" lon="-72.43705">
        <ele>392.9</ele>
      </trkpt>
      <trkpt lat="45.05841" lon="-72.43584">
        <ele>392.9</ele>
      </trkpt>
      <trkpt lat="45.05843" lon="-72.43562">
        <ele>392.9</ele>
      </trkpt>
      <trkpt lat="45.0586" lon="-72.43505">
        <ele>392.9</ele>
      </trkpt>
      <trkpt lat="45.05863" lon="-72.43482">
        <ele>392.9</ele>
      </trkpt>
      <trkpt lat="45.05863" lon="-72.43467">
        <ele>392.9</ele>
      </trkpt>
      <trkpt lat="45.05849" lon="-72.43373">
        <ele>392.9</ele>
      </trkpt>
      <trkpt lat="45.05848" lon="-72.43285">
        <ele>392.9</ele>
      </trkpt>
      <trkpt lat="45.05844" lon="-72.4327">
        <ele>392.9</ele>
      </trkpt>
      <trkpt lat="45.05836" lon="-72.43257">
        <ele>392.9</ele>
      </trkpt>
      <trkpt lat="45.05827" lon="-72.43249">
        <ele>322</ele>
      </trkpt>
      <trkpt lat="45.05788" lon="-72.43239">
        <ele>322</ele>
      </trkpt>
      <trkpt lat="45.0576" lon="-72.43212">
        <ele>322</ele>
      </trkpt>
      <trkpt lat="45.05738" lon="-72.43177">
        <ele>322</ele>
      </trkpt>
      <trkpt lat="45.057016" lon="-72.430886">
        <ele>322</ele>
      </trkpt>
      <trkpt lat="45.056653" lon="-72.430003">
        <ele>322</ele>
      </trkpt>
      <trkpt lat="45.05629" lon="-72.42912">
        <ele>322</ele>
      </trkpt>
      <trkpt lat="45.05625" lon="-72.42821">
        <ele>322</ele>
      </trkpt>
      <trkpt lat="45.05622" lon="-72.42695">
        <ele>313.9</ele>
      </trkpt>
      <trkpt lat="45.055755" lon="-72.426559">
        <ele>310.9</ele>
      </trkpt>
      <trkpt lat="45.05529" lon="-72.42617">
        <ele>308.2</ele>
      </trkpt>
      <trkpt lat="45.05516" lon="-72.42612">
        <ele>308</ele>
      </trkpt>
      <trkpt lat="45.05491" lon="-72.42587">
        <ele>307.2</ele>
      </trkpt>
      <trkpt lat="45.05452" lon="-72.42541">
        <ele>302.4</ele>
      </trkpt>
      <trkpt lat="45.05411" lon="-72.42506">
        <ele>300</ele>
      </trkpt>
      <trkpt lat="45.05352" lon="-72.42466">
        <ele>298.4</ele>
      </trkpt>
      <trkpt lat="45.05352" lon="-72.42465">
        <ele>298.4</ele>
      </trkpt>
      <trkpt lat="45.05282" lon="-72.42417">
        <ele>297.6</ele>
      </trkpt>
      <trkpt lat="45.05246" lon="-72.42381">
        <ele>296.7</ele>
      </trkpt>
      <trkpt lat="45.05225" lon="-72.42358">
        <ele>296.5</ele>
      </trkpt>
      <trkpt lat="45.05205" lon="-72.4234">
        <ele>295.8</ele>
      </trkpt>
      <trkpt lat="45.051475" lon="-72.423109">
        <ele>293.4</ele>
      </trkpt>
      <trkpt lat="45.0509" lon="-72.42282">
        <ele>290.7</ele>
      </trkpt>
      <trkpt lat="45.05041" lon="-72.422584">
        <ele>289</ele>
      </trkpt>
      <trkpt lat="45.04992" lon="-72.42235">
        <ele>285.5</ele>
      </trkpt>
      <trkpt lat="45.049865" lon="-72.421424">
        <ele>281.4</ele>
      </trkpt>
      <trkpt lat="45.04981" lon="-72.4205">
        <ele>277.2</ele>
      </trkpt>
      <trkpt lat="45.04977" lon="-72.419604">
        <ele>272.1</ele>
      </trkpt>
      <trkpt lat="45.04973" lon="-72.41871">
        <ele>265.6</ele>
      </trkpt>
      <trkpt lat="45.049692" lon="-72.417499">
        <ele>261.1</ele>
      </trkpt>
      <trkpt lat="45.049655" lon="-72.416289">
        <ele>257.3</ele>
      </trkpt>
      <trkpt lat="45.049617" lon="-72.415079">
        <ele>254.2</ele>
      </trkpt>
      <trkpt lat="45.04958" lon="-72.41387">
        <ele>249.9</ele>
      </trkpt>
      <trkpt lat="45.04956" lon="-72.41362">
        <ele>248.4</ele>
      </trkpt>
      <trkpt lat="45.048979" lon="-72.41374">
        <ele>244.6</ele>
      </trkpt>
      <trkpt lat="45.0484" lon="-72.41386">
        <ele>242.3</ele>
      </trkpt>
      <trkpt lat="45.04782" lon="-72.41402">
        <ele>240.1</ele>
      </trkpt>
      <trkpt lat="45.04724" lon="-72.41418">
        <ele>235.6</ele>
      </trkpt>
      <trkpt lat="45.0466" lon="-72.41438">
        <ele>229.9</ele>
      </trkpt>
      <trkpt lat="45.04659" lon="-72.41438">
        <ele>229.9</ele>
      </trkpt>
      <trkpt lat="45.04576" lon="-72.414635">
        <ele>229.3</ele>
      </trkpt>
      <trkpt lat="45.04493" lon="-72.41489">
        <ele>229.3</ele>
      </trkpt>
      <trkpt lat="45.04455" lon="-72.41502">
        <ele>228</ele>
      </trkpt>
      <trkpt lat="45.04441" lon="-72.41503">
        <ele>227.4</ele>
      </trkpt>
      <trkpt lat="45.04411" lon="-72.41498">
        <ele>224.7</ele>
      </trkpt>
      <trkpt lat="45.04339" lon="-72.414726">
        <ele>215.4</ele>
      </trkpt>
      <trkpt lat="45.04267" lon="-72.414473">
        <ele>205.4</ele>
      </trkpt>
      <trkpt lat="45.04195" lon="-72.41422">
        <ele>198.4</ele>
      </trkpt>
      <trkpt lat="45.041455" lon="-72.414084">
        <ele>196.9</ele>
      </trkpt>
      <trkpt lat="45.04096" lon="-72.41395">
        <ele>195.5</ele>
      </trkpt>
      <trkpt lat="45.040283" lon="-72.413769">
        <ele>189</ele>
      </trkpt>
      <trkpt lat="45.039606" lon="-72.413589">
        <ele>183.3</ele>
      </trkpt>
      <trkpt lat="45.03893" lon="-72.41341">
        <ele>176.9</ele>
      </trkpt>
      <trkpt lat="45.03836" lon="-72.41315">
        <ele>173.8</ele>
      </trkpt>
      <trkpt lat="45.03861" lon="-72.412545">
        <ele>173</ele>
      </trkpt>
      <trkpt lat="45.03886" lon="-72.41194">
        <ele>171.8</ele>
      </trkpt>
      <trkpt lat="45.03886" lon="-72.41195">
        <ele>171.8</ele>
      </trkpt>
      <trkpt lat="45.03898" lon="-72.41167">
        <ele>170.8</ele>
      </trkpt>
      <trkpt lat="45.039425" lon="-72.41081">
        <ele>167.8</ele>
      </trkpt>
      <trkpt lat="45.03987" lon="-72.40995">
        <ele>167</ele>
      </trkpt>
      <trkpt lat="45.040315" lon="-72.40909">
        <ele>166.8</ele>
      </trkpt>
      <trkpt lat="45.04076" lon="-72.40823">
        <ele>164.1</ele>
      </trkpt>
      <trkpt lat="45.041" lon="-72.40769">
        <ele>162.6</ele>
      </trkpt>
      <trkpt lat="45.04125" lon="-72.40698">
        <ele>160.9</ele>
      </trkpt>
      <trkpt lat="45.0415" lon="-72.40627">
        <ele>160.8</ele>
      </trkpt>
      <trkpt lat="45.041852" lon="-72.405238">
        <ele>160.9</ele>
      </trkpt>
      <trkpt lat="45.042204" lon="-72.404206">
        <ele>162.2</ele>
      </trkpt>
      <trkpt lat="45.042556" lon="-72.403174">
        <ele>165.6</ele>
      </trkpt>
      <trkpt lat="45.042908" lon="-72.402142">
        <ele>168.5</ele>
      </trkpt>
      <trkpt lat="45.04326" lon="-72.40111">
        <ele>169.9</ele>
      </trkpt>
      <trkpt lat="45.04366" lon="-72.40021">
        <ele>165.5</ele>
      </trkpt>
      <trkpt lat="45.04416" lon="-72.399275">
        <ele>159</ele>
      </trkpt>
      <trkpt lat="45.04466" lon="-72.39834">
        <ele>159.3</ele>
      </trkpt>
      <trkpt lat="45.04496" lon="-72.3977">
        <ele>160.1</ele>
      </trkpt>
      <trkpt lat="45.04508" lon="-72.39738">
        <ele>160.1</ele>
      </trkpt>
      <trkpt lat="45.04527" lon="-72.39673">
        <ele>160</ele>
      </trkpt>
      <trkpt lat="45.04546" lon="-72.39608">
        <ele>159.3</ele>
      </trkpt>
      <trkpt lat="45.04546" lon="-72.39609">
        <ele>159.4</ele>
      </trkpt>
      <trkpt lat="45.045635" lon="-72.39549">
        <ele>158.9</ele>
      </trkpt>
      <trkpt lat="45.04581" lon="-72.39489">
        <ele>158.6</ele>
      </trkpt>
      <trkpt lat="45.04598" lon="-72.39448">
        <ele>157.8</ele>
      </trkpt>
      <trkpt lat="45.04618" lon="-72.39413">
        <ele>157.6</ele>
      </trkpt>
      <trkpt lat="45.04644" lon="-72.3938">
        <ele>158.1</ele>
      </trkpt>
      <trkpt lat="45.04674" lon="-72.3935">
        <ele>159.8</ele>
      </trkpt>
      <trkpt lat="45.047405" lon="-72.39307">
        <ele>165.5</ele>
      </trkpt>
      <trkpt lat="45.04807" lon="-72.39264">
        <ele>174.9</ele>
      </trkpt>
      <trkpt lat="45.04871" lon="-72.39228">
        <ele>181.8</ele>
      </trkpt>
      <trkpt lat="45.04888" lon="-72.39219">
        <ele>184.4</ele>
      </trkpt>
      <trkpt lat="45.04974" lon="-72.39202">
        <ele>191.2</ele>
      </trkpt>
      <trkpt lat="45.04973" lon="-72.39136">
        <ele>190.6</ele>
      </trkpt>
      <trkpt lat="45.05035" lon="-72.39144">
        <ele>191.2</ele>
      </trkpt>
    </trkseg>
  </trk>
</gpx>