<?xml version='1.0' encoding='utf-8'?>
<gpx xmlns="http://www.topografix.com/GPX/1/1" xmlns:xsi="http://www.w3.org/2001/XMLSchema-instance" version="1.1" creator="Gravelle Estrie" xsi:schemaLocation="http://www.topografix.com/GPX/1/1 http://www.topografix.com/GPX/1/1/gpx.xsd">
  <metadata>
    <name>Take a Trip 41KM / 465MD+</name>
  </metadata>
  <trk>
    <name>Take a Trip 41KM / 465MD+</name>
    <trkseg>
      <trkpt lat="45.22231" lon="-72.53183">
        <ele>202.54</ele>
      </trkpt>
      <trkpt lat="45.22235" lon="-72.533">
        <ele>201.96</ele>
      </trkpt>
      <trkpt lat="45.22231" lon="-72.53398">
        <ele>200.73</ele>
      </trkpt>
      <trkpt lat="45.222325" lon="-72.53497">
        <ele>199.52</ele>
      </trkpt>
      <trkpt lat="45.22234" lon="-72.53596">
        <ele>200.04</ele>
      </trkpt>
      <trkpt lat="45.22258" lon="-72.536">
        <ele>200.34</ele>
      </trkpt>
      <trkpt lat="45.2234" lon="-72.53595">
        <ele>202.02</ele>
      </trkpt>
      <trkpt lat="45.22385" lon="-72.53604">
        <ele>202.03</ele>
      </trkpt>
      <trkpt lat="45.2243" lon="-72.53613">
        <ele>202.33</ele>
      </trkpt>
      <trkpt lat="45.22462" lon="-72.53618">
        <ele>203.23</ele>
      </trkpt>
      <trkpt lat="45.22511" lon="-72.53617">
        <ele>203.82</ele>
      </trkpt>
      <trkpt lat="45.2258633" lon="-72.5360633">
        <ele>202.45</ele>
      </trkpt>
      <trkpt lat="45.2266167" lon="-72.5359567">
        <ele>202.37</ele>
      </trkpt>
      <trkpt lat="45.22737" lon="-72.53585">
        <ele>202.16</ele>
      </trkpt>
      <trkpt lat="45.22783" lon="-72.53581">
        <ele>202</ele>
      </trkpt>
      <trkpt lat="45.22782" lon="-72.53581">
        <ele>202</ele>
      </trkpt>
      <trkpt lat="45.22817" lon="-72.53579">
        <ele>202.14</ele>
      </trkpt>
      <trkpt lat="45.2289467" lon="-72.5357667">
        <ele>201.68</ele>
      </trkpt>
      <trkpt lat="45.2297233" lon="-72.5357433">
        <ele>200.05</ele>
      </trkpt>
      <trkpt lat="45.2305" lon="-72.53572">
        <ele>200.55</ele>
      </trkpt>
      <trkpt lat="45.23114" lon="-72.53574">
        <ele>201.06</ele>
      </trkpt>
      <trkpt lat="45.231925" lon="-72.535825">
        <ele>203.03</ele>
      </trkpt>
      <trkpt lat="45.23271" lon="-72.53591">
        <ele>207.12</ele>
      </trkpt>
      <trkpt lat="45.23286" lon="-72.53591">
        <ele>207.71</ele>
      </trkpt>
      <trkpt lat="45.233365" lon="-72.535775">
        <ele>208.09</ele>
      </trkpt>
      <trkpt lat="45.23387" lon="-72.53564">
        <ele>207.78</ele>
      </trkpt>
      <trkpt lat="45.23444" lon="-72.535575">
        <ele>207.26</ele>
      </trkpt>
      <trkpt lat="45.23501" lon="-72.53551">
        <ele>207.52</ele>
      </trkpt>
      <trkpt lat="45.23528" lon="-72.53554">
        <ele>207.64</ele>
      </trkpt>
      <trkpt lat="45.2356" lon="-72.53563">
        <ele>207.4</ele>
      </trkpt>
      <trkpt lat="45.23574" lon="-72.53569">
        <ele>207.12</ele>
      </trkpt>
      <trkpt lat="45.23592" lon="-72.53582">
        <ele>206.34</ele>
      </trkpt>
      <trkpt lat="45.23643" lon="-72.53641">
        <ele>204.44</ele>
      </trkpt>
      <trkpt lat="45.23701" lon="-72.53716">
        <ele>203.35</ele>
      </trkpt>
      <trkpt lat="45.2374" lon="-72.53772">
        <ele>203.78</ele>
      </trkpt>
      <trkpt lat="45.237845" lon="-72.538335">
        <ele>204.78</ele>
      </trkpt>
      <trkpt lat="45.23829" lon="-72.53895">
        <ele>206.51</ele>
      </trkpt>
      <trkpt lat="45.23878" lon="-72.53955">
        <ele>208</ele>
      </trkpt>
      <trkpt lat="45.23912" lon="-72.53989">
        <ele>207.47</ele>
      </trkpt>
      <trkpt lat="45.23941" lon="-72.54014">
        <ele>206.03</ele>
      </trkpt>
      <trkpt lat="45.2397" lon="-72.54034">
        <ele>204.65</ele>
      </trkpt>
      <trkpt lat="45.24008" lon="-72.54074">
        <ele>204.41</ele>
      </trkpt>
      <trkpt lat="45.24025" lon="-72.54102">
        <ele>204.69</ele>
      </trkpt>
      <trkpt lat="45.24069" lon="-72.54213">
        <ele>203.02</ele>
      </trkpt>
      <trkpt lat="45.24092" lon="-72.54278">
        <ele>204.76</ele>
      </trkpt>
      <trkpt lat="45.24126" lon="-72.54396">
        <ele>204.35</ele>
      </trkpt>
      <trkpt lat="45.2413" lon="-72.54419">
        <ele>204.58</ele>
      </trkpt>
      <trkpt lat="45.24131" lon="-72.54437">
        <ele>204.99</ele>
      </trkpt>
      <trkpt lat="45.24128" lon="-72.54482">
        <ele>206.12</ele>
      </trkpt>
      <trkpt lat="45.24129" lon="-72.54513">
        <ele>206.96</ele>
      </trkpt>
      <trkpt lat="45.24137" lon="-72.54536">
        <ele>206.98</ele>
      </trkpt>
      <trkpt lat="45.24187" lon="-72.546165">
        <ele>204.45</ele>
      </trkpt>
      <trkpt lat="45.24237" lon="-72.54697">
        <ele>203.61</ele>
      </trkpt>
      <trkpt lat="45.24265" lon="-72.54749">
        <ele>201.55</ele>
      </trkpt>
      <trkpt lat="45.24297" lon="-72.54812">
        <ele>199.63</ele>
      </trkpt>
      <trkpt lat="45.24338" lon="-72.54903">
        <ele>199.41</ele>
      </trkpt>
      <trkpt lat="45.24353" lon="-72.54956">
        <ele>199.79</ele>
      </trkpt>
      <trkpt lat="45.24382" lon="-72.55041">
        <ele>199.98</ele>
      </trkpt>
      <trkpt lat="45.24408" lon="-72.55086">
        <ele>200.01</ele>
      </trkpt>
      <trkpt lat="45.24415" lon="-72.55103">
        <ele>200.01</ele>
      </trkpt>
      <trkpt lat="45.24418" lon="-72.55153">
        <ele>200.25</ele>
      </trkpt>
      <trkpt lat="45.24414" lon="-72.552705">
        <ele>202.39</ele>
      </trkpt>
      <trkpt lat="45.2441" lon="-72.55388">
        <ele>206.59</ele>
      </trkpt>
      <trkpt lat="45.24489" lon="-72.55396">
        <ele>203.96</ele>
      </trkpt>
      <trkpt lat="45.24568" lon="-72.55404">
        <ele>200.75</ele>
      </trkpt>
      <trkpt lat="45.24601" lon="-72.55404">
        <ele>199.98</ele>
      </trkpt>
      <trkpt lat="45.24613" lon="-72.55404">
        <ele>199.89</ele>
      </trkpt>
      <trkpt lat="45.24641" lon="-72.55395">
        <ele>200.11</ele>
      </trkpt>
      <trkpt lat="45.24659" lon="-72.55382">
        <ele>200.54</ele>
      </trkpt>
      <trkpt lat="45.2473233" lon="-72.5543067">
        <ele>201.4</ele>
      </trkpt>
      <trkpt lat="45.2480567" lon="-72.5547933">
        <ele>200.13</ele>
      </trkpt>
      <trkpt lat="45.24879" lon="-72.55528">
        <ele>200.14</ele>
      </trkpt>
      <trkpt lat="45.24942" lon="-72.55564">
        <ele>200.05</ele>
      </trkpt>
      <trkpt lat="45.24965" lon="-72.55565">
        <ele>200.32</ele>
      </trkpt>
      <trkpt lat="45.250355" lon="-72.5556475">
        <ele>201.94</ele>
      </trkpt>
      <trkpt lat="45.25106" lon="-72.555645">
        <ele>203.08</ele>
      </trkpt>
      <trkpt lat="45.251765" lon="-72.5556425">
        <ele>203.44</ele>
      </trkpt>
      <trkpt lat="45.25247" lon="-72.55564">
        <ele>204.52</ele>
      </trkpt>
      <trkpt lat="45.25304" lon="-72.55561">
        <ele>206.44</ele>
      </trkpt>
      <trkpt lat="45.25303" lon="-72.55561">
        <ele>206.44</ele>
      </trkpt>
      <trkpt lat="45.2538938" lon="-72.55557">
        <ele>206.67</ele>
      </trkpt>
      <trkpt lat="45.2547575" lon="-72.55553">
        <ele>206</ele>
      </trkpt>
      <trkpt lat="45.2556213" lon="-72.55549">
        <ele>206.4</ele>
      </trkpt>
      <trkpt lat="45.256485" lon="-72.55545">
        <ele>207.96</ele>
      </trkpt>
      <trkpt lat="45.2573488" lon="-72.55541">
        <ele>211.68</ele>
      </trkpt>
      <trkpt lat="45.2582125" lon="-72.55537">
        <ele>215.8</ele>
      </trkpt>
      <trkpt lat="45.2590763" lon="-72.55533">
        <ele>220.54</ele>
      </trkpt>
      <trkpt lat="45.25994" lon="-72.55529">
        <ele>221.75</ele>
      </trkpt>
      <trkpt lat="45.26006" lon="-72.55535">
        <ele>221.93</ele>
      </trkpt>
      <trkpt lat="45.26011" lon="-72.55556">
        <ele>221.91</ele>
      </trkpt>
      <trkpt lat="45.26012" lon="-72.55596">
        <ele>222.03</ele>
      </trkpt>
      <trkpt lat="45.26007" lon="-72.5571814">
        <ele>222.32</ele>
      </trkpt>
      <trkpt lat="45.2600201" lon="-72.5584029">
        <ele>222.56</ele>
      </trkpt>
      <trkpt lat="45.2599701" lon="-72.5596243">
        <ele>220.99</ele>
      </trkpt>
      <trkpt lat="45.2599201" lon="-72.5608457">
        <ele>218.99</ele>
      </trkpt>
      <trkpt lat="45.2598701" lon="-72.5620672">
        <ele>213.41</ele>
      </trkpt>
      <trkpt lat="45.25982" lon="-72.5632886">
        <ele>209.69</ele>
      </trkpt>
      <trkpt lat="45.25977" lon="-72.56451">
        <ele>207.46</ele>
      </trkpt>
      <trkpt lat="45.25973" lon="-72.5657045">
        <ele>203.88</ele>
      </trkpt>
      <trkpt lat="45.2596901" lon="-72.5668989">
        <ele>201.85</ele>
      </trkpt>
      <trkpt lat="45.2596501" lon="-72.5680933">
        <ele>201.12</ele>
      </trkpt>
      <trkpt lat="45.2596101" lon="-72.5692878">
        <ele>199.97</ele>
      </trkpt>
      <trkpt lat="45.2595701" lon="-72.5704822">
        <ele>200.98</ele>
      </trkpt>
      <trkpt lat="45.2595301" lon="-72.5716767">
        <ele>201.15</ele>
      </trkpt>
      <trkpt lat="45.2594901" lon="-72.5728711">
        <ele>201.68</ele>
      </trkpt>
      <trkpt lat="45.25945" lon="-72.5740656">
        <ele>202.69</ele>
      </trkpt>
      <trkpt lat="45.25941" lon="-72.57526">
        <ele>203.83</ele>
      </trkpt>
      <trkpt lat="45.25935" lon="-72.57598">
        <ele>204.45</ele>
      </trkpt>
      <trkpt lat="45.25944" lon="-72.57625">
        <ele>204.72</ele>
      </trkpt>
      <trkpt lat="45.25962" lon="-72.57647">
        <ele>204.66</ele>
      </trkpt>
      <trkpt lat="45.26048" lon="-72.576455">
        <ele>203.38</ele>
      </trkpt>
      <trkpt lat="45.26134" lon="-72.57644">
        <ele>202.73</ele>
      </trkpt>
      <trkpt lat="45.262152" lon="-72.576433">
        <ele>202.02</ele>
      </trkpt>
      <trkpt lat="45.262964" lon="-72.576426">
        <ele>201.48</ele>
      </trkpt>
      <trkpt lat="45.263776" lon="-72.576419">
        <ele>203.07</ele>
      </trkpt>
      <trkpt lat="45.264588" lon="-72.576412">
        <ele>202.19</ele>
      </trkpt>
      <trkpt lat="45.2654" lon="-72.576405">
        <ele>200.46</ele>
      </trkpt>
      <trkpt lat="45.266212" lon="-72.576398">
        <ele>198.3</ele>
      </trkpt>
      <trkpt lat="45.267024" lon="-72.576391">
        <ele>198.04</ele>
      </trkpt>
      <trkpt lat="45.267836" lon="-72.576384">
        <ele>197.35</ele>
      </trkpt>
      <trkpt lat="45.268648" lon="-72.576377">
        <ele>197.66</ele>
      </trkpt>
      <trkpt lat="45.26946" lon="-72.57637">
        <ele>199.78</ele>
      </trkpt>
      <trkpt lat="45.2703033" lon="-72.57637">
        <ele>200.3</ele>
      </trkpt>
      <trkpt lat="45.2711467" lon="-72.57637">
        <ele>200.42</ele>
      </trkpt>
      <trkpt lat="45.27199" lon="-72.57637">
        <ele>201.66</ele>
      </trkpt>
      <trkpt lat="45.272745" lon="-72.57633">
        <ele>203.02</ele>
      </trkpt>
      <trkpt lat="45.2735" lon="-72.57629">
        <ele>206.08</ele>
      </trkpt>
      <trkpt lat="45.274348" lon="-72.576256">
        <ele>205.94</ele>
      </trkpt>
      <trkpt lat="45.275196" lon="-72.576222">
        <ele>208.62</ele>
      </trkpt>
      <trkpt lat="45.276044" lon="-72.576188">
        <ele>207.26</ele>
      </trkpt>
      <trkpt lat="45.276892" lon="-72.576154">
        <ele>206.76</ele>
      </trkpt>
      <trkpt lat="45.27774" lon="-72.57612">
        <ele>204.96</ele>
      </trkpt>
      <trkpt lat="45.278588" lon="-72.576086">
        <ele>204.18</ele>
      </trkpt>
      <trkpt lat="45.279436" lon="-72.576052">
        <ele>202.19</ele>
      </trkpt>
      <trkpt lat="45.280284" lon="-72.576018">
        <ele>202.58</ele>
      </trkpt>
      <trkpt lat="45.281132" lon="-72.575984">
        <ele>201.47</ele>
      </trkpt>
      <trkpt lat="45.28198" lon="-72.57595">
        <ele>200.85</ele>
      </trkpt>
      <trkpt lat="45.282826" lon="-72.57592">
        <ele>200.23</ele>
      </trkpt>
      <trkpt lat="45.283672" lon="-72.57589">
        <ele>198.83</ele>
      </trkpt>
      <trkpt lat="45.284518" lon="-72.57586">
        <ele>197.14</ele>
      </trkpt>
      <trkpt lat="45.285364" lon="-72.57583">
        <ele>193.55</ele>
      </trkpt>
      <trkpt lat="45.28621" lon="-72.5758">
        <ele>189.52</ele>
      </trkpt>
      <trkpt lat="45.28672" lon="-72.575755">
        <ele>187.92</ele>
      </trkpt>
      <trkpt lat="45.28723" lon="-72.57571">
        <ele>186.52</ele>
      </trkpt>
      <trkpt lat="45.28792" lon="-72.57567">
        <ele>185.11</ele>
      </trkpt>
      <trkpt lat="45.28861" lon="-72.57563">
        <ele>185.29</ele>
      </trkpt>
      <trkpt lat="45.2886" lon="-72.57563">
        <ele>185.28</ele>
      </trkpt>
      <trkpt lat="45.2893733" lon="-72.57558">
        <ele>185.13</ele>
      </trkpt>
      <trkpt lat="45.2901467" lon="-72.57553">
        <ele>182.99</ele>
      </trkpt>
      <trkpt lat="45.29092" lon="-72.57548">
        <ele>183.82</ele>
      </trkpt>
      <trkpt lat="45.29096" lon="-72.57621">
        <ele>182.78</ele>
      </trkpt>
      <trkpt lat="45.29102" lon="-72.57675">
        <ele>182.04</ele>
      </trkpt>
      <trkpt lat="45.29111" lon="-72.5774">
        <ele>180.99</ele>
      </trkpt>
      <trkpt lat="45.2913317" lon="-72.5785866">
        <ele>176.82</ele>
      </trkpt>
      <trkpt lat="45.2915534" lon="-72.5797733">
        <ele>173.91</ele>
      </trkpt>
      <trkpt lat="45.2917751" lon="-72.58096">
        <ele>168.57</ele>
      </trkpt>
      <trkpt lat="45.2919967" lon="-72.5821466">
        <ele>167.8</ele>
      </trkpt>
      <trkpt lat="45.2922184" lon="-72.5833333">
        <ele>169.12</ele>
      </trkpt>
      <trkpt lat="45.29244" lon="-72.58452">
        <ele>171.11</ele>
      </trkpt>
      <trkpt lat="45.29254" lon="-72.58497">
        <ele>170.72</ele>
      </trkpt>
      <trkpt lat="45.29276" lon="-72.58585">
        <ele>164.69</ele>
      </trkpt>
      <trkpt lat="45.29295" lon="-72.58646">
        <ele>161.97</ele>
      </trkpt>
      <trkpt lat="45.29314" lon="-72.58707">
        <ele>161.36</ele>
      </trkpt>
      <trkpt lat="45.29338" lon="-72.58766">
        <ele>163</ele>
      </trkpt>
      <trkpt lat="45.29362" lon="-72.58825">
        <ele>165.03</ele>
      </trkpt>
      <trkpt lat="45.294" lon="-72.589136">
        <ele>168.09</ele>
      </trkpt>
      <trkpt lat="45.29438" lon="-72.590022">
        <ele>169</ele>
      </trkpt>
      <trkpt lat="45.29476" lon="-72.590908">
        <ele>168.57</ele>
      </trkpt>
      <trkpt lat="45.29514" lon="-72.591794">
        <ele>168.71</ele>
      </trkpt>
      <trkpt lat="45.29552" lon="-72.59268">
        <ele>169.61</ele>
      </trkpt>
      <trkpt lat="45.29564" lon="-72.59307">
        <ele>169.85</ele>
      </trkpt>
      <trkpt lat="45.29573" lon="-72.59344">
        <ele>170.26</ele>
      </trkpt>
      <trkpt lat="45.29583" lon="-72.5943">
        <ele>171.24</ele>
      </trkpt>
      <trkpt lat="45.296485" lon="-72.59427">
        <ele>170.7</ele>
      </trkpt>
      <trkpt lat="45.29714" lon="-72.59424">
        <ele>170.36</ele>
      </trkpt>
      <trkpt lat="45.29747" lon="-72.59415">
        <ele>169.41</ele>
      </trkpt>
      <trkpt lat="45.29825" lon="-72.59375">
        <ele>166.33</ele>
      </trkpt>
      <trkpt lat="45.29854" lon="-72.59362">
        <ele>163.81</ele>
      </trkpt>
      <trkpt lat="45.2988" lon="-72.59352">
        <ele>162.67</ele>
      </trkpt>
      <trkpt lat="45.29924" lon="-72.59343">
        <ele>156.73</ele>
      </trkpt>
      <trkpt lat="45.29972" lon="-72.59339">
        <ele>152.57</ele>
      </trkpt>
      <trkpt lat="45.30029" lon="-72.59348">
        <ele>148.46</ele>
      </trkpt>
      <trkpt lat="45.300815" lon="-72.59366">
        <ele>147.38</ele>
      </trkpt>
      <trkpt lat="45.30134" lon="-72.59384">
        <ele>145.25</ele>
      </trkpt>
      <trkpt lat="45.30156" lon="-72.5939">
        <ele>144.53</ele>
      </trkpt>
      <trkpt lat="45.30191" lon="-72.59394">
        <ele>142.92</ele>
      </trkpt>
      <trkpt lat="45.30241" lon="-72.59402">
        <ele>142.06</ele>
      </trkpt>
      <trkpt lat="45.30275" lon="-72.59402">
        <ele>142.8</ele>
      </trkpt>
      <trkpt lat="45.30333" lon="-72.59398">
        <ele>145.86</ele>
      </trkpt>
      <trkpt lat="45.30391" lon="-72.59394">
        <ele>147.61</ele>
      </trkpt>
      <trkpt lat="45.304495" lon="-72.59389">
        <ele>150.27</ele>
      </trkpt>
      <trkpt lat="45.30508" lon="-72.59384">
        <ele>153.44</ele>
      </trkpt>
      <trkpt lat="45.30507" lon="-72.59384">
        <ele>153.42</ele>
      </trkpt>
      <trkpt lat="45.3058067" lon="-72.59378">
        <ele>155.95</ele>
      </trkpt>
      <trkpt lat="45.3065433" lon="-72.59372">
        <ele>156.98</ele>
      </trkpt>
      <trkpt lat="45.30728" lon="-72.59366">
        <ele>158.72</ele>
      </trkpt>
      <trkpt lat="45.307282" lon="-72.592526">
        <ele>158.37</ele>
      </trkpt>
      <trkpt lat="45.307284" lon="-72.591392">
        <ele>159.09</ele>
      </trkpt>
      <trkpt lat="45.307286" lon="-72.590258">
        <ele>162.34</ele>
      </trkpt>
      <trkpt lat="45.307288" lon="-72.589124">
        <ele>167.74</ele>
      </trkpt>
      <trkpt lat="45.30729" lon="-72.58799">
        <ele>170</ele>
      </trkpt>
      <trkpt lat="45.307275" lon="-72.58718">
        <ele>172.24</ele>
      </trkpt>
      <trkpt lat="45.30726" lon="-72.58637">
        <ele>173.04</ele>
      </trkpt>
      <trkpt lat="45.3072575" lon="-72.5852387">
        <ele>172.39</ele>
      </trkpt>
      <trkpt lat="45.3072551" lon="-72.5841075">
        <ele>167.99</ele>
      </trkpt>
      <trkpt lat="45.3072526" lon="-72.5829762">
        <ele>163.41</ele>
      </trkpt>
      <trkpt lat="45.3072501" lon="-72.581845">
        <ele>164.99</ele>
      </trkpt>
      <trkpt lat="45.3072476" lon="-72.5807137">
        <ele>167.49</ele>
      </trkpt>
      <trkpt lat="45.3072451" lon="-72.5795825">
        <ele>168.53</ele>
      </trkpt>
      <trkpt lat="45.3072425" lon="-72.5784512">
        <ele>167.91</ele>
      </trkpt>
      <trkpt lat="45.30724" lon="-72.57732">
        <ele>168.87</ele>
      </trkpt>
      <trkpt lat="45.307252" lon="-72.576076">
        <ele>171.19</ele>
      </trkpt>
      <trkpt lat="45.307264" lon="-72.574832">
        <ele>175.66</ele>
      </trkpt>
      <trkpt lat="45.307276" lon="-72.573588">
        <ele>183.24</ele>
      </trkpt>
      <trkpt lat="45.307288" lon="-72.572344">
        <ele>189.53</ele>
      </trkpt>
      <trkpt lat="45.3073" lon="-72.5711">
        <ele>193.1</ele>
      </trkpt>
      <trkpt lat="45.30731" lon="-72.5706">
        <ele>192.73</ele>
      </trkpt>
      <trkpt lat="45.30734" lon="-72.57015">
        <ele>192.94</ele>
      </trkpt>
      <trkpt lat="45.30742" lon="-72.56963">
        <ele>194.41</ele>
      </trkpt>
      <trkpt lat="45.30756" lon="-72.56896">
        <ele>198.07</ele>
      </trkpt>
      <trkpt lat="45.3076" lon="-72.56855">
        <ele>200.79</ele>
      </trkpt>
      <trkpt lat="45.30758" lon="-72.56814">
        <ele>205.53</ele>
      </trkpt>
      <trkpt lat="45.30744" lon="-72.566975">
        <ele>207.15</ele>
      </trkpt>
      <trkpt lat="45.3073" lon="-72.56581">
        <ele>207.54</ele>
      </trkpt>
      <trkpt lat="45.30727" lon="-72.56505">
        <ele>208.26</ele>
      </trkpt>
      <trkpt lat="45.3072675" lon="-72.56409">
        <ele>209.97</ele>
      </trkpt>
      <trkpt lat="45.307265" lon="-72.56313">
        <ele>212.43</ele>
      </trkpt>
      <trkpt lat="45.3072625" lon="-72.56217">
        <ele>217.73</ele>
      </trkpt>
      <trkpt lat="45.30726" lon="-72.56121">
        <ele>221.38</ele>
      </trkpt>
      <trkpt lat="45.3072667" lon="-72.5601367">
        <ele>223.57</ele>
      </trkpt>
      <trkpt lat="45.3072734" lon="-72.5590633">
        <ele>226.04</ele>
      </trkpt>
      <trkpt lat="45.30728" lon="-72.55799">
        <ele>226.32</ele>
      </trkpt>
      <trkpt lat="45.3072867" lon="-72.5569167">
        <ele>225.45</ele>
      </trkpt>
      <trkpt lat="45.3072934" lon="-72.5558433">
        <ele>225.27</ele>
      </trkpt>
      <trkpt lat="45.3073" lon="-72.55477">
        <ele>225.24</ele>
      </trkpt>
      <trkpt lat="45.3073167" lon="-72.5535467">
        <ele>225.48</ele>
      </trkpt>
      <trkpt lat="45.3073333" lon="-72.5523233">
        <ele>226.4</ele>
      </trkpt>
      <trkpt lat="45.30735" lon="-72.5511">
        <ele>227.06</ele>
      </trkpt>
      <trkpt lat="45.307355" lon="-72.5498233">
        <ele>226.98</ele>
      </trkpt>
      <trkpt lat="45.3073601" lon="-72.5485467">
        <ele>228.54</ele>
      </trkpt>
      <trkpt lat="45.3073651" lon="-72.54727">
        <ele>228.46</ele>
      </trkpt>
      <trkpt lat="45.3073701" lon="-72.5459933">
        <ele>228.76</ele>
      </trkpt>
      <trkpt lat="45.307375" lon="-72.5447167">
        <ele>228.54</ele>
      </trkpt>
      <trkpt lat="45.30738" lon="-72.54344">
        <ele>229.72</ele>
      </trkpt>
      <trkpt lat="45.3073886" lon="-72.5422557">
        <ele>230.06</ele>
      </trkpt>
      <trkpt lat="45.3073972" lon="-72.5410714">
        <ele>230.84</ele>
      </trkpt>
      <trkpt lat="45.3074058" lon="-72.5398871">
        <ele>230.47</ele>
      </trkpt>
      <trkpt lat="45.3074144" lon="-72.5387029">
        <ele>227.8</ele>
      </trkpt>
      <trkpt lat="45.3074229" lon="-72.5375186">
        <ele>225.87</ele>
      </trkpt>
      <trkpt lat="45.3074315" lon="-72.5363343">
        <ele>227.11</ele>
      </trkpt>
      <trkpt lat="45.30744" lon="-72.53515">
        <ele>229.57</ele>
      </trkpt>
      <trkpt lat="45.307445" lon="-72.5339425">
        <ele>227.33</ele>
      </trkpt>
      <trkpt lat="45.30745" lon="-72.532735">
        <ele>226.07</ele>
      </trkpt>
      <trkpt lat="45.307455" lon="-72.5315275">
        <ele>226.59</ele>
      </trkpt>
      <trkpt lat="45.30746" lon="-72.53032">
        <ele>224.81</ele>
      </trkpt>
      <trkpt lat="45.30746" lon="-72.53032">
        <ele>224.82</ele>
      </trkpt>
      <trkpt lat="45.30746" lon="-72.5293633">
        <ele>223.47</ele>
      </trkpt>
      <trkpt lat="45.30746" lon="-72.5284067">
        <ele>224.48</ele>
      </trkpt>
      <trkpt lat="45.30746" lon="-72.52745">
        <ele>223.36</ele>
      </trkpt>
      <trkpt lat="45.30749" lon="-72.527">
        <ele>220.96</ele>
      </trkpt>
      <trkpt lat="45.30758" lon="-72.52656">
        <ele>218.25</ele>
      </trkpt>
      <trkpt lat="45.307785" lon="-72.525755">
        <ele>210.16</ele>
      </trkpt>
      <trkpt lat="45.30799" lon="-72.52495">
        <ele>206.54</ele>
      </trkpt>
      <trkpt lat="45.308095" lon="-72.524165">
        <ele>208.6</ele>
      </trkpt>
      <trkpt lat="45.3082" lon="-72.52338">
        <ele>212.69</ele>
      </trkpt>
      <trkpt lat="45.3083" lon="-72.52284">
        <ele>213.82</ele>
      </trkpt>
      <trkpt lat="45.30853" lon="-72.5217975">
        <ele>216.87</ele>
      </trkpt>
      <trkpt lat="45.30876" lon="-72.520755">
        <ele>220.81</ele>
      </trkpt>
      <trkpt lat="45.30899" lon="-72.5197125">
        <ele>222.94</ele>
      </trkpt>
      <trkpt lat="45.30922" lon="-72.51867">
        <ele>225.56</ele>
      </trkpt>
      <trkpt lat="45.3094" lon="-72.51742">
        <ele>226.16</ele>
      </trkpt>
      <trkpt lat="45.309465" lon="-72.516715">
        <ele>226.62</ele>
      </trkpt>
      <trkpt lat="45.30953" lon="-72.51601">
        <ele>228.49</ele>
      </trkpt>
      <trkpt lat="45.30959" lon="-72.51501">
        <ele>229.41</ele>
      </trkpt>
      <trkpt lat="45.30965" lon="-72.51401">
        <ele>230.31</ele>
      </trkpt>
      <trkpt lat="45.30962" lon="-72.513165">
        <ele>227.33</ele>
      </trkpt>
      <trkpt lat="45.30959" lon="-72.51232">
        <ele>225.16</ele>
      </trkpt>
      <trkpt lat="45.30954" lon="-72.51191">
        <ele>225.39</ele>
      </trkpt>
      <trkpt lat="45.30951" lon="-72.51172">
        <ele>225.92</ele>
      </trkpt>
      <trkpt lat="45.30924" lon="-72.51075">
        <ele>230.62</ele>
      </trkpt>
      <trkpt lat="45.30903" lon="-72.51025">
        <ele>228.68</ele>
      </trkpt>
      <trkpt lat="45.30863" lon="-72.50937">
        <ele>222.69</ele>
      </trkpt>
      <trkpt lat="45.30823" lon="-72.50849">
        <ele>222.36</ele>
      </trkpt>
      <trkpt lat="45.30783" lon="-72.50761">
        <ele>225.83</ele>
      </trkpt>
      <trkpt lat="45.3077" lon="-72.50722">
        <ele>226.71</ele>
      </trkpt>
      <trkpt lat="45.30757" lon="-72.50663">
        <ele>226.23</ele>
      </trkpt>
      <trkpt lat="45.30752" lon="-72.50596">
        <ele>224.63</ele>
      </trkpt>
      <trkpt lat="45.307545" lon="-72.504755">
        <ele>222.4</ele>
      </trkpt>
      <trkpt lat="45.30757" lon="-72.50355">
        <ele>223.4</ele>
      </trkpt>
      <trkpt lat="45.30757" lon="-72.5023">
        <ele>223.34</ele>
      </trkpt>
      <trkpt lat="45.30757" lon="-72.50105">
        <ele>222.45</ele>
      </trkpt>
      <trkpt lat="45.30757" lon="-72.50105">
        <ele>222.45</ele>
      </trkpt>
      <trkpt lat="45.30757" lon="-72.500095">
        <ele>219.91</ele>
      </trkpt>
      <trkpt lat="45.30757" lon="-72.49914">
        <ele>220.5</ele>
      </trkpt>
      <trkpt lat="45.3082" lon="-72.49932">
        <ele>221.83</ele>
      </trkpt>
      <trkpt lat="45.30848" lon="-72.49933">
        <ele>222.67</ele>
      </trkpt>
      <trkpt lat="45.30883" lon="-72.4993">
        <ele>223.55</ele>
      </trkpt>
      <trkpt lat="45.30868" lon="-72.49864">
        <ele>224.52</ele>
      </trkpt>
      <trkpt lat="45.3083467" lon="-72.49751">
        <ele>225.84</ele>
      </trkpt>
      <trkpt lat="45.3080133" lon="-72.49638">
        <ele>229.34</ele>
      </trkpt>
      <trkpt lat="45.30768" lon="-72.49525">
        <ele>233.68</ele>
      </trkpt>
      <trkpt lat="45.30758" lon="-72.49463">
        <ele>238.35</ele>
      </trkpt>
      <trkpt lat="45.30756" lon="-72.49392">
        <ele>243.59</ele>
      </trkpt>
      <trkpt lat="45.3075533" lon="-72.4927367">
        <ele>249.16</ele>
      </trkpt>
      <trkpt lat="45.3075467" lon="-72.4915533">
        <ele>253.51</ele>
      </trkpt>
      <trkpt lat="45.30754" lon="-72.49037">
        <ele>257.01</ele>
      </trkpt>
      <trkpt lat="45.30752" lon="-72.48957">
        <ele>261.36</ele>
      </trkpt>
      <trkpt lat="45.30745" lon="-72.48905">
        <ele>263.59</ele>
      </trkpt>
      <trkpt lat="45.30741" lon="-72.48882">
        <ele>263.88</ele>
      </trkpt>
      <trkpt lat="45.307195" lon="-72.48799">
        <ele>266.28</ele>
      </trkpt>
      <trkpt lat="45.30698" lon="-72.48716">
        <ele>267.46</ele>
      </trkpt>
      <trkpt lat="45.30689" lon="-72.48707">
        <ele>267.88</ele>
      </trkpt>
      <trkpt lat="45.30678" lon="-72.48706">
        <ele>267.99</ele>
      </trkpt>
      <trkpt lat="45.305945" lon="-72.487415">
        <ele>265.61</ele>
      </trkpt>
      <trkpt lat="45.30511" lon="-72.48777">
        <ele>261.57</ele>
      </trkpt>
      <trkpt lat="45.30465" lon="-72.487935">
        <ele>260.27</ele>
      </trkpt>
      <trkpt lat="45.30419" lon="-72.4881">
        <ele>258.98</ele>
      </trkpt>
      <trkpt lat="45.30375" lon="-72.4883">
        <ele>256.42</ele>
      </trkpt>
      <trkpt lat="45.30321" lon="-72.4885">
        <ele>253.72</ele>
      </trkpt>
      <trkpt lat="45.30307" lon="-72.48858">
        <ele>251.82</ele>
      </trkpt>
      <trkpt lat="45.3028" lon="-72.4888">
        <ele>251.82</ele>
      </trkpt>
      <trkpt lat="45.30229" lon="-72.48929">
        <ele>248.69</ele>
      </trkpt>
      <trkpt lat="45.30228" lon="-72.4893">
        <ele>248.65</ele>
      </trkpt>
      <trkpt lat="45.3017433" lon="-72.48984">
        <ele>246.61</ele>
      </trkpt>
      <trkpt lat="45.3012067" lon="-72.49038">
        <ele>244.59</ele>
      </trkpt>
      <trkpt lat="45.30067" lon="-72.49092">
        <ele>242.94</ele>
      </trkpt>
      <trkpt lat="45.299975" lon="-72.491585">
        <ele>239.21</ele>
      </trkpt>
      <trkpt lat="45.29928" lon="-72.49225">
        <ele>234.54</ele>
      </trkpt>
      <trkpt lat="45.298915" lon="-72.492655">
        <ele>232.66</ele>
      </trkpt>
      <trkpt lat="45.29855" lon="-72.49306">
        <ele>230.14</ele>
      </trkpt>
      <trkpt lat="45.2981" lon="-72.49351">
        <ele>229.02</ele>
      </trkpt>
      <trkpt lat="45.297715" lon="-72.49393">
        <ele>225.68</ele>
      </trkpt>
      <trkpt lat="45.29733" lon="-72.49435">
        <ele>224.15</ele>
      </trkpt>
      <trkpt lat="45.29668" lon="-72.49485">
        <ele>221.26</ele>
      </trkpt>
      <trkpt lat="45.29596" lon="-72.49531">
        <ele>216.87</ele>
      </trkpt>
      <trkpt lat="45.29541" lon="-72.495625">
        <ele>214.95</ele>
      </trkpt>
      <trkpt lat="45.29486" lon="-72.49594">
        <ele>214.86</ele>
      </trkpt>
      <trkpt lat="45.294385" lon="-72.496185">
        <ele>215.51</ele>
      </trkpt>
      <trkpt lat="45.29391" lon="-72.49643">
        <ele>215.11</ele>
      </trkpt>
      <trkpt lat="45.29361" lon="-72.49664">
        <ele>214.32</ele>
      </trkpt>
      <trkpt lat="45.29348" lon="-72.49674">
        <ele>214.32</ele>
      </trkpt>
      <trkpt lat="45.29342" lon="-72.49683">
        <ele>213.62</ele>
      </trkpt>
      <trkpt lat="45.29327" lon="-72.4973">
        <ele>213.18</ele>
      </trkpt>
      <trkpt lat="45.29322" lon="-72.49753">
        <ele>213.18</ele>
      </trkpt>
      <trkpt lat="45.29306" lon="-72.49749">
        <ele>213.21</ele>
      </trkpt>
      <trkpt lat="45.29258" lon="-72.49727">
        <ele>212.72</ele>
      </trkpt>
      <trkpt lat="45.29219" lon="-72.49701">
        <ele>212.82</ele>
      </trkpt>
      <trkpt lat="45.2914575" lon="-72.496375">
        <ele>212.62</ele>
      </trkpt>
      <trkpt lat="45.290725" lon="-72.49574">
        <ele>213.09</ele>
      </trkpt>
      <trkpt lat="45.2899925" lon="-72.495105">
        <ele>212.93</ele>
      </trkpt>
      <trkpt lat="45.28926" lon="-72.49447">
        <ele>213.23</ele>
      </trkpt>
      <trkpt lat="45.28858" lon="-72.49391">
        <ele>213.16</ele>
      </trkpt>
      <trkpt lat="45.28809" lon="-72.49346">
        <ele>213.56</ele>
      </trkpt>
      <trkpt lat="45.287655" lon="-72.493015">
        <ele>214.17</ele>
      </trkpt>
      <trkpt lat="45.28722" lon="-72.49257">
        <ele>213.99</ele>
      </trkpt>
      <trkpt lat="45.28719" lon="-72.49251">
        <ele>213.99</ele>
      </trkpt>
      <trkpt lat="45.2871" lon="-72.49248">
        <ele>214.1</ele>
      </trkpt>
      <trkpt lat="45.28693" lon="-72.49235">
        <ele>214.1</ele>
      </trkpt>
      <trkpt lat="45.28651" lon="-72.49188">
        <ele>214.46</ele>
      </trkpt>
      <trkpt lat="45.2865133" lon="-72.49064">
        <ele>216.15</ele>
      </trkpt>
      <trkpt lat="45.2865167" lon="-72.4894">
        <ele>216.57</ele>
      </trkpt>
      <trkpt lat="45.28652" lon="-72.48816">
        <ele>220.56</ele>
      </trkpt>
      <trkpt lat="45.2865284" lon="-72.48709">
        <ele>223.4</ele>
      </trkpt>
      <trkpt lat="45.2865367" lon="-72.48602">
        <ele>225.75</ele>
      </trkpt>
      <trkpt lat="45.286545" lon="-72.48495">
        <ele>226.71</ele>
      </trkpt>
      <trkpt lat="45.2865534" lon="-72.48388">
        <ele>226.65</ele>
      </trkpt>
      <trkpt lat="45.2865617" lon="-72.48281">
        <ele>226.17</ele>
      </trkpt>
      <trkpt lat="45.28657" lon="-72.48174">
        <ele>225.51</ele>
      </trkpt>
      <trkpt lat="45.28657" lon="-72.48175">
        <ele>225.52</ele>
      </trkpt>
      <trkpt lat="45.28658" lon="-72.4806875">
        <ele>226.34</ele>
      </trkpt>
      <trkpt lat="45.28659" lon="-72.479625">
        <ele>229.1</ele>
      </trkpt>
      <trkpt lat="45.2866" lon="-72.4785625">
        <ele>227.17</ele>
      </trkpt>
      <trkpt lat="45.28661" lon="-72.4775">
        <ele>226.37</ele>
      </trkpt>
      <trkpt lat="45.286645" lon="-72.4762775">
        <ele>224.76</ele>
      </trkpt>
      <trkpt lat="45.2866801" lon="-72.475055">
        <ele>224.6</ele>
      </trkpt>
      <trkpt lat="45.2867151" lon="-72.4738325">
        <ele>223.13</ele>
      </trkpt>
      <trkpt lat="45.2867501" lon="-72.47261">
        <ele>219.82</ele>
      </trkpt>
      <trkpt lat="45.2867851" lon="-72.4713875">
        <ele>221.2</ele>
      </trkpt>
      <trkpt lat="45.2868201" lon="-72.470165">
        <ele>221.41</ele>
      </trkpt>
      <trkpt lat="45.286855" lon="-72.4689425">
        <ele>222.17</ele>
      </trkpt>
      <trkpt lat="45.28689" lon="-72.46772">
        <ele>220.34</ele>
      </trkpt>
      <trkpt lat="45.28696" lon="-72.46736">
        <ele>220.33</ele>
      </trkpt>
      <trkpt lat="45.287175" lon="-72.46656">
        <ele>220.85</ele>
      </trkpt>
      <trkpt lat="45.28739" lon="-72.46576">
        <ele>221.76</ele>
      </trkpt>
      <trkpt lat="45.28775" lon="-72.46472">
        <ele>222.97</ele>
      </trkpt>
      <trkpt lat="45.28796" lon="-72.46424">
        <ele>224.22</ele>
      </trkpt>
      <trkpt lat="45.28828" lon="-72.46373">
        <ele>225.06</ele>
      </trkpt>
      <trkpt lat="45.28882" lon="-72.46291">
        <ele>224.7</ele>
      </trkpt>
      <trkpt lat="45.288158" lon="-72.462354">
        <ele>222.6</ele>
      </trkpt>
      <trkpt lat="45.287496" lon="-72.461798">
        <ele>217.49</ele>
      </trkpt>
      <trkpt lat="45.286834" lon="-72.461242">
        <ele>216.9</ele>
      </trkpt>
      <trkpt lat="45.286172" lon="-72.460686">
        <ele>217.03</ele>
      </trkpt>
      <trkpt lat="45.28551" lon="-72.46013">
        <ele>214.79</ele>
      </trkpt>
      <trkpt lat="45.28487" lon="-72.45965">
        <ele>214.58</ele>
      </trkpt>
      <trkpt lat="45.2840867" lon="-72.45908">
        <ele>214.5</ele>
      </trkpt>
      <trkpt lat="45.2833033" lon="-72.45851">
        <ele>214.22</ele>
      </trkpt>
      <trkpt lat="45.28252" lon="-72.45794">
        <ele>215.78</ele>
      </trkpt>
      <trkpt lat="45.28221" lon="-72.45769">
        <ele>217.33</ele>
      </trkpt>
      <trkpt lat="45.28152" lon="-72.45704">
        <ele>221.49</ele>
      </trkpt>
      <trkpt lat="45.28083" lon="-72.45639">
        <ele>224.32</ele>
      </trkpt>
      <trkpt lat="45.2802333" lon="-72.4558667">
        <ele>229.94</ele>
      </trkpt>
      <trkpt lat="45.2796367" lon="-72.4553433">
        <ele>239.9</ele>
      </trkpt>
      <trkpt lat="45.27904" lon="-72.45482">
        <ele>243.63</ele>
      </trkpt>
      <trkpt lat="45.27879" lon="-72.45456">
        <ele>246.93</ele>
      </trkpt>
      <trkpt lat="45.27851" lon="-72.45422">
        <ele>249.46</ele>
      </trkpt>
      <trkpt lat="45.27816" lon="-72.45384">
        <ele>251.01</ele>
      </trkpt>
      <trkpt lat="45.27782" lon="-72.45339">
        <ele>253.25</ele>
      </trkpt>
      <trkpt lat="45.277265" lon="-72.452595">
        <ele>259.52</ele>
      </trkpt>
      <trkpt lat="45.27671" lon="-72.4518">
        <ele>265.66</ele>
      </trkpt>
      <trkpt lat="45.27671" lon="-72.4518">
        <ele>265.66</ele>
      </trkpt>
      <trkpt lat="45.27648" lon="-72.45147">
        <ele>267.38</ele>
      </trkpt>
      <trkpt lat="45.27602" lon="-72.4509">
        <ele>271.29</ele>
      </trkpt>
      <trkpt lat="45.27588" lon="-72.45076">
        <ele>272.1</ele>
      </trkpt>
      <trkpt lat="45.27558" lon="-72.45053">
        <ele>274.33</ele>
      </trkpt>
      <trkpt lat="45.27485" lon="-72.45016">
        <ele>276.33</ele>
      </trkpt>
      <trkpt lat="45.27438" lon="-72.44994">
        <ele>276.78</ele>
      </trkpt>
      <trkpt lat="45.273625" lon="-72.449605">
        <ele>277.53</ele>
      </trkpt>
      <trkpt lat="45.27287" lon="-72.44927">
        <ele>279.07</ele>
      </trkpt>
      <trkpt lat="45.272115" lon="-72.448935">
        <ele>280.14</ele>
      </trkpt>
      <trkpt lat="45.27136" lon="-72.4486">
        <ele>281.91</ele>
      </trkpt>
      <trkpt lat="45.27099" lon="-72.44839">
        <ele>282.47</ele>
      </trkpt>
      <trkpt lat="45.27065" lon="-72.44813">
        <ele>283.12</ele>
      </trkpt>
      <trkpt lat="45.2703" lon="-72.44779">
        <ele>283.14</ele>
      </trkpt>
      <trkpt lat="45.26979" lon="-72.44718">
        <ele>281.13</ele>
      </trkpt>
      <trkpt lat="45.26928" lon="-72.44657">
        <ele>278.17</ele>
      </trkpt>
      <trkpt lat="45.26877" lon="-72.44596">
        <ele>276.02</ele>
      </trkpt>
      <trkpt lat="45.26816" lon="-72.44526">
        <ele>274.16</ele>
      </trkpt>
      <trkpt lat="45.26762" lon="-72.44475">
        <ele>274.78</ele>
      </trkpt>
      <trkpt lat="45.2670067" lon="-72.4442">
        <ele>276</ele>
      </trkpt>
      <trkpt lat="45.2663933" lon="-72.44365">
        <ele>276.8</ele>
      </trkpt>
      <trkpt lat="45.26578" lon="-72.4431">
        <ele>278.99</ele>
      </trkpt>
      <trkpt lat="45.26524" lon="-72.44255">
        <ele>281.45</ele>
      </trkpt>
      <trkpt lat="45.26489" lon="-72.44215">
        <ele>282.33</ele>
      </trkpt>
      <trkpt lat="45.26449" lon="-72.44158">
        <ele>284.61</ele>
      </trkpt>
      <trkpt lat="45.26427" lon="-72.44122">
        <ele>285.91</ele>
      </trkpt>
      <trkpt lat="45.26398" lon="-72.44057">
        <ele>288.12</ele>
      </trkpt>
      <trkpt lat="45.263705" lon="-72.43987">
        <ele>291.17</ele>
      </trkpt>
      <trkpt lat="45.26343" lon="-72.43917">
        <ele>294.03</ele>
      </trkpt>
      <trkpt lat="45.26328" lon="-72.439">
        <ele>294.47</ele>
      </trkpt>
      <trkpt lat="45.26314" lon="-72.43893">
        <ele>294.52</ele>
      </trkpt>
      <trkpt lat="45.26255" lon="-72.43891">
        <ele>293.89</ele>
      </trkpt>
      <trkpt lat="45.26185" lon="-72.43895">
        <ele>290.43</ele>
      </trkpt>
      <trkpt lat="45.26115" lon="-72.43899">
        <ele>287.84</ele>
      </trkpt>
      <trkpt lat="45.260595" lon="-72.439005">
        <ele>289.03</ele>
      </trkpt>
      <trkpt lat="45.26004" lon="-72.43902">
        <ele>291.7</ele>
      </trkpt>
      <trkpt lat="45.25968" lon="-72.43911">
        <ele>291.85</ele>
      </trkpt>
      <trkpt lat="45.2595" lon="-72.43918">
        <ele>291.76</ele>
      </trkpt>
      <trkpt lat="45.25922" lon="-72.43934">
        <ele>291.24</ele>
      </trkpt>
      <trkpt lat="45.2584567" lon="-72.4398">
        <ele>289.43</ele>
      </trkpt>
      <trkpt lat="45.2576933" lon="-72.44026">
        <ele>286.65</ele>
      </trkpt>
      <trkpt lat="45.25693" lon="-72.44072">
        <ele>284.2</ele>
      </trkpt>
      <trkpt lat="45.256325" lon="-72.441215">
        <ele>289.26</ele>
      </trkpt>
      <trkpt lat="45.25572" lon="-72.44171">
        <ele>292.18</ele>
      </trkpt>
      <trkpt lat="45.25532" lon="-72.44218">
        <ele>292.53</ele>
      </trkpt>
      <trkpt lat="45.25492" lon="-72.44265">
        <ele>292.57</ele>
      </trkpt>
      <trkpt lat="45.2543833" lon="-72.44338">
        <ele>291.28</ele>
      </trkpt>
      <trkpt lat="45.2538467" lon="-72.44411">
        <ele>289.62</ele>
      </trkpt>
      <trkpt lat="45.25331" lon="-72.44484">
        <ele>288.29</ele>
      </trkpt>
      <trkpt lat="45.2527033" lon="-72.4454833">
        <ele>285.42</ele>
      </trkpt>
      <trkpt lat="45.2520967" lon="-72.4461267">
        <ele>286.14</ele>
      </trkpt>
      <trkpt lat="45.25149" lon="-72.44677">
        <ele>285.41</ele>
      </trkpt>
      <trkpt lat="45.25077" lon="-72.44751">
        <ele>281.39</ele>
      </trkpt>
      <trkpt lat="45.25005" lon="-72.44825">
        <ele>279.12</ele>
      </trkpt>
      <trkpt lat="45.249675" lon="-72.44868">
        <ele>276.66</ele>
      </trkpt>
      <trkpt lat="45.2493" lon="-72.44911">
        <ele>275.36</ele>
      </trkpt>
      <trkpt lat="45.24877" lon="-72.4498">
        <ele>274.1</ele>
      </trkpt>
      <trkpt lat="45.24824" lon="-72.45049">
        <ele>273.61</ele>
      </trkpt>
      <trkpt lat="45.24772" lon="-72.45102">
        <ele>270.12</ele>
      </trkpt>
      <trkpt lat="45.24742" lon="-72.45125">
        <ele>268.68</ele>
      </trkpt>
      <trkpt lat="45.24687" lon="-72.45156">
        <ele>267.48</ele>
      </trkpt>
      <trkpt lat="45.24654" lon="-72.45183">
        <ele>265.88</ele>
      </trkpt>
      <trkpt lat="45.24635" lon="-72.45201">
        <ele>265.06</ele>
      </trkpt>
      <trkpt lat="45.24604" lon="-72.45237">
        <ele>263.48</ele>
      </trkpt>
      <trkpt lat="45.24568" lon="-72.45266">
        <ele>261.7</ele>
      </trkpt>
      <trkpt lat="45.24568" lon="-72.45267">
        <ele>261.65</ele>
      </trkpt>
      <trkpt lat="45.24515" lon="-72.45312">
        <ele>258.67</ele>
      </trkpt>
      <trkpt lat="45.24462" lon="-72.45357">
        <ele>257.02</ele>
      </trkpt>
      <trkpt lat="45.24413" lon="-72.45407">
        <ele>256.97</ele>
      </trkpt>
      <trkpt lat="45.2435" lon="-72.45472">
        <ele>258.79</ele>
      </trkpt>
      <trkpt lat="45.2431" lon="-72.455195">
        <ele>259.86</ele>
      </trkpt>
      <trkpt lat="45.2427" lon="-72.45567">
        <ele>261.07</ele>
      </trkpt>
      <trkpt lat="45.24233" lon="-72.45599">
        <ele>261.93</ele>
      </trkpt>
      <trkpt lat="45.24163" lon="-72.45644">
        <ele>262.89</ele>
      </trkpt>
      <trkpt lat="45.2414" lon="-72.45662">
        <ele>261.62</ele>
      </trkpt>
      <trkpt lat="45.24099" lon="-72.45704">
        <ele>261.06</ele>
      </trkpt>
      <trkpt lat="45.24081" lon="-72.4572">
        <ele>261.58</ele>
      </trkpt>
      <trkpt lat="45.24038" lon="-72.4577">
        <ele>266.18</ele>
      </trkpt>
      <trkpt lat="45.24012" lon="-72.45792">
        <ele>266.87</ele>
      </trkpt>
      <trkpt lat="45.23956" lon="-72.458185">
        <ele>270.45</ele>
      </trkpt>
      <trkpt lat="45.239" lon="-72.45845">
        <ele>270.54</ele>
      </trkpt>
      <trkpt lat="45.23858" lon="-72.4585">
        <ele>271.86</ele>
      </trkpt>
      <trkpt lat="45.23781" lon="-72.45851">
        <ele>271.07</ele>
      </trkpt>
      <trkpt lat="45.23731" lon="-72.45846">
        <ele>268.05</ele>
      </trkpt>
      <trkpt lat="45.23681" lon="-72.45841">
        <ele>266.17</ele>
      </trkpt>
      <trkpt lat="45.23618" lon="-72.45841">
        <ele>265.26</ele>
      </trkpt>
      <trkpt lat="45.23593" lon="-72.45845">
        <ele>265.28</ele>
      </trkpt>
      <trkpt lat="45.23522" lon="-72.45862">
        <ele>266.46</ele>
      </trkpt>
      <trkpt lat="45.234655" lon="-72.458785">
        <ele>269.26</ele>
      </trkpt>
      <trkpt lat="45.23409" lon="-72.45895">
        <ele>268.86</ele>
      </trkpt>
      <trkpt lat="45.23377" lon="-72.45908">
        <ele>266.36</ele>
      </trkpt>
      <trkpt lat="45.23358" lon="-72.45922">
        <ele>265.89</ele>
      </trkpt>
      <trkpt lat="45.23313" lon="-72.45966">
        <ele>264.51</ele>
      </trkpt>
      <trkpt lat="45.232655" lon="-72.460155">
        <ele>264.87</ele>
      </trkpt>
      <trkpt lat="45.23218" lon="-72.46065">
        <ele>267.12</ele>
      </trkpt>
      <trkpt lat="45.23173" lon="-72.461075">
        <ele>269.56</ele>
      </trkpt>
      <trkpt lat="45.23128" lon="-72.4615">
        <ele>273.6</ele>
      </trkpt>
      <trkpt lat="45.23092" lon="-72.4619">
        <ele>277.71</ele>
      </trkpt>
      <trkpt lat="45.23077" lon="-72.46204">
        <ele>278.57</ele>
      </trkpt>
      <trkpt lat="45.23002" lon="-72.46245">
        <ele>276.37</ele>
      </trkpt>
      <trkpt lat="45.2299" lon="-72.46254">
        <ele>276.37</ele>
      </trkpt>
      <trkpt lat="45.22911" lon="-72.46293">
        <ele>277.16</ele>
      </trkpt>
      <trkpt lat="45.2285" lon="-72.463375">
        <ele>275.01</ele>
      </trkpt>
      <trkpt lat="45.22789" lon="-72.46382">
        <ele>273.64</ele>
      </trkpt>
      <trkpt lat="45.22752" lon="-72.46415">
        <ele>272.32</ele>
      </trkpt>
      <trkpt lat="45.22749" lon="-72.46454">
        <ele>271.33</ele>
      </trkpt>
      <trkpt lat="45.227485" lon="-72.465345">
        <ele>267.61</ele>
      </trkpt>
      <trkpt lat="45.22748" lon="-72.46615">
        <ele>265.24</ele>
      </trkpt>
      <trkpt lat="45.22752" lon="-72.467396">
        <ele>258.85</ele>
      </trkpt>
      <trkpt lat="45.22756" lon="-72.468642">
        <ele>256.9</ele>
      </trkpt>
      <trkpt lat="45.2276" lon="-72.469888">
        <ele>256.56</ele>
      </trkpt>
      <trkpt lat="45.22764" lon="-72.471134">
        <ele>254.63</ele>
      </trkpt>
      <trkpt lat="45.22768" lon="-72.47238">
        <ele>252.34</ele>
      </trkpt>
      <trkpt lat="45.2277" lon="-72.47267">
        <ele>252.64</ele>
      </trkpt>
      <trkpt lat="45.2277" lon="-72.47267">
        <ele>252.65</ele>
      </trkpt>
      <trkpt lat="45.227785" lon="-72.47362">
        <ele>254.74</ele>
      </trkpt>
      <trkpt lat="45.22787" lon="-72.47457">
        <ele>259.56</ele>
      </trkpt>
      <trkpt lat="45.22786" lon="-72.47506">
        <ele>260.32</ele>
      </trkpt>
      <trkpt lat="45.22781" lon="-72.476">
        <ele>261.76</ele>
      </trkpt>
      <trkpt lat="45.22776" lon="-72.4765">
        <ele>262.09</ele>
      </trkpt>
      <trkpt lat="45.22751" lon="-72.47735">
        <ele>260.56</ele>
      </trkpt>
      <trkpt lat="45.22743" lon="-72.47749">
        <ele>260.19</ele>
      </trkpt>
      <trkpt lat="45.22717" lon="-72.47788">
        <ele>258.06</ele>
      </trkpt>
      <trkpt lat="45.22674" lon="-72.47838">
        <ele>253.89</ele>
      </trkpt>
      <trkpt lat="45.22651" lon="-72.4787">
        <ele>250.77</ele>
      </trkpt>
      <trkpt lat="45.225934" lon="-72.479426">
        <ele>243.78</ele>
      </trkpt>
      <trkpt lat="45.225358" lon="-72.480152">
        <ele>240.57</ele>
      </trkpt>
      <trkpt lat="45.224782" lon="-72.480878">
        <ele>240.23</ele>
      </trkpt>
      <trkpt lat="45.224206" lon="-72.481604">
        <ele>242.76</ele>
      </trkpt>
      <trkpt lat="45.22363" lon="-72.48233">
        <ele>242.31</ele>
      </trkpt>
      <trkpt lat="45.22339" lon="-72.48271">
        <ele>240.05</ele>
      </trkpt>
      <trkpt lat="45.22321" lon="-72.48304">
        <ele>238.99</ele>
      </trkpt>
      <trkpt lat="45.22315" lon="-72.48321">
        <ele>238.35</ele>
      </trkpt>
      <trkpt lat="45.22304" lon="-72.48375">
        <ele>237.25</ele>
      </trkpt>
      <trkpt lat="45.22295" lon="-72.48464">
        <ele>237.63</ele>
      </trkpt>
      <trkpt lat="45.2229367" lon="-72.48591">
        <ele>240.65</ele>
      </trkpt>
      <trkpt lat="45.2229233" lon="-72.48718">
        <ele>243.98</ele>
      </trkpt>
      <trkpt lat="45.22291" lon="-72.48845">
        <ele>245.27</ele>
      </trkpt>
      <trkpt lat="45.22291" lon="-72.48873">
        <ele>245.04</ele>
      </trkpt>
      <trkpt lat="45.22282" lon="-72.4893">
        <ele>244.13</ele>
      </trkpt>
      <trkpt lat="45.2227" lon="-72.48961">
        <ele>243.03</ele>
      </trkpt>
      <trkpt lat="45.22254" lon="-72.48986">
        <ele>242.67</ele>
      </trkpt>
      <trkpt lat="45.22185" lon="-72.4906">
        <ele>243.93</ele>
      </trkpt>
      <trkpt lat="45.22164" lon="-72.49086">
        <ele>245.39</ele>
      </trkpt>
      <trkpt lat="45.22125" lon="-72.49176">
        <ele>245.6</ele>
      </trkpt>
      <trkpt lat="45.22104" lon="-72.49234">
        <ele>245.19</ele>
      </trkpt>
      <trkpt lat="45.22071" lon="-72.49331">
        <ele>244.39</ele>
      </trkpt>
      <trkpt lat="45.22061" lon="-72.49383">
        <ele>242.37</ele>
      </trkpt>
      <trkpt lat="45.22059" lon="-72.49401">
        <ele>240.95</ele>
      </trkpt>
      <trkpt lat="45.22063" lon="-72.49445">
        <ele>238.38</ele>
      </trkpt>
      <trkpt lat="45.22072" lon="-72.49483">
        <ele>235.66</ele>
      </trkpt>
      <trkpt lat="45.22087" lon="-72.49526">
        <ele>234.23</ele>
      </trkpt>
      <trkpt lat="45.2213" lon="-72.49633">
        <ele>226.44</ele>
      </trkpt>
      <trkpt lat="45.22135" lon="-72.49651">
        <ele>226.44</ele>
      </trkpt>
      <trkpt lat="45.22137" lon="-72.49672">
        <ele>225.34</ele>
      </trkpt>
      <trkpt lat="45.22139" lon="-72.49733">
        <ele>224.28</ele>
      </trkpt>
      <trkpt lat="45.2214" lon="-72.49844">
        <ele>221.03</ele>
      </trkpt>
      <trkpt lat="45.22139" lon="-72.499225">
        <ele>218.72</ele>
      </trkpt>
      <trkpt lat="45.22138" lon="-72.50001">
        <ele>220.16</ele>
      </trkpt>
      <trkpt lat="45.221385" lon="-72.500705">
        <ele>223.82</ele>
      </trkpt>
      <trkpt lat="45.22139" lon="-72.5014">
        <ele>224.51</ele>
      </trkpt>
      <trkpt lat="45.22151" lon="-72.50211">
        <ele>222.29</ele>
      </trkpt>
      <trkpt lat="45.22153" lon="-72.5025">
        <ele>221.48</ele>
      </trkpt>
      <trkpt lat="45.22149" lon="-72.50269">
        <ele>221.27</ele>
      </trkpt>
      <trkpt lat="45.22117" lon="-72.50364">
        <ele>222.55</ele>
      </trkpt>
      <trkpt lat="45.2208" lon="-72.50464">
        <ele>223.75</ele>
      </trkpt>
      <trkpt lat="45.22043" lon="-72.50564">
        <ele>223.78</ele>
      </trkpt>
      <trkpt lat="45.22026" lon="-72.50596">
        <ele>223.11</ele>
      </trkpt>
      <trkpt lat="45.21984" lon="-72.506695">
        <ele>223.04</ele>
      </trkpt>
      <trkpt lat="45.21942" lon="-72.50743">
        <ele>221.43</ele>
      </trkpt>
      <trkpt lat="45.21886" lon="-72.50835">
        <ele>219.89</ele>
      </trkpt>
      <trkpt lat="45.21898" lon="-72.5091">
        <ele>217.46</ele>
      </trkpt>
      <trkpt lat="45.21913" lon="-72.50986">
        <ele>216.11</ele>
      </trkpt>
      <trkpt lat="45.21933" lon="-72.51052">
        <ele>214.69</ele>
      </trkpt>
      <trkpt lat="45.219625" lon="-72.51123">
        <ele>212.56</ele>
      </trkpt>
      <trkpt lat="45.21992" lon="-72.51194">
        <ele>211.82</ele>
      </trkpt>
      <trkpt lat="45.220275" lon="-72.51271">
        <ele>212.63</ele>
      </trkpt>
      <trkpt lat="45.22063" lon="-72.51348">
        <ele>211.01</ele>
      </trkpt>
      <trkpt lat="45.22063" lon="-72.51348">
        <ele>211</ele>
      </trkpt>
      <trkpt lat="45.2209567" lon="-72.5142233">
        <ele>209.89</ele>
      </trkpt>
      <trkpt lat="45.2212833" lon="-72.5149667">
        <ele>209.59</ele>
      </trkpt>
      <trkpt lat="45.22161" lon="-72.51571">
        <ele>209</ele>
      </trkpt>
      <trkpt lat="45.22181" lon="-72.51627">
        <ele>208.89</ele>
      </trkpt>
      <trkpt lat="45.22188" lon="-72.51695">
        <ele>208.9</ele>
      </trkpt>
      <trkpt lat="45.22192" lon="-72.51783">
        <ele>209.21</ele>
      </trkpt>
      <trkpt lat="45.22196" lon="-72.51871">
        <ele>209.85</ele>
      </trkpt>
      <trkpt lat="45.22201" lon="-72.51898">
        <ele>209.78</ele>
      </trkpt>
      <trkpt lat="45.2221" lon="-72.51929">
        <ele>209.37</ele>
      </trkpt>
      <trkpt lat="45.2224" lon="-72.52006">
        <ele>208.47</ele>
      </trkpt>
      <trkpt lat="45.22249" lon="-72.52033">
        <ele>208.34</ele>
      </trkpt>
      <trkpt lat="45.22266" lon="-72.52095">
        <ele>208.1</ele>
      </trkpt>
      <trkpt lat="45.22275" lon="-72.5214">
        <ele>207.59</ele>
      </trkpt>
      <trkpt lat="45.22279" lon="-72.52211">
        <ele>206.61</ele>
      </trkpt>
      <trkpt lat="45.22279" lon="-72.52248">
        <ele>206.61</ele>
      </trkpt>
      <trkpt lat="45.22277" lon="-72.52283">
        <ele>206.23</ele>
      </trkpt>
      <trkpt lat="45.22272" lon="-72.52306">
        <ele>205.68</ele>
      </trkpt>
      <trkpt lat="45.22259" lon="-72.52337">
        <ele>204.93</ele>
      </trkpt>
      <trkpt lat="45.22192" lon="-72.52412">
        <ele>201.65</ele>
      </trkpt>
      <trkpt lat="45.221425" lon="-72.524615">
        <ele>201.8</ele>
      </trkpt>
      <trkpt lat="45.22093" lon="-72.52511">
        <ele>202.68</ele>
      </trkpt>
      <trkpt lat="45.2212467" lon="-72.5262533">
        <ele>201.85</ele>
      </trkpt>
      <trkpt lat="45.2215633" lon="-72.5273967">
        <ele>201.74</ele>
      </trkpt>
      <trkpt lat="45.22188" lon="-72.52854">
        <ele>202.21</ele>
      </trkpt>
      <trkpt lat="45.22205" lon="-72.52914">
        <ele>202.66</ele>
      </trkpt>
      <trkpt lat="45.22218" lon="-72.52972">
        <ele>202.83</ele>
      </trkpt>
      <trkpt lat="45.22227" lon="-72.53042">
        <ele>202.81</ele>
      </trkpt>
      <trkpt lat="45.22229" lon="-72.531125">
        <ele>202.56</ele>
      </trkpt>
      <trkpt lat="45.22231" lon="-72.53183">
        <ele>202.54</ele>
      </trkpt>
    </trkseg>
  </trk>
</gpx>