<?xml version='1.0' encoding='utf-8'?>
<gpx xmlns="http://www.topografix.com/GPX/1/1" xmlns:xsi="http://www.w3.org/2001/XMLSchema-instance" version="1.1" creator="Gravelle Estrie" xsi:schemaLocation="http://www.topografix.com/GPX/1/1 http://www.topografix.com/GPX/1/1/gpx.xsd">
  <metadata>
    <name>The Places We'll Go</name>
  </metadata>
  <trk>
    <name>The Places We'll Go</name>
    <trkseg>
      <trkpt lat="45.03338" lon="-71.91989">
        <ele>475.6</ele>
      </trkpt>
      <trkpt lat="45.03375" lon="-71.91974">
        <ele>474.7</ele>
      </trkpt>
      <trkpt lat="45.03397" lon="-71.9196">
        <ele>474.1</ele>
      </trkpt>
      <trkpt lat="45.03423" lon="-71.91938">
        <ele>473.5</ele>
      </trkpt>
      <trkpt lat="45.03447" lon="-71.91912">
        <ele>473.2</ele>
      </trkpt>
      <trkpt lat="45.0346" lon="-71.91901">
        <ele>473</ele>
      </trkpt>
      <trkpt lat="45.0348" lon="-71.91871">
        <ele>472.8</ele>
      </trkpt>
      <trkpt lat="45.0352" lon="-71.91806">
        <ele>473</ele>
      </trkpt>
      <trkpt lat="45.035673" lon="-71.917213">
        <ele>475.8</ele>
      </trkpt>
      <trkpt lat="45.036146" lon="-71.916366">
        <ele>480</ele>
      </trkpt>
      <trkpt lat="45.03662" lon="-71.91552">
        <ele>482.5</ele>
      </trkpt>
      <trkpt lat="45.03692" lon="-71.91637">
        <ele>481.7</ele>
      </trkpt>
      <trkpt lat="45.03721" lon="-71.917119">
        <ele>482.5</ele>
      </trkpt>
      <trkpt lat="45.0375" lon="-71.91787">
        <ele>485</ele>
      </trkpt>
      <trkpt lat="45.03775" lon="-71.91861">
        <ele>487.5</ele>
      </trkpt>
      <trkpt lat="45.03791" lon="-71.91929">
        <ele>490.1</ele>
      </trkpt>
      <trkpt lat="45.03814" lon="-71.92036">
        <ele>493.7</ele>
      </trkpt>
      <trkpt lat="45.03818" lon="-71.92076">
        <ele>495.3</ele>
      </trkpt>
      <trkpt lat="45.03819" lon="-71.92174">
        <ele>496.8</ele>
      </trkpt>
      <trkpt lat="45.03815" lon="-71.92232">
        <ele>496.1</ele>
      </trkpt>
      <trkpt lat="45.038005" lon="-71.923305">
        <ele>494</ele>
      </trkpt>
      <trkpt lat="45.03786" lon="-71.92429">
        <ele>493.3</ele>
      </trkpt>
      <trkpt lat="45.03769" lon="-71.92512">
        <ele>493.7</ele>
      </trkpt>
      <trkpt lat="45.03752" lon="-71.92595">
        <ele>492.5</ele>
      </trkpt>
      <trkpt lat="45.03732" lon="-71.9265">
        <ele>490.8</ele>
      </trkpt>
      <trkpt lat="45.037045" lon="-71.92719">
        <ele>488.6</ele>
      </trkpt>
      <trkpt lat="45.03677" lon="-71.92788">
        <ele>488.3</ele>
      </trkpt>
      <trkpt lat="45.03656" lon="-71.92859">
        <ele>488.9</ele>
      </trkpt>
      <trkpt lat="45.03645" lon="-71.92926">
        <ele>488.7</ele>
      </trkpt>
      <trkpt lat="45.03641" lon="-71.93047">
        <ele>485.6</ele>
      </trkpt>
      <trkpt lat="45.03636" lon="-71.93112">
        <ele>481.9</ele>
      </trkpt>
      <trkpt lat="45.03636" lon="-71.93113">
        <ele>481.8</ele>
      </trkpt>
      <trkpt lat="45.03632" lon="-71.93185">
        <ele>478</ele>
      </trkpt>
      <trkpt lat="45.03621" lon="-71.93235">
        <ele>476.6</ele>
      </trkpt>
      <trkpt lat="45.03616" lon="-71.9325">
        <ele>476.1</ele>
      </trkpt>
      <trkpt lat="45.03647" lon="-71.93289">
        <ele>473.4</ele>
      </trkpt>
      <trkpt lat="45.0369" lon="-71.933269">
        <ele>473.5</ele>
      </trkpt>
      <trkpt lat="45.03733" lon="-71.93365">
        <ele>477.3</ele>
      </trkpt>
      <trkpt lat="45.03742" lon="-71.9337">
        <ele>479.1</ele>
      </trkpt>
      <trkpt lat="45.03748" lon="-71.9337">
        <ele>479.1</ele>
      </trkpt>
      <trkpt lat="45.03759" lon="-71.93369">
        <ele>479.8</ele>
      </trkpt>
      <trkpt lat="45.03801" lon="-71.93334">
        <ele>482.4</ele>
      </trkpt>
      <trkpt lat="45.038535" lon="-71.932695">
        <ele>486.7</ele>
      </trkpt>
      <trkpt lat="45.03906" lon="-71.93205">
        <ele>487.5</ele>
      </trkpt>
      <trkpt lat="45.03953" lon="-71.931355">
        <ele>486.7</ele>
      </trkpt>
      <trkpt lat="45.04" lon="-71.93066">
        <ele>484.9</ele>
      </trkpt>
      <trkpt lat="45.04025" lon="-71.93038">
        <ele>483.1</ele>
      </trkpt>
      <trkpt lat="45.04048" lon="-71.9302">
        <ele>481.6</ele>
      </trkpt>
      <trkpt lat="45.04099" lon="-71.92993">
        <ele>477.4</ele>
      </trkpt>
      <trkpt lat="45.04182" lon="-71.9295">
        <ele>468.9</ele>
      </trkpt>
      <trkpt lat="45.04265" lon="-71.92907">
        <ele>464.6</ele>
      </trkpt>
      <trkpt lat="45.04348" lon="-71.92864">
        <ele>464.5</ele>
      </trkpt>
      <trkpt lat="45.044083" lon="-71.92822">
        <ele>464.9</ele>
      </trkpt>
      <trkpt lat="45.044686" lon="-71.9278">
        <ele>467.6</ele>
      </trkpt>
      <trkpt lat="45.04529" lon="-71.92738">
        <ele>470.9</ele>
      </trkpt>
      <trkpt lat="45.04568" lon="-71.92701">
        <ele>472.9</ele>
      </trkpt>
      <trkpt lat="45.0464" lon="-71.926395">
        <ele>476.2</ele>
      </trkpt>
      <trkpt lat="45.04712" lon="-71.92578">
        <ele>480.9</ele>
      </trkpt>
      <trkpt lat="45.04711" lon="-71.92578">
        <ele>480.9</ele>
      </trkpt>
      <trkpt lat="45.047675" lon="-71.92528">
        <ele>483.8</ele>
      </trkpt>
      <trkpt lat="45.04824" lon="-71.92478">
        <ele>485.3</ele>
      </trkpt>
      <trkpt lat="45.0488" lon="-71.9242">
        <ele>487.7</ele>
      </trkpt>
      <trkpt lat="45.04941" lon="-71.92345">
        <ele>489.1</ele>
      </trkpt>
      <trkpt lat="45.04953" lon="-71.92336">
        <ele>489.2</ele>
      </trkpt>
      <trkpt lat="45.04969" lon="-71.92327">
        <ele>489.2</ele>
      </trkpt>
      <trkpt lat="45.04989" lon="-71.92322">
        <ele>489.1</ele>
      </trkpt>
      <trkpt lat="45.05066" lon="-71.92308">
        <ele>498.1</ele>
      </trkpt>
      <trkpt lat="45.05124" lon="-71.92305">
        <ele>505.4</ele>
      </trkpt>
      <trkpt lat="45.05182" lon="-71.92302">
        <ele>507</ele>
      </trkpt>
      <trkpt lat="45.05255" lon="-71.92303">
        <ele>495.4</ele>
      </trkpt>
      <trkpt lat="45.05292" lon="-71.923">
        <ele>492.3</ele>
      </trkpt>
      <trkpt lat="45.05326" lon="-71.92295">
        <ele>485.9</ele>
      </trkpt>
      <trkpt lat="45.05366" lon="-71.92282">
        <ele>482.2</ele>
      </trkpt>
      <trkpt lat="45.0541" lon="-71.92262">
        <ele>476.4</ele>
      </trkpt>
      <trkpt lat="45.05454" lon="-71.92242">
        <ele>473.7</ele>
      </trkpt>
      <trkpt lat="45.054975" lon="-71.92221">
        <ele>473.1</ele>
      </trkpt>
      <trkpt lat="45.05541" lon="-71.922">
        <ele>474.5</ele>
      </trkpt>
      <trkpt lat="45.05579" lon="-71.92175">
        <ele>475.8</ele>
      </trkpt>
      <trkpt lat="45.05594" lon="-71.92155">
        <ele>476.3</ele>
      </trkpt>
      <trkpt lat="45.05617" lon="-71.92156">
        <ele>476.5</ele>
      </trkpt>
      <trkpt lat="45.05654" lon="-71.92151">
        <ele>476.8</ele>
      </trkpt>
      <trkpt lat="45.05663" lon="-71.92153">
        <ele>476.8</ele>
      </trkpt>
      <trkpt lat="45.05671" lon="-71.92162">
        <ele>477</ele>
      </trkpt>
      <trkpt lat="45.05674" lon="-71.9217">
        <ele>477</ele>
      </trkpt>
      <trkpt lat="45.056915" lon="-71.922574">
        <ele>479</ele>
      </trkpt>
      <trkpt lat="45.05709" lon="-71.92345">
        <ele>476</ele>
      </trkpt>
      <trkpt lat="45.05714" lon="-71.92385">
        <ele>473.7</ele>
      </trkpt>
      <trkpt lat="45.0572" lon="-71.92465">
        <ele>471.5</ele>
      </trkpt>
      <trkpt lat="45.05721" lon="-71.92514">
        <ele>471.3</ele>
      </trkpt>
      <trkpt lat="45.0572" lon="-71.926395">
        <ele>473.1</ele>
      </trkpt>
      <trkpt lat="45.05719" lon="-71.92765">
        <ele>475.8</ele>
      </trkpt>
      <trkpt lat="45.0572" lon="-71.9281">
        <ele>476.2</ele>
      </trkpt>
      <trkpt lat="45.05726" lon="-71.929366">
        <ele>476</ele>
      </trkpt>
      <trkpt lat="45.05732" lon="-71.930633">
        <ele>473.6</ele>
      </trkpt>
      <trkpt lat="45.05738" lon="-71.9319">
        <ele>470.1</ele>
      </trkpt>
      <trkpt lat="45.05749" lon="-71.93271">
        <ele>468.5</ele>
      </trkpt>
      <trkpt lat="45.05755" lon="-71.93365">
        <ele>466.9</ele>
      </trkpt>
      <trkpt lat="45.057545" lon="-71.934705">
        <ele>464</ele>
      </trkpt>
      <trkpt lat="45.05754" lon="-71.93576">
        <ele>458.3</ele>
      </trkpt>
      <trkpt lat="45.0575" lon="-71.93673">
        <ele>455.9</ele>
      </trkpt>
      <trkpt lat="45.05741" lon="-71.9379">
        <ele>457.6</ele>
      </trkpt>
      <trkpt lat="45.05729" lon="-71.938865">
        <ele>459.5</ele>
      </trkpt>
      <trkpt lat="45.05717" lon="-71.93983">
        <ele>462.5</ele>
      </trkpt>
      <trkpt lat="45.057015" lon="-71.94068">
        <ele>465.1</ele>
      </trkpt>
      <trkpt lat="45.05686" lon="-71.94153">
        <ele>464.6</ele>
      </trkpt>
      <trkpt lat="45.0567" lon="-71.942295">
        <ele>462.2</ele>
      </trkpt>
      <trkpt lat="45.05654" lon="-71.94306">
        <ele>460.8</ele>
      </trkpt>
      <trkpt lat="45.0565" lon="-71.94346">
        <ele>460.5</ele>
      </trkpt>
      <trkpt lat="45.05652" lon="-71.944329">
        <ele>460.4</ele>
      </trkpt>
      <trkpt lat="45.05654" lon="-71.9452">
        <ele>460.6</ele>
      </trkpt>
      <trkpt lat="45.05667" lon="-71.946139">
        <ele>454.8</ele>
      </trkpt>
      <trkpt lat="45.0568" lon="-71.94708">
        <ele>452.3</ele>
      </trkpt>
      <trkpt lat="45.056875" lon="-71.947864">
        <ele>453</ele>
      </trkpt>
      <trkpt lat="45.05695" lon="-71.94865">
        <ele>456.5</ele>
      </trkpt>
      <trkpt lat="45.05701" lon="-71.94901">
        <ele>457.4</ele>
      </trkpt>
      <trkpt lat="45.05711" lon="-71.94933">
        <ele>457.5</ele>
      </trkpt>
      <trkpt lat="45.05748" lon="-71.94995">
        <ele>455.3</ele>
      </trkpt>
      <trkpt lat="45.0579" lon="-71.95043">
        <ele>451</ele>
      </trkpt>
      <trkpt lat="45.05844" lon="-71.95116">
        <ele>450.3</ele>
      </trkpt>
      <trkpt lat="45.05862" lon="-71.95146">
        <ele>449.6</ele>
      </trkpt>
      <trkpt lat="45.05876" lon="-71.95179">
        <ele>448</ele>
      </trkpt>
      <trkpt lat="45.05902" lon="-71.95254">
        <ele>444.5</ele>
      </trkpt>
      <trkpt lat="45.05921" lon="-71.95322">
        <ele>442.8</ele>
      </trkpt>
      <trkpt lat="45.05927" lon="-71.95357">
        <ele>441.7</ele>
      </trkpt>
      <trkpt lat="45.05928" lon="-71.95411">
        <ele>439.8</ele>
      </trkpt>
      <trkpt lat="45.05925" lon="-71.95461">
        <ele>436</ele>
      </trkpt>
      <trkpt lat="45.05918" lon="-71.95497">
        <ele>434.2</ele>
      </trkpt>
      <trkpt lat="45.05909" lon="-71.95536">
        <ele>432.7</ele>
      </trkpt>
      <trkpt lat="45.05895" lon="-71.956286">
        <ele>430.7</ele>
      </trkpt>
      <trkpt lat="45.05881" lon="-71.957213">
        <ele>431.4</ele>
      </trkpt>
      <trkpt lat="45.05867" lon="-71.95814">
        <ele>431.8</ele>
      </trkpt>
      <trkpt lat="45.05855" lon="-71.95909">
        <ele>433.1</ele>
      </trkpt>
      <trkpt lat="45.05848" lon="-71.96002">
        <ele>433.5</ele>
      </trkpt>
      <trkpt lat="45.05847" lon="-71.96025">
        <ele>433.2</ele>
      </trkpt>
      <trkpt lat="45.059139" lon="-71.960233">
        <ele>430.2</ele>
      </trkpt>
      <trkpt lat="45.059809" lon="-71.960216">
        <ele>424.8</ele>
      </trkpt>
      <trkpt lat="45.06048" lon="-71.9602">
        <ele>420</ele>
      </trkpt>
      <trkpt lat="45.06077" lon="-71.96015">
        <ele>417.7</ele>
      </trkpt>
      <trkpt lat="45.06157" lon="-71.95979">
        <ele>412.5</ele>
      </trkpt>
      <trkpt lat="45.06185" lon="-71.95957">
        <ele>409.2</ele>
      </trkpt>
      <trkpt lat="45.06216" lon="-71.95921">
        <ele>404.7</ele>
      </trkpt>
      <trkpt lat="45.06239" lon="-71.95899">
        <ele>402.9</ele>
      </trkpt>
      <trkpt lat="45.06296" lon="-71.958205">
        <ele>401.4</ele>
      </trkpt>
      <trkpt lat="45.06353" lon="-71.95742">
        <ele>405.2</ele>
      </trkpt>
      <trkpt lat="45.06398" lon="-71.95689">
        <ele>407.1</ele>
      </trkpt>
      <trkpt lat="45.06414" lon="-71.95675">
        <ele>409.1</ele>
      </trkpt>
      <trkpt lat="45.06434" lon="-71.95666">
        <ele>409.1</ele>
      </trkpt>
      <trkpt lat="45.06508" lon="-71.95643">
        <ele>412.2</ele>
      </trkpt>
      <trkpt lat="45.065705" lon="-71.956175">
        <ele>410.7</ele>
      </trkpt>
      <trkpt lat="45.06633" lon="-71.95592">
        <ele>409.7</ele>
      </trkpt>
      <trkpt lat="45.06685" lon="-71.95573">
        <ele>410.8</ele>
      </trkpt>
      <trkpt lat="45.06737" lon="-71.95554">
        <ele>411.8</ele>
      </trkpt>
      <trkpt lat="45.06779" lon="-71.95545">
        <ele>411</ele>
      </trkpt>
      <trkpt lat="45.068" lon="-71.95545">
        <ele>409.1</ele>
      </trkpt>
      <trkpt lat="45.068665" lon="-71.955445">
        <ele>407.9</ele>
      </trkpt>
      <trkpt lat="45.06933" lon="-71.95544">
        <ele>407.4</ele>
      </trkpt>
      <trkpt lat="45.06977" lon="-71.95545">
        <ele>406.3</ele>
      </trkpt>
      <trkpt lat="45.07034" lon="-71.95554">
        <ele>405.5</ele>
      </trkpt>
      <trkpt lat="45.07117" lon="-71.955679">
        <ele>402.9</ele>
      </trkpt>
      <trkpt lat="45.072" lon="-71.95582">
        <ele>401.2</ele>
      </trkpt>
      <trkpt lat="45.07215" lon="-71.95587">
        <ele>401.2</ele>
      </trkpt>
      <trkpt lat="45.07275" lon="-71.95622">
        <ele>400.5</ele>
      </trkpt>
      <trkpt lat="45.07295" lon="-71.95643">
        <ele>400.1</ele>
      </trkpt>
      <trkpt lat="45.07328" lon="-71.95663">
        <ele>400.2</ele>
      </trkpt>
      <trkpt lat="45.07336" lon="-71.95674">
        <ele>400.2</ele>
      </trkpt>
      <trkpt lat="45.07319" lon="-71.95698">
        <ele>399.9</ele>
      </trkpt>
      <trkpt lat="45.07309" lon="-71.95716">
        <ele>399.9</ele>
      </trkpt>
      <trkpt lat="45.07298" lon="-71.95742">
        <ele>400</ele>
      </trkpt>
      <trkpt lat="45.072705" lon="-71.95846">
        <ele>400.2</ele>
      </trkpt>
      <trkpt lat="45.07243" lon="-71.9595">
        <ele>399.2</ele>
      </trkpt>
      <trkpt lat="45.07229" lon="-71.96029">
        <ele>400.6</ele>
      </trkpt>
      <trkpt lat="45.07214" lon="-71.96074">
        <ele>400.7</ele>
      </trkpt>
      <trkpt lat="45.071905" lon="-71.96136">
        <ele>401.2</ele>
      </trkpt>
      <trkpt lat="45.07167" lon="-71.96198">
        <ele>400.9</ele>
      </trkpt>
      <trkpt lat="45.07167" lon="-71.96199">
        <ele>400.9</ele>
      </trkpt>
      <trkpt lat="45.071316" lon="-71.96293">
        <ele>399.5</ele>
      </trkpt>
      <trkpt lat="45.070963" lon="-71.96387">
        <ele>399.2</ele>
      </trkpt>
      <trkpt lat="45.07061" lon="-71.96481">
        <ele>396.5</ele>
      </trkpt>
      <trkpt lat="45.07041" lon="-71.965415">
        <ele>395.5</ele>
      </trkpt>
      <trkpt lat="45.07021" lon="-71.96602">
        <ele>395.7</ele>
      </trkpt>
      <trkpt lat="45.07012" lon="-71.96633">
        <ele>396.3</ele>
      </trkpt>
      <trkpt lat="45.0701" lon="-71.96656">
        <ele>396.6</ele>
      </trkpt>
      <trkpt lat="45.0701" lon="-71.96736">
        <ele>394.4</ele>
      </trkpt>
      <trkpt lat="45.07017" lon="-71.96835">
        <ele>391.7</ele>
      </trkpt>
      <trkpt lat="45.07019" lon="-71.96898">
        <ele>390.1</ele>
      </trkpt>
      <trkpt lat="45.07026" lon="-71.97006">
        <ele>387.7</ele>
      </trkpt>
      <trkpt lat="45.07036" lon="-71.97081">
        <ele>386.4</ele>
      </trkpt>
      <trkpt lat="45.07046" lon="-71.97117">
        <ele>385.8</ele>
      </trkpt>
      <trkpt lat="45.07049" lon="-71.97136">
        <ele>385.5</ele>
      </trkpt>
      <trkpt lat="45.07058" lon="-71.97127">
        <ele>385.5</ele>
      </trkpt>
      <trkpt lat="45.07079" lon="-71.97112">
        <ele>385</ele>
      </trkpt>
      <trkpt lat="45.07099" lon="-71.97103">
        <ele>383.7</ele>
      </trkpt>
      <trkpt lat="45.07149" lon="-71.97087">
        <ele>383.2</ele>
      </trkpt>
      <trkpt lat="45.07199" lon="-71.97071">
        <ele>383.3</ele>
      </trkpt>
      <trkpt lat="45.07259" lon="-71.97041">
        <ele>383.3</ele>
      </trkpt>
      <trkpt lat="45.07333" lon="-71.97015">
        <ele>383.5</ele>
      </trkpt>
      <trkpt lat="45.07367" lon="-71.97009">
        <ele>383.4</ele>
      </trkpt>
      <trkpt lat="45.07415" lon="-71.97001">
        <ele>382.6</ele>
      </trkpt>
      <trkpt lat="45.07463" lon="-71.96992">
        <ele>382.5</ele>
      </trkpt>
      <trkpt lat="45.075185" lon="-71.96991">
        <ele>383.1</ele>
      </trkpt>
      <trkpt lat="45.07574" lon="-71.9699">
        <ele>382.2</ele>
      </trkpt>
      <trkpt lat="45.076602" lon="-71.969909">
        <ele>381.3</ele>
      </trkpt>
      <trkpt lat="45.077465" lon="-71.969918">
        <ele>380.6</ele>
      </trkpt>
      <trkpt lat="45.078328" lon="-71.969927">
        <ele>380.1</ele>
      </trkpt>
      <trkpt lat="45.07919" lon="-71.969936">
        <ele>379.1</ele>
      </trkpt>
      <trkpt lat="45.080053" lon="-71.969945">
        <ele>377.4</ele>
      </trkpt>
      <trkpt lat="45.080916" lon="-71.969954">
        <ele>376.8</ele>
      </trkpt>
      <trkpt lat="45.081779" lon="-71.969963">
        <ele>377</ele>
      </trkpt>
      <trkpt lat="45.082641" lon="-71.969972">
        <ele>375.6</ele>
      </trkpt>
      <trkpt lat="45.083504" lon="-71.969981">
        <ele>372.2</ele>
      </trkpt>
      <trkpt lat="45.084367" lon="-71.96999">
        <ele>369.2</ele>
      </trkpt>
      <trkpt lat="45.08523" lon="-71.97">
        <ele>366.4</ele>
      </trkpt>
      <trkpt lat="45.085939" lon="-71.969956">
        <ele>363.3</ele>
      </trkpt>
      <trkpt lat="45.086649" lon="-71.969913">
        <ele>360.9</ele>
      </trkpt>
      <trkpt lat="45.08736" lon="-71.96987">
        <ele>359</ele>
      </trkpt>
      <trkpt lat="45.08791" lon="-71.96982">
        <ele>358.3</ele>
      </trkpt>
      <trkpt lat="45.088485" lon="-71.96969">
        <ele>357</ele>
      </trkpt>
      <trkpt lat="45.08906" lon="-71.96956">
        <ele>355.6</ele>
      </trkpt>
      <trkpt lat="45.08988" lon="-71.96929">
        <ele>352.7</ele>
      </trkpt>
      <trkpt lat="45.09067" lon="-71.96924">
        <ele>349.3</ele>
      </trkpt>
      <trkpt lat="45.09082" lon="-71.96925">
        <ele>348.2</ele>
      </trkpt>
      <trkpt lat="45.09145" lon="-71.96951">
        <ele>342.7</ele>
      </trkpt>
      <trkpt lat="45.09191" lon="-71.969709">
        <ele>339.5</ele>
      </trkpt>
      <trkpt lat="45.09237" lon="-71.96991">
        <ele>337.7</ele>
      </trkpt>
      <trkpt lat="45.0932" lon="-71.970313">
        <ele>331.9</ele>
      </trkpt>
      <trkpt lat="45.09403" lon="-71.970716">
        <ele>324.1</ele>
      </trkpt>
      <trkpt lat="45.09486" lon="-71.97112">
        <ele>321.3</ele>
      </trkpt>
      <trkpt lat="45.09504" lon="-71.97121">
        <ele>319.2</ele>
      </trkpt>
      <trkpt lat="45.09523" lon="-71.97139">
        <ele>318.1</ele>
      </trkpt>
      <trkpt lat="45.09545" lon="-71.97162">
        <ele>315.3</ele>
      </trkpt>
      <trkpt lat="45.095895" lon="-71.972154">
        <ele>310.8</ele>
      </trkpt>
      <trkpt lat="45.09634" lon="-71.97269">
        <ele>306.8</ele>
      </trkpt>
      <trkpt lat="45.09655" lon="-71.97291">
        <ele>303.7</ele>
      </trkpt>
      <trkpt lat="45.09681" lon="-71.97306">
        <ele>300.6</ele>
      </trkpt>
      <trkpt lat="45.09692" lon="-71.97309">
        <ele>299.6</ele>
      </trkpt>
      <trkpt lat="45.09734" lon="-71.97314">
        <ele>294.1</ele>
      </trkpt>
      <trkpt lat="45.09752" lon="-71.97314">
        <ele>291.5</ele>
      </trkpt>
      <trkpt lat="45.09783" lon="-71.97309">
        <ele>287.9</ele>
      </trkpt>
      <trkpt lat="45.09825" lon="-71.97309">
        <ele>284.3</ele>
      </trkpt>
      <trkpt lat="45.09844" lon="-71.97314">
        <ele>282.8</ele>
      </trkpt>
      <trkpt lat="45.09875" lon="-71.97325">
        <ele>280.4</ele>
      </trkpt>
      <trkpt lat="45.098995" lon="-71.973844">
        <ele>277.8</ele>
      </trkpt>
      <trkpt lat="45.09924" lon="-71.97444">
        <ele>276</ele>
      </trkpt>
      <trkpt lat="45.0995" lon="-71.97493">
        <ele>275.1</ele>
      </trkpt>
      <trkpt lat="45.09959" lon="-71.97515">
        <ele>274.8</ele>
      </trkpt>
      <trkpt lat="45.099825" lon="-71.976044">
        <ele>273.5</ele>
      </trkpt>
      <trkpt lat="45.10006" lon="-71.97694">
        <ele>271.4</ele>
      </trkpt>
      <trkpt lat="45.10007" lon="-71.97713">
        <ele>271.4</ele>
      </trkpt>
      <trkpt lat="45.10004" lon="-71.97757">
        <ele>270.9</ele>
      </trkpt>
      <trkpt lat="45.09997" lon="-71.97776">
        <ele>270.9</ele>
      </trkpt>
      <trkpt lat="45.09978" lon="-71.9781">
        <ele>270.5</ele>
      </trkpt>
      <trkpt lat="45.09939" lon="-71.97865">
        <ele>271</ele>
      </trkpt>
      <trkpt lat="45.09932" lon="-71.97878">
        <ele>271.3</ele>
      </trkpt>
      <trkpt lat="45.09922" lon="-71.97922">
        <ele>272.4</ele>
      </trkpt>
      <trkpt lat="45.09907" lon="-71.97958">
        <ele>274.8</ele>
      </trkpt>
      <trkpt lat="45.09887" lon="-71.98017">
        <ele>280.9</ele>
      </trkpt>
      <trkpt lat="45.0987" lon="-71.98053">
        <ele>285.2</ele>
      </trkpt>
      <trkpt lat="45.09823" lon="-71.98116">
        <ele>293</ele>
      </trkpt>
      <trkpt lat="45.09816" lon="-71.98138">
        <ele>295.4</ele>
      </trkpt>
      <trkpt lat="45.098" lon="-71.98218">
        <ele>300.2</ele>
      </trkpt>
      <trkpt lat="45.09767" lon="-71.98335">
        <ele>300.5</ele>
      </trkpt>
      <trkpt lat="45.09745" lon="-71.98438">
        <ele>303.1</ele>
      </trkpt>
      <trkpt lat="45.09727" lon="-71.98507">
        <ele>304.8</ele>
      </trkpt>
      <trkpt lat="45.09709" lon="-71.98576">
        <ele>305.8</ele>
      </trkpt>
      <trkpt lat="45.096855" lon="-71.98673">
        <ele>310</ele>
      </trkpt>
      <trkpt lat="45.09662" lon="-71.9877">
        <ele>317.2</ele>
      </trkpt>
      <trkpt lat="45.09649" lon="-71.98832">
        <ele>320.6</ele>
      </trkpt>
      <trkpt lat="45.09636" lon="-71.98894">
        <ele>323.9</ele>
      </trkpt>
      <trkpt lat="45.09608" lon="-71.98993">
        <ele>327.3</ele>
      </trkpt>
      <trkpt lat="45.0959" lon="-71.99097">
        <ele>333.4</ele>
      </trkpt>
      <trkpt lat="45.0958" lon="-71.99132">
        <ele>335.1</ele>
      </trkpt>
      <trkpt lat="45.09543" lon="-71.99246">
        <ele>341.1</ele>
      </trkpt>
      <trkpt lat="45.09506" lon="-71.9936">
        <ele>344.9</ele>
      </trkpt>
      <trkpt lat="45.094815" lon="-71.99432">
        <ele>348.6</ele>
      </trkpt>
      <trkpt lat="45.09457" lon="-71.99504">
        <ele>350.1</ele>
      </trkpt>
      <trkpt lat="45.094465" lon="-71.995845">
        <ele>351.4</ele>
      </trkpt>
      <trkpt lat="45.09436" lon="-71.99665">
        <ele>352.9</ele>
      </trkpt>
      <trkpt lat="45.0943" lon="-71.99776">
        <ele>355.6</ele>
      </trkpt>
      <trkpt lat="45.094295" lon="-71.99888">
        <ele>358.8</ele>
      </trkpt>
      <trkpt lat="45.09429" lon="-72">
        <ele>363.9</ele>
      </trkpt>
      <trkpt lat="45.09436" lon="-72.000874">
        <ele>366.2</ele>
      </trkpt>
      <trkpt lat="45.09443" lon="-72.00175">
        <ele>365.4</ele>
      </trkpt>
      <trkpt lat="45.09457" lon="-72.002549">
        <ele>364.1</ele>
      </trkpt>
      <trkpt lat="45.09471" lon="-72.00335">
        <ele>363.6</ele>
      </trkpt>
      <trkpt lat="45.094947" lon="-72.004374">
        <ele>361.1</ele>
      </trkpt>
      <trkpt lat="45.095185" lon="-72.005399">
        <ele>354</ele>
      </trkpt>
      <trkpt lat="45.095422" lon="-72.006424">
        <ele>349.4</ele>
      </trkpt>
      <trkpt lat="45.09566" lon="-72.00745">
        <ele>348</ele>
      </trkpt>
      <trkpt lat="45.09511" lon="-72.00822">
        <ele>346.1</ele>
      </trkpt>
      <trkpt lat="45.09456" lon="-72.00899">
        <ele>345.2</ele>
      </trkpt>
      <trkpt lat="45.09401" lon="-72.00976">
        <ele>348.4</ele>
      </trkpt>
      <trkpt lat="45.09354" lon="-72.01061">
        <ele>349.4</ele>
      </trkpt>
      <trkpt lat="45.093091" lon="-72.011628">
        <ele>351.2</ele>
      </trkpt>
      <trkpt lat="45.092643" lon="-72.012646">
        <ele>353.6</ele>
      </trkpt>
      <trkpt lat="45.092195" lon="-72.013664">
        <ele>355.6</ele>
      </trkpt>
      <trkpt lat="45.091747" lon="-72.014682">
        <ele>356.5</ele>
      </trkpt>
      <trkpt lat="45.091299" lon="-72.015701">
        <ele>354.3</ele>
      </trkpt>
      <trkpt lat="45.090851" lon="-72.016719">
        <ele>351.8</ele>
      </trkpt>
      <trkpt lat="45.090402" lon="-72.017737">
        <ele>347.6</ele>
      </trkpt>
      <trkpt lat="45.089954" lon="-72.018755">
        <ele>345.9</ele>
      </trkpt>
      <trkpt lat="45.089506" lon="-72.019773">
        <ele>342.9</ele>
      </trkpt>
      <trkpt lat="45.089058" lon="-72.020791">
        <ele>341</ele>
      </trkpt>
      <trkpt lat="45.08861" lon="-72.02181">
        <ele>339.7</ele>
      </trkpt>
      <trkpt lat="45.08834" lon="-72.02228">
        <ele>338.4</ele>
      </trkpt>
      <trkpt lat="45.0881" lon="-72.02261">
        <ele>338.8</ele>
      </trkpt>
      <trkpt lat="45.087675" lon="-72.02299">
        <ele>340</ele>
      </trkpt>
      <trkpt lat="45.08725" lon="-72.02337">
        <ele>342.9</ele>
      </trkpt>
      <trkpt lat="45.086835" lon="-72.023865">
        <ele>344.2</ele>
      </trkpt>
      <trkpt lat="45.08642" lon="-72.02436">
        <ele>346.1</ele>
      </trkpt>
      <trkpt lat="45.08597" lon="-72.02477">
        <ele>348.3</ele>
      </trkpt>
      <trkpt lat="45.085515" lon="-72.02508">
        <ele>350.5</ele>
      </trkpt>
      <trkpt lat="45.08506" lon="-72.02539">
        <ele>352</ele>
      </trkpt>
      <trkpt lat="45.08505" lon="-72.02541">
        <ele>352</ele>
      </trkpt>
      <trkpt lat="45.084396" lon="-72.02589">
        <ele>351.8</ele>
      </trkpt>
      <trkpt lat="45.083743" lon="-72.02637">
        <ele>350.7</ele>
      </trkpt>
      <trkpt lat="45.08309" lon="-72.02685">
        <ele>348.8</ele>
      </trkpt>
      <trkpt lat="45.082355" lon="-72.027325">
        <ele>339.8</ele>
      </trkpt>
      <trkpt lat="45.08162" lon="-72.0278">
        <ele>337.3</ele>
      </trkpt>
      <trkpt lat="45.08105" lon="-72.02814">
        <ele>339.9</ele>
      </trkpt>
      <trkpt lat="45.08048" lon="-72.02848">
        <ele>347</ele>
      </trkpt>
      <trkpt lat="45.079778" lon="-72.02888">
        <ele>356</ele>
      </trkpt>
      <trkpt lat="45.079076" lon="-72.02928">
        <ele>359.5</ele>
      </trkpt>
      <trkpt lat="45.078374" lon="-72.02968">
        <ele>365.4</ele>
      </trkpt>
      <trkpt lat="45.077672" lon="-72.03008">
        <ele>368.2</ele>
      </trkpt>
      <trkpt lat="45.07697" lon="-72.03048">
        <ele>369.2</ele>
      </trkpt>
      <trkpt lat="45.07625" lon="-72.03073">
        <ele>367.3</ele>
      </trkpt>
      <trkpt lat="45.07553" lon="-72.03098">
        <ele>369.8</ele>
      </trkpt>
      <trkpt lat="45.075019" lon="-72.03114">
        <ele>372.9</ele>
      </trkpt>
      <trkpt lat="45.07451" lon="-72.0313">
        <ele>374.8</ele>
      </trkpt>
      <trkpt lat="45.07378" lon="-72.0316">
        <ele>372.2</ele>
      </trkpt>
      <trkpt lat="45.07305" lon="-72.0319">
        <ele>371.8</ele>
      </trkpt>
      <trkpt lat="45.07279" lon="-72.03206">
        <ele>370.3</ele>
      </trkpt>
      <trkpt lat="45.07209" lon="-72.03259">
        <ele>371.8</ele>
      </trkpt>
      <trkpt lat="45.07137" lon="-72.03318">
        <ele>379.2</ele>
      </trkpt>
      <trkpt lat="45.07065" lon="-72.03377">
        <ele>384</ele>
      </trkpt>
      <trkpt lat="45.07018" lon="-72.03407">
        <ele>386.5</ele>
      </trkpt>
      <trkpt lat="45.06983" lon="-72.03425">
        <ele>387.3</ele>
      </trkpt>
      <trkpt lat="45.06953" lon="-72.03433">
        <ele>389.6</ele>
      </trkpt>
      <trkpt lat="45.06884" lon="-72.034535">
        <ele>393.2</ele>
      </trkpt>
      <trkpt lat="45.06815" lon="-72.03474">
        <ele>395.2</ele>
      </trkpt>
      <trkpt lat="45.067396" lon="-72.03501">
        <ele>397.3</ele>
      </trkpt>
      <trkpt lat="45.066643" lon="-72.03528">
        <ele>396.8</ele>
      </trkpt>
      <trkpt lat="45.06589" lon="-72.03555">
        <ele>397.3</ele>
      </trkpt>
      <trkpt lat="45.06535" lon="-72.03568">
        <ele>400.1</ele>
      </trkpt>
      <trkpt lat="45.06462" lon="-72.03582">
        <ele>406</ele>
      </trkpt>
      <trkpt lat="45.06409" lon="-72.03581">
        <ele>410.7</ele>
      </trkpt>
      <trkpt lat="45.06348" lon="-72.03586">
        <ele>412.9</ele>
      </trkpt>
      <trkpt lat="45.06333" lon="-72.03591">
        <ele>413.1</ele>
      </trkpt>
      <trkpt lat="45.06309" lon="-72.03605">
        <ele>413</ele>
      </trkpt>
      <trkpt lat="45.06279" lon="-72.03635">
        <ele>412.1</ele>
      </trkpt>
      <trkpt lat="45.06208" lon="-72.036805">
        <ele>411.4</ele>
      </trkpt>
      <trkpt lat="45.06137" lon="-72.03726">
        <ele>414.2</ele>
      </trkpt>
      <trkpt lat="45.060557" lon="-72.037725">
        <ele>417.9</ele>
      </trkpt>
      <trkpt lat="45.059745" lon="-72.03819">
        <ele>419.8</ele>
      </trkpt>
      <trkpt lat="45.058932" lon="-72.038655">
        <ele>420.4</ele>
      </trkpt>
      <trkpt lat="45.05812" lon="-72.03912">
        <ele>423.2</ele>
      </trkpt>
      <trkpt lat="45.0576" lon="-72.03948">
        <ele>424.4</ele>
      </trkpt>
      <trkpt lat="45.05681" lon="-72.04007">
        <ele>424.1</ele>
      </trkpt>
      <trkpt lat="45.05611" lon="-72.04071">
        <ele>424.1</ele>
      </trkpt>
      <trkpt lat="45.055535" lon="-72.04131">
        <ele>422.4</ele>
      </trkpt>
      <trkpt lat="45.05496" lon="-72.04191">
        <ele>419.5</ele>
      </trkpt>
      <trkpt lat="45.054545" lon="-72.0424">
        <ele>414.7</ele>
      </trkpt>
      <trkpt lat="45.05413" lon="-72.04289">
        <ele>408.5</ele>
      </trkpt>
      <trkpt lat="45.05373" lon="-72.04327">
        <ele>404.5</ele>
      </trkpt>
      <trkpt lat="45.05333" lon="-72.04365">
        <ele>403.1</ele>
      </trkpt>
      <trkpt lat="45.052536" lon="-72.044226">
        <ele>402</ele>
      </trkpt>
      <trkpt lat="45.051743" lon="-72.044803">
        <ele>400.8</ele>
      </trkpt>
      <trkpt lat="45.05095" lon="-72.04538">
        <ele>399.5</ele>
      </trkpt>
      <trkpt lat="45.051153" lon="-72.046179">
        <ele>398</ele>
      </trkpt>
      <trkpt lat="45.051356" lon="-72.046979">
        <ele>399.8</ele>
      </trkpt>
      <trkpt lat="45.05156" lon="-72.04778">
        <ele>399.2</ele>
      </trkpt>
      <trkpt lat="45.051816" lon="-72.048579">
        <ele>397.6</ele>
      </trkpt>
      <trkpt lat="45.052073" lon="-72.049379">
        <ele>400.9</ele>
      </trkpt>
      <trkpt lat="45.05233" lon="-72.05018">
        <ele>400.3</ele>
      </trkpt>
      <trkpt lat="45.05273" lon="-72.051014">
        <ele>393.4</ele>
      </trkpt>
      <trkpt lat="45.05313" lon="-72.05185">
        <ele>387.4</ele>
      </trkpt>
      <trkpt lat="45.05323" lon="-72.05211">
        <ele>385.5</ele>
      </trkpt>
      <trkpt lat="45.05332" lon="-72.05247">
        <ele>382.7</ele>
      </trkpt>
      <trkpt lat="45.05335" lon="-72.05274">
        <ele>380</ele>
      </trkpt>
      <trkpt lat="45.05331" lon="-72.05314">
        <ele>376.1</ele>
      </trkpt>
      <trkpt lat="45.05324" lon="-72.05346">
        <ele>372.4</ele>
      </trkpt>
      <trkpt lat="45.05295" lon="-72.05417">
        <ele>363.8</ele>
      </trkpt>
      <trkpt lat="45.05293" lon="-72.0545">
        <ele>362.9</ele>
      </trkpt>
      <trkpt lat="45.052955" lon="-72.055384">
        <ele>365.4</ele>
      </trkpt>
      <trkpt lat="45.05298" lon="-72.05627">
        <ele>373.2</ele>
      </trkpt>
      <trkpt lat="45.05309" lon="-72.05722">
        <ele>376.3</ele>
      </trkpt>
      <trkpt lat="45.0532" lon="-72.05749">
        <ele>376.2</ele>
      </trkpt>
      <trkpt lat="45.05382" lon="-72.058379">
        <ele>376.8</ele>
      </trkpt>
      <trkpt lat="45.05444" lon="-72.05927">
        <ele>382.5</ele>
      </trkpt>
      <trkpt lat="45.054685" lon="-72.059924">
        <ele>379.7</ele>
      </trkpt>
      <trkpt lat="45.05493" lon="-72.06058">
        <ele>379.9</ele>
      </trkpt>
      <trkpt lat="45.05519" lon="-72.06174">
        <ele>378.8</ele>
      </trkpt>
      <trkpt lat="45.05519" lon="-72.06173">
        <ele>378.8</ele>
      </trkpt>
      <trkpt lat="45.05533" lon="-72.06232">
        <ele>378.2</ele>
      </trkpt>
      <trkpt lat="45.055463" lon="-72.063226">
        <ele>375.4</ele>
      </trkpt>
      <trkpt lat="45.055596" lon="-72.064133">
        <ele>375.6</ele>
      </trkpt>
      <trkpt lat="45.05573" lon="-72.06504">
        <ele>376.4</ele>
      </trkpt>
      <trkpt lat="45.055085" lon="-72.065492">
        <ele>377.5</ele>
      </trkpt>
      <trkpt lat="45.05444" lon="-72.065945">
        <ele>376.1</ele>
      </trkpt>
      <trkpt lat="45.053795" lon="-72.066397">
        <ele>373.1</ele>
      </trkpt>
      <trkpt lat="45.05315" lon="-72.06685">
        <ele>374.8</ele>
      </trkpt>
      <trkpt lat="45.052515" lon="-72.067265">
        <ele>380.3</ele>
      </trkpt>
      <trkpt lat="45.05188" lon="-72.06768">
        <ele>383.2</ele>
      </trkpt>
      <trkpt lat="45.051173" lon="-72.068225">
        <ele>380.4</ele>
      </trkpt>
      <trkpt lat="45.050466" lon="-72.06877">
        <ele>376.8</ele>
      </trkpt>
      <trkpt lat="45.04976" lon="-72.069315">
        <ele>372.9</ele>
      </trkpt>
      <trkpt lat="45.049053" lon="-72.06986">
        <ele>370.7</ele>
      </trkpt>
      <trkpt lat="45.048346" lon="-72.070405">
        <ele>369.9</ele>
      </trkpt>
      <trkpt lat="45.04764" lon="-72.07095">
        <ele>368.5</ele>
      </trkpt>
      <trkpt lat="45.04752" lon="-72.07141">
        <ele>371.1</ele>
      </trkpt>
      <trkpt lat="45.04747" lon="-72.07166">
        <ele>372.1</ele>
      </trkpt>
      <trkpt lat="45.047826" lon="-72.072516">
        <ele>376.4</ele>
      </trkpt>
      <trkpt lat="45.048183" lon="-72.073373">
        <ele>380.2</ele>
      </trkpt>
      <trkpt lat="45.04854" lon="-72.07423">
        <ele>382.8</ele>
      </trkpt>
      <trkpt lat="45.04872" lon="-72.07487">
        <ele>379.3</ele>
      </trkpt>
      <trkpt lat="45.04877" lon="-72.07527">
        <ele>375.7</ele>
      </trkpt>
      <trkpt lat="45.04879" lon="-72.07576">
        <ele>370.6</ele>
      </trkpt>
      <trkpt lat="45.048775" lon="-72.076925">
        <ele>362.9</ele>
      </trkpt>
      <trkpt lat="45.04876" lon="-72.07809">
        <ele>359.5</ele>
      </trkpt>
      <trkpt lat="45.04879" lon="-72.07866">
        <ele>358.2</ele>
      </trkpt>
      <trkpt lat="45.04883" lon="-72.07893">
        <ele>358</ele>
      </trkpt>
      <trkpt lat="45.0489" lon="-72.07921">
        <ele>357.5</ele>
      </trkpt>
      <trkpt lat="45.04908" lon="-72.07973">
        <ele>357.3</ele>
      </trkpt>
      <trkpt lat="45.04932" lon="-72.08027">
        <ele>357.2</ele>
      </trkpt>
      <trkpt lat="45.04974" lon="-72.08099">
        <ele>355.1</ele>
      </trkpt>
      <trkpt lat="45.05031" lon="-72.081819">
        <ele>352.4</ele>
      </trkpt>
      <trkpt lat="45.05088" lon="-72.08265">
        <ele>353.1</ele>
      </trkpt>
      <trkpt lat="45.05136" lon="-72.08337">
        <ele>351</ele>
      </trkpt>
      <trkpt lat="45.05141" lon="-72.08354">
        <ele>350.8</ele>
      </trkpt>
      <trkpt lat="45.0514" lon="-72.08394">
        <ele>349.5</ele>
      </trkpt>
      <trkpt lat="45.05143" lon="-72.08408">
        <ele>349</ele>
      </trkpt>
      <trkpt lat="45.05158" lon="-72.08418">
        <ele>348.1</ele>
      </trkpt>
      <trkpt lat="45.05172" lon="-72.08422">
        <ele>347.5</ele>
      </trkpt>
      <trkpt lat="45.05201" lon="-72.08417">
        <ele>347.2</ele>
      </trkpt>
      <trkpt lat="45.05226" lon="-72.08417">
        <ele>347.4</ele>
      </trkpt>
      <trkpt lat="45.05249" lon="-72.08422">
        <ele>348</ele>
      </trkpt>
      <trkpt lat="45.053175" lon="-72.084559">
        <ele>353.6</ele>
      </trkpt>
      <trkpt lat="45.05386" lon="-72.0849">
        <ele>358.3</ele>
      </trkpt>
      <trkpt lat="45.05437" lon="-72.0851">
        <ele>356.5</ele>
      </trkpt>
      <trkpt lat="45.05511" lon="-72.08529">
        <ele>354.2</ele>
      </trkpt>
      <trkpt lat="45.055655" lon="-72.085399">
        <ele>349.4</ele>
      </trkpt>
      <trkpt lat="45.0562" lon="-72.08551">
        <ele>345.1</ele>
      </trkpt>
      <trkpt lat="45.05682" lon="-72.085646">
        <ele>342.1</ele>
      </trkpt>
      <trkpt lat="45.05744" lon="-72.085783">
        <ele>336.8</ele>
      </trkpt>
      <trkpt lat="45.05806" lon="-72.08592">
        <ele>333.5</ele>
      </trkpt>
      <trkpt lat="45.05873" lon="-72.086029">
        <ele>335.7</ele>
      </trkpt>
      <trkpt lat="45.0594" lon="-72.08614">
        <ele>339.8</ele>
      </trkpt>
      <trkpt lat="45.05944" lon="-72.086989">
        <ele>340.4</ele>
      </trkpt>
      <trkpt lat="45.05948" lon="-72.08784">
        <ele>332.5</ele>
      </trkpt>
      <trkpt lat="45.05959" lon="-72.088719">
        <ele>322.2</ele>
      </trkpt>
      <trkpt lat="45.0597" lon="-72.0896">
        <ele>314.8</ele>
      </trkpt>
      <trkpt lat="45.05978" lon="-72.09071">
        <ele>309.9</ele>
      </trkpt>
      <trkpt lat="45.059886" lon="-72.091903">
        <ele>306.7</ele>
      </trkpt>
      <trkpt lat="45.059993" lon="-72.093096">
        <ele>301.9</ele>
      </trkpt>
      <trkpt lat="45.0601" lon="-72.09429">
        <ele>304.7</ele>
      </trkpt>
      <trkpt lat="45.06012" lon="-72.09488">
        <ele>305.2</ele>
      </trkpt>
      <trkpt lat="45.06007" lon="-72.09545">
        <ele>304</ele>
      </trkpt>
      <trkpt lat="45.059945" lon="-72.096325">
        <ele>298.9</ele>
      </trkpt>
      <trkpt lat="45.05982" lon="-72.0972">
        <ele>292.2</ele>
      </trkpt>
      <trkpt lat="45.05981" lon="-72.09751">
        <ele>290.8</ele>
      </trkpt>
      <trkpt lat="45.05982" lon="-72.09778">
        <ele>290.4</ele>
      </trkpt>
      <trkpt lat="45.05993" lon="-72.098584">
        <ele>289.2</ele>
      </trkpt>
      <trkpt lat="45.06004" lon="-72.09939">
        <ele>289.6</ele>
      </trkpt>
      <trkpt lat="45.0601" lon="-72.10011">
        <ele>292.3</ele>
      </trkpt>
      <trkpt lat="45.0601" lon="-72.10056">
        <ele>294.6</ele>
      </trkpt>
      <trkpt lat="45.06005" lon="-72.10124">
        <ele>299.7</ele>
      </trkpt>
      <trkpt lat="45.06" lon="-72.10192">
        <ele>300.9</ele>
      </trkpt>
      <trkpt lat="45.059945" lon="-72.10318">
        <ele>301.5</ele>
      </trkpt>
      <trkpt lat="45.05989" lon="-72.10444">
        <ele>301</ele>
      </trkpt>
      <trkpt lat="45.059835" lon="-72.1057">
        <ele>298.7</ele>
      </trkpt>
      <trkpt lat="45.05978" lon="-72.10696">
        <ele>295</ele>
      </trkpt>
      <trkpt lat="45.058995" lon="-72.107515">
        <ele>288.7</ele>
      </trkpt>
      <trkpt lat="45.05821" lon="-72.10807">
        <ele>292.8</ele>
      </trkpt>
      <trkpt lat="45.057527" lon="-72.10862">
        <ele>298.9</ele>
      </trkpt>
      <trkpt lat="45.056845" lon="-72.10917">
        <ele>303</ele>
      </trkpt>
      <trkpt lat="45.056162" lon="-72.10972">
        <ele>306</ele>
      </trkpt>
      <trkpt lat="45.05548" lon="-72.11027">
        <ele>310.4</ele>
      </trkpt>
      <trkpt lat="45.05485" lon="-72.111055">
        <ele>310.3</ele>
      </trkpt>
      <trkpt lat="45.05422" lon="-72.11184">
        <ele>304.8</ele>
      </trkpt>
      <trkpt lat="45.05387" lon="-72.11215">
        <ele>302.5</ele>
      </trkpt>
      <trkpt lat="45.05329" lon="-72.11261">
        <ele>299.9</ele>
      </trkpt>
      <trkpt lat="45.05302" lon="-72.11291">
        <ele>298.9</ele>
      </trkpt>
      <trkpt lat="45.052493" lon="-72.113673">
        <ele>293.7</ele>
      </trkpt>
      <trkpt lat="45.051966" lon="-72.114436">
        <ele>290.8</ele>
      </trkpt>
      <trkpt lat="45.05144" lon="-72.1152">
        <ele>288.7</ele>
      </trkpt>
      <trkpt lat="45.05119" lon="-72.11543">
        <ele>288</ele>
      </trkpt>
      <trkpt lat="45.05084" lon="-72.11564">
        <ele>288.2</ele>
      </trkpt>
      <trkpt lat="45.05066" lon="-72.11569">
        <ele>288.8</ele>
      </trkpt>
      <trkpt lat="45.049973" lon="-72.115669">
        <ele>293.3</ele>
      </trkpt>
      <trkpt lat="45.049286" lon="-72.115649">
        <ele>297.5</ele>
      </trkpt>
      <trkpt lat="45.0486" lon="-72.11563">
        <ele>297.7</ele>
      </trkpt>
      <trkpt lat="45.04782" lon="-72.115615">
        <ele>297.5</ele>
      </trkpt>
      <trkpt lat="45.04704" lon="-72.115601">
        <ele>298.5</ele>
      </trkpt>
      <trkpt lat="45.04626" lon="-72.115587">
        <ele>298.2</ele>
      </trkpt>
      <trkpt lat="45.04548" lon="-72.115573">
        <ele>297.1</ele>
      </trkpt>
      <trkpt lat="45.0447" lon="-72.11556">
        <ele>300.8</ele>
      </trkpt>
      <trkpt lat="45.04436" lon="-72.11551">
        <ele>299.1</ele>
      </trkpt>
      <trkpt lat="45.0441" lon="-72.1154">
        <ele>298</ele>
      </trkpt>
      <trkpt lat="45.043295" lon="-72.114959">
        <ele>294.9</ele>
      </trkpt>
      <trkpt lat="45.04249" lon="-72.11452">
        <ele>289.5</ele>
      </trkpt>
      <trkpt lat="45.04181" lon="-72.11426">
        <ele>284.6</ele>
      </trkpt>
      <trkpt lat="45.04129" lon="-72.114129">
        <ele>280.1</ele>
      </trkpt>
      <trkpt lat="45.04077" lon="-72.114">
        <ele>275.3</ele>
      </trkpt>
      <trkpt lat="45.040163" lon="-72.113906">
        <ele>270.8</ele>
      </trkpt>
      <trkpt lat="45.039556" lon="-72.113813">
        <ele>266.7</ele>
      </trkpt>
      <trkpt lat="45.03895" lon="-72.11372">
        <ele>268.6</ele>
      </trkpt>
      <trkpt lat="45.038415" lon="-72.113609">
        <ele>270.9</ele>
      </trkpt>
      <trkpt lat="45.03788" lon="-72.1135">
        <ele>275.4</ele>
      </trkpt>
      <trkpt lat="45.037115" lon="-72.113259">
        <ele>281.2</ele>
      </trkpt>
      <trkpt lat="45.03635" lon="-72.11302">
        <ele>282</ele>
      </trkpt>
      <trkpt lat="45.03571" lon="-72.11291">
        <ele>282.7</ele>
      </trkpt>
      <trkpt lat="45.03547" lon="-72.11287">
        <ele>282.5</ele>
      </trkpt>
      <trkpt lat="45.03515" lon="-72.11288">
        <ele>281.6</ele>
      </trkpt>
      <trkpt lat="45.03493" lon="-72.11287">
        <ele>281.5</ele>
      </trkpt>
      <trkpt lat="45.03446" lon="-72.11279">
        <ele>283.5</ele>
      </trkpt>
      <trkpt lat="45.03423" lon="-72.11269">
        <ele>285.8</ele>
      </trkpt>
      <trkpt lat="45.03376" lon="-72.112599">
        <ele>287.9</ele>
      </trkpt>
      <trkpt lat="45.03329" lon="-72.11251">
        <ele>289.1</ele>
      </trkpt>
      <trkpt lat="45.03276" lon="-72.11233">
        <ele>291</ele>
      </trkpt>
      <trkpt lat="45.03223" lon="-72.112174">
        <ele>292.3</ele>
      </trkpt>
      <trkpt lat="45.0317" lon="-72.11202">
        <ele>293.6</ele>
      </trkpt>
      <trkpt lat="45.03146" lon="-72.11192">
        <ele>295.3</ele>
      </trkpt>
      <trkpt lat="45.0311" lon="-72.11174">
        <ele>296.5</ele>
      </trkpt>
      <trkpt lat="45.0306" lon="-72.11126">
        <ele>299.5</ele>
      </trkpt>
      <trkpt lat="45.03009" lon="-72.110699">
        <ele>301.6</ele>
      </trkpt>
      <trkpt lat="45.02958" lon="-72.11014">
        <ele>300.2</ele>
      </trkpt>
      <trkpt lat="45.02908" lon="-72.109643">
        <ele>301.5</ele>
      </trkpt>
      <trkpt lat="45.02858" lon="-72.109146">
        <ele>302.7</ele>
      </trkpt>
      <trkpt lat="45.02808" lon="-72.10865">
        <ele>305.1</ele>
      </trkpt>
      <trkpt lat="45.02748" lon="-72.1081">
        <ele>304.1</ele>
      </trkpt>
      <trkpt lat="45.02731" lon="-72.10795">
        <ele>303.4</ele>
      </trkpt>
      <trkpt lat="45.026885" lon="-72.107384">
        <ele>301.7</ele>
      </trkpt>
      <trkpt lat="45.02646" lon="-72.10682">
        <ele>298.7</ele>
      </trkpt>
      <trkpt lat="45.02593" lon="-72.10593">
        <ele>299.2</ele>
      </trkpt>
      <trkpt lat="45.02567" lon="-72.10536">
        <ele>303.3</ele>
      </trkpt>
      <trkpt lat="45.02532" lon="-72.104214">
        <ele>307.3</ele>
      </trkpt>
      <trkpt lat="45.02497" lon="-72.10307">
        <ele>309.1</ele>
      </trkpt>
      <trkpt lat="45.0247" lon="-72.10226">
        <ele>308.8</ele>
      </trkpt>
      <trkpt lat="45.02452" lon="-72.10137">
        <ele>310.3</ele>
      </trkpt>
      <trkpt lat="45.024375" lon="-72.100359">
        <ele>304.7</ele>
      </trkpt>
      <trkpt lat="45.02423" lon="-72.09935">
        <ele>299.5</ele>
      </trkpt>
      <trkpt lat="45.02405" lon="-72.09828">
        <ele>296.4</ele>
      </trkpt>
      <trkpt lat="45.02393" lon="-72.09787">
        <ele>296.4</ele>
      </trkpt>
      <trkpt lat="45.02355" lon="-72.09693">
        <ele>298.9</ele>
      </trkpt>
      <trkpt lat="45.02324" lon="-72.09631">
        <ele>303.3</ele>
      </trkpt>
      <trkpt lat="45.02304" lon="-72.09581">
        <ele>305</ele>
      </trkpt>
      <trkpt lat="45.02293" lon="-72.09533">
        <ele>311.3</ele>
      </trkpt>
      <trkpt lat="45.02283" lon="-72.09461">
        <ele>317.2</ele>
      </trkpt>
      <trkpt lat="45.022755" lon="-72.093749">
        <ele>323.6</ele>
      </trkpt>
      <trkpt lat="45.02268" lon="-72.09289">
        <ele>326.5</ele>
      </trkpt>
      <trkpt lat="45.02266" lon="-72.09192">
        <ele>327.4</ele>
      </trkpt>
      <trkpt lat="45.02267" lon="-72.09101">
        <ele>327.3</ele>
      </trkpt>
      <trkpt lat="45.02265" lon="-72.09076">
        <ele>327.5</ele>
      </trkpt>
      <trkpt lat="45.02253" lon="-72.09012">
        <ele>328.2</ele>
      </trkpt>
      <trkpt lat="45.0224" lon="-72.08958">
        <ele>328.7</ele>
      </trkpt>
      <trkpt lat="45.02231" lon="-72.0893">
        <ele>329.4</ele>
      </trkpt>
      <trkpt lat="45.022785" lon="-72.08897">
        <ele>329.1</ele>
      </trkpt>
      <trkpt lat="45.02326" lon="-72.08864">
        <ele>329</ele>
      </trkpt>
      <trkpt lat="45.0233" lon="-72.08787">
        <ele>328.6</ele>
      </trkpt>
      <trkpt lat="45.023408" lon="-72.086842">
        <ele>328.9</ele>
      </trkpt>
      <trkpt lat="45.023516" lon="-72.085814">
        <ele>329.3</ele>
      </trkpt>
      <trkpt lat="45.023624" lon="-72.084786">
        <ele>329.3</ele>
      </trkpt>
      <trkpt lat="45.023732" lon="-72.083758">
        <ele>329.1</ele>
      </trkpt>
      <trkpt lat="45.02384" lon="-72.08273">
        <ele>328.6</ele>
      </trkpt>
      <trkpt lat="45.023732" lon="-72.083758">
        <ele>329.1</ele>
      </trkpt>
      <trkpt lat="45.023624" lon="-72.084786">
        <ele>329.4</ele>
      </trkpt>
      <trkpt lat="45.023516" lon="-72.085814">
        <ele>329.3</ele>
      </trkpt>
      <trkpt lat="45.023408" lon="-72.086842">
        <ele>328.9</ele>
      </trkpt>
      <trkpt lat="45.0233" lon="-72.08787">
        <ele>328.6</ele>
      </trkpt>
      <trkpt lat="45.02326" lon="-72.08864">
        <ele>328.9</ele>
      </trkpt>
      <trkpt lat="45.02319" lon="-72.08869">
        <ele>328.9</ele>
      </trkpt>
      <trkpt lat="45.02326" lon="-72.08864">
        <ele>328.9</ele>
      </trkpt>
      <trkpt lat="45.022475" lon="-72.089185">
        <ele>329.4</ele>
      </trkpt>
      <trkpt lat="45.02169" lon="-72.08973">
        <ele>329.1</ele>
      </trkpt>
      <trkpt lat="45.020905" lon="-72.090275">
        <ele>328</ele>
      </trkpt>
      <trkpt lat="45.02012" lon="-72.09082">
        <ele>327.5</ele>
      </trkpt>
      <trkpt lat="45.019335" lon="-72.091365">
        <ele>326.6</ele>
      </trkpt>
      <trkpt lat="45.01855" lon="-72.09191">
        <ele>326.2</ele>
      </trkpt>
      <trkpt lat="45.01789" lon="-72.09235">
        <ele>326.2</ele>
      </trkpt>
      <trkpt lat="45.01723" lon="-72.09279">
        <ele>326.7</ele>
      </trkpt>
      <trkpt lat="45.01657" lon="-72.09323">
        <ele>326.5</ele>
      </trkpt>
      <trkpt lat="45.01656" lon="-72.09323">
        <ele>326.5</ele>
      </trkpt>
      <trkpt lat="45.015923" lon="-72.093656">
        <ele>325.9</ele>
      </trkpt>
      <trkpt lat="45.015286" lon="-72.094083">
        <ele>325.4</ele>
      </trkpt>
      <trkpt lat="45.01465" lon="-72.09451">
        <ele>325.1</ele>
      </trkpt>
      <trkpt lat="45.01399" lon="-72.09494">
        <ele>325.4</ele>
      </trkpt>
      <trkpt lat="45.01333" lon="-72.09537">
        <ele>326.1</ele>
      </trkpt>
      <trkpt lat="45.01267" lon="-72.0958">
        <ele>327.4</ele>
      </trkpt>
      <trkpt lat="45.01201" lon="-72.09623">
        <ele>328.8</ele>
      </trkpt>
      <trkpt lat="45.01165" lon="-72.09646">
        <ele>329.6</ele>
      </trkpt>
      <trkpt lat="45.01123" lon="-72.0967">
        <ele>329.9</ele>
      </trkpt>
      <trkpt lat="45.010785" lon="-72.096995">
        <ele>329.9</ele>
      </trkpt>
      <trkpt lat="45.01034" lon="-72.09729">
        <ele>329.7</ele>
      </trkpt>
      <trkpt lat="45.00962" lon="-72.09769">
        <ele>327</ele>
      </trkpt>
      <trkpt lat="45.008895" lon="-72.09805">
        <ele>319.5</ele>
      </trkpt>
      <trkpt lat="45.00817" lon="-72.09841">
        <ele>310</ele>
      </trkpt>
      <trkpt lat="45.00765" lon="-72.09855">
        <ele>307.8</ele>
      </trkpt>
      <trkpt lat="45.00769" lon="-72.09815">
        <ele>307.7</ele>
      </trkpt>
      <trkpt lat="45.00767" lon="-72.09782">
        <ele>307.7</ele>
      </trkpt>
      <trkpt lat="45.00763" lon="-72.09712">
        <ele>308.1</ele>
      </trkpt>
      <trkpt lat="45.00758" lon="-72.09653">
        <ele>309.1</ele>
      </trkpt>
      <trkpt lat="45.00744" lon="-72.09553">
        <ele>312.3</ele>
      </trkpt>
      <trkpt lat="45.00741" lon="-72.09495">
        <ele>314.6</ele>
      </trkpt>
      <trkpt lat="45.00744" lon="-72.09438">
        <ele>315.7</ele>
      </trkpt>
      <trkpt lat="45.00751" lon="-72.09391">
        <ele>316.5</ele>
      </trkpt>
      <trkpt lat="45.00751" lon="-72.09392">
        <ele>316.5</ele>
      </trkpt>
      <trkpt lat="45.00757" lon="-72.09361">
        <ele>316.8</ele>
      </trkpt>
      <trkpt lat="45.00787" lon="-72.09373">
        <ele>315.8</ele>
      </trkpt>
      <trkpt lat="45.00783" lon="-72.09371">
        <ele>315.9</ele>
      </trkpt>
      <trkpt lat="45.00757" lon="-72.09361">
        <ele>316.8</ele>
      </trkpt>
      <trkpt lat="45.00748" lon="-72.09408">
        <ele>316.3</ele>
      </trkpt>
      <trkpt lat="45.00744" lon="-72.09438">
        <ele>315.7</ele>
      </trkpt>
      <trkpt lat="45.00741" lon="-72.09486">
        <ele>314.7</ele>
      </trkpt>
      <trkpt lat="45.00744" lon="-72.09553">
        <ele>312.3</ele>
      </trkpt>
      <trkpt lat="45.00758" lon="-72.09653">
        <ele>309.1</ele>
      </trkpt>
      <trkpt lat="45.00763" lon="-72.09712">
        <ele>308.1</ele>
      </trkpt>
      <trkpt lat="45.00769" lon="-72.09815">
        <ele>307.7</ele>
      </trkpt>
      <trkpt lat="45.00765" lon="-72.09855">
        <ele>307.8</ele>
      </trkpt>
      <trkpt lat="45.00817" lon="-72.09841">
        <ele>310.8</ele>
      </trkpt>
      <trkpt lat="45.008895" lon="-72.09805">
        <ele>319.5</ele>
      </trkpt>
      <trkpt lat="45.00962" lon="-72.09769">
        <ele>327</ele>
      </trkpt>
      <trkpt lat="45.01002" lon="-72.09747">
        <ele>329.1</ele>
      </trkpt>
      <trkpt lat="45.01001" lon="-72.09747">
        <ele>329.1</ele>
      </trkpt>
      <trkpt lat="45.01034" lon="-72.09729">
        <ele>329.7</ele>
      </trkpt>
      <trkpt lat="45.010785" lon="-72.096995">
        <ele>329.9</ele>
      </trkpt>
      <trkpt lat="45.01123" lon="-72.0967">
        <ele>329.9</ele>
      </trkpt>
      <trkpt lat="45.01165" lon="-72.09646">
        <ele>329.6</ele>
      </trkpt>
      <trkpt lat="45.0123" lon="-72.09604">
        <ele>328.6</ele>
      </trkpt>
      <trkpt lat="45.01295" lon="-72.09562">
        <ele>326.9</ele>
      </trkpt>
      <trkpt lat="45.013516" lon="-72.09525">
        <ele>326.1</ele>
      </trkpt>
      <trkpt lat="45.014083" lon="-72.09488">
        <ele>325.2</ele>
      </trkpt>
      <trkpt lat="45.01465" lon="-72.09451">
        <ele>325.1</ele>
      </trkpt>
      <trkpt lat="45.015423" lon="-72.093993">
        <ele>325.4</ele>
      </trkpt>
      <trkpt lat="45.016196" lon="-72.093476">
        <ele>326.1</ele>
      </trkpt>
      <trkpt lat="45.01697" lon="-72.09296">
        <ele>326.6</ele>
      </trkpt>
      <trkpt lat="45.01696" lon="-72.09296">
        <ele>326.6</ele>
      </trkpt>
      <trkpt lat="45.017755" lon="-72.092435">
        <ele>326.4</ele>
      </trkpt>
      <trkpt lat="45.01855" lon="-72.09191">
        <ele>326.2</ele>
      </trkpt>
      <trkpt lat="45.019335" lon="-72.091365">
        <ele>326.9</ele>
      </trkpt>
      <trkpt lat="45.02012" lon="-72.09082">
        <ele>327.5</ele>
      </trkpt>
      <trkpt lat="45.020905" lon="-72.090275">
        <ele>328</ele>
      </trkpt>
      <trkpt lat="45.02169" lon="-72.08973">
        <ele>329.1</ele>
      </trkpt>
      <trkpt lat="45.022475" lon="-72.089185">
        <ele>329.4</ele>
      </trkpt>
      <trkpt lat="45.02326" lon="-72.08864">
        <ele>329</ele>
      </trkpt>
      <trkpt lat="45.02327" lon="-72.08834">
        <ele>328.7</ele>
      </trkpt>
      <trkpt lat="45.02327" lon="-72.08835">
        <ele>328.7</ele>
      </trkpt>
      <trkpt lat="45.0233" lon="-72.08787">
        <ele>328.6</ele>
      </trkpt>
      <trkpt lat="45.023414" lon="-72.086784">
        <ele>328.9</ele>
      </trkpt>
      <trkpt lat="45.023528" lon="-72.085698">
        <ele>329.4</ele>
      </trkpt>
      <trkpt lat="45.023642" lon="-72.084612">
        <ele>329.3</ele>
      </trkpt>
      <trkpt lat="45.023756" lon="-72.083526">
        <ele>329.1</ele>
      </trkpt>
      <trkpt lat="45.02387" lon="-72.08244">
        <ele>328.1</ele>
      </trkpt>
      <trkpt lat="45.02387" lon="-72.08245">
        <ele>328.1</ele>
      </trkpt>
      <trkpt lat="45.023966" lon="-72.08154">
        <ele>325.9</ele>
      </trkpt>
      <trkpt lat="45.024063" lon="-72.08063">
        <ele>325.2</ele>
      </trkpt>
      <trkpt lat="45.02416" lon="-72.07972">
        <ele>326.2</ele>
      </trkpt>
      <trkpt lat="45.024315" lon="-72.078675">
        <ele>327.7</ele>
      </trkpt>
      <trkpt lat="45.02447" lon="-72.07763">
        <ele>326.6</ele>
      </trkpt>
      <trkpt lat="45.02466" lon="-72.07696">
        <ele>322.9</ele>
      </trkpt>
      <trkpt lat="45.02493" lon="-72.07637">
        <ele>321.8</ele>
      </trkpt>
      <trkpt lat="45.02524" lon="-72.0758">
        <ele>321</ele>
      </trkpt>
      <trkpt lat="45.02557" lon="-72.07522">
        <ele>321.7</ele>
      </trkpt>
      <trkpt lat="45.0259" lon="-72.07464">
        <ele>321.9</ele>
      </trkpt>
      <trkpt lat="45.0263" lon="-72.07406">
        <ele>321.4</ele>
      </trkpt>
      <trkpt lat="45.02586" lon="-72.07315">
        <ele>322.9</ele>
      </trkpt>
      <trkpt lat="45.0258" lon="-72.07293">
        <ele>323.2</ele>
      </trkpt>
      <trkpt lat="45.02578" lon="-72.07272">
        <ele>323.2</ele>
      </trkpt>
      <trkpt lat="45.02582" lon="-72.07225">
        <ele>323.4</ele>
      </trkpt>
      <trkpt lat="45.026" lon="-72.07132">
        <ele>324.9</ele>
      </trkpt>
      <trkpt lat="45.026135" lon="-72.070335">
        <ele>323.8</ele>
      </trkpt>
      <trkpt lat="45.02627" lon="-72.06935">
        <ele>318.9</ele>
      </trkpt>
      <trkpt lat="45.02643" lon="-72.06872">
        <ele>316.6</ele>
      </trkpt>
      <trkpt lat="45.026575" lon="-72.067895">
        <ele>314.7</ele>
      </trkpt>
      <trkpt lat="45.02672" lon="-72.06707">
        <ele>314.8</ele>
      </trkpt>
      <trkpt lat="45.02675" lon="-72.06674">
        <ele>314.9</ele>
      </trkpt>
      <trkpt lat="45.02675" lon="-72.06675">
        <ele>314.9</ele>
      </trkpt>
      <trkpt lat="45.02687" lon="-72.06578">
        <ele>316.5</ele>
      </trkpt>
      <trkpt lat="45.0271" lon="-72.0647">
        <ele>319.2</ele>
      </trkpt>
      <trkpt lat="45.02736" lon="-72.06367">
        <ele>319.9</ele>
      </trkpt>
      <trkpt lat="45.02766" lon="-72.06256">
        <ele>320.4</ele>
      </trkpt>
      <trkpt lat="45.0268" lon="-72.06286">
        <ele>326.1</ele>
      </trkpt>
      <trkpt lat="45.02622" lon="-72.063085">
        <ele>331</ele>
      </trkpt>
      <trkpt lat="45.02564" lon="-72.06331">
        <ele>335</ele>
      </trkpt>
      <trkpt lat="45.025056" lon="-72.063503">
        <ele>337.8</ele>
      </trkpt>
      <trkpt lat="45.024473" lon="-72.063696">
        <ele>342.1</ele>
      </trkpt>
      <trkpt lat="45.02389" lon="-72.06389">
        <ele>345.3</ele>
      </trkpt>
      <trkpt lat="45.023303" lon="-72.064116">
        <ele>346.6</ele>
      </trkpt>
      <trkpt lat="45.022716" lon="-72.064343">
        <ele>347.3</ele>
      </trkpt>
      <trkpt lat="45.02213" lon="-72.06457">
        <ele>348.2</ele>
      </trkpt>
      <trkpt lat="45.02212" lon="-72.06457">
        <ele>348.2</ele>
      </trkpt>
      <trkpt lat="45.02159" lon="-72.06474">
        <ele>349.3</ele>
      </trkpt>
      <trkpt lat="45.0214" lon="-72.06478">
        <ele>350.7</ele>
      </trkpt>
      <trkpt lat="45.020819" lon="-72.064805">
        <ele>355.2</ele>
      </trkpt>
      <trkpt lat="45.02024" lon="-72.06483">
        <ele>359.1</ele>
      </trkpt>
      <trkpt lat="45.01981" lon="-72.06492">
        <ele>361.2</ele>
      </trkpt>
      <trkpt lat="45.01904" lon="-72.06519">
        <ele>367</ele>
      </trkpt>
      <trkpt lat="45.01852" lon="-72.06524">
        <ele>371.3</ele>
      </trkpt>
      <trkpt lat="45.01774" lon="-72.065396">
        <ele>376.9</ele>
      </trkpt>
      <trkpt lat="45.01696" lon="-72.065553">
        <ele>382.4</ele>
      </trkpt>
      <trkpt lat="45.01618" lon="-72.06571">
        <ele>385.8</ele>
      </trkpt>
      <trkpt lat="45.0154" lon="-72.065866">
        <ele>389.8</ele>
      </trkpt>
      <trkpt lat="45.01462" lon="-72.066023">
        <ele>391.6</ele>
      </trkpt>
      <trkpt lat="45.01384" lon="-72.06618">
        <ele>393.2</ele>
      </trkpt>
      <trkpt lat="45.01314" lon="-72.06624">
        <ele>394.5</ele>
      </trkpt>
      <trkpt lat="45.01269" lon="-72.06631">
        <ele>395.1</ele>
      </trkpt>
      <trkpt lat="45.01224" lon="-72.06639">
        <ele>395.2</ele>
      </trkpt>
      <trkpt lat="45.011486" lon="-72.066553">
        <ele>395.7</ele>
      </trkpt>
      <trkpt lat="45.010733" lon="-72.066716">
        <ele>393.9</ele>
      </trkpt>
      <trkpt lat="45.00998" lon="-72.06688">
        <ele>392.2</ele>
      </trkpt>
      <trkpt lat="45.00938" lon="-72.067046">
        <ele>391</ele>
      </trkpt>
      <trkpt lat="45.00878" lon="-72.067213">
        <ele>391.9</ele>
      </trkpt>
      <trkpt lat="45.00818" lon="-72.06738">
        <ele>395.6</ele>
      </trkpt>
      <trkpt lat="45.00794" lon="-72.06738">
        <ele>399.5</ele>
      </trkpt>
      <trkpt lat="45.00733" lon="-72.06725">
        <ele>406</ele>
      </trkpt>
      <trkpt lat="45.00712" lon="-72.0672">
        <ele>409.2</ele>
      </trkpt>
      <trkpt lat="45.00694" lon="-72.06703">
        <ele>411.6</ele>
      </trkpt>
      <trkpt lat="45.00686" lon="-72.06659">
        <ele>413.9</ele>
      </trkpt>
      <trkpt lat="45.00681" lon="-72.065709">
        <ele>419.9</ele>
      </trkpt>
      <trkpt lat="45.00676" lon="-72.06483">
        <ele>425.7</ele>
      </trkpt>
      <trkpt lat="45.006593" lon="-72.063916">
        <ele>433.4</ele>
      </trkpt>
      <trkpt lat="45.006426" lon="-72.063003">
        <ele>440.7</ele>
      </trkpt>
      <trkpt lat="45.00626" lon="-72.06209">
        <ele>441.2</ele>
      </trkpt>
      <trkpt lat="45.006235" lon="-72.061224">
        <ele>442.5</ele>
      </trkpt>
      <trkpt lat="45.00621" lon="-72.06036">
        <ele>443.9</ele>
      </trkpt>
      <trkpt lat="45.006227" lon="-72.059185">
        <ele>437.1</ele>
      </trkpt>
      <trkpt lat="45.006245" lon="-72.05801">
        <ele>430.2</ele>
      </trkpt>
      <trkpt lat="45.006262" lon="-72.056835">
        <ele>419.5</ele>
      </trkpt>
      <trkpt lat="45.00628" lon="-72.05566">
        <ele>415.3</ele>
      </trkpt>
      <trkpt lat="45.006297" lon="-72.054485">
        <ele>408.4</ele>
      </trkpt>
      <trkpt lat="45.006315" lon="-72.05331">
        <ele>405.7</ele>
      </trkpt>
      <trkpt lat="45.006332" lon="-72.052135">
        <ele>402.8</ele>
      </trkpt>
      <trkpt lat="45.00635" lon="-72.05096">
        <ele>401.4</ele>
      </trkpt>
      <trkpt lat="45.00639" lon="-72.05055">
        <ele>399.8</ele>
      </trkpt>
      <trkpt lat="45.00657" lon="-72.04997">
        <ele>396.5</ele>
      </trkpt>
      <trkpt lat="45.00696" lon="-72.048996">
        <ele>396.4</ele>
      </trkpt>
      <trkpt lat="45.00735" lon="-72.048023">
        <ele>394.9</ele>
      </trkpt>
      <trkpt lat="45.00774" lon="-72.04705">
        <ele>387.6</ele>
      </trkpt>
      <trkpt lat="45.00789" lon="-72.046135">
        <ele>382.9</ele>
      </trkpt>
      <trkpt lat="45.00804" lon="-72.04522">
        <ele>382.2</ele>
      </trkpt>
      <trkpt lat="45.00818" lon="-72.04459">
        <ele>383.3</ele>
      </trkpt>
      <trkpt lat="45.00845" lon="-72.04379">
        <ele>383</ele>
      </trkpt>
      <trkpt lat="45.0086" lon="-72.04308">
        <ele>382.5</ele>
      </trkpt>
      <trkpt lat="45.00876" lon="-72.04266">
        <ele>380</ele>
      </trkpt>
      <trkpt lat="45.00918" lon="-72.04208">
        <ele>372.7</ele>
      </trkpt>
      <trkpt lat="45.00968" lon="-72.04151">
        <ele>365.6</ele>
      </trkpt>
      <trkpt lat="45.010215" lon="-72.040975">
        <ele>362.3</ele>
      </trkpt>
      <trkpt lat="45.01075" lon="-72.04044">
        <ele>360.4</ele>
      </trkpt>
      <trkpt lat="45.01125" lon="-72.03984">
        <ele>356.9</ele>
      </trkpt>
      <trkpt lat="45.01173" lon="-72.03898">
        <ele>350.7</ele>
      </trkpt>
      <trkpt lat="45.01193" lon="-72.03841">
        <ele>348.6</ele>
      </trkpt>
      <trkpt lat="45.01214" lon="-72.03752">
        <ele>345.5</ele>
      </trkpt>
      <trkpt lat="45.01219" lon="-72.03738">
        <ele>345.5</ele>
      </trkpt>
      <trkpt lat="45.01245" lon="-72.03703">
        <ele>343.5</ele>
      </trkpt>
      <trkpt lat="45.01274" lon="-72.03667">
        <ele>342.4</ele>
      </trkpt>
      <trkpt lat="45.01302" lon="-72.03638">
        <ele>342.2</ele>
      </trkpt>
      <trkpt lat="45.01301" lon="-72.03638">
        <ele>342.2</ele>
      </trkpt>
      <trkpt lat="45.01321" lon="-72.03618">
        <ele>342.5</ele>
      </trkpt>
      <trkpt lat="45.0133" lon="-72.03613">
        <ele>342.8</ele>
      </trkpt>
      <trkpt lat="45.01358" lon="-72.03609">
        <ele>343.8</ele>
      </trkpt>
      <trkpt lat="45.014337" lon="-72.036102">
        <ele>343.9</ele>
      </trkpt>
      <trkpt lat="45.015094" lon="-72.036114">
        <ele>345.2</ele>
      </trkpt>
      <trkpt lat="45.015852" lon="-72.036127">
        <ele>345.4</ele>
      </trkpt>
      <trkpt lat="45.01661" lon="-72.03614">
        <ele>344.6</ele>
      </trkpt>
      <trkpt lat="45.017075" lon="-72.036159">
        <ele>344.3</ele>
      </trkpt>
      <trkpt lat="45.01754" lon="-72.03618">
        <ele>342.5</ele>
      </trkpt>
      <trkpt lat="45.01806" lon="-72.03627">
        <ele>338.8</ele>
      </trkpt>
      <trkpt lat="45.01877" lon="-72.03627">
        <ele>337.1</ele>
      </trkpt>
      <trkpt lat="45.019494" lon="-72.036299">
        <ele>332.2</ele>
      </trkpt>
      <trkpt lat="45.02022" lon="-72.03633">
        <ele>329.3</ele>
      </trkpt>
      <trkpt lat="45.02034" lon="-72.0363">
        <ele>328.8</ele>
      </trkpt>
      <trkpt lat="45.02045" lon="-72.03621">
        <ele>328.2</ele>
      </trkpt>
      <trkpt lat="45.02051" lon="-72.03612">
        <ele>327.5</ele>
      </trkpt>
      <trkpt lat="45.02046" lon="-72.03595">
        <ele>326.8</ele>
      </trkpt>
      <trkpt lat="45.02034" lon="-72.03503">
        <ele>325.1</ele>
      </trkpt>
      <trkpt lat="45.02032" lon="-72.03428">
        <ele>325.4</ele>
      </trkpt>
      <trkpt lat="45.02033" lon="-72.03383">
        <ele>325.8</ele>
      </trkpt>
      <trkpt lat="45.01983" lon="-72.0334">
        <ele>328.6</ele>
      </trkpt>
      <trkpt lat="45.01971" lon="-72.03322">
        <ele>330.3</ele>
      </trkpt>
      <trkpt lat="45.019353" lon="-72.032493">
        <ele>334.8</ele>
      </trkpt>
      <trkpt lat="45.018996" lon="-72.031766">
        <ele>337.5</ele>
      </trkpt>
      <trkpt lat="45.01864" lon="-72.03104">
        <ele>338.9</ele>
      </trkpt>
      <trkpt lat="45.018345" lon="-72.030199">
        <ele>339.2</ele>
      </trkpt>
      <trkpt lat="45.01805" lon="-72.02936">
        <ele>340.4</ele>
      </trkpt>
      <trkpt lat="45.0177" lon="-72.028539">
        <ele>344.2</ele>
      </trkpt>
      <trkpt lat="45.01735" lon="-72.02772">
        <ele>346.6</ele>
      </trkpt>
      <trkpt lat="45.01704" lon="-72.02683">
        <ele>349.3</ele>
      </trkpt>
      <trkpt lat="45.01692" lon="-72.02634">
        <ele>350.8</ele>
      </trkpt>
      <trkpt lat="45.01671" lon="-72.02539">
        <ele>354.3</ele>
      </trkpt>
      <trkpt lat="45.01663" lon="-72.02515">
        <ele>355.6</ele>
      </trkpt>
      <trkpt lat="45.01654" lon="-72.02498">
        <ele>356.3</ele>
      </trkpt>
      <trkpt lat="45.01656" lon="-72.02489">
        <ele>356.3</ele>
      </trkpt>
      <trkpt lat="45.01631" lon="-72.02377">
        <ele>363.5</ele>
      </trkpt>
      <trkpt lat="45.01626" lon="-72.02328">
        <ele>366.1</ele>
      </trkpt>
      <trkpt lat="45.01623" lon="-72.02257">
        <ele>368.5</ele>
      </trkpt>
      <trkpt lat="45.01624" lon="-72.02181">
        <ele>370</ele>
      </trkpt>
      <trkpt lat="45.01627" lon="-72.02154">
        <ele>370.2</ele>
      </trkpt>
      <trkpt lat="45.0164" lon="-72.02118">
        <ele>370.7</ele>
      </trkpt>
      <trkpt lat="45.01651" lon="-72.02099">
        <ele>370.9</ele>
      </trkpt>
      <trkpt lat="45.01699" lon="-72.02042">
        <ele>371.5</ele>
      </trkpt>
      <trkpt lat="45.01742" lon="-72.01975">
        <ele>373</ele>
      </trkpt>
      <trkpt lat="45.01762" lon="-72.01952">
        <ele>373.6</ele>
      </trkpt>
      <trkpt lat="45.01782" lon="-72.01944">
        <ele>375.2</ele>
      </trkpt>
      <trkpt lat="45.018354" lon="-72.019435">
        <ele>376</ele>
      </trkpt>
      <trkpt lat="45.01889" lon="-72.01943">
        <ele>377</ele>
      </trkpt>
      <trkpt lat="45.019354" lon="-72.019365">
        <ele>378</ele>
      </trkpt>
      <trkpt lat="45.01982" lon="-72.0193">
        <ele>380.2</ele>
      </trkpt>
      <trkpt lat="45.02057" lon="-72.01921">
        <ele>380.6</ele>
      </trkpt>
      <trkpt lat="45.02071" lon="-72.01925">
        <ele>380.6</ele>
      </trkpt>
      <trkpt lat="45.02094" lon="-72.01948">
        <ele>380.7</ele>
      </trkpt>
      <trkpt lat="45.02128" lon="-72.019899">
        <ele>381.8</ele>
      </trkpt>
      <trkpt lat="45.02162" lon="-72.02032">
        <ele>382.2</ele>
      </trkpt>
      <trkpt lat="45.02215" lon="-72.021124">
        <ele>380.2</ele>
      </trkpt>
      <trkpt lat="45.02268" lon="-72.02193">
        <ele>378.4</ele>
      </trkpt>
      <trkpt lat="45.02275" lon="-72.02201">
        <ele>378.1</ele>
      </trkpt>
      <trkpt lat="45.02289" lon="-72.02216">
        <ele>377.3</ele>
      </trkpt>
      <trkpt lat="45.02309" lon="-72.02234">
        <ele>376.8</ele>
      </trkpt>
      <trkpt lat="45.02357" lon="-72.02252">
        <ele>376.8</ele>
      </trkpt>
      <trkpt lat="45.02411" lon="-72.022829">
        <ele>377.7</ele>
      </trkpt>
      <trkpt lat="45.02465" lon="-72.02314">
        <ele>380.3</ele>
      </trkpt>
      <trkpt lat="45.02497" lon="-72.022495">
        <ele>381.4</ele>
      </trkpt>
      <trkpt lat="45.02529" lon="-72.02185">
        <ele>383.1</ele>
      </trkpt>
      <trkpt lat="45.025815" lon="-72.021132">
        <ele>387.1</ele>
      </trkpt>
      <trkpt lat="45.02634" lon="-72.020415">
        <ele>390.1</ele>
      </trkpt>
      <trkpt lat="45.026865" lon="-72.019697">
        <ele>391.7</ele>
      </trkpt>
      <trkpt lat="45.02739" lon="-72.01898">
        <ele>394</ele>
      </trkpt>
      <trkpt lat="45.02756" lon="-72.01881">
        <ele>394</ele>
      </trkpt>
      <trkpt lat="45.02756" lon="-72.01882">
        <ele>393.9</ele>
      </trkpt>
      <trkpt lat="45.02806" lon="-72.01835">
        <ele>394.8</ele>
      </trkpt>
      <trkpt lat="45.02818" lon="-72.01791">
        <ele>394.5</ele>
      </trkpt>
      <trkpt lat="45.02822" lon="-72.01763">
        <ele>394.4</ele>
      </trkpt>
      <trkpt lat="45.02821" lon="-72.016829">
        <ele>394</ele>
      </trkpt>
      <trkpt lat="45.0282" lon="-72.01603">
        <ele>394.2</ele>
      </trkpt>
      <trkpt lat="45.02824" lon="-72.015095">
        <ele>393.9</ele>
      </trkpt>
      <trkpt lat="45.02828" lon="-72.01416">
        <ele>391.7</ele>
      </trkpt>
      <trkpt lat="45.02838" lon="-72.01371">
        <ele>389.6</ele>
      </trkpt>
      <trkpt lat="45.02853" lon="-72.01334">
        <ele>387</ele>
      </trkpt>
      <trkpt lat="45.02888" lon="-72.01276">
        <ele>380.1</ele>
      </trkpt>
      <trkpt lat="45.02907" lon="-72.01241">
        <ele>377.8</ele>
      </trkpt>
      <trkpt lat="45.02925" lon="-72.0118">
        <ele>377.2</ele>
      </trkpt>
      <trkpt lat="45.02943" lon="-72.01119">
        <ele>380.3</ele>
      </trkpt>
      <trkpt lat="45.02952" lon="-72.01077">
        <ele>383.4</ele>
      </trkpt>
      <trkpt lat="45.02952" lon="-72.01078">
        <ele>383.4</ele>
      </trkpt>
      <trkpt lat="45.02958" lon="-72.01021">
        <ele>385</ele>
      </trkpt>
      <trkpt lat="45.02954" lon="-72.009329">
        <ele>385.8</ele>
      </trkpt>
      <trkpt lat="45.0295" lon="-72.008449">
        <ele>385.6</ele>
      </trkpt>
      <trkpt lat="45.02946" lon="-72.00757">
        <ele>385.7</ele>
      </trkpt>
      <trkpt lat="45.02952" lon="-72.00699">
        <ele>387.3</ele>
      </trkpt>
      <trkpt lat="45.02984" lon="-72.00582">
        <ele>390</ele>
      </trkpt>
      <trkpt lat="45.02991" lon="-72.00516">
        <ele>393.2</ele>
      </trkpt>
      <trkpt lat="45.02995" lon="-72.00452">
        <ele>394.8</ele>
      </trkpt>
      <trkpt lat="45.02994" lon="-72.00393">
        <ele>396.7</ele>
      </trkpt>
      <trkpt lat="45.02987" lon="-72.00291">
        <ele>397.2</ele>
      </trkpt>
      <trkpt lat="45.029905" lon="-72.002085">
        <ele>397.3</ele>
      </trkpt>
      <trkpt lat="45.02994" lon="-72.00126">
        <ele>398.9</ele>
      </trkpt>
      <trkpt lat="45.02936" lon="-72.001465">
        <ele>397.3</ele>
      </trkpt>
      <trkpt lat="45.02878" lon="-72.00167">
        <ele>396.2</ele>
      </trkpt>
      <trkpt lat="45.027926" lon="-72.00192">
        <ele>392.9</ele>
      </trkpt>
      <trkpt lat="45.027073" lon="-72.00217">
        <ele>390.5</ele>
      </trkpt>
      <trkpt lat="45.02622" lon="-72.00242">
        <ele>387.7</ele>
      </trkpt>
      <trkpt lat="45.02584" lon="-72.00242">
        <ele>385</ele>
      </trkpt>
      <trkpt lat="45.02564" lon="-72.00242">
        <ele>383.5</ele>
      </trkpt>
      <trkpt lat="45.0251" lon="-72.00228">
        <ele>382.5</ele>
      </trkpt>
      <trkpt lat="45.02473" lon="-72.00224">
        <ele>385.5</ele>
      </trkpt>
      <trkpt lat="45.024139" lon="-72.002104">
        <ele>387.8</ele>
      </trkpt>
      <trkpt lat="45.02355" lon="-72.00197">
        <ele>388.3</ele>
      </trkpt>
      <trkpt lat="45.02336" lon="-72.00188">
        <ele>388.4</ele>
      </trkpt>
      <trkpt lat="45.02305" lon="-72.00166">
        <ele>388.6</ele>
      </trkpt>
      <trkpt lat="45.02283" lon="-72.0014">
        <ele>389.1</ele>
      </trkpt>
      <trkpt lat="45.02254" lon="-72.00094">
        <ele>391.1</ele>
      </trkpt>
      <trkpt lat="45.02209" lon="-72.0001">
        <ele>393.4</ele>
      </trkpt>
      <trkpt lat="45.021617" lon="-71.999269">
        <ele>396</ele>
      </trkpt>
      <trkpt lat="45.021145" lon="-71.998439">
        <ele>396.4</ele>
      </trkpt>
      <trkpt lat="45.020672" lon="-71.997609">
        <ele>397.5</ele>
      </trkpt>
      <trkpt lat="45.0202" lon="-71.99678">
        <ele>398.7</ele>
      </trkpt>
      <trkpt lat="45.0198" lon="-71.996089">
        <ele>400.9</ele>
      </trkpt>
      <trkpt lat="45.0194" lon="-71.9954">
        <ele>402.7</ele>
      </trkpt>
      <trkpt lat="45.01896" lon="-71.99459">
        <ele>402.9</ele>
      </trkpt>
      <trkpt lat="45.01873" lon="-71.99404">
        <ele>401.5</ele>
      </trkpt>
      <trkpt lat="45.01843" lon="-71.99315">
        <ele>398.8</ele>
      </trkpt>
      <trkpt lat="45.018245" lon="-71.992459">
        <ele>395.3</ele>
      </trkpt>
      <trkpt lat="45.01806" lon="-71.99177">
        <ele>392.5</ele>
      </trkpt>
      <trkpt lat="45.01783" lon="-71.99078">
        <ele>392.8</ele>
      </trkpt>
      <trkpt lat="45.01777" lon="-71.9902">
        <ele>396.2</ele>
      </trkpt>
      <trkpt lat="45.01777" lon="-71.98997">
        <ele>397.2</ele>
      </trkpt>
      <trkpt lat="45.01781" lon="-71.98974">
        <ele>398.1</ele>
      </trkpt>
      <trkpt lat="45.01805" lon="-71.98887">
        <ele>398.2</ele>
      </trkpt>
      <trkpt lat="45.01829" lon="-71.988">
        <ele>399.4</ele>
      </trkpt>
      <trkpt lat="45.01839" lon="-71.98755">
        <ele>401.8</ele>
      </trkpt>
      <trkpt lat="45.01844" lon="-71.98716">
        <ele>403</ele>
      </trkpt>
      <trkpt lat="45.01849" lon="-71.98657">
        <ele>403.4</ele>
      </trkpt>
      <trkpt lat="45.01851" lon="-71.9859">
        <ele>402.5</ele>
      </trkpt>
      <trkpt lat="45.01853" lon="-71.98523">
        <ele>401.8</ele>
      </trkpt>
      <trkpt lat="45.01854" lon="-71.984155">
        <ele>402.3</ele>
      </trkpt>
      <trkpt lat="45.01855" lon="-71.98308">
        <ele>406.7</ele>
      </trkpt>
      <trkpt lat="45.018605" lon="-71.98225">
        <ele>406.1</ele>
      </trkpt>
      <trkpt lat="45.01866" lon="-71.98142">
        <ele>408.5</ele>
      </trkpt>
      <trkpt lat="45.01877" lon="-71.98066">
        <ele>413.9</ele>
      </trkpt>
      <trkpt lat="45.0188" lon="-71.98026">
        <ele>415.1</ele>
      </trkpt>
      <trkpt lat="45.01891" lon="-71.979295">
        <ele>417.2</ele>
      </trkpt>
      <trkpt lat="45.01902" lon="-71.97833">
        <ele>417.2</ele>
      </trkpt>
      <trkpt lat="45.0191" lon="-71.97712">
        <ele>420</ele>
      </trkpt>
      <trkpt lat="45.01913" lon="-71.97668">
        <ele>418.5</ele>
      </trkpt>
      <trkpt lat="45.019145" lon="-71.975445">
        <ele>415.7</ele>
      </trkpt>
      <trkpt lat="45.01916" lon="-71.97421">
        <ele>417.1</ele>
      </trkpt>
      <trkpt lat="45.01918" lon="-71.97399">
        <ele>417.3</ele>
      </trkpt>
      <trkpt lat="45.01935" lon="-71.97284">
        <ele>415.4</ele>
      </trkpt>
      <trkpt lat="45.01952" lon="-71.97169">
        <ele>410.2</ele>
      </trkpt>
      <trkpt lat="45.01971" lon="-71.97066">
        <ele>407.7</ele>
      </trkpt>
      <trkpt lat="45.01971" lon="-71.97067">
        <ele>407.7</ele>
      </trkpt>
      <trkpt lat="45.01989" lon="-71.96955">
        <ele>410.2</ele>
      </trkpt>
      <trkpt lat="45.01995" lon="-71.96889">
        <ele>411.1</ele>
      </trkpt>
      <trkpt lat="45.01996" lon="-71.96798">
        <ele>411.6</ele>
      </trkpt>
      <trkpt lat="45.01994" lon="-71.96768">
        <ele>410.9</ele>
      </trkpt>
      <trkpt lat="45.01991" lon="-71.96749">
        <ele>410.8</ele>
      </trkpt>
      <trkpt lat="45.01965" lon="-71.96655">
        <ele>415</ele>
      </trkpt>
      <trkpt lat="45.01961" lon="-71.96629">
        <ele>418.3</ele>
      </trkpt>
      <trkpt lat="45.01958" lon="-71.96544">
        <ele>416.5</ele>
      </trkpt>
      <trkpt lat="45.01961" lon="-71.96493">
        <ele>414.3</ele>
      </trkpt>
      <trkpt lat="45.019635" lon="-71.96411">
        <ele>415.1</ele>
      </trkpt>
      <trkpt lat="45.01966" lon="-71.96329">
        <ele>418.4</ele>
      </trkpt>
      <trkpt lat="45.01965" lon="-71.962504">
        <ele>418.5</ele>
      </trkpt>
      <trkpt lat="45.01964" lon="-71.96172">
        <ele>418.9</ele>
      </trkpt>
      <trkpt lat="45.01985" lon="-71.96074">
        <ele>421.9</ele>
      </trkpt>
      <trkpt lat="45.02022" lon="-71.95984">
        <ele>427.4</ele>
      </trkpt>
      <trkpt lat="45.02065" lon="-71.95895">
        <ele>429.6</ele>
      </trkpt>
      <trkpt lat="45.02095" lon="-71.95846">
        <ele>429.7</ele>
      </trkpt>
      <trkpt lat="45.021325" lon="-71.958055">
        <ele>429.9</ele>
      </trkpt>
      <trkpt lat="45.0217" lon="-71.95765">
        <ele>430.5</ele>
      </trkpt>
      <trkpt lat="45.02224" lon="-71.95718">
        <ele>431.4</ele>
      </trkpt>
      <trkpt lat="45.02278" lon="-71.95671">
        <ele>434.2</ele>
      </trkpt>
      <trkpt lat="45.02347" lon="-71.95604">
        <ele>434.6</ele>
      </trkpt>
      <trkpt lat="45.02392" lon="-71.95572">
        <ele>433.3</ele>
      </trkpt>
      <trkpt lat="45.02452" lon="-71.95517">
        <ele>428</ele>
      </trkpt>
      <trkpt lat="45.02481" lon="-71.95487">
        <ele>424.9</ele>
      </trkpt>
      <trkpt lat="45.02522" lon="-71.9543">
        <ele>423.1</ele>
      </trkpt>
      <trkpt lat="45.02564" lon="-71.95367">
        <ele>425.9</ele>
      </trkpt>
      <trkpt lat="45.02587" lon="-71.95326">
        <ele>430.6</ele>
      </trkpt>
      <trkpt lat="45.02613" lon="-71.95267">
        <ele>435.7</ele>
      </trkpt>
      <trkpt lat="45.02637" lon="-71.95219">
        <ele>437.1</ele>
      </trkpt>
      <trkpt lat="45.026945" lon="-71.95127">
        <ele>442.2</ele>
      </trkpt>
      <trkpt lat="45.02752" lon="-71.95035">
        <ele>444.5</ele>
      </trkpt>
      <trkpt lat="45.028095" lon="-71.94943">
        <ele>447.9</ele>
      </trkpt>
      <trkpt lat="45.02867" lon="-71.94851">
        <ele>448.4</ele>
      </trkpt>
      <trkpt lat="45.029263" lon="-71.94758">
        <ele>448.6</ele>
      </trkpt>
      <trkpt lat="45.029856" lon="-71.94665">
        <ele>449.8</ele>
      </trkpt>
      <trkpt lat="45.03045" lon="-71.94572">
        <ele>450.7</ele>
      </trkpt>
      <trkpt lat="45.030835" lon="-71.945145">
        <ele>449.2</ele>
      </trkpt>
      <trkpt lat="45.03122" lon="-71.94457">
        <ele>444.8</ele>
      </trkpt>
      <trkpt lat="45.03159" lon="-71.94386">
        <ele>444.3</ele>
      </trkpt>
      <trkpt lat="45.03189" lon="-71.9431">
        <ele>448.1</ele>
      </trkpt>
      <trkpt lat="45.03215" lon="-71.94225">
        <ele>451</ele>
      </trkpt>
      <trkpt lat="45.032405" lon="-71.94151">
        <ele>451.4</ele>
      </trkpt>
      <trkpt lat="45.03266" lon="-71.94077">
        <ele>454.7</ele>
      </trkpt>
      <trkpt lat="45.03266" lon="-71.94078">
        <ele>454.7</ele>
      </trkpt>
      <trkpt lat="45.0329" lon="-71.94005">
        <ele>458.1</ele>
      </trkpt>
      <trkpt lat="45.03312" lon="-71.93955">
        <ele>459.8</ele>
      </trkpt>
      <trkpt lat="45.03356" lon="-71.938725">
        <ele>464.1</ele>
      </trkpt>
      <trkpt lat="45.034" lon="-71.9379">
        <ele>465.4</ele>
      </trkpt>
      <trkpt lat="45.034465" lon="-71.93696">
        <ele>464.6</ele>
      </trkpt>
      <trkpt lat="45.03493" lon="-71.93602">
        <ele>463.1</ele>
      </trkpt>
      <trkpt lat="45.03515" lon="-71.93545">
        <ele>462.8</ele>
      </trkpt>
      <trkpt lat="45.03532" lon="-71.93485">
        <ele>464.4</ele>
      </trkpt>
      <trkpt lat="45.03539" lon="-71.93436">
        <ele>465.5</ele>
      </trkpt>
      <trkpt lat="45.035395" lon="-71.93361">
        <ele>469.1</ele>
      </trkpt>
      <trkpt lat="45.0354" lon="-71.93286">
        <ele>474.6</ele>
      </trkpt>
      <trkpt lat="45.03586" lon="-71.93272">
        <ele>475.2</ele>
      </trkpt>
      <trkpt lat="45.03602" lon="-71.93266">
        <ele>475.6</ele>
      </trkpt>
      <trkpt lat="45.0361" lon="-71.93258">
        <ele>476.1</ele>
      </trkpt>
      <trkpt lat="45.03616" lon="-71.9325">
        <ele>476.1</ele>
      </trkpt>
      <trkpt lat="45.03621" lon="-71.93235">
        <ele>476.6</ele>
      </trkpt>
      <trkpt lat="45.03632" lon="-71.93185">
        <ele>478</ele>
      </trkpt>
      <trkpt lat="45.03635" lon="-71.93125">
        <ele>481</ele>
      </trkpt>
      <trkpt lat="45.03635" lon="-71.93126">
        <ele>481</ele>
      </trkpt>
      <trkpt lat="45.03641" lon="-71.93047">
        <ele>485.6</ele>
      </trkpt>
      <trkpt lat="45.03645" lon="-71.92926">
        <ele>488.7</ele>
      </trkpt>
      <trkpt lat="45.03656" lon="-71.92859">
        <ele>488.9</ele>
      </trkpt>
      <trkpt lat="45.03677" lon="-71.92788">
        <ele>488.3</ele>
      </trkpt>
      <trkpt lat="45.037045" lon="-71.92719">
        <ele>488.6</ele>
      </trkpt>
      <trkpt lat="45.03732" lon="-71.9265">
        <ele>490.8</ele>
      </trkpt>
      <trkpt lat="45.03752" lon="-71.92595">
        <ele>492.8</ele>
      </trkpt>
      <trkpt lat="45.03769" lon="-71.92512">
        <ele>493.7</ele>
      </trkpt>
      <trkpt lat="45.03786" lon="-71.92429">
        <ele>493.3</ele>
      </trkpt>
      <trkpt lat="45.038005" lon="-71.923305">
        <ele>494</ele>
      </trkpt>
      <trkpt lat="45.03815" lon="-71.92232">
        <ele>496.1</ele>
      </trkpt>
      <trkpt lat="45.03819" lon="-71.92174">
        <ele>496.8</ele>
      </trkpt>
      <trkpt lat="45.03818" lon="-71.92076">
        <ele>495.3</ele>
      </trkpt>
      <trkpt lat="45.03814" lon="-71.92036">
        <ele>493.7</ele>
      </trkpt>
      <trkpt lat="45.03791" lon="-71.91929">
        <ele>490.1</ele>
      </trkpt>
      <trkpt lat="45.03775" lon="-71.91861">
        <ele>487.5</ele>
      </trkpt>
      <trkpt lat="45.0375" lon="-71.91787">
        <ele>485</ele>
      </trkpt>
      <trkpt lat="45.03721" lon="-71.917119">
        <ele>482.3</ele>
      </trkpt>
      <trkpt lat="45.03692" lon="-71.91637">
        <ele>481.7</ele>
      </trkpt>
      <trkpt lat="45.03662" lon="-71.91552">
        <ele>482.5</ele>
      </trkpt>
      <trkpt lat="45.036146" lon="-71.916366">
        <ele>480</ele>
      </trkpt>
      <trkpt lat="45.035673" lon="-71.917213">
        <ele>475.8</ele>
      </trkpt>
      <trkpt lat="45.0352" lon="-71.91806">
        <ele>473</ele>
      </trkpt>
      <trkpt lat="45.0348" lon="-71.91871">
        <ele>472.8</ele>
      </trkpt>
      <trkpt lat="45.0346" lon="-71.91901">
        <ele>473</ele>
      </trkpt>
      <trkpt lat="45.03447" lon="-71.91912">
        <ele>473.2</ele>
      </trkpt>
      <trkpt lat="45.03423" lon="-71.91938">
        <ele>473.5</ele>
      </trkpt>
      <trkpt lat="45.03397" lon="-71.9196">
        <ele>474.1</ele>
      </trkpt>
      <trkpt lat="45.03375" lon="-71.91974">
        <ele>474.7</ele>
      </trkpt>
      <trkpt lat="45.03349" lon="-71.91986">
        <ele>475.3</ele>
      </trkpt>
    </trkseg>
  </trk>
</gpx>