<?xml version='1.0' encoding='utf-8'?>
<gpx xmlns="http://www.topografix.com/GPX/1/1" xmlns:xsi="http://www.w3.org/2001/XMLSchema-instance" version="1.1" creator="Gravelle Estrie" xsi:schemaLocation="http://www.topografix.com/GPX/1/1 http://www.topografix.com/GPX/1/1/gpx.xsd">
  <metadata>
    <name>Till The Sun Comes UP</name>
  </metadata>
  <trk>
    <name>Till The Sun Comes UP</name>
    <trkseg>
      <trkpt lat="45.22233" lon="-72.53256">
        <ele>202.2</ele>
      </trkpt>
      <trkpt lat="45.22235" lon="-72.533">
        <ele>202.1</ele>
      </trkpt>
      <trkpt lat="45.22231" lon="-72.53398">
        <ele>200.6</ele>
      </trkpt>
      <trkpt lat="45.222325" lon="-72.534969">
        <ele>199.8</ele>
      </trkpt>
      <trkpt lat="45.22234" lon="-72.53596">
        <ele>200.2</ele>
      </trkpt>
      <trkpt lat="45.222383" lon="-72.536913">
        <ele>205.8</ele>
      </trkpt>
      <trkpt lat="45.222426" lon="-72.537866">
        <ele>211.7</ele>
      </trkpt>
      <trkpt lat="45.22247" lon="-72.53882">
        <ele>213.4</ele>
      </trkpt>
      <trkpt lat="45.22263" lon="-72.53954">
        <ele>219.4</ele>
      </trkpt>
      <trkpt lat="45.22259" lon="-72.53973">
        <ele>219.4</ele>
      </trkpt>
      <trkpt lat="45.22259" lon="-72.53974">
        <ele>219.6</ele>
      </trkpt>
      <trkpt lat="45.22248" lon="-72.54007">
        <ele>222.9</ele>
      </trkpt>
      <trkpt lat="45.22232" lon="-72.54042">
        <ele>225.8</ele>
      </trkpt>
      <trkpt lat="45.22203" lon="-72.54096">
        <ele>230.1</ele>
      </trkpt>
      <trkpt lat="45.22193" lon="-72.5411">
        <ele>231.9</ele>
      </trkpt>
      <trkpt lat="45.22159" lon="-72.54145">
        <ele>234.5</ele>
      </trkpt>
      <trkpt lat="45.22148" lon="-72.54159">
        <ele>236.9</ele>
      </trkpt>
      <trkpt lat="45.22141" lon="-72.54174">
        <ele>238.8</ele>
      </trkpt>
      <trkpt lat="45.22136" lon="-72.54209">
        <ele>239.7</ele>
      </trkpt>
      <trkpt lat="45.22139" lon="-72.5424">
        <ele>242.6</ele>
      </trkpt>
      <trkpt lat="45.22154" lon="-72.5428">
        <ele>244.5</ele>
      </trkpt>
      <trkpt lat="45.22198" lon="-72.543529">
        <ele>248.4</ele>
      </trkpt>
      <trkpt lat="45.22242" lon="-72.54426">
        <ele>252</ele>
      </trkpt>
      <trkpt lat="45.22258" lon="-72.54459">
        <ele>254.3</ele>
      </trkpt>
      <trkpt lat="45.2226" lon="-72.54465">
        <ele>254.3</ele>
      </trkpt>
      <trkpt lat="45.222635" lon="-72.545894">
        <ele>255.5</ele>
      </trkpt>
      <trkpt lat="45.22267" lon="-72.54714">
        <ele>253</ele>
      </trkpt>
      <trkpt lat="45.222683" lon="-72.548249">
        <ele>254.9</ele>
      </trkpt>
      <trkpt lat="45.222696" lon="-72.549359">
        <ele>258.4</ele>
      </trkpt>
      <trkpt lat="45.22271" lon="-72.55047">
        <ele>264.1</ele>
      </trkpt>
      <trkpt lat="45.222755" lon="-72.551114">
        <ele>268.6</ele>
      </trkpt>
      <trkpt lat="45.2228" lon="-72.55176">
        <ele>273.4</ele>
      </trkpt>
      <trkpt lat="45.222816" lon="-72.552797">
        <ele>276.4</ele>
      </trkpt>
      <trkpt lat="45.222832" lon="-72.553835">
        <ele>277.2</ele>
      </trkpt>
      <trkpt lat="45.222848" lon="-72.554873">
        <ele>275.8</ele>
      </trkpt>
      <trkpt lat="45.222864" lon="-72.555911">
        <ele>272.2</ele>
      </trkpt>
      <trkpt lat="45.22288" lon="-72.55695">
        <ele>270.3</ele>
      </trkpt>
      <trkpt lat="45.22287" lon="-72.55762">
        <ele>268.3</ele>
      </trkpt>
      <trkpt lat="45.22282" lon="-72.55816">
        <ele>263.5</ele>
      </trkpt>
      <trkpt lat="45.22283" lon="-72.559054">
        <ele>259.4</ele>
      </trkpt>
      <trkpt lat="45.22284" lon="-72.55995">
        <ele>257.4</ele>
      </trkpt>
      <trkpt lat="45.222818" lon="-72.561061">
        <ele>259.9</ele>
      </trkpt>
      <trkpt lat="45.222796" lon="-72.562173">
        <ele>264.4</ele>
      </trkpt>
      <trkpt lat="45.222775" lon="-72.563285">
        <ele>267.7</ele>
      </trkpt>
      <trkpt lat="45.222753" lon="-72.564396">
        <ele>273.5</ele>
      </trkpt>
      <trkpt lat="45.222731" lon="-72.565508">
        <ele>283.3</ele>
      </trkpt>
      <trkpt lat="45.22271" lon="-72.56662">
        <ele>287.7</ele>
      </trkpt>
      <trkpt lat="45.222695" lon="-72.567778">
        <ele>286.9</ele>
      </trkpt>
      <trkpt lat="45.22268" lon="-72.568937">
        <ele>284</ele>
      </trkpt>
      <trkpt lat="45.222665" lon="-72.570096">
        <ele>280.3</ele>
      </trkpt>
      <trkpt lat="45.22265" lon="-72.571255">
        <ele>274.4</ele>
      </trkpt>
      <trkpt lat="45.222635" lon="-72.572413">
        <ele>267.2</ele>
      </trkpt>
      <trkpt lat="45.22262" lon="-72.573572">
        <ele>259.2</ele>
      </trkpt>
      <trkpt lat="45.222605" lon="-72.574731">
        <ele>252.9</ele>
      </trkpt>
      <trkpt lat="45.22259" lon="-72.57589">
        <ele>244.9</ele>
      </trkpt>
      <trkpt lat="45.222595" lon="-72.576669">
        <ele>237.5</ele>
      </trkpt>
      <trkpt lat="45.2226" lon="-72.57745">
        <ele>232</ele>
      </trkpt>
      <trkpt lat="45.22264" lon="-72.578675">
        <ele>226.9</ele>
      </trkpt>
      <trkpt lat="45.22268" lon="-72.579901">
        <ele>221.4</ele>
      </trkpt>
      <trkpt lat="45.22272" lon="-72.581127">
        <ele>217.6</ele>
      </trkpt>
      <trkpt lat="45.22276" lon="-72.582353">
        <ele>212.1</ele>
      </trkpt>
      <trkpt lat="45.2228" lon="-72.583579">
        <ele>207.3</ele>
      </trkpt>
      <trkpt lat="45.22284" lon="-72.584805">
        <ele>203.8</ele>
      </trkpt>
      <trkpt lat="45.22288" lon="-72.586031">
        <ele>201.4</ele>
      </trkpt>
      <trkpt lat="45.22292" lon="-72.587257">
        <ele>200.4</ele>
      </trkpt>
      <trkpt lat="45.22296" lon="-72.588483">
        <ele>201.8</ele>
      </trkpt>
      <trkpt lat="45.223" lon="-72.589709">
        <ele>205.6</ele>
      </trkpt>
      <trkpt lat="45.22304" lon="-72.590935">
        <ele>209.2</ele>
      </trkpt>
      <trkpt lat="45.22308" lon="-72.592161">
        <ele>211.8</ele>
      </trkpt>
      <trkpt lat="45.22312" lon="-72.593387">
        <ele>214.9</ele>
      </trkpt>
      <trkpt lat="45.22316" lon="-72.594613">
        <ele>217.2</ele>
      </trkpt>
      <trkpt lat="45.2232" lon="-72.59584">
        <ele>219.1</ele>
      </trkpt>
      <trkpt lat="45.22324" lon="-72.596936">
        <ele>220.1</ele>
      </trkpt>
      <trkpt lat="45.22328" lon="-72.598033">
        <ele>221.3</ele>
      </trkpt>
      <trkpt lat="45.22332" lon="-72.59913">
        <ele>221</ele>
      </trkpt>
      <trkpt lat="45.223375" lon="-72.600259">
        <ele>217.6</ele>
      </trkpt>
      <trkpt lat="45.22343" lon="-72.60139">
        <ele>212.9</ele>
      </trkpt>
      <trkpt lat="45.223488" lon="-72.602507">
        <ele>210.3</ele>
      </trkpt>
      <trkpt lat="45.223546" lon="-72.603625">
        <ele>210.4</ele>
      </trkpt>
      <trkpt lat="45.223604" lon="-72.604743">
        <ele>212.2</ele>
      </trkpt>
      <trkpt lat="45.223662" lon="-72.605861">
        <ele>215.3</ele>
      </trkpt>
      <trkpt lat="45.22372" lon="-72.60698">
        <ele>213.5</ele>
      </trkpt>
      <trkpt lat="45.223773" lon="-72.608193">
        <ele>210.5</ele>
      </trkpt>
      <trkpt lat="45.223826" lon="-72.609406">
        <ele>208.8</ele>
      </trkpt>
      <trkpt lat="45.22388" lon="-72.610619">
        <ele>209.3</ele>
      </trkpt>
      <trkpt lat="45.223933" lon="-72.611833">
        <ele>211.4</ele>
      </trkpt>
      <trkpt lat="45.223986" lon="-72.613046">
        <ele>213.9</ele>
      </trkpt>
      <trkpt lat="45.22404" lon="-72.614259">
        <ele>214.6</ele>
      </trkpt>
      <trkpt lat="45.224093" lon="-72.615473">
        <ele>216</ele>
      </trkpt>
      <trkpt lat="45.224147" lon="-72.616686">
        <ele>217.2</ele>
      </trkpt>
      <trkpt lat="45.2242" lon="-72.617899">
        <ele>214.3</ele>
      </trkpt>
      <trkpt lat="45.224253" lon="-72.619113">
        <ele>214.5</ele>
      </trkpt>
      <trkpt lat="45.224306" lon="-72.620326">
        <ele>216.6</ele>
      </trkpt>
      <trkpt lat="45.22436" lon="-72.621539">
        <ele>217</ele>
      </trkpt>
      <trkpt lat="45.224413" lon="-72.622753">
        <ele>215.3</ele>
      </trkpt>
      <trkpt lat="45.224466" lon="-72.623966">
        <ele>214.5</ele>
      </trkpt>
      <trkpt lat="45.22452" lon="-72.62518">
        <ele>214.1</ele>
      </trkpt>
      <trkpt lat="45.224555" lon="-72.626199">
        <ele>215.7</ele>
      </trkpt>
      <trkpt lat="45.22459" lon="-72.627219">
        <ele>216.9</ele>
      </trkpt>
      <trkpt lat="45.224625" lon="-72.628239">
        <ele>218.3</ele>
      </trkpt>
      <trkpt lat="45.22466" lon="-72.62926">
        <ele>219.1</ele>
      </trkpt>
      <trkpt lat="45.224705" lon="-72.630514">
        <ele>218.4</ele>
      </trkpt>
      <trkpt lat="45.22475" lon="-72.63177">
        <ele>221.3</ele>
      </trkpt>
      <trkpt lat="45.225619" lon="-72.63177">
        <ele>220.4</ele>
      </trkpt>
      <trkpt lat="45.22649" lon="-72.63177">
        <ele>223</ele>
      </trkpt>
      <trkpt lat="45.226955" lon="-72.631765">
        <ele>224.6</ele>
      </trkpt>
      <trkpt lat="45.22742" lon="-72.63176">
        <ele>228.5</ele>
      </trkpt>
      <trkpt lat="45.22771" lon="-72.63172">
        <ele>230.4</ele>
      </trkpt>
      <trkpt lat="45.22826" lon="-72.63171">
        <ele>234.2</ele>
      </trkpt>
      <trkpt lat="45.22881" lon="-72.6317">
        <ele>240</ele>
      </trkpt>
      <trkpt lat="45.2288" lon="-72.6317">
        <ele>239.8</ele>
      </trkpt>
      <trkpt lat="45.229474" lon="-72.631685">
        <ele>246</ele>
      </trkpt>
      <trkpt lat="45.23015" lon="-72.63167">
        <ele>254</ele>
      </trkpt>
      <trkpt lat="45.23027" lon="-72.63172">
        <ele>255.1</ele>
      </trkpt>
      <trkpt lat="45.23031" lon="-72.6318">
        <ele>255.5</ele>
      </trkpt>
      <trkpt lat="45.23036" lon="-72.63198">
        <ele>255.9</ele>
      </trkpt>
      <trkpt lat="45.23038" lon="-72.63258">
        <ele>255.9</ele>
      </trkpt>
      <trkpt lat="45.230375" lon="-72.633539">
        <ele>261.8</ele>
      </trkpt>
      <trkpt lat="45.23037" lon="-72.6345">
        <ele>271.4</ele>
      </trkpt>
      <trkpt lat="45.230395" lon="-72.635345">
        <ele>278.8</ele>
      </trkpt>
      <trkpt lat="45.23042" lon="-72.63619">
        <ele>283.6</ele>
      </trkpt>
      <trkpt lat="45.23043" lon="-72.63745">
        <ele>285.6</ele>
      </trkpt>
      <trkpt lat="45.23047" lon="-72.63812">
        <ele>292.1</ele>
      </trkpt>
      <trkpt lat="45.2305" lon="-72.638924">
        <ele>296.4</ele>
      </trkpt>
      <trkpt lat="45.23053" lon="-72.63973">
        <ele>298.4</ele>
      </trkpt>
      <trkpt lat="45.23052" lon="-72.64018">
        <ele>298.6</ele>
      </trkpt>
      <trkpt lat="45.23041" lon="-72.64054">
        <ele>297.9</ele>
      </trkpt>
      <trkpt lat="45.23032" lon="-72.64068">
        <ele>297.2</ele>
      </trkpt>
      <trkpt lat="45.23014" lon="-72.6412">
        <ele>292.7</ele>
      </trkpt>
      <trkpt lat="45.229915" lon="-72.64197">
        <ele>284.3</ele>
      </trkpt>
      <trkpt lat="45.22969" lon="-72.64274">
        <ele>274.8</ele>
      </trkpt>
      <trkpt lat="45.22954" lon="-72.643385">
        <ele>270.1</ele>
      </trkpt>
      <trkpt lat="45.22939" lon="-72.64403">
        <ele>264.2</ele>
      </trkpt>
      <trkpt lat="45.22906" lon="-72.64515">
        <ele>253.3</ele>
      </trkpt>
      <trkpt lat="45.22898" lon="-72.6455">
        <ele>251.6</ele>
      </trkpt>
      <trkpt lat="45.22882" lon="-72.646315">
        <ele>244.8</ele>
      </trkpt>
      <trkpt lat="45.22866" lon="-72.64713">
        <ele>240.1</ele>
      </trkpt>
      <trkpt lat="45.22863" lon="-72.64748">
        <ele>238.5</ele>
      </trkpt>
      <trkpt lat="45.228625" lon="-72.64815">
        <ele>231.4</ele>
      </trkpt>
      <trkpt lat="45.22862" lon="-72.64882">
        <ele>226.5</ele>
      </trkpt>
      <trkpt lat="45.22864" lon="-72.649917">
        <ele>223.7</ele>
      </trkpt>
      <trkpt lat="45.22866" lon="-72.651014">
        <ele>220.3</ele>
      </trkpt>
      <trkpt lat="45.22868" lon="-72.652112">
        <ele>218.2</ele>
      </trkpt>
      <trkpt lat="45.2287" lon="-72.65321">
        <ele>217.1</ele>
      </trkpt>
      <trkpt lat="45.22876" lon="-72.654259">
        <ele>216.3</ele>
      </trkpt>
      <trkpt lat="45.22882" lon="-72.65531">
        <ele>217.9</ele>
      </trkpt>
      <trkpt lat="45.22885" lon="-72.656004">
        <ele>221.2</ele>
      </trkpt>
      <trkpt lat="45.22888" lon="-72.6567">
        <ele>226</ele>
      </trkpt>
      <trkpt lat="45.22887" lon="-72.65733">
        <ele>229.3</ele>
      </trkpt>
      <trkpt lat="45.22897" lon="-72.658596">
        <ele>229.6</ele>
      </trkpt>
      <trkpt lat="45.22907" lon="-72.659863">
        <ele>228.8</ele>
      </trkpt>
      <trkpt lat="45.22917" lon="-72.66113">
        <ele>226.5</ele>
      </trkpt>
      <trkpt lat="45.22928" lon="-72.66213">
        <ele>227.5</ele>
      </trkpt>
      <trkpt lat="45.2293" lon="-72.66226">
        <ele>227.5</ele>
      </trkpt>
      <trkpt lat="45.22936" lon="-72.66238">
        <ele>227.5</ele>
      </trkpt>
      <trkpt lat="45.22943" lon="-72.66247">
        <ele>227.4</ele>
      </trkpt>
      <trkpt lat="45.22986" lon="-72.66279">
        <ele>221.9</ele>
      </trkpt>
      <trkpt lat="45.23006" lon="-72.66288">
        <ele>220.9</ele>
      </trkpt>
      <trkpt lat="45.23013" lon="-72.66296">
        <ele>219.5</ele>
      </trkpt>
      <trkpt lat="45.23021" lon="-72.66318">
        <ele>218</ele>
      </trkpt>
      <trkpt lat="45.230315" lon="-72.663969">
        <ele>214.6</ele>
      </trkpt>
      <trkpt lat="45.23042" lon="-72.66476">
        <ele>209</ele>
      </trkpt>
      <trkpt lat="45.23053" lon="-72.66579">
        <ele>203.9</ele>
      </trkpt>
      <trkpt lat="45.23052" lon="-72.66641">
        <ele>202.5</ele>
      </trkpt>
      <trkpt lat="45.23058" lon="-72.6673">
        <ele>200.6</ele>
      </trkpt>
      <trkpt lat="45.23063" lon="-72.66759">
        <ele>199.5</ele>
      </trkpt>
      <trkpt lat="45.23087" lon="-72.66854">
        <ele>199.8</ele>
      </trkpt>
      <trkpt lat="45.23102" lon="-72.66852">
        <ele>201.9</ele>
      </trkpt>
      <trkpt lat="45.23156" lon="-72.6683">
        <ele>207.3</ele>
      </trkpt>
      <trkpt lat="45.23184" lon="-72.66826">
        <ele>210.8</ele>
      </trkpt>
      <trkpt lat="45.23226" lon="-72.66825">
        <ele>208.8</ele>
      </trkpt>
      <trkpt lat="45.23249" lon="-72.6682">
        <ele>205.9</ele>
      </trkpt>
      <trkpt lat="45.23269" lon="-72.66807">
        <ele>202.8</ele>
      </trkpt>
      <trkpt lat="45.23296" lon="-72.66776">
        <ele>198</ele>
      </trkpt>
      <trkpt lat="45.23307" lon="-72.66753">
        <ele>195.8</ele>
      </trkpt>
      <trkpt lat="45.23313" lon="-72.66727">
        <ele>193.8</ele>
      </trkpt>
      <trkpt lat="45.23318" lon="-72.66718">
        <ele>193.5</ele>
      </trkpt>
      <trkpt lat="45.2335" lon="-72.66686">
        <ele>191.5</ele>
      </trkpt>
      <trkpt lat="45.23381" lon="-72.66636">
        <ele>187.8</ele>
      </trkpt>
      <trkpt lat="45.23381" lon="-72.66637">
        <ele>187.9</ele>
      </trkpt>
      <trkpt lat="45.2339" lon="-72.66624">
        <ele>186.8</ele>
      </trkpt>
      <trkpt lat="45.23407" lon="-72.66571">
        <ele>185</ele>
      </trkpt>
      <trkpt lat="45.23426" lon="-72.66529">
        <ele>183.1</ele>
      </trkpt>
      <trkpt lat="45.23431" lon="-72.66511">
        <ele>182.3</ele>
      </trkpt>
      <trkpt lat="45.23472" lon="-72.66431">
        <ele>181.7</ele>
      </trkpt>
      <trkpt lat="45.23503" lon="-72.66383">
        <ele>182.2</ele>
      </trkpt>
      <trkpt lat="45.23513" lon="-72.66379">
        <ele>182</ele>
      </trkpt>
      <trkpt lat="45.23507" lon="-72.66396">
        <ele>181.2</ele>
      </trkpt>
      <trkpt lat="45.23495" lon="-72.66445">
        <ele>177.1</ele>
      </trkpt>
      <trkpt lat="45.23487" lon="-72.66493">
        <ele>174.5</ele>
      </trkpt>
      <trkpt lat="45.23467" lon="-72.66566">
        <ele>170.6</ele>
      </trkpt>
      <trkpt lat="45.23463" lon="-72.66593">
        <ele>169.4</ele>
      </trkpt>
      <trkpt lat="45.234555" lon="-72.666805">
        <ele>163.6</ele>
      </trkpt>
      <trkpt lat="45.23448" lon="-72.66768">
        <ele>155.1</ele>
      </trkpt>
      <trkpt lat="45.23445" lon="-72.668475">
        <ele>147.3</ele>
      </trkpt>
      <trkpt lat="45.23442" lon="-72.66927">
        <ele>143.9</ele>
      </trkpt>
      <trkpt lat="45.23428" lon="-72.67035">
        <ele>138.1</ele>
      </trkpt>
      <trkpt lat="45.23415" lon="-72.67103">
        <ele>136.4</ele>
      </trkpt>
      <trkpt lat="45.23409" lon="-72.67125">
        <ele>136.4</ele>
      </trkpt>
      <trkpt lat="45.23382" lon="-72.67197">
        <ele>138.1</ele>
      </trkpt>
      <trkpt lat="45.233545" lon="-72.672505">
        <ele>141.7</ele>
      </trkpt>
      <trkpt lat="45.23327" lon="-72.67304">
        <ele>143.6</ele>
      </trkpt>
      <trkpt lat="45.23301" lon="-72.67365">
        <ele>143.8</ele>
      </trkpt>
      <trkpt lat="45.23301" lon="-72.67366">
        <ele>143.8</ele>
      </trkpt>
      <trkpt lat="45.23287" lon="-72.67416">
        <ele>141.8</ele>
      </trkpt>
      <trkpt lat="45.23274" lon="-72.67474">
        <ele>138.6</ele>
      </trkpt>
      <trkpt lat="45.232575" lon="-72.67566">
        <ele>132.3</ele>
      </trkpt>
      <trkpt lat="45.23241" lon="-72.67658">
        <ele>124.9</ele>
      </trkpt>
      <trkpt lat="45.23237" lon="-72.67698">
        <ele>121.1</ele>
      </trkpt>
      <trkpt lat="45.23213" lon="-72.67775">
        <ele>118</ele>
      </trkpt>
      <trkpt lat="45.23182" lon="-72.67863">
        <ele>117.4</ele>
      </trkpt>
      <trkpt lat="45.231536" lon="-72.679556">
        <ele>117.6</ele>
      </trkpt>
      <trkpt lat="45.231253" lon="-72.680483">
        <ele>118.5</ele>
      </trkpt>
      <trkpt lat="45.23097" lon="-72.68141">
        <ele>117.7</ele>
      </trkpt>
      <trkpt lat="45.23075" lon="-72.68239">
        <ele>118</ele>
      </trkpt>
      <trkpt lat="45.23069" lon="-72.68275">
        <ele>118.4</ele>
      </trkpt>
      <trkpt lat="45.23058" lon="-72.68303">
        <ele>118.4</ele>
      </trkpt>
      <trkpt lat="45.230135" lon="-72.683785">
        <ele>118.4</ele>
      </trkpt>
      <trkpt lat="45.22969" lon="-72.68454">
        <ele>120.4</ele>
      </trkpt>
      <trkpt lat="45.22938" lon="-72.68495">
        <ele>122.7</ele>
      </trkpt>
      <trkpt lat="45.22909" lon="-72.68521">
        <ele>123.2</ele>
      </trkpt>
      <trkpt lat="45.22874" lon="-72.68535">
        <ele>122</ele>
      </trkpt>
      <trkpt lat="45.22853" lon="-72.68549">
        <ele>121.9</ele>
      </trkpt>
      <trkpt lat="45.22842" lon="-72.68554">
        <ele>122.1</ele>
      </trkpt>
      <trkpt lat="45.22835" lon="-72.68562">
        <ele>122.4</ele>
      </trkpt>
      <trkpt lat="45.22814" lon="-72.68589">
        <ele>122.6</ele>
      </trkpt>
      <trkpt lat="45.22797" lon="-72.68615">
        <ele>121.5</ele>
      </trkpt>
      <trkpt lat="45.22777" lon="-72.68651">
        <ele>120.6</ele>
      </trkpt>
      <trkpt lat="45.22739" lon="-72.68705">
        <ele>120.2</ele>
      </trkpt>
      <trkpt lat="45.22681" lon="-72.68774">
        <ele>117.1</ele>
      </trkpt>
      <trkpt lat="45.227" lon="-72.688676">
        <ele>115.5</ele>
      </trkpt>
      <trkpt lat="45.22719" lon="-72.689613">
        <ele>113.3</ele>
      </trkpt>
      <trkpt lat="45.22738" lon="-72.69055">
        <ele>109.9</ele>
      </trkpt>
      <trkpt lat="45.22769" lon="-72.69162">
        <ele>114.9</ele>
      </trkpt>
      <trkpt lat="45.22773" lon="-72.69184">
        <ele>118.2</ele>
      </trkpt>
      <trkpt lat="45.2278" lon="-72.69293">
        <ele>123.8</ele>
      </trkpt>
      <trkpt lat="45.22787" lon="-72.694">
        <ele>126.1</ele>
      </trkpt>
      <trkpt lat="45.227946" lon="-72.694953">
        <ele>125.1</ele>
      </trkpt>
      <trkpt lat="45.228023" lon="-72.695906">
        <ele>124</ele>
      </trkpt>
      <trkpt lat="45.2281" lon="-72.69686">
        <ele>123</ele>
      </trkpt>
      <trkpt lat="45.22815" lon="-72.698064">
        <ele>124</ele>
      </trkpt>
      <trkpt lat="45.2282" lon="-72.69927">
        <ele>125.1</ele>
      </trkpt>
      <trkpt lat="45.228255" lon="-72.700039">
        <ele>127.4</ele>
      </trkpt>
      <trkpt lat="45.22831" lon="-72.70081">
        <ele>129</ele>
      </trkpt>
      <trkpt lat="45.2284" lon="-72.70175">
        <ele>132</ele>
      </trkpt>
      <trkpt lat="45.22849" lon="-72.70218">
        <ele>135.1</ele>
      </trkpt>
      <trkpt lat="45.22856" lon="-72.70232">
        <ele>135.8</ele>
      </trkpt>
      <trkpt lat="45.22874" lon="-72.70263">
        <ele>135.9</ele>
      </trkpt>
      <trkpt lat="45.22881" lon="-72.7029">
        <ele>135</ele>
      </trkpt>
      <trkpt lat="45.22886" lon="-72.703806">
        <ele>129.5</ele>
      </trkpt>
      <trkpt lat="45.22891" lon="-72.704713">
        <ele>125.8</ele>
      </trkpt>
      <trkpt lat="45.22896" lon="-72.70562">
        <ele>124.5</ele>
      </trkpt>
      <trkpt lat="45.22879" lon="-72.70563">
        <ele>123.1</ele>
      </trkpt>
      <trkpt lat="45.22839" lon="-72.70536">
        <ele>120.6</ele>
      </trkpt>
      <trkpt lat="45.22822" lon="-72.70532">
        <ele>119.1</ele>
      </trkpt>
      <trkpt lat="45.228" lon="-72.70532">
        <ele>116.6</ele>
      </trkpt>
      <trkpt lat="45.227354" lon="-72.705355">
        <ele>110.7</ele>
      </trkpt>
      <trkpt lat="45.22671" lon="-72.70539">
        <ele>107.5</ele>
      </trkpt>
      <trkpt lat="45.2267" lon="-72.70539">
        <ele>107.5</ele>
      </trkpt>
      <trkpt lat="45.226165" lon="-72.70542">
        <ele>106.2</ele>
      </trkpt>
      <trkpt lat="45.22563" lon="-72.70545">
        <ele>106.5</ele>
      </trkpt>
      <trkpt lat="45.22526" lon="-72.7055">
        <ele>107</ele>
      </trkpt>
      <trkpt lat="45.2248" lon="-72.70564">
        <ele>108</ele>
      </trkpt>
      <trkpt lat="45.22447" lon="-72.70586">
        <ele>108.9</ele>
      </trkpt>
      <trkpt lat="45.22393" lon="-72.70626">
        <ele>111.4</ele>
      </trkpt>
      <trkpt lat="45.223332" lon="-72.70677">
        <ele>116.3</ele>
      </trkpt>
      <trkpt lat="45.222735" lon="-72.70728">
        <ele>120.5</ele>
      </trkpt>
      <trkpt lat="45.222137" lon="-72.70779">
        <ele>126.1</ele>
      </trkpt>
      <trkpt lat="45.22154" lon="-72.7083">
        <ele>130.2</ele>
      </trkpt>
      <trkpt lat="45.22097" lon="-72.70874">
        <ele>132.4</ele>
      </trkpt>
      <trkpt lat="45.2204" lon="-72.70918">
        <ele>135.6</ele>
      </trkpt>
      <trkpt lat="45.219645" lon="-72.709785">
        <ele>138.2</ele>
      </trkpt>
      <trkpt lat="45.21889" lon="-72.71039">
        <ele>137.9</ele>
      </trkpt>
      <trkpt lat="45.21864" lon="-72.71066">
        <ele>137.8</ele>
      </trkpt>
      <trkpt lat="45.21863" lon="-72.71066">
        <ele>137.8</ele>
      </trkpt>
      <trkpt lat="45.21836" lon="-72.71096">
        <ele>137.5</ele>
      </trkpt>
      <trkpt lat="45.21786" lon="-72.71158">
        <ele>137</ele>
      </trkpt>
      <trkpt lat="45.21776" lon="-72.71181">
        <ele>136.5</ele>
      </trkpt>
      <trkpt lat="45.21775" lon="-72.71191">
        <ele>136.4</ele>
      </trkpt>
      <trkpt lat="45.21776" lon="-72.71209">
        <ele>136.3</ele>
      </trkpt>
      <trkpt lat="45.21783" lon="-72.71238">
        <ele>136</ele>
      </trkpt>
      <trkpt lat="45.21734" lon="-72.71263">
        <ele>136.4</ele>
      </trkpt>
      <trkpt lat="45.21695" lon="-72.71289">
        <ele>136.1</ele>
      </trkpt>
      <trkpt lat="45.21652" lon="-72.71321">
        <ele>135.5</ele>
      </trkpt>
      <trkpt lat="45.21629" lon="-72.71342">
        <ele>135.1</ele>
      </trkpt>
      <trkpt lat="45.2157" lon="-72.714045">
        <ele>132.6</ele>
      </trkpt>
      <trkpt lat="45.21511" lon="-72.71467">
        <ele>130.8</ele>
      </trkpt>
      <trkpt lat="45.21466" lon="-72.71504">
        <ele>130.6</ele>
      </trkpt>
      <trkpt lat="45.21446" lon="-72.71517">
        <ele>130.9</ele>
      </trkpt>
      <trkpt lat="45.21419" lon="-72.7153">
        <ele>131.4</ele>
      </trkpt>
      <trkpt lat="45.21371" lon="-72.71544">
        <ele>132.5</ele>
      </trkpt>
      <trkpt lat="45.2135" lon="-72.71548">
        <ele>133.3</ele>
      </trkpt>
      <trkpt lat="45.213" lon="-72.71545">
        <ele>134.1</ele>
      </trkpt>
      <trkpt lat="45.212176" lon="-72.715313">
        <ele>133.1</ele>
      </trkpt>
      <trkpt lat="45.211353" lon="-72.715176">
        <ele>132.9</ele>
      </trkpt>
      <trkpt lat="45.21053" lon="-72.71504">
        <ele>133.5</ele>
      </trkpt>
      <trkpt lat="45.20969" lon="-72.71479">
        <ele>132.7</ele>
      </trkpt>
      <trkpt lat="45.20894" lon="-72.714559">
        <ele>131.2</ele>
      </trkpt>
      <trkpt lat="45.20819" lon="-72.71433">
        <ele>130.6</ele>
      </trkpt>
      <trkpt lat="45.20792" lon="-72.7143">
        <ele>130.4</ele>
      </trkpt>
      <trkpt lat="45.20785" lon="-72.71382">
        <ele>130.3</ele>
      </trkpt>
      <trkpt lat="45.20776" lon="-72.71348">
        <ele>129.7</ele>
      </trkpt>
      <trkpt lat="45.20749" lon="-72.71271">
        <ele>125.4</ele>
      </trkpt>
      <trkpt lat="45.20739" lon="-72.71248">
        <ele>124</ele>
      </trkpt>
      <trkpt lat="45.20699" lon="-72.71174">
        <ele>121.3</ele>
      </trkpt>
      <trkpt lat="45.20679" lon="-72.71172">
        <ele>119.6</ele>
      </trkpt>
      <trkpt lat="45.20669" lon="-72.71167">
        <ele>119</ele>
      </trkpt>
      <trkpt lat="45.20658" lon="-72.71163">
        <ele>118.5</ele>
      </trkpt>
      <trkpt lat="45.20593" lon="-72.71188">
        <ele>120.4</ele>
      </trkpt>
      <trkpt lat="45.20528" lon="-72.71213">
        <ele>127.2</ele>
      </trkpt>
      <trkpt lat="45.204745" lon="-72.712225">
        <ele>130.9</ele>
      </trkpt>
      <trkpt lat="45.20421" lon="-72.71232">
        <ele>131</ele>
      </trkpt>
      <trkpt lat="45.20374" lon="-72.71243">
        <ele>127.9</ele>
      </trkpt>
      <trkpt lat="45.20356" lon="-72.7124">
        <ele>127</ele>
      </trkpt>
      <trkpt lat="45.20329" lon="-72.71234">
        <ele>122</ele>
      </trkpt>
      <trkpt lat="45.20321" lon="-72.71229">
        <ele>122</ele>
      </trkpt>
      <trkpt lat="45.20321" lon="-72.71228">
        <ele>121.9</ele>
      </trkpt>
      <trkpt lat="45.20282" lon="-72.71203">
        <ele>118</ele>
      </trkpt>
      <trkpt lat="45.20229" lon="-72.711619">
        <ele>116.1</ele>
      </trkpt>
      <trkpt lat="45.20176" lon="-72.71121">
        <ele>117</ele>
      </trkpt>
      <trkpt lat="45.20133" lon="-72.71092">
        <ele>118.5</ele>
      </trkpt>
      <trkpt lat="45.20109" lon="-72.71078">
        <ele>119.7</ele>
      </trkpt>
      <trkpt lat="45.20096" lon="-72.71064">
        <ele>119.7</ele>
      </trkpt>
      <trkpt lat="45.20083" lon="-72.71042">
        <ele>121.3</ele>
      </trkpt>
      <trkpt lat="45.20075" lon="-72.71012">
        <ele>121.8</ele>
      </trkpt>
      <trkpt lat="45.20071" lon="-72.7099">
        <ele>123</ele>
      </trkpt>
      <trkpt lat="45.20073" lon="-72.7095">
        <ele>123.9</ele>
      </trkpt>
      <trkpt lat="45.20073" lon="-72.70951">
        <ele>123.9</ele>
      </trkpt>
      <trkpt lat="45.20082" lon="-72.708805">
        <ele>125.1</ele>
      </trkpt>
      <trkpt lat="45.20091" lon="-72.7081">
        <ele>126.4</ele>
      </trkpt>
      <trkpt lat="45.20091" lon="-72.708">
        <ele>126.4</ele>
      </trkpt>
      <trkpt lat="45.20088" lon="-72.70787">
        <ele>126.6</ele>
      </trkpt>
      <trkpt lat="45.20082" lon="-72.70778">
        <ele>126.6</ele>
      </trkpt>
      <trkpt lat="45.20074" lon="-72.70773">
        <ele>126.8</ele>
      </trkpt>
      <trkpt lat="45.20045" lon="-72.70764">
        <ele>127.6</ele>
      </trkpt>
      <trkpt lat="45.200285" lon="-72.70872">
        <ele>130.5</ele>
      </trkpt>
      <trkpt lat="45.20012" lon="-72.7098">
        <ele>132.3</ele>
      </trkpt>
      <trkpt lat="45.199928" lon="-72.710838">
        <ele>133.4</ele>
      </trkpt>
      <trkpt lat="45.199736" lon="-72.711876">
        <ele>133.7</ele>
      </trkpt>
      <trkpt lat="45.199545" lon="-72.712915">
        <ele>133.7</ele>
      </trkpt>
      <trkpt lat="45.199353" lon="-72.713953">
        <ele>134.2</ele>
      </trkpt>
      <trkpt lat="45.199161" lon="-72.714991">
        <ele>135.4</ele>
      </trkpt>
      <trkpt lat="45.19897" lon="-72.71603">
        <ele>136.2</ele>
      </trkpt>
      <trkpt lat="45.19871" lon="-72.71592">
        <ele>136.2</ele>
      </trkpt>
      <trkpt lat="45.19837" lon="-72.716863">
        <ele>137.8</ele>
      </trkpt>
      <trkpt lat="45.19803" lon="-72.717806">
        <ele>139.9</ele>
      </trkpt>
      <trkpt lat="45.19769" lon="-72.71875">
        <ele>141.2</ele>
      </trkpt>
      <trkpt lat="45.19748" lon="-72.71916">
        <ele>141.6</ele>
      </trkpt>
      <trkpt lat="45.19739" lon="-72.7193">
        <ele>141.6</ele>
      </trkpt>
      <trkpt lat="45.19728" lon="-72.71943">
        <ele>142</ele>
      </trkpt>
      <trkpt lat="45.19707" lon="-72.71965">
        <ele>142</ele>
      </trkpt>
      <trkpt lat="45.196332" lon="-72.720256">
        <ele>144.2</ele>
      </trkpt>
      <trkpt lat="45.195594" lon="-72.720862">
        <ele>146</ele>
      </trkpt>
      <trkpt lat="45.194856" lon="-72.721468">
        <ele>147.7</ele>
      </trkpt>
      <trkpt lat="45.194118" lon="-72.722074">
        <ele>149.6</ele>
      </trkpt>
      <trkpt lat="45.19338" lon="-72.72268">
        <ele>149.6</ele>
      </trkpt>
      <trkpt lat="45.19277" lon="-72.72328">
        <ele>150.4</ele>
      </trkpt>
      <trkpt lat="45.19234" lon="-72.72364">
        <ele>153.6</ele>
      </trkpt>
      <trkpt lat="45.1919" lon="-72.72387">
        <ele>154.9</ele>
      </trkpt>
      <trkpt lat="45.1919" lon="-72.72388">
        <ele>154.9</ele>
      </trkpt>
      <trkpt lat="45.19176" lon="-72.72395">
        <ele>154.8</ele>
      </trkpt>
      <trkpt lat="45.19147" lon="-72.72417">
        <ele>153.9</ele>
      </trkpt>
      <trkpt lat="45.19095" lon="-72.72461">
        <ele>152.7</ele>
      </trkpt>
      <trkpt lat="45.19031" lon="-72.7252">
        <ele>152.8</ele>
      </trkpt>
      <trkpt lat="45.189775" lon="-72.725715">
        <ele>152.8</ele>
      </trkpt>
      <trkpt lat="45.18924" lon="-72.72623">
        <ele>152.7</ele>
      </trkpt>
      <trkpt lat="45.18895" lon="-72.72654">
        <ele>152.7</ele>
      </trkpt>
      <trkpt lat="45.18837" lon="-72.72726">
        <ele>152.3</ele>
      </trkpt>
      <trkpt lat="45.18779" lon="-72.72811">
        <ele>151.5</ele>
      </trkpt>
      <trkpt lat="45.18721" lon="-72.72896">
        <ele>149.3</ele>
      </trkpt>
      <trkpt lat="45.18707" lon="-72.72924">
        <ele>149.3</ele>
      </trkpt>
      <trkpt lat="45.18663" lon="-72.73022">
        <ele>149</ele>
      </trkpt>
      <trkpt lat="45.18619" lon="-72.731265">
        <ele>149.8</ele>
      </trkpt>
      <trkpt lat="45.18575" lon="-72.73231">
        <ele>151.1</ele>
      </trkpt>
      <trkpt lat="45.18526" lon="-72.733275">
        <ele>148.8</ele>
      </trkpt>
      <trkpt lat="45.18477" lon="-72.73424">
        <ele>145.7</ele>
      </trkpt>
      <trkpt lat="45.184423" lon="-72.735046">
        <ele>140.7</ele>
      </trkpt>
      <trkpt lat="45.184076" lon="-72.735853">
        <ele>136.1</ele>
      </trkpt>
      <trkpt lat="45.18373" lon="-72.73666">
        <ele>132.6</ele>
      </trkpt>
      <trkpt lat="45.18344" lon="-72.73722">
        <ele>132.4</ele>
      </trkpt>
      <trkpt lat="45.18315" lon="-72.73778">
        <ele>134.2</ele>
      </trkpt>
      <trkpt lat="45.18303" lon="-72.738">
        <ele>135.4</ele>
      </trkpt>
      <trkpt lat="45.18267" lon="-72.73854">
        <ele>137.1</ele>
      </trkpt>
      <trkpt lat="45.18243" lon="-72.73881">
        <ele>137.7</ele>
      </trkpt>
      <trkpt lat="45.181925" lon="-72.739345">
        <ele>138</ele>
      </trkpt>
      <trkpt lat="45.18142" lon="-72.73988">
        <ele>137.6</ele>
      </trkpt>
      <trkpt lat="45.18118" lon="-72.74023">
        <ele>136.2</ele>
      </trkpt>
      <trkpt lat="45.18107" lon="-72.74042">
        <ele>135.4</ele>
      </trkpt>
      <trkpt lat="45.18094" lon="-72.74074">
        <ele>135</ele>
      </trkpt>
      <trkpt lat="45.1806" lon="-72.74141">
        <ele>136</ele>
      </trkpt>
      <trkpt lat="45.180126" lon="-72.74241">
        <ele>137.1</ele>
      </trkpt>
      <trkpt lat="45.179653" lon="-72.74341">
        <ele>142.3</ele>
      </trkpt>
      <trkpt lat="45.17918" lon="-72.74441">
        <ele>148.5</ele>
      </trkpt>
      <trkpt lat="45.178706" lon="-72.74541">
        <ele>149.6</ele>
      </trkpt>
      <trkpt lat="45.178233" lon="-72.74641">
        <ele>150.1</ele>
      </trkpt>
      <trkpt lat="45.17776" lon="-72.74741">
        <ele>154.6</ele>
      </trkpt>
      <trkpt lat="45.17728" lon="-72.74839">
        <ele>151.8</ele>
      </trkpt>
      <trkpt lat="45.17684" lon="-72.74906">
        <ele>147.1</ele>
      </trkpt>
      <trkpt lat="45.17683" lon="-72.74906">
        <ele>147.1</ele>
      </trkpt>
      <trkpt lat="45.176403" lon="-72.749686">
        <ele>144.9</ele>
      </trkpt>
      <trkpt lat="45.175976" lon="-72.750313">
        <ele>141.8</ele>
      </trkpt>
      <trkpt lat="45.17555" lon="-72.75094">
        <ele>140</ele>
      </trkpt>
      <trkpt lat="45.17515" lon="-72.751435">
        <ele>139.3</ele>
      </trkpt>
      <trkpt lat="45.17475" lon="-72.75193">
        <ele>139.2</ele>
      </trkpt>
      <trkpt lat="45.17408" lon="-72.75243">
        <ele>140.3</ele>
      </trkpt>
      <trkpt lat="45.17353" lon="-72.75277">
        <ele>141.7</ele>
      </trkpt>
      <trkpt lat="45.1731" lon="-72.75304">
        <ele>142.6</ele>
      </trkpt>
      <trkpt lat="45.17267" lon="-72.75331">
        <ele>143.3</ele>
      </trkpt>
      <trkpt lat="45.17198" lon="-72.7538">
        <ele>146.1</ele>
      </trkpt>
      <trkpt lat="45.17136" lon="-72.75431">
        <ele>149</ele>
      </trkpt>
      <trkpt lat="45.17081" lon="-72.7548">
        <ele>151.1</ele>
      </trkpt>
      <trkpt lat="45.17041" lon="-72.755195">
        <ele>152.6</ele>
      </trkpt>
      <trkpt lat="45.17001" lon="-72.75559">
        <ele>153.4</ele>
      </trkpt>
      <trkpt lat="45.16949" lon="-72.75613">
        <ele>154.5</ele>
      </trkpt>
      <trkpt lat="45.16885" lon="-72.75689">
        <ele>154.7</ele>
      </trkpt>
      <trkpt lat="45.1684" lon="-72.757485">
        <ele>154.6</ele>
      </trkpt>
      <trkpt lat="45.16795" lon="-72.75808">
        <ele>154.6</ele>
      </trkpt>
      <trkpt lat="45.16794" lon="-72.75808">
        <ele>154.6</ele>
      </trkpt>
      <trkpt lat="45.167383" lon="-72.75884">
        <ele>154.6</ele>
      </trkpt>
      <trkpt lat="45.166826" lon="-72.7596">
        <ele>154.5</ele>
      </trkpt>
      <trkpt lat="45.16627" lon="-72.76036">
        <ele>154.7</ele>
      </trkpt>
      <trkpt lat="45.165713" lon="-72.76112">
        <ele>155.8</ele>
      </trkpt>
      <trkpt lat="45.165156" lon="-72.76188">
        <ele>156.8</ele>
      </trkpt>
      <trkpt lat="45.1646" lon="-72.76264">
        <ele>158.1</ele>
      </trkpt>
      <trkpt lat="45.163985" lon="-72.763505">
        <ele>161.5</ele>
      </trkpt>
      <trkpt lat="45.16337" lon="-72.76437">
        <ele>167.5</ele>
      </trkpt>
      <trkpt lat="45.16304" lon="-72.76487">
        <ele>165.8</ele>
      </trkpt>
      <trkpt lat="45.16279" lon="-72.76526">
        <ele>163.8</ele>
      </trkpt>
      <trkpt lat="45.162316" lon="-72.766091">
        <ele>162.6</ele>
      </trkpt>
      <trkpt lat="45.161843" lon="-72.766923">
        <ele>161.8</ele>
      </trkpt>
      <trkpt lat="45.16137" lon="-72.767755">
        <ele>163.7</ele>
      </trkpt>
      <trkpt lat="45.160896" lon="-72.768586">
        <ele>165.8</ele>
      </trkpt>
      <trkpt lat="45.160423" lon="-72.769418">
        <ele>167.8</ele>
      </trkpt>
      <trkpt lat="45.15995" lon="-72.77025">
        <ele>170.1</ele>
      </trkpt>
      <trkpt lat="45.15941" lon="-72.77116">
        <ele>168.8</ele>
      </trkpt>
      <trkpt lat="45.15887" lon="-72.77207">
        <ele>162.4</ele>
      </trkpt>
      <trkpt lat="45.158393" lon="-72.772803">
        <ele>158.2</ele>
      </trkpt>
      <trkpt lat="45.157916" lon="-72.773536">
        <ele>156.7</ele>
      </trkpt>
      <trkpt lat="45.15744" lon="-72.77427">
        <ele>159.5</ele>
      </trkpt>
      <trkpt lat="45.15708" lon="-72.77504">
        <ele>161.4</ele>
      </trkpt>
      <trkpt lat="45.157" lon="-72.77531">
        <ele>160.6</ele>
      </trkpt>
      <trkpt lat="45.15672" lon="-72.77642">
        <ele>154.4</ele>
      </trkpt>
      <trkpt lat="45.15664" lon="-72.77664">
        <ele>149.6</ele>
      </trkpt>
      <trkpt lat="45.15619" lon="-72.77763">
        <ele>143.7</ele>
      </trkpt>
      <trkpt lat="45.15576" lon="-72.77874">
        <ele>141</ele>
      </trkpt>
      <trkpt lat="45.15563" lon="-72.77924">
        <ele>140.7</ele>
      </trkpt>
      <trkpt lat="45.15552" lon="-72.77977">
        <ele>140.7</ele>
      </trkpt>
      <trkpt lat="45.15543" lon="-72.78039">
        <ele>140.9</ele>
      </trkpt>
      <trkpt lat="45.15543" lon="-72.78057">
        <ele>141</ele>
      </trkpt>
      <trkpt lat="45.15547" lon="-72.78089">
        <ele>140.8</ele>
      </trkpt>
      <trkpt lat="45.15558" lon="-72.78113">
        <ele>140.8</ele>
      </trkpt>
      <trkpt lat="45.15616" lon="-72.7821">
        <ele>141</ele>
      </trkpt>
      <trkpt lat="45.15655" lon="-72.78265">
        <ele>141.6</ele>
      </trkpt>
      <trkpt lat="45.15674" lon="-72.78296">
        <ele>142</ele>
      </trkpt>
      <trkpt lat="45.15692" lon="-72.78339">
        <ele>141.9</ele>
      </trkpt>
      <trkpt lat="45.15699" lon="-72.78359">
        <ele>141.9</ele>
      </trkpt>
      <trkpt lat="45.15704" lon="-72.78384">
        <ele>141.8</ele>
      </trkpt>
      <trkpt lat="45.15705" lon="-72.784">
        <ele>141.5</ele>
      </trkpt>
      <trkpt lat="45.15708" lon="-72.78425">
        <ele>141.1</ele>
      </trkpt>
      <trkpt lat="45.15708" lon="-72.785331">
        <ele>139.8</ele>
      </trkpt>
      <trkpt lat="45.15708" lon="-72.786413">
        <ele>138.8</ele>
      </trkpt>
      <trkpt lat="45.15708" lon="-72.787495">
        <ele>138.5</ele>
      </trkpt>
      <trkpt lat="45.15708" lon="-72.788577">
        <ele>137.3</ele>
      </trkpt>
      <trkpt lat="45.15708" lon="-72.78966">
        <ele>136.5</ele>
      </trkpt>
      <trkpt lat="45.1564" lon="-72.790153">
        <ele>137.5</ele>
      </trkpt>
      <trkpt lat="45.15572" lon="-72.790646">
        <ele>137.6</ele>
      </trkpt>
      <trkpt lat="45.15504" lon="-72.79114">
        <ele>137.2</ele>
      </trkpt>
      <trkpt lat="45.154382" lon="-72.791596">
        <ele>136.6</ele>
      </trkpt>
      <trkpt lat="45.153724" lon="-72.792052">
        <ele>135.9</ele>
      </trkpt>
      <trkpt lat="45.153066" lon="-72.792508">
        <ele>135.5</ele>
      </trkpt>
      <trkpt lat="45.152408" lon="-72.792964">
        <ele>134.4</ele>
      </trkpt>
      <trkpt lat="45.15175" lon="-72.79342">
        <ele>133.6</ele>
      </trkpt>
      <trkpt lat="45.15128" lon="-72.79379">
        <ele>133.2</ele>
      </trkpt>
      <trkpt lat="45.15076" lon="-72.794263">
        <ele>132.9</ele>
      </trkpt>
      <trkpt lat="45.15024" lon="-72.794736">
        <ele>132.9</ele>
      </trkpt>
      <trkpt lat="45.14972" lon="-72.79521">
        <ele>133.5</ele>
      </trkpt>
      <trkpt lat="45.14913" lon="-72.79564">
        <ele>134</ele>
      </trkpt>
      <trkpt lat="45.14844" lon="-72.796083">
        <ele>134.6</ele>
      </trkpt>
      <trkpt lat="45.14775" lon="-72.796526">
        <ele>133.6</ele>
      </trkpt>
      <trkpt lat="45.14706" lon="-72.79697">
        <ele>133.4</ele>
      </trkpt>
      <trkpt lat="45.146427" lon="-72.797355">
        <ele>134.1</ele>
      </trkpt>
      <trkpt lat="45.145795" lon="-72.79774">
        <ele>136.7</ele>
      </trkpt>
      <trkpt lat="45.145162" lon="-72.798125">
        <ele>138.8</ele>
      </trkpt>
      <trkpt lat="45.14453" lon="-72.79851">
        <ele>139.5</ele>
      </trkpt>
      <trkpt lat="45.14452" lon="-72.79851">
        <ele>139.5</ele>
      </trkpt>
      <trkpt lat="45.143885" lon="-72.798905">
        <ele>138.9</ele>
      </trkpt>
      <trkpt lat="45.14325" lon="-72.7993">
        <ele>136.9</ele>
      </trkpt>
      <trkpt lat="45.14276" lon="-72.79958">
        <ele>135.8</ele>
      </trkpt>
      <trkpt lat="45.14227" lon="-72.79986">
        <ele>134.9</ele>
      </trkpt>
      <trkpt lat="45.141775" lon="-72.800065">
        <ele>134.3</ele>
      </trkpt>
      <trkpt lat="45.14128" lon="-72.80027">
        <ele>134.5</ele>
      </trkpt>
      <trkpt lat="45.14048" lon="-72.80042">
        <ele>135.2</ele>
      </trkpt>
      <trkpt lat="45.14007" lon="-72.80046">
        <ele>135.7</ele>
      </trkpt>
      <trkpt lat="45.139185" lon="-72.80048">
        <ele>136.5</ele>
      </trkpt>
      <trkpt lat="45.138301" lon="-72.8005">
        <ele>138.8</ele>
      </trkpt>
      <trkpt lat="45.137417" lon="-72.80052">
        <ele>140.3</ele>
      </trkpt>
      <trkpt lat="45.136533" lon="-72.80054">
        <ele>142.7</ele>
      </trkpt>
      <trkpt lat="45.13565" lon="-72.80056">
        <ele>144.8</ele>
      </trkpt>
      <trkpt lat="45.134842" lon="-72.800567">
        <ele>146.1</ele>
      </trkpt>
      <trkpt lat="45.134035" lon="-72.800575">
        <ele>148.2</ele>
      </trkpt>
      <trkpt lat="45.133227" lon="-72.800582">
        <ele>150.8</ele>
      </trkpt>
      <trkpt lat="45.13242" lon="-72.80059">
        <ele>153.5</ele>
      </trkpt>
      <trkpt lat="45.1317" lon="-72.800626">
        <ele>154.7</ele>
      </trkpt>
      <trkpt lat="45.13098" lon="-72.800663">
        <ele>155.5</ele>
      </trkpt>
      <trkpt lat="45.13026" lon="-72.8007">
        <ele>156.5</ele>
      </trkpt>
      <trkpt lat="45.12938" lon="-72.80072">
        <ele>156.3</ele>
      </trkpt>
      <trkpt lat="45.12974" lon="-72.80071">
        <ele>156.5</ele>
      </trkpt>
      <trkpt lat="45.12938" lon="-72.80072">
        <ele>156.3</ele>
      </trkpt>
      <trkpt lat="45.12938" lon="-72.79961">
        <ele>158</ele>
      </trkpt>
      <trkpt lat="45.12938" lon="-72.7985">
        <ele>159.4</ele>
      </trkpt>
      <trkpt lat="45.129391" lon="-72.797345">
        <ele>160.5</ele>
      </trkpt>
      <trkpt lat="45.129403" lon="-72.79619">
        <ele>163.5</ele>
      </trkpt>
      <trkpt lat="45.129415" lon="-72.795035">
        <ele>166</ele>
      </trkpt>
      <trkpt lat="45.129426" lon="-72.79388">
        <ele>167.9</ele>
      </trkpt>
      <trkpt lat="45.129438" lon="-72.792725">
        <ele>169.1</ele>
      </trkpt>
      <trkpt lat="45.12945" lon="-72.79157">
        <ele>170.2</ele>
      </trkpt>
      <trkpt lat="45.129453" lon="-72.79043">
        <ele>171.2</ele>
      </trkpt>
      <trkpt lat="45.129456" lon="-72.78929">
        <ele>174.6</ele>
      </trkpt>
      <trkpt lat="45.12946" lon="-72.78815">
        <ele>179.8</ele>
      </trkpt>
      <trkpt lat="45.12944" lon="-72.78779">
        <ele>181.5</ele>
      </trkpt>
      <trkpt lat="45.12927" lon="-72.786782">
        <ele>184.3</ele>
      </trkpt>
      <trkpt lat="45.1291" lon="-72.785774">
        <ele>187.2</ele>
      </trkpt>
      <trkpt lat="45.12893" lon="-72.784767">
        <ele>190.1</ele>
      </trkpt>
      <trkpt lat="45.12876" lon="-72.78376">
        <ele>192.4</ele>
      </trkpt>
      <trkpt lat="45.1287" lon="-72.78353">
        <ele>193.4</ele>
      </trkpt>
      <trkpt lat="45.12863" lon="-72.78335">
        <ele>193.6</ele>
      </trkpt>
      <trkpt lat="45.129431" lon="-72.783266">
        <ele>194</ele>
      </trkpt>
      <trkpt lat="45.130232" lon="-72.783183">
        <ele>193.6</ele>
      </trkpt>
      <trkpt lat="45.131033" lon="-72.7831">
        <ele>192.8</ele>
      </trkpt>
      <trkpt lat="45.131834" lon="-72.783016">
        <ele>192.2</ele>
      </trkpt>
      <trkpt lat="45.132635" lon="-72.782933">
        <ele>191.8</ele>
      </trkpt>
      <trkpt lat="45.133436" lon="-72.78285">
        <ele>192.8</ele>
      </trkpt>
      <trkpt lat="45.134237" lon="-72.782766">
        <ele>192.4</ele>
      </trkpt>
      <trkpt lat="45.135038" lon="-72.782683">
        <ele>192.8</ele>
      </trkpt>
      <trkpt lat="45.13584" lon="-72.7826">
        <ele>191.3</ele>
      </trkpt>
      <trkpt lat="45.13573" lon="-72.7826">
        <ele>190.8</ele>
      </trkpt>
      <trkpt lat="45.13574" lon="-72.781743">
        <ele>193.4</ele>
      </trkpt>
      <trkpt lat="45.13575" lon="-72.780886">
        <ele>195.5</ele>
      </trkpt>
      <trkpt lat="45.13576" lon="-72.78003">
        <ele>198.5</ele>
      </trkpt>
      <trkpt lat="45.135755" lon="-72.77876">
        <ele>195.6</ele>
      </trkpt>
      <trkpt lat="45.13575" lon="-72.777491">
        <ele>190.7</ele>
      </trkpt>
      <trkpt lat="45.135745" lon="-72.776222">
        <ele>186.9</ele>
      </trkpt>
      <trkpt lat="45.13574" lon="-72.774952">
        <ele>183.2</ele>
      </trkpt>
      <trkpt lat="45.135735" lon="-72.773683">
        <ele>180.6</ele>
      </trkpt>
      <trkpt lat="45.13573" lon="-72.772414">
        <ele>175.8</ele>
      </trkpt>
      <trkpt lat="45.135725" lon="-72.771144">
        <ele>175.3</ele>
      </trkpt>
      <trkpt lat="45.13572" lon="-72.769875">
        <ele>180.3</ele>
      </trkpt>
      <trkpt lat="45.135715" lon="-72.768606">
        <ele>181.9</ele>
      </trkpt>
      <trkpt lat="45.13571" lon="-72.767337">
        <ele>183.4</ele>
      </trkpt>
      <trkpt lat="45.135705" lon="-72.766067">
        <ele>188</ele>
      </trkpt>
      <trkpt lat="45.1357" lon="-72.764798">
        <ele>193.6</ele>
      </trkpt>
      <trkpt lat="45.135695" lon="-72.763529">
        <ele>195.9</ele>
      </trkpt>
      <trkpt lat="45.13569" lon="-72.76226">
        <ele>194.4</ele>
      </trkpt>
      <trkpt lat="45.13575" lon="-72.7615">
        <ele>193.5</ele>
      </trkpt>
      <trkpt lat="45.13579" lon="-72.76119">
        <ele>193.5</ele>
      </trkpt>
      <trkpt lat="45.13592" lon="-72.76092">
        <ele>193.6</ele>
      </trkpt>
      <trkpt lat="45.13608" lon="-72.76061">
        <ele>193.5</ele>
      </trkpt>
      <trkpt lat="45.13637" lon="-72.76016">
        <ele>192.8</ele>
      </trkpt>
      <trkpt lat="45.13692" lon="-72.759515">
        <ele>190</ele>
      </trkpt>
      <trkpt lat="45.13747" lon="-72.75887">
        <ele>186.4</ele>
      </trkpt>
      <trkpt lat="45.13767" lon="-72.75859">
        <ele>185.8</ele>
      </trkpt>
      <trkpt lat="45.13788" lon="-72.75819">
        <ele>185</ele>
      </trkpt>
      <trkpt lat="45.13809" lon="-72.75773">
        <ele>183.7</ele>
      </trkpt>
      <trkpt lat="45.13809" lon="-72.75774">
        <ele>183.7</ele>
      </trkpt>
      <trkpt lat="45.1384" lon="-72.75707">
        <ele>180.8</ele>
      </trkpt>
      <trkpt lat="45.138695" lon="-72.756335">
        <ele>178.2</ele>
      </trkpt>
      <trkpt lat="45.13899" lon="-72.7556">
        <ele>177.8</ele>
      </trkpt>
      <trkpt lat="45.13941" lon="-72.75471">
        <ele>179.7</ele>
      </trkpt>
      <trkpt lat="45.139855" lon="-72.75385">
        <ele>183.7</ele>
      </trkpt>
      <trkpt lat="45.1403" lon="-72.75299">
        <ele>189.9</ele>
      </trkpt>
      <trkpt lat="45.14051" lon="-72.7527">
        <ele>191.9</ele>
      </trkpt>
      <trkpt lat="45.141095" lon="-72.75211">
        <ele>193.5</ele>
      </trkpt>
      <trkpt lat="45.14168" lon="-72.75152">
        <ele>194.6</ele>
      </trkpt>
      <trkpt lat="45.14213" lon="-72.751005">
        <ele>195</ele>
      </trkpt>
      <trkpt lat="45.14258" lon="-72.75049">
        <ele>195.1</ele>
      </trkpt>
      <trkpt lat="45.14289" lon="-72.75009">
        <ele>194.2</ele>
      </trkpt>
      <trkpt lat="45.14341" lon="-72.7492">
        <ele>194</ele>
      </trkpt>
      <trkpt lat="45.14371" lon="-72.74866">
        <ele>196</ele>
      </trkpt>
      <trkpt lat="45.14401" lon="-72.74812">
        <ele>197.3</ele>
      </trkpt>
      <trkpt lat="45.14452" lon="-72.747115">
        <ele>199</ele>
      </trkpt>
      <trkpt lat="45.14503" lon="-72.74611">
        <ele>196.9</ele>
      </trkpt>
      <trkpt lat="45.14551" lon="-72.74504">
        <ele>195.7</ele>
      </trkpt>
      <trkpt lat="45.145876" lon="-72.744096">
        <ele>193.6</ele>
      </trkpt>
      <trkpt lat="45.146243" lon="-72.743153">
        <ele>194.8</ele>
      </trkpt>
      <trkpt lat="45.14661" lon="-72.74221">
        <ele>196.7</ele>
      </trkpt>
      <trkpt lat="45.146976" lon="-72.741266">
        <ele>201.4</ele>
      </trkpt>
      <trkpt lat="45.147343" lon="-72.740323">
        <ele>202.8</ele>
      </trkpt>
      <trkpt lat="45.14771" lon="-72.73938">
        <ele>202.6</ele>
      </trkpt>
      <trkpt lat="45.14786" lon="-72.7388">
        <ele>203.3</ele>
      </trkpt>
      <trkpt lat="45.14792" lon="-72.73815">
        <ele>205.1</ele>
      </trkpt>
      <trkpt lat="45.147967" lon="-72.737152">
        <ele>207.9</ele>
      </trkpt>
      <trkpt lat="45.148015" lon="-72.736155">
        <ele>209.3</ele>
      </trkpt>
      <trkpt lat="45.148062" lon="-72.735157">
        <ele>210.8</ele>
      </trkpt>
      <trkpt lat="45.14811" lon="-72.73416">
        <ele>212.8</ele>
      </trkpt>
      <trkpt lat="45.14815" lon="-72.733102">
        <ele>214.5</ele>
      </trkpt>
      <trkpt lat="45.14819" lon="-72.732045">
        <ele>215.7</ele>
      </trkpt>
      <trkpt lat="45.14823" lon="-72.730987">
        <ele>217.6</ele>
      </trkpt>
      <trkpt lat="45.14827" lon="-72.72993">
        <ele>221.3</ele>
      </trkpt>
      <trkpt lat="45.14827" lon="-72.72994">
        <ele>221.3</ele>
      </trkpt>
      <trkpt lat="45.14832" lon="-72.7288">
        <ele>223.4</ele>
      </trkpt>
      <trkpt lat="45.14837" lon="-72.72766">
        <ele>225.4</ele>
      </trkpt>
      <trkpt lat="45.14836" lon="-72.72713">
        <ele>227.6</ele>
      </trkpt>
      <trkpt lat="45.14828" lon="-72.72631">
        <ele>231.3</ele>
      </trkpt>
      <trkpt lat="45.14819" lon="-72.72561">
        <ele>234.1</ele>
      </trkpt>
      <trkpt lat="45.148087" lon="-72.724515">
        <ele>233.7</ele>
      </trkpt>
      <trkpt lat="45.147984" lon="-72.723421">
        <ele>230</ele>
      </trkpt>
      <trkpt lat="45.147881" lon="-72.722327">
        <ele>226.2</ele>
      </trkpt>
      <trkpt lat="45.147778" lon="-72.721232">
        <ele>225</ele>
      </trkpt>
      <trkpt lat="45.147675" lon="-72.720138">
        <ele>224.4</ele>
      </trkpt>
      <trkpt lat="45.147572" lon="-72.719044">
        <ele>225.5</ele>
      </trkpt>
      <trkpt lat="45.14747" lon="-72.71795">
        <ele>227.9</ele>
      </trkpt>
      <trkpt lat="45.14754" lon="-72.71785">
        <ele>227.5</ele>
      </trkpt>
      <trkpt lat="45.14754" lon="-72.71786">
        <ele>227.5</ele>
      </trkpt>
      <trkpt lat="45.14815" lon="-72.71717">
        <ele>222.8</ele>
      </trkpt>
      <trkpt lat="45.14876" lon="-72.71648">
        <ele>218.5</ele>
      </trkpt>
      <trkpt lat="45.14937" lon="-72.71579">
        <ele>214.8</ele>
      </trkpt>
      <trkpt lat="45.149886" lon="-72.715253">
        <ele>211.6</ele>
      </trkpt>
      <trkpt lat="45.150403" lon="-72.714716">
        <ele>208.4</ele>
      </trkpt>
      <trkpt lat="45.15092" lon="-72.71418">
        <ele>205.7</ele>
      </trkpt>
      <trkpt lat="45.15151" lon="-72.71354">
        <ele>201.9</ele>
      </trkpt>
      <trkpt lat="45.1521" lon="-72.7129">
        <ele>199.4</ele>
      </trkpt>
      <trkpt lat="45.15269" lon="-72.71226">
        <ele>195.4</ele>
      </trkpt>
      <trkpt lat="45.153123" lon="-72.711673">
        <ele>192.3</ele>
      </trkpt>
      <trkpt lat="45.153556" lon="-72.711086">
        <ele>190.1</ele>
      </trkpt>
      <trkpt lat="45.15399" lon="-72.7105">
        <ele>187.7</ele>
      </trkpt>
      <trkpt lat="45.15455" lon="-72.709786">
        <ele>182.7</ele>
      </trkpt>
      <trkpt lat="45.15511" lon="-72.709073">
        <ele>180.3</ele>
      </trkpt>
      <trkpt lat="45.15567" lon="-72.70836">
        <ele>178.9</ele>
      </trkpt>
      <trkpt lat="45.15602" lon="-72.70797">
        <ele>179.4</ele>
      </trkpt>
      <trkpt lat="45.15639" lon="-72.70769">
        <ele>181.3</ele>
      </trkpt>
      <trkpt lat="45.15663" lon="-72.70756">
        <ele>182.8</ele>
      </trkpt>
      <trkpt lat="45.15703" lon="-72.70739">
        <ele>187.5</ele>
      </trkpt>
      <trkpt lat="45.157699" lon="-72.70734">
        <ele>188.1</ele>
      </trkpt>
      <trkpt lat="45.15837" lon="-72.70729">
        <ele>188.7</ele>
      </trkpt>
      <trkpt lat="45.159044" lon="-72.707265">
        <ele>188</ele>
      </trkpt>
      <trkpt lat="45.15972" lon="-72.70724">
        <ele>186.7</ele>
      </trkpt>
      <trkpt lat="45.16003" lon="-72.7072">
        <ele>185.5</ele>
      </trkpt>
      <trkpt lat="45.16026" lon="-72.70716">
        <ele>185.3</ele>
      </trkpt>
      <trkpt lat="45.16051" lon="-72.70707">
        <ele>185.6</ele>
      </trkpt>
      <trkpt lat="45.16073" lon="-72.70689">
        <ele>185.9</ele>
      </trkpt>
      <trkpt lat="45.16111" lon="-72.70622">
        <ele>187.5</ele>
      </trkpt>
      <trkpt lat="45.16151" lon="-72.705258">
        <ele>190.3</ele>
      </trkpt>
      <trkpt lat="45.16191" lon="-72.704297">
        <ele>194</ele>
      </trkpt>
      <trkpt lat="45.16231" lon="-72.703335">
        <ele>196.2</ele>
      </trkpt>
      <trkpt lat="45.16271" lon="-72.702374">
        <ele>197.7</ele>
      </trkpt>
      <trkpt lat="45.16311" lon="-72.701412">
        <ele>198.8</ele>
      </trkpt>
      <trkpt lat="45.16351" lon="-72.700451">
        <ele>198</ele>
      </trkpt>
      <trkpt lat="45.16391" lon="-72.69949">
        <ele>197.3</ele>
      </trkpt>
      <trkpt lat="45.16409" lon="-72.6991">
        <ele>197.3</ele>
      </trkpt>
      <trkpt lat="45.16434" lon="-72.69883">
        <ele>197.1</ele>
      </trkpt>
      <trkpt lat="45.1645" lon="-72.69874">
        <ele>197</ele>
      </trkpt>
      <trkpt lat="45.16481" lon="-72.69865">
        <ele>196.8</ele>
      </trkpt>
      <trkpt lat="45.16526" lon="-72.698605">
        <ele>197</ele>
      </trkpt>
      <trkpt lat="45.16571" lon="-72.69856">
        <ele>196.7</ele>
      </trkpt>
      <trkpt lat="45.16626" lon="-72.69854">
        <ele>195.4</ele>
      </trkpt>
      <trkpt lat="45.16681" lon="-72.69852">
        <ele>192.8</ele>
      </trkpt>
      <trkpt lat="45.167279" lon="-72.698485">
        <ele>189.3</ele>
      </trkpt>
      <trkpt lat="45.16775" lon="-72.69845">
        <ele>186.2</ele>
      </trkpt>
      <trkpt lat="45.168205" lon="-72.698395">
        <ele>181.1</ele>
      </trkpt>
      <trkpt lat="45.16866" lon="-72.69834">
        <ele>176.4</ele>
      </trkpt>
      <trkpt lat="45.16945" lon="-72.69816">
        <ele>171.4</ele>
      </trkpt>
      <trkpt lat="45.16975" lon="-72.69807">
        <ele>169.7</ele>
      </trkpt>
      <trkpt lat="45.1703" lon="-72.69784">
        <ele>165.9</ele>
      </trkpt>
      <trkpt lat="45.17061" lon="-72.69766">
        <ele>164.3</ele>
      </trkpt>
      <trkpt lat="45.17117" lon="-72.69731">
        <ele>161.1</ele>
      </trkpt>
      <trkpt lat="45.1714" lon="-72.69712">
        <ele>160.3</ele>
      </trkpt>
      <trkpt lat="45.17194" lon="-72.69657">
        <ele>157.2</ele>
      </trkpt>
      <trkpt lat="45.17248" lon="-72.69602">
        <ele>155.8</ele>
      </trkpt>
      <trkpt lat="45.172985" lon="-72.695475">
        <ele>151.7</ele>
      </trkpt>
      <trkpt lat="45.17349" lon="-72.69493">
        <ele>149.5</ele>
      </trkpt>
      <trkpt lat="45.174105" lon="-72.694215">
        <ele>148.9</ele>
      </trkpt>
      <trkpt lat="45.17472" lon="-72.6935">
        <ele>148.3</ele>
      </trkpt>
      <trkpt lat="45.17494" lon="-72.69328">
        <ele>147.6</ele>
      </trkpt>
      <trkpt lat="45.17493" lon="-72.69328">
        <ele>147.6</ele>
      </trkpt>
      <trkpt lat="45.17548" lon="-72.69277">
        <ele>144.4</ele>
      </trkpt>
      <trkpt lat="45.17603" lon="-72.69226">
        <ele>141.8</ele>
      </trkpt>
      <trkpt lat="45.17658" lon="-72.69175">
        <ele>140.7</ele>
      </trkpt>
      <trkpt lat="45.17618" lon="-72.69117">
        <ele>142.6</ele>
      </trkpt>
      <trkpt lat="45.175535" lon="-72.690349">
        <ele>143.2</ele>
      </trkpt>
      <trkpt lat="45.17489" lon="-72.68953">
        <ele>143.6</ele>
      </trkpt>
      <trkpt lat="45.17484" lon="-72.68929">
        <ele>143.2</ele>
      </trkpt>
      <trkpt lat="45.17476" lon="-72.688189">
        <ele>141.9</ele>
      </trkpt>
      <trkpt lat="45.17468" lon="-72.68709">
        <ele>139.7</ele>
      </trkpt>
      <trkpt lat="45.174575" lon="-72.685974">
        <ele>138.3</ele>
      </trkpt>
      <trkpt lat="45.17447" lon="-72.68486">
        <ele>137.3</ele>
      </trkpt>
      <trkpt lat="45.17441" lon="-72.683779">
        <ele>136.8</ele>
      </trkpt>
      <trkpt lat="45.17435" lon="-72.6827">
        <ele>135.6</ele>
      </trkpt>
      <trkpt lat="45.17427" lon="-72.681969">
        <ele>134.3</ele>
      </trkpt>
      <trkpt lat="45.17419" lon="-72.68124">
        <ele>133.5</ele>
      </trkpt>
      <trkpt lat="45.17403" lon="-72.6802">
        <ele>133.3</ele>
      </trkpt>
      <trkpt lat="45.17394" lon="-72.67923">
        <ele>135.1</ele>
      </trkpt>
      <trkpt lat="45.17389" lon="-72.678183">
        <ele>140.3</ele>
      </trkpt>
      <trkpt lat="45.17384" lon="-72.677136">
        <ele>137</ele>
      </trkpt>
      <trkpt lat="45.17379" lon="-72.67609">
        <ele>134.7</ele>
      </trkpt>
      <trkpt lat="45.17371" lon="-72.67541">
        <ele>136</ele>
      </trkpt>
      <trkpt lat="45.17365" lon="-72.674484">
        <ele>138.3</ele>
      </trkpt>
      <trkpt lat="45.17359" lon="-72.67356">
        <ele>140.1</ele>
      </trkpt>
      <trkpt lat="45.173517" lon="-72.672434">
        <ele>140.3</ele>
      </trkpt>
      <trkpt lat="45.173445" lon="-72.671309">
        <ele>142.1</ele>
      </trkpt>
      <trkpt lat="45.173372" lon="-72.670184">
        <ele>145.8</ele>
      </trkpt>
      <trkpt lat="45.1733" lon="-72.66906">
        <ele>148.2</ele>
      </trkpt>
      <trkpt lat="45.17328" lon="-72.668074">
        <ele>148.7</ele>
      </trkpt>
      <trkpt lat="45.17326" lon="-72.66709">
        <ele>148.9</ele>
      </trkpt>
      <trkpt lat="45.17329" lon="-72.66683">
        <ele>148.5</ele>
      </trkpt>
      <trkpt lat="45.17335" lon="-72.66665">
        <ele>147.7</ele>
      </trkpt>
      <trkpt lat="45.173802" lon="-72.665897">
        <ele>143.4</ele>
      </trkpt>
      <trkpt lat="45.174255" lon="-72.665145">
        <ele>140.9</ele>
      </trkpt>
      <trkpt lat="45.174707" lon="-72.664392">
        <ele>136.5</ele>
      </trkpt>
      <trkpt lat="45.17516" lon="-72.66364">
        <ele>129.6</ele>
      </trkpt>
      <trkpt lat="45.17571" lon="-72.66278">
        <ele>127.1</ele>
      </trkpt>
      <trkpt lat="45.17605" lon="-72.66212">
        <ele>128</ele>
      </trkpt>
      <trkpt lat="45.17607" lon="-72.66136">
        <ele>129.2</ele>
      </trkpt>
      <trkpt lat="45.17601" lon="-72.6601">
        <ele>129.8</ele>
      </trkpt>
      <trkpt lat="45.17591" lon="-72.65947">
        <ele>130.6</ele>
      </trkpt>
      <trkpt lat="45.17572" lon="-72.65904">
        <ele>131.6</ele>
      </trkpt>
      <trkpt lat="45.17535" lon="-72.65845">
        <ele>132.2</ele>
      </trkpt>
      <trkpt lat="45.17519" lon="-72.65814">
        <ele>132.8</ele>
      </trkpt>
      <trkpt lat="45.17507" lon="-72.65768">
        <ele>131.7</ele>
      </trkpt>
      <trkpt lat="45.17486" lon="-72.65726">
        <ele>131.1</ele>
      </trkpt>
      <trkpt lat="45.17457" lon="-72.65687">
        <ele>132.2</ele>
      </trkpt>
      <trkpt lat="45.17392" lon="-72.65613">
        <ele>140.1</ele>
      </trkpt>
      <trkpt lat="45.17345" lon="-72.65567">
        <ele>142.6</ele>
      </trkpt>
      <trkpt lat="45.17303" lon="-72.65523">
        <ele>144.5</ele>
      </trkpt>
      <trkpt lat="45.17258" lon="-72.65468">
        <ele>146.9</ele>
      </trkpt>
      <trkpt lat="45.17246" lon="-72.65451">
        <ele>148.1</ele>
      </trkpt>
      <trkpt lat="45.17231" lon="-72.65424">
        <ele>148.1</ele>
      </trkpt>
      <trkpt lat="45.17216" lon="-72.65392">
        <ele>149.5</ele>
      </trkpt>
      <trkpt lat="45.17181" lon="-72.65303">
        <ele>154.3</ele>
      </trkpt>
      <trkpt lat="45.17154" lon="-72.65223">
        <ele>158.9</ele>
      </trkpt>
      <trkpt lat="45.17144" lon="-72.65201">
        <ele>159.6</ele>
      </trkpt>
      <trkpt lat="45.1713" lon="-72.65177">
        <ele>160.7</ele>
      </trkpt>
      <trkpt lat="45.17105" lon="-72.65142">
        <ele>161.9</ele>
      </trkpt>
      <trkpt lat="45.17068" lon="-72.65101">
        <ele>162.8</ele>
      </trkpt>
      <trkpt lat="45.17014" lon="-72.65057">
        <ele>164</ele>
      </trkpt>
      <trkpt lat="45.16954" lon="-72.64999">
        <ele>169</ele>
      </trkpt>
      <trkpt lat="45.1692" lon="-72.64963">
        <ele>172</ele>
      </trkpt>
      <trkpt lat="45.16883" lon="-72.64917">
        <ele>173.3</ele>
      </trkpt>
      <trkpt lat="45.16893" lon="-72.64795">
        <ele>170.6</ele>
      </trkpt>
      <trkpt lat="45.16903" lon="-72.64673">
        <ele>170.4</ele>
      </trkpt>
      <trkpt lat="45.16903" lon="-72.64674">
        <ele>170.4</ele>
      </trkpt>
      <trkpt lat="45.169126" lon="-72.64558">
        <ele>171.4</ele>
      </trkpt>
      <trkpt lat="45.169223" lon="-72.64442">
        <ele>173.4</ele>
      </trkpt>
      <trkpt lat="45.16932" lon="-72.64326">
        <ele>175.8</ele>
      </trkpt>
      <trkpt lat="45.16935" lon="-72.6426">
        <ele>176.8</ele>
      </trkpt>
      <trkpt lat="45.16934" lon="-72.64206">
        <ele>178.8</ele>
      </trkpt>
      <trkpt lat="45.169293" lon="-72.641149">
        <ele>183.1</ele>
      </trkpt>
      <trkpt lat="45.169246" lon="-72.640239">
        <ele>188.1</ele>
      </trkpt>
      <trkpt lat="45.1692" lon="-72.63933">
        <ele>191.7</ele>
      </trkpt>
      <trkpt lat="45.1692" lon="-72.63905">
        <ele>191.2</ele>
      </trkpt>
      <trkpt lat="45.16922" lon="-72.63884">
        <ele>190.8</ele>
      </trkpt>
      <trkpt lat="45.16935" lon="-72.63821">
        <ele>188.7</ele>
      </trkpt>
      <trkpt lat="45.169614" lon="-72.637147">
        <ele>184.2</ele>
      </trkpt>
      <trkpt lat="45.169878" lon="-72.636084">
        <ele>181.9</ele>
      </trkpt>
      <trkpt lat="45.170142" lon="-72.635021">
        <ele>179.3</ele>
      </trkpt>
      <trkpt lat="45.170407" lon="-72.633958">
        <ele>177.8</ele>
      </trkpt>
      <trkpt lat="45.170671" lon="-72.632895">
        <ele>171.8</ele>
      </trkpt>
      <trkpt lat="45.170935" lon="-72.631832">
        <ele>164.7</ele>
      </trkpt>
      <trkpt lat="45.1712" lon="-72.63077">
        <ele>161.4</ele>
      </trkpt>
      <trkpt lat="45.17147" lon="-72.629615">
        <ele>160.6</ele>
      </trkpt>
      <trkpt lat="45.17174" lon="-72.62846">
        <ele>161.9</ele>
      </trkpt>
      <trkpt lat="45.17196" lon="-72.627715">
        <ele>164.7</ele>
      </trkpt>
      <trkpt lat="45.17218" lon="-72.62697">
        <ele>163.7</ele>
      </trkpt>
      <trkpt lat="45.172445" lon="-72.626205">
        <ele>158.6</ele>
      </trkpt>
      <trkpt lat="45.17271" lon="-72.62544">
        <ele>150.1</ele>
      </trkpt>
      <trkpt lat="45.173135" lon="-72.624445">
        <ele>149.2</ele>
      </trkpt>
      <trkpt lat="45.17356" lon="-72.62345">
        <ele>152.1</ele>
      </trkpt>
      <trkpt lat="45.17398" lon="-72.62262">
        <ele>153</ele>
      </trkpt>
      <trkpt lat="45.17455" lon="-72.62169">
        <ele>150.5</ele>
      </trkpt>
      <trkpt lat="45.17469" lon="-72.62133">
        <ele>149</ele>
      </trkpt>
      <trkpt lat="45.17469" lon="-72.62115">
        <ele>148.2</ele>
      </trkpt>
      <trkpt lat="45.17465" lon="-72.62093">
        <ele>147.8</ele>
      </trkpt>
      <trkpt lat="45.174396" lon="-72.620079">
        <ele>146.4</ele>
      </trkpt>
      <trkpt lat="45.174143" lon="-72.619229">
        <ele>146.9</ele>
      </trkpt>
      <trkpt lat="45.17389" lon="-72.61838">
        <ele>149.9</ele>
      </trkpt>
      <trkpt lat="45.173545" lon="-72.617484">
        <ele>149.8</ele>
      </trkpt>
      <trkpt lat="45.1732" lon="-72.61659">
        <ele>151.1</ele>
      </trkpt>
      <trkpt lat="45.17296" lon="-72.615954">
        <ele>150.3</ele>
      </trkpt>
      <trkpt lat="45.17272" lon="-72.61532">
        <ele>151.1</ele>
      </trkpt>
      <trkpt lat="45.172465" lon="-72.614609">
        <ele>155.3</ele>
      </trkpt>
      <trkpt lat="45.17221" lon="-72.6139">
        <ele>156.8</ele>
      </trkpt>
      <trkpt lat="45.17186" lon="-72.61323">
        <ele>155.5</ele>
      </trkpt>
      <trkpt lat="45.1723" lon="-72.613519">
        <ele>153.8</ele>
      </trkpt>
      <trkpt lat="45.17274" lon="-72.61381">
        <ele>146.8</ele>
      </trkpt>
      <trkpt lat="45.17319" lon="-72.61404">
        <ele>143.4</ele>
      </trkpt>
      <trkpt lat="45.17328" lon="-72.61413">
        <ele>143</ele>
      </trkpt>
      <trkpt lat="45.17346" lon="-72.61426">
        <ele>142.9</ele>
      </trkpt>
      <trkpt lat="45.17354" lon="-72.6143">
        <ele>143</ele>
      </trkpt>
      <trkpt lat="45.17421" lon="-72.614286">
        <ele>146.7</ele>
      </trkpt>
      <trkpt lat="45.17488" lon="-72.614273">
        <ele>154.9</ele>
      </trkpt>
      <trkpt lat="45.17555" lon="-72.61426">
        <ele>160</ele>
      </trkpt>
      <trkpt lat="45.17581" lon="-72.61435">
        <ele>162.2</ele>
      </trkpt>
      <trkpt lat="45.17656" lon="-72.614869">
        <ele>165.5</ele>
      </trkpt>
      <trkpt lat="45.17731" lon="-72.615389">
        <ele>170</ele>
      </trkpt>
      <trkpt lat="45.17806" lon="-72.61591">
        <ele>175.2</ele>
      </trkpt>
      <trkpt lat="45.17831" lon="-72.61605">
        <ele>175.9</ele>
      </trkpt>
      <trkpt lat="45.17877" lon="-72.61623">
        <ele>180</ele>
      </trkpt>
      <trkpt lat="45.179295" lon="-72.616359">
        <ele>181.7</ele>
      </trkpt>
      <trkpt lat="45.17982" lon="-72.61649">
        <ele>181.5</ele>
      </trkpt>
      <trkpt lat="45.18041" lon="-72.61669">
        <ele>178.6</ele>
      </trkpt>
      <trkpt lat="45.18061" lon="-72.61676">
        <ele>177.9</ele>
      </trkpt>
      <trkpt lat="45.18084" lon="-72.61676">
        <ele>175.7</ele>
      </trkpt>
      <trkpt lat="45.181345" lon="-72.616695">
        <ele>171.4</ele>
      </trkpt>
      <trkpt lat="45.18185" lon="-72.61663">
        <ele>162.8</ele>
      </trkpt>
      <trkpt lat="45.18216" lon="-72.61663">
        <ele>159</ele>
      </trkpt>
      <trkpt lat="45.18268" lon="-72.61667">
        <ele>156.8</ele>
      </trkpt>
      <trkpt lat="45.18305" lon="-72.61659">
        <ele>156.1</ele>
      </trkpt>
      <trkpt lat="45.182817" lon="-72.615579">
        <ele>160.1</ele>
      </trkpt>
      <trkpt lat="45.182585" lon="-72.614569">
        <ele>165.2</ele>
      </trkpt>
      <trkpt lat="45.182352" lon="-72.613559">
        <ele>167.2</ele>
      </trkpt>
      <trkpt lat="45.18212" lon="-72.61255">
        <ele>172.8</ele>
      </trkpt>
      <trkpt lat="45.18202" lon="-72.61161">
        <ele>181.1</ele>
      </trkpt>
      <trkpt lat="45.181975" lon="-72.610914">
        <ele>187.9</ele>
      </trkpt>
      <trkpt lat="45.18193" lon="-72.61022">
        <ele>192.3</ele>
      </trkpt>
      <trkpt lat="45.181895" lon="-72.609479">
        <ele>195.1</ele>
      </trkpt>
      <trkpt lat="45.18186" lon="-72.60874">
        <ele>195.5</ele>
      </trkpt>
      <trkpt lat="45.18182" lon="-72.6083">
        <ele>195.3</ele>
      </trkpt>
      <trkpt lat="45.181665" lon="-72.607179">
        <ele>193.6</ele>
      </trkpt>
      <trkpt lat="45.18151" lon="-72.60606">
        <ele>194.9</ele>
      </trkpt>
      <trkpt lat="45.18141" lon="-72.60557">
        <ele>197.3</ele>
      </trkpt>
      <trkpt lat="45.18133" lon="-72.60526">
        <ele>197.8</ele>
      </trkpt>
      <trkpt lat="45.18121" lon="-72.60499">
        <ele>198</ele>
      </trkpt>
      <trkpt lat="45.18075" lon="-72.60415">
        <ele>198.5</ele>
      </trkpt>
      <trkpt lat="45.180465" lon="-72.603554">
        <ele>198</ele>
      </trkpt>
      <trkpt lat="45.18018" lon="-72.60296">
        <ele>197.6</ele>
      </trkpt>
      <trkpt lat="45.18014" lon="-72.60285">
        <ele>197.5</ele>
      </trkpt>
      <trkpt lat="45.17991" lon="-72.60217">
        <ele>195.9</ele>
      </trkpt>
      <trkpt lat="45.17981" lon="-72.60194">
        <ele>195.3</ele>
      </trkpt>
      <trkpt lat="45.17953" lon="-72.60145">
        <ele>193</ele>
      </trkpt>
      <trkpt lat="45.1794" lon="-72.60115">
        <ele>192.7</ele>
      </trkpt>
      <trkpt lat="45.17924" lon="-72.60047">
        <ele>192</ele>
      </trkpt>
      <trkpt lat="45.17908" lon="-72.59999">
        <ele>191.8</ele>
      </trkpt>
      <trkpt lat="45.17892" lon="-72.59962">
        <ele>191.7</ele>
      </trkpt>
      <trkpt lat="45.1789" lon="-72.59952">
        <ele>191.7</ele>
      </trkpt>
      <trkpt lat="45.17885" lon="-72.59908">
        <ele>191.5</ele>
      </trkpt>
      <trkpt lat="45.17895" lon="-72.59832">
        <ele>194.7</ele>
      </trkpt>
      <trkpt lat="45.17895" lon="-72.598">
        <ele>196.2</ele>
      </trkpt>
      <trkpt lat="45.17888" lon="-72.59743">
        <ele>197.6</ele>
      </trkpt>
      <trkpt lat="45.17867" lon="-72.596594">
        <ele>200.7</ele>
      </trkpt>
      <trkpt lat="45.17846" lon="-72.59576">
        <ele>202.6</ele>
      </trkpt>
      <trkpt lat="45.1784" lon="-72.59541">
        <ele>203.5</ele>
      </trkpt>
      <trkpt lat="45.17837" lon="-72.59492">
        <ele>204.3</ele>
      </trkpt>
      <trkpt lat="45.17837" lon="-72.59447">
        <ele>205.2</ele>
      </trkpt>
      <trkpt lat="45.17845" lon="-72.59375">
        <ele>208.5</ele>
      </trkpt>
      <trkpt lat="45.17857" lon="-72.59331">
        <ele>212.3</ele>
      </trkpt>
      <trkpt lat="45.17893" lon="-72.59218">
        <ele>218.3</ele>
      </trkpt>
      <trkpt lat="45.17924" lon="-72.5915">
        <ele>220.7</ele>
      </trkpt>
      <trkpt lat="45.179495" lon="-72.590835">
        <ele>222.8</ele>
      </trkpt>
      <trkpt lat="45.17975" lon="-72.59017">
        <ele>224.1</ele>
      </trkpt>
      <trkpt lat="45.17997" lon="-72.58968">
        <ele>225.4</ele>
      </trkpt>
      <trkpt lat="45.18023" lon="-72.58927">
        <ele>226.1</ele>
      </trkpt>
      <trkpt lat="45.18063" lon="-72.58873">
        <ele>228.5</ele>
      </trkpt>
      <trkpt lat="45.18116" lon="-72.58803">
        <ele>234.1</ele>
      </trkpt>
      <trkpt lat="45.18131" lon="-72.58789">
        <ele>234.7</ele>
      </trkpt>
      <trkpt lat="45.18191" lon="-72.58739">
        <ele>236.4</ele>
      </trkpt>
      <trkpt lat="45.182575" lon="-72.58697">
        <ele>238.1</ele>
      </trkpt>
      <trkpt lat="45.18324" lon="-72.58655">
        <ele>237.6</ele>
      </trkpt>
      <trkpt lat="45.183645" lon="-72.586255">
        <ele>237.6</ele>
      </trkpt>
      <trkpt lat="45.18405" lon="-72.58596">
        <ele>238.5</ele>
      </trkpt>
      <trkpt lat="45.18448" lon="-72.5856">
        <ele>240</ele>
      </trkpt>
      <trkpt lat="45.18491" lon="-72.58524">
        <ele>241.5</ele>
      </trkpt>
      <trkpt lat="45.18554" lon="-72.58466">
        <ele>240.2</ele>
      </trkpt>
      <trkpt lat="45.18623" lon="-72.58396">
        <ele>238.8</ele>
      </trkpt>
      <trkpt lat="45.18692" lon="-72.58326">
        <ele>238.6</ele>
      </trkpt>
      <trkpt lat="45.18761" lon="-72.58256">
        <ele>238.3</ele>
      </trkpt>
      <trkpt lat="45.1883" lon="-72.58186">
        <ele>234.7</ele>
      </trkpt>
      <trkpt lat="45.18899" lon="-72.58116">
        <ele>230.5</ele>
      </trkpt>
      <trkpt lat="45.18968" lon="-72.58046">
        <ele>226.7</ele>
      </trkpt>
      <trkpt lat="45.18996" lon="-72.58014">
        <ele>224.5</ele>
      </trkpt>
      <trkpt lat="45.19048" lon="-72.579376">
        <ele>218.3</ele>
      </trkpt>
      <trkpt lat="45.191" lon="-72.578613">
        <ele>216</ele>
      </trkpt>
      <trkpt lat="45.19152" lon="-72.57785">
        <ele>215</ele>
      </trkpt>
      <trkpt lat="45.19186" lon="-72.57737">
        <ele>213.9</ele>
      </trkpt>
      <trkpt lat="45.1922" lon="-72.57689">
        <ele>212.3</ele>
      </trkpt>
      <trkpt lat="45.19219" lon="-72.57689">
        <ele>212.3</ele>
      </trkpt>
      <trkpt lat="45.192725" lon="-72.576145">
        <ele>211.2</ele>
      </trkpt>
      <trkpt lat="45.19326" lon="-72.5754">
        <ele>211.9</ele>
      </trkpt>
      <trkpt lat="45.19348" lon="-72.57503">
        <ele>212.7</ele>
      </trkpt>
      <trkpt lat="45.19381" lon="-72.57437">
        <ele>212.7</ele>
      </trkpt>
      <trkpt lat="45.19399" lon="-72.57388">
        <ele>210.8</ele>
      </trkpt>
      <trkpt lat="45.19402" lon="-72.57364">
        <ele>209.3</ele>
      </trkpt>
      <trkpt lat="45.19402" lon="-72.57289">
        <ele>206.1</ele>
      </trkpt>
      <trkpt lat="45.194" lon="-72.5727">
        <ele>205.9</ele>
      </trkpt>
      <trkpt lat="45.19392" lon="-72.57244">
        <ele>206</ele>
      </trkpt>
      <trkpt lat="45.19396" lon="-72.5724">
        <ele>206</ele>
      </trkpt>
      <trkpt lat="45.19399" lon="-72.57234">
        <ele>205.9</ele>
      </trkpt>
      <trkpt lat="45.19405" lon="-72.57181">
        <ele>206.1</ele>
      </trkpt>
      <trkpt lat="45.19412" lon="-72.57173">
        <ele>206.2</ele>
      </trkpt>
      <trkpt lat="45.19379" lon="-72.57101">
        <ele>207.8</ele>
      </trkpt>
      <trkpt lat="45.19366" lon="-72.57078">
        <ele>208.1</ele>
      </trkpt>
      <trkpt lat="45.19317" lon="-72.56998">
        <ele>207.9</ele>
      </trkpt>
      <trkpt lat="45.19302" lon="-72.56979">
        <ele>206.3</ele>
      </trkpt>
      <trkpt lat="45.19261" lon="-72.56935">
        <ele>204.7</ele>
      </trkpt>
      <trkpt lat="45.19234" lon="-72.56902">
        <ele>204.5</ele>
      </trkpt>
      <trkpt lat="45.19199" lon="-72.5685">
        <ele>204.8</ele>
      </trkpt>
      <trkpt lat="45.19175" lon="-72.56805">
        <ele>205.4</ele>
      </trkpt>
      <trkpt lat="45.191343" lon="-72.567123">
        <ele>204.5</ele>
      </trkpt>
      <trkpt lat="45.190936" lon="-72.566196">
        <ele>205.1</ele>
      </trkpt>
      <trkpt lat="45.19053" lon="-72.56527">
        <ele>205.9</ele>
      </trkpt>
      <trkpt lat="45.190092" lon="-72.564297">
        <ele>206.3</ele>
      </trkpt>
      <trkpt lat="45.189655" lon="-72.563324">
        <ele>207.1</ele>
      </trkpt>
      <trkpt lat="45.189217" lon="-72.562352">
        <ele>207.8</ele>
      </trkpt>
      <trkpt lat="45.18878" lon="-72.56138">
        <ele>209</ele>
      </trkpt>
      <trkpt lat="45.188516" lon="-72.560589">
        <ele>209.3</ele>
      </trkpt>
      <trkpt lat="45.188253" lon="-72.559799">
        <ele>209</ele>
      </trkpt>
      <trkpt lat="45.18799" lon="-72.55901">
        <ele>209.7</ele>
      </trkpt>
      <trkpt lat="45.18773" lon="-72.5582">
        <ele>210.3</ele>
      </trkpt>
      <trkpt lat="45.18759" lon="-72.55749">
        <ele>212</ele>
      </trkpt>
      <trkpt lat="45.18757" lon="-72.55718">
        <ele>213</ele>
      </trkpt>
      <trkpt lat="45.18756" lon="-72.55655">
        <ele>215.2</ele>
      </trkpt>
      <trkpt lat="45.18758" lon="-72.5561">
        <ele>216.2</ele>
      </trkpt>
      <trkpt lat="45.18764" lon="-72.55544">
        <ele>217.6</ele>
      </trkpt>
      <trkpt lat="45.187706" lon="-72.554406">
        <ele>223.3</ele>
      </trkpt>
      <trkpt lat="45.187773" lon="-72.553373">
        <ele>226.4</ele>
      </trkpt>
      <trkpt lat="45.18784" lon="-72.55234">
        <ele>226.5</ele>
      </trkpt>
      <trkpt lat="45.18786" lon="-72.55109">
        <ele>227.6</ele>
      </trkpt>
      <trkpt lat="45.18786" lon="-72.550066">
        <ele>230</ele>
      </trkpt>
      <trkpt lat="45.18786" lon="-72.549043">
        <ele>230.4</ele>
      </trkpt>
      <trkpt lat="45.18786" lon="-72.54802">
        <ele>230.5</ele>
      </trkpt>
      <trkpt lat="45.18831" lon="-72.547263">
        <ele>233.6</ele>
      </trkpt>
      <trkpt lat="45.18876" lon="-72.546506">
        <ele>243</ele>
      </trkpt>
      <trkpt lat="45.18921" lon="-72.54575">
        <ele>250.6</ele>
      </trkpt>
      <trkpt lat="45.189535" lon="-72.54499">
        <ele>255.1</ele>
      </trkpt>
      <trkpt lat="45.18986" lon="-72.54423">
        <ele>258.4</ele>
      </trkpt>
      <trkpt lat="45.19005" lon="-72.54356">
        <ele>260.3</ele>
      </trkpt>
      <trkpt lat="45.1902" lon="-72.54272">
        <ele>264.2</ele>
      </trkpt>
      <trkpt lat="45.19035" lon="-72.54188">
        <ele>270.1</ele>
      </trkpt>
      <trkpt lat="45.19035" lon="-72.54189">
        <ele>270.1</ele>
      </trkpt>
      <trkpt lat="45.19038" lon="-72.54173">
        <ele>270.1</ele>
      </trkpt>
      <trkpt lat="45.19049" lon="-72.54137">
        <ele>274.2</ele>
      </trkpt>
      <trkpt lat="45.191033" lon="-72.540456">
        <ele>279.1</ele>
      </trkpt>
      <trkpt lat="45.191576" lon="-72.539543">
        <ele>283.4</ele>
      </trkpt>
      <trkpt lat="45.19212" lon="-72.53863">
        <ele>287.8</ele>
      </trkpt>
      <trkpt lat="45.192685" lon="-72.53783">
        <ele>289.2</ele>
      </trkpt>
      <trkpt lat="45.19325" lon="-72.53703">
        <ele>289.4</ele>
      </trkpt>
      <trkpt lat="45.19374" lon="-72.53606">
        <ele>291.9</ele>
      </trkpt>
      <trkpt lat="45.194151" lon="-72.53513">
        <ele>295.6</ele>
      </trkpt>
      <trkpt lat="45.194562" lon="-72.5342">
        <ele>296</ele>
      </trkpt>
      <trkpt lat="45.194974" lon="-72.53327">
        <ele>298.4</ele>
      </trkpt>
      <trkpt lat="45.195385" lon="-72.53234">
        <ele>301.3</ele>
      </trkpt>
      <trkpt lat="45.195797" lon="-72.53141">
        <ele>301.1</ele>
      </trkpt>
      <trkpt lat="45.196208" lon="-72.53048">
        <ele>301.1</ele>
      </trkpt>
      <trkpt lat="45.19662" lon="-72.52955">
        <ele>302.6</ele>
      </trkpt>
      <trkpt lat="45.196985" lon="-72.52868">
        <ele>304.6</ele>
      </trkpt>
      <trkpt lat="45.19735" lon="-72.52781">
        <ele>302.6</ele>
      </trkpt>
      <trkpt lat="45.197804" lon="-72.526822">
        <ele>303.7</ele>
      </trkpt>
      <trkpt lat="45.198258" lon="-72.525834">
        <ele>305</ele>
      </trkpt>
      <trkpt lat="45.198713" lon="-72.524846">
        <ele>308.6</ele>
      </trkpt>
      <trkpt lat="45.199167" lon="-72.523859">
        <ele>310.9</ele>
      </trkpt>
      <trkpt lat="45.199622" lon="-72.522871">
        <ele>312.9</ele>
      </trkpt>
      <trkpt lat="45.200076" lon="-72.521883">
        <ele>316.4</ele>
      </trkpt>
      <trkpt lat="45.200531" lon="-72.520895">
        <ele>319.5</ele>
      </trkpt>
      <trkpt lat="45.200985" lon="-72.519907">
        <ele>318.1</ele>
      </trkpt>
      <trkpt lat="45.20144" lon="-72.51892">
        <ele>318.7</ele>
      </trkpt>
      <trkpt lat="45.20194" lon="-72.517862">
        <ele>314.9</ele>
      </trkpt>
      <trkpt lat="45.20244" lon="-72.516805">
        <ele>314.3</ele>
      </trkpt>
      <trkpt lat="45.20294" lon="-72.515747">
        <ele>314</ele>
      </trkpt>
      <trkpt lat="45.20344" lon="-72.51469">
        <ele>308.4</ele>
      </trkpt>
      <trkpt lat="45.203892" lon="-72.513705">
        <ele>301</ele>
      </trkpt>
      <trkpt lat="45.204345" lon="-72.51272">
        <ele>298.9</ele>
      </trkpt>
      <trkpt lat="45.204797" lon="-72.511735">
        <ele>296.7</ele>
      </trkpt>
      <trkpt lat="45.20525" lon="-72.51075">
        <ele>290.3</ele>
      </trkpt>
      <trkpt lat="45.20538" lon="-72.51053">
        <ele>288.9</ele>
      </trkpt>
      <trkpt lat="45.20594" lon="-72.50999">
        <ele>280.8</ele>
      </trkpt>
      <trkpt lat="45.206495" lon="-72.509475">
        <ele>271.2</ele>
      </trkpt>
      <trkpt lat="45.20705" lon="-72.50896">
        <ele>261.3</ele>
      </trkpt>
      <trkpt lat="45.20765" lon="-72.50842">
        <ele>253.5</ele>
      </trkpt>
      <trkpt lat="45.20806" lon="-72.50815">
        <ele>246.1</ele>
      </trkpt>
      <trkpt lat="45.20762" lon="-72.50749">
        <ele>251.5</ele>
      </trkpt>
      <trkpt lat="45.20744" lon="-72.50712">
        <ele>253.3</ele>
      </trkpt>
      <trkpt lat="45.20706" lon="-72.506069">
        <ele>256.1</ele>
      </trkpt>
      <trkpt lat="45.20668" lon="-72.50502">
        <ele>260.1</ele>
      </trkpt>
      <trkpt lat="45.20656" lon="-72.50483">
        <ele>261.2</ele>
      </trkpt>
      <trkpt lat="45.20646" lon="-72.50465">
        <ele>262.5</ele>
      </trkpt>
      <trkpt lat="45.205893" lon="-72.503936">
        <ele>267</ele>
      </trkpt>
      <trkpt lat="45.205326" lon="-72.503223">
        <ele>272.3</ele>
      </trkpt>
      <trkpt lat="45.20476" lon="-72.50251">
        <ele>277.7</ele>
      </trkpt>
      <trkpt lat="45.204356" lon="-72.501689">
        <ele>279.6</ele>
      </trkpt>
      <trkpt lat="45.203953" lon="-72.500869">
        <ele>279.3</ele>
      </trkpt>
      <trkpt lat="45.20355" lon="-72.50005">
        <ele>278.9</ele>
      </trkpt>
      <trkpt lat="45.20323" lon="-72.499289">
        <ele>278.7</ele>
      </trkpt>
      <trkpt lat="45.20291" lon="-72.49853">
        <ele>279.5</ele>
      </trkpt>
      <trkpt lat="45.20259" lon="-72.4979">
        <ele>280.6</ele>
      </trkpt>
      <trkpt lat="45.20248" lon="-72.49776">
        <ele>281.3</ele>
      </trkpt>
      <trkpt lat="45.20234" lon="-72.49728">
        <ele>282</ele>
      </trkpt>
      <trkpt lat="45.20205" lon="-72.496469">
        <ele>285.6</ele>
      </trkpt>
      <trkpt lat="45.20176" lon="-72.49566">
        <ele>291.4</ele>
      </trkpt>
      <trkpt lat="45.20161" lon="-72.49495">
        <ele>295.7</ele>
      </trkpt>
      <trkpt lat="45.20158" lon="-72.49396">
        <ele>301</ele>
      </trkpt>
      <trkpt lat="45.20161" lon="-72.49382">
        <ele>302.3</ele>
      </trkpt>
      <trkpt lat="45.2018" lon="-72.49329">
        <ele>306.6</ele>
      </trkpt>
      <trkpt lat="45.2019" lon="-72.49306">
        <ele>307.7</ele>
      </trkpt>
      <trkpt lat="45.202245" lon="-72.4921">
        <ele>309.3</ele>
      </trkpt>
      <trkpt lat="45.20259" lon="-72.49114">
        <ele>310.5</ele>
      </trkpt>
      <trkpt lat="45.20296" lon="-72.4902">
        <ele>312.7</ele>
      </trkpt>
      <trkpt lat="45.2034" lon="-72.48922">
        <ele>314.9</ele>
      </trkpt>
      <trkpt lat="45.20391" lon="-72.4882">
        <ele>315.4</ele>
      </trkpt>
      <trkpt lat="45.20437" lon="-72.48724">
        <ele>313.4</ele>
      </trkpt>
      <trkpt lat="45.20487" lon="-72.48626">
        <ele>312.1</ele>
      </trkpt>
      <trkpt lat="45.20487" lon="-72.48627">
        <ele>312.2</ele>
      </trkpt>
      <trkpt lat="45.20506" lon="-72.4859">
        <ele>311.1</ele>
      </trkpt>
      <trkpt lat="45.2053" lon="-72.4855">
        <ele>309</ele>
      </trkpt>
      <trkpt lat="45.2054" lon="-72.48531">
        <ele>307.6</ele>
      </trkpt>
      <trkpt lat="45.20566" lon="-72.48501">
        <ele>304.7</ele>
      </trkpt>
      <trkpt lat="45.206075" lon="-72.484695">
        <ele>299.2</ele>
      </trkpt>
      <trkpt lat="45.20649" lon="-72.48438">
        <ele>295.3</ele>
      </trkpt>
      <trkpt lat="45.20663" lon="-72.48429">
        <ele>293.3</ele>
      </trkpt>
      <trkpt lat="45.20683" lon="-72.48424">
        <ele>290.7</ele>
      </trkpt>
      <trkpt lat="45.20705" lon="-72.48425">
        <ele>289.6</ele>
      </trkpt>
      <trkpt lat="45.20728" lon="-72.48433">
        <ele>285.6</ele>
      </trkpt>
      <trkpt lat="45.20776" lon="-72.48438">
        <ele>281.2</ele>
      </trkpt>
      <trkpt lat="45.20795" lon="-72.48442">
        <ele>278.9</ele>
      </trkpt>
      <trkpt lat="45.20832" lon="-72.48456">
        <ele>275.9</ele>
      </trkpt>
      <trkpt lat="45.20883" lon="-72.48487">
        <ele>271</ele>
      </trkpt>
      <trkpt lat="45.20935" lon="-72.48523">
        <ele>268.3</ele>
      </trkpt>
      <trkpt lat="45.209986" lon="-72.485646">
        <ele>271.3</ele>
      </trkpt>
      <trkpt lat="45.210623" lon="-72.486063">
        <ele>269.4</ele>
      </trkpt>
      <trkpt lat="45.21126" lon="-72.48648">
        <ele>263.7</ele>
      </trkpt>
      <trkpt lat="45.21201" lon="-72.4871">
        <ele>255.6</ele>
      </trkpt>
      <trkpt lat="45.21276" lon="-72.48778">
        <ele>248.3</ele>
      </trkpt>
      <trkpt lat="45.2129" lon="-72.48795">
        <ele>246.8</ele>
      </trkpt>
      <trkpt lat="45.213165" lon="-72.488694">
        <ele>242.7</ele>
      </trkpt>
      <trkpt lat="45.21343" lon="-72.48944">
        <ele>240.2</ele>
      </trkpt>
      <trkpt lat="45.213723" lon="-72.490319">
        <ele>237.5</ele>
      </trkpt>
      <trkpt lat="45.214016" lon="-72.491199">
        <ele>235</ele>
      </trkpt>
      <trkpt lat="45.21431" lon="-72.49208">
        <ele>231.8</ele>
      </trkpt>
      <trkpt lat="45.21457" lon="-72.49279">
        <ele>229</ele>
      </trkpt>
      <trkpt lat="45.21482" lon="-72.4932">
        <ele>225.1</ele>
      </trkpt>
      <trkpt lat="45.215445" lon="-72.493944">
        <ele>219.7</ele>
      </trkpt>
      <trkpt lat="45.21607" lon="-72.49469">
        <ele>213.9</ele>
      </trkpt>
      <trkpt lat="45.21624" lon="-72.49494">
        <ele>212.5</ele>
      </trkpt>
      <trkpt lat="45.21641" lon="-72.49504">
        <ele>210.9</ele>
      </trkpt>
      <trkpt lat="45.21652" lon="-72.49504">
        <ele>210.6</ele>
      </trkpt>
      <trkpt lat="45.2169" lon="-72.49485">
        <ele>209.4</ele>
      </trkpt>
      <trkpt lat="45.2172" lon="-72.49479">
        <ele>209.4</ele>
      </trkpt>
      <trkpt lat="45.21792" lon="-72.494909">
        <ele>210.4</ele>
      </trkpt>
      <trkpt lat="45.21864" lon="-72.49503">
        <ele>216.2</ele>
      </trkpt>
      <trkpt lat="45.21946" lon="-72.49523">
        <ele>225.1</ele>
      </trkpt>
      <trkpt lat="45.21953" lon="-72.49525">
        <ele>226.1</ele>
      </trkpt>
      <trkpt lat="45.21979" lon="-72.49521">
        <ele>229.8</ele>
      </trkpt>
      <trkpt lat="45.220255" lon="-72.49502">
        <ele>233.1</ele>
      </trkpt>
      <trkpt lat="45.22072" lon="-72.49483">
        <ele>235.6</ele>
      </trkpt>
      <trkpt lat="45.22087" lon="-72.49526">
        <ele>232.7</ele>
      </trkpt>
      <trkpt lat="45.2213" lon="-72.49633">
        <ele>226.5</ele>
      </trkpt>
      <trkpt lat="45.22135" lon="-72.49651">
        <ele>225.9</ele>
      </trkpt>
      <trkpt lat="45.22137" lon="-72.49672">
        <ele>225.1</ele>
      </trkpt>
      <trkpt lat="45.22139" lon="-72.49733">
        <ele>223.7</ele>
      </trkpt>
      <trkpt lat="45.2214" lon="-72.49844">
        <ele>220.5</ele>
      </trkpt>
      <trkpt lat="45.22139" lon="-72.499225">
        <ele>218.5</ele>
      </trkpt>
      <trkpt lat="45.22138" lon="-72.50001">
        <ele>219.6</ele>
      </trkpt>
      <trkpt lat="45.221385" lon="-72.500705">
        <ele>222.9</ele>
      </trkpt>
      <trkpt lat="45.22139" lon="-72.5014">
        <ele>223.9</ele>
      </trkpt>
      <trkpt lat="45.22151" lon="-72.50211">
        <ele>221.9</ele>
      </trkpt>
      <trkpt lat="45.22153" lon="-72.5025">
        <ele>221.3</ele>
      </trkpt>
      <trkpt lat="45.22149" lon="-72.50269">
        <ele>221.1</ele>
      </trkpt>
      <trkpt lat="45.22117" lon="-72.50364">
        <ele>222.1</ele>
      </trkpt>
      <trkpt lat="45.2208" lon="-72.50464">
        <ele>223</ele>
      </trkpt>
      <trkpt lat="45.22043" lon="-72.50564">
        <ele>223.2</ele>
      </trkpt>
      <trkpt lat="45.22026" lon="-72.50596">
        <ele>222.7</ele>
      </trkpt>
      <trkpt lat="45.21984" lon="-72.506695">
        <ele>222.5</ele>
      </trkpt>
      <trkpt lat="45.21942" lon="-72.50743">
        <ele>221.1</ele>
      </trkpt>
      <trkpt lat="45.21888" lon="-72.50831">
        <ele>219.3</ele>
      </trkpt>
      <trkpt lat="45.21898" lon="-72.5091">
        <ele>217.4</ele>
      </trkpt>
      <trkpt lat="45.21913" lon="-72.50986">
        <ele>216.2</ele>
      </trkpt>
      <trkpt lat="45.21933" lon="-72.51052">
        <ele>214.5</ele>
      </trkpt>
      <trkpt lat="45.219625" lon="-72.511229">
        <ele>212.5</ele>
      </trkpt>
      <trkpt lat="45.21992" lon="-72.51194">
        <ele>212.1</ele>
      </trkpt>
      <trkpt lat="45.2202" lon="-72.512539">
        <ele>212.4</ele>
      </trkpt>
      <trkpt lat="45.22048" lon="-72.51314">
        <ele>212.1</ele>
      </trkpt>
      <trkpt lat="45.220856" lon="-72.513996">
        <ele>210.2</ele>
      </trkpt>
      <trkpt lat="45.221233" lon="-72.514853">
        <ele>210</ele>
      </trkpt>
      <trkpt lat="45.22161" lon="-72.51571">
        <ele>209.2</ele>
      </trkpt>
      <trkpt lat="45.2218" lon="-72.51627">
        <ele>209.2</ele>
      </trkpt>
      <trkpt lat="45.22188" lon="-72.51674">
        <ele>209.1</ele>
      </trkpt>
      <trkpt lat="45.2219" lon="-72.51696">
        <ele>209.2</ele>
      </trkpt>
      <trkpt lat="45.221915" lon="-72.517859">
        <ele>209.2</ele>
      </trkpt>
      <trkpt lat="45.22193" lon="-72.51876">
        <ele>209.7</ele>
      </trkpt>
      <trkpt lat="45.22196" lon="-72.51894">
        <ele>209.7</ele>
      </trkpt>
      <trkpt lat="45.22202" lon="-72.51912">
        <ele>209.5</ele>
      </trkpt>
      <trkpt lat="45.22241" lon="-72.5201">
        <ele>208.5</ele>
      </trkpt>
      <trkpt lat="45.22265" lon="-72.52095">
        <ele>208.1</ele>
      </trkpt>
      <trkpt lat="45.22274" lon="-72.5214">
        <ele>207.6</ele>
      </trkpt>
      <trkpt lat="45.22278" lon="-72.52248">
        <ele>206.6</ele>
      </trkpt>
      <trkpt lat="45.22276" lon="-72.52292">
        <ele>206.1</ele>
      </trkpt>
      <trkpt lat="45.22267" lon="-72.5232">
        <ele>205.6</ele>
      </trkpt>
      <trkpt lat="45.22245" lon="-72.52355">
        <ele>203.6</ele>
      </trkpt>
      <trkpt lat="45.22176" lon="-72.52429">
        <ele>202.1</ele>
      </trkpt>
      <trkpt lat="45.221345" lon="-72.524715">
        <ele>202.1</ele>
      </trkpt>
      <trkpt lat="45.22093" lon="-72.52514">
        <ele>202.8</ele>
      </trkpt>
      <trkpt lat="45.221246" lon="-72.526273">
        <ele>201.9</ele>
      </trkpt>
      <trkpt lat="45.221563" lon="-72.527406">
        <ele>201.9</ele>
      </trkpt>
      <trkpt lat="45.22188" lon="-72.52854">
        <ele>202.5</ele>
      </trkpt>
      <trkpt lat="45.22205" lon="-72.52914">
        <ele>202.8</ele>
      </trkpt>
      <trkpt lat="45.22218" lon="-72.52972">
        <ele>203</ele>
      </trkpt>
      <trkpt lat="45.22226" lon="-72.5303">
        <ele>203</ele>
      </trkpt>
      <trkpt lat="45.22229" lon="-72.531214">
        <ele>202.7</ele>
      </trkpt>
      <trkpt lat="45.22232" lon="-72.53213">
        <ele>202.4</ele>
      </trkpt>
    </trkseg>
  </trk>
</gpx>