<?xml version='1.0' encoding='utf-8'?>
<gpx xmlns="http://www.topografix.com/GPX/1/1" xmlns:xsi="http://www.w3.org/2001/XMLSchema-instance" version="1.1" creator="Gravelle Estrie" xsi:schemaLocation="http://www.topografix.com/GPX/1/1 http://www.topografix.com/GPX/1/1/gpx.xsd">
  <metadata>
    <name>Up Around the Bend</name>
  </metadata>
  <trk>
    <name>Up Around the Bend</name>
    <trkseg>
      <trkpt lat="45.34736" lon="-72.51735">
        <ele>213.29</ele>
      </trkpt>
      <trkpt lat="45.34733" lon="-72.51719">
        <ele>213.61</ele>
      </trkpt>
      <trkpt lat="45.34734" lon="-72.5171">
        <ele>213.61</ele>
      </trkpt>
      <trkpt lat="45.34725" lon="-72.51659">
        <ele>214.52</ele>
      </trkpt>
      <trkpt lat="45.3480075" lon="-72.5163225">
        <ele>213.8</ele>
      </trkpt>
      <trkpt lat="45.348765" lon="-72.516055">
        <ele>213.15</ele>
      </trkpt>
      <trkpt lat="45.3495225" lon="-72.5157875">
        <ele>212.48</ele>
      </trkpt>
      <trkpt lat="45.35028" lon="-72.51552">
        <ele>211.71</ele>
      </trkpt>
      <trkpt lat="45.35044" lon="-72.51544">
        <ele>211.55</ele>
      </trkpt>
      <trkpt lat="45.35044" lon="-72.51544">
        <ele>211.55</ele>
      </trkpt>
      <trkpt lat="45.35032" lon="-72.51432">
        <ele>209.84</ele>
      </trkpt>
      <trkpt lat="45.35028" lon="-72.51364">
        <ele>207.55</ele>
      </trkpt>
      <trkpt lat="45.35088" lon="-72.51339">
        <ele>206.03</ele>
      </trkpt>
      <trkpt lat="45.35088" lon="-72.5134">
        <ele>206.03</ele>
      </trkpt>
      <trkpt lat="45.35107" lon="-72.5133">
        <ele>205.85</ele>
      </trkpt>
      <trkpt lat="45.35186" lon="-72.51278">
        <ele>205.61</ele>
      </trkpt>
      <trkpt lat="45.35265" lon="-72.51226">
        <ele>206.01</ele>
      </trkpt>
      <trkpt lat="45.35293" lon="-72.51209">
        <ele>206.1</ele>
      </trkpt>
      <trkpt lat="45.35327" lon="-72.51196">
        <ele>206.3</ele>
      </trkpt>
      <trkpt lat="45.35398" lon="-72.51178">
        <ele>205.84</ele>
      </trkpt>
      <trkpt lat="45.35425" lon="-72.51177">
        <ele>205.76</ele>
      </trkpt>
      <trkpt lat="45.35461" lon="-72.51177">
        <ele>205.61</ele>
      </trkpt>
      <trkpt lat="45.3552875" lon="-72.5118175">
        <ele>205.73</ele>
      </trkpt>
      <trkpt lat="45.355965" lon="-72.511865">
        <ele>205.72</ele>
      </trkpt>
      <trkpt lat="45.3566425" lon="-72.5119125">
        <ele>205.6</ele>
      </trkpt>
      <trkpt lat="45.35732" lon="-72.51196">
        <ele>205.74</ele>
      </trkpt>
      <trkpt lat="45.35779" lon="-72.51195">
        <ele>205.92</ele>
      </trkpt>
      <trkpt lat="45.35857" lon="-72.5118733">
        <ele>206.24</ele>
      </trkpt>
      <trkpt lat="45.35935" lon="-72.5117967">
        <ele>206.14</ele>
      </trkpt>
      <trkpt lat="45.36013" lon="-72.51172">
        <ele>207.22</ele>
      </trkpt>
      <trkpt lat="45.360765" lon="-72.511665">
        <ele>207.71</ele>
      </trkpt>
      <trkpt lat="45.3614" lon="-72.51161">
        <ele>208.36</ele>
      </trkpt>
      <trkpt lat="45.36163" lon="-72.51155">
        <ele>209.03</ele>
      </trkpt>
      <trkpt lat="45.36175" lon="-72.51164">
        <ele>209.16</ele>
      </trkpt>
      <trkpt lat="45.36183" lon="-72.51173">
        <ele>209.02</ele>
      </trkpt>
      <trkpt lat="45.3619" lon="-72.51173">
        <ele>208.82</ele>
      </trkpt>
      <trkpt lat="45.36195" lon="-72.51173">
        <ele>208.82</ele>
      </trkpt>
      <trkpt lat="45.36215" lon="-72.5116">
        <ele>208.18</ele>
      </trkpt>
      <trkpt lat="45.36219" lon="-72.5116">
        <ele>208.18</ele>
      </trkpt>
      <trkpt lat="45.36307" lon="-72.5115625">
        <ele>207.22</ele>
      </trkpt>
      <trkpt lat="45.36395" lon="-72.511525">
        <ele>206.8</ele>
      </trkpt>
      <trkpt lat="45.36483" lon="-72.5114875">
        <ele>206.84</ele>
      </trkpt>
      <trkpt lat="45.36571" lon="-72.51145">
        <ele>206.46</ele>
      </trkpt>
      <trkpt lat="45.3657" lon="-72.51145">
        <ele>206.46</ele>
      </trkpt>
      <trkpt lat="45.3665409" lon="-72.5114164">
        <ele>205.98</ele>
      </trkpt>
      <trkpt lat="45.3673818" lon="-72.5113827">
        <ele>205.95</ele>
      </trkpt>
      <trkpt lat="45.3682227" lon="-72.5113491">
        <ele>205.64</ele>
      </trkpt>
      <trkpt lat="45.3690636" lon="-72.5113155">
        <ele>205.57</ele>
      </trkpt>
      <trkpt lat="45.3699045" lon="-72.5112818">
        <ele>205.79</ele>
      </trkpt>
      <trkpt lat="45.3707455" lon="-72.5112482">
        <ele>205.66</ele>
      </trkpt>
      <trkpt lat="45.3715864" lon="-72.5112146">
        <ele>205.85</ele>
      </trkpt>
      <trkpt lat="45.3724273" lon="-72.5111809">
        <ele>205.99</ele>
      </trkpt>
      <trkpt lat="45.3732682" lon="-72.5111473">
        <ele>206.24</ele>
      </trkpt>
      <trkpt lat="45.3741091" lon="-72.5111136">
        <ele>206.75</ele>
      </trkpt>
      <trkpt lat="45.37495" lon="-72.51108">
        <ele>207.32</ele>
      </trkpt>
      <trkpt lat="45.37541" lon="-72.51105">
        <ele>208.15</ele>
      </trkpt>
      <trkpt lat="45.37565" lon="-72.51101">
        <ele>208.36</ele>
      </trkpt>
      <trkpt lat="45.37627" lon="-72.51079">
        <ele>208.41</ele>
      </trkpt>
      <trkpt lat="45.37659" lon="-72.51061">
        <ele>208.04</ele>
      </trkpt>
      <trkpt lat="45.37692" lon="-72.51039">
        <ele>208.04</ele>
      </trkpt>
      <trkpt lat="45.37714" lon="-72.51021">
        <ele>207.52</ele>
      </trkpt>
      <trkpt lat="45.37743" lon="-72.5099">
        <ele>207</ele>
      </trkpt>
      <trkpt lat="45.37769" lon="-72.50959">
        <ele>206.91</ele>
      </trkpt>
      <trkpt lat="45.37789" lon="-72.50932">
        <ele>206.73</ele>
      </trkpt>
      <trkpt lat="45.37828" lon="-72.50864">
        <ele>206.74</ele>
      </trkpt>
      <trkpt lat="45.37858" lon="-72.50806">
        <ele>206.81</ele>
      </trkpt>
      <trkpt lat="45.37888" lon="-72.50748">
        <ele>206.86</ele>
      </trkpt>
      <trkpt lat="45.37908" lon="-72.50712">
        <ele>207.01</ele>
      </trkpt>
      <trkpt lat="45.37945" lon="-72.50658">
        <ele>206.91</ele>
      </trkpt>
      <trkpt lat="45.37991" lon="-72.50605">
        <ele>207.22</ele>
      </trkpt>
      <trkpt lat="45.38019" lon="-72.50578">
        <ele>207.4</ele>
      </trkpt>
      <trkpt lat="45.38086" lon="-72.50524">
        <ele>206.59</ele>
      </trkpt>
      <trkpt lat="45.38145" lon="-72.50488">
        <ele>205.56</ele>
      </trkpt>
      <trkpt lat="45.38212" lon="-72.504405">
        <ele>204.19</ele>
      </trkpt>
      <trkpt lat="45.38279" lon="-72.50393">
        <ele>202.96</ele>
      </trkpt>
      <trkpt lat="45.38278" lon="-72.50393">
        <ele>202.98</ele>
      </trkpt>
      <trkpt lat="45.383395" lon="-72.50351">
        <ele>201.73</ele>
      </trkpt>
      <trkpt lat="45.38401" lon="-72.50309">
        <ele>201.03</ele>
      </trkpt>
      <trkpt lat="45.38444" lon="-72.50282">
        <ele>200.65</ele>
      </trkpt>
      <trkpt lat="45.384885" lon="-72.502595">
        <ele>200.15</ele>
      </trkpt>
      <trkpt lat="45.38533" lon="-72.50237">
        <ele>198.67</ele>
      </trkpt>
      <trkpt lat="45.38592" lon="-72.502085">
        <ele>197.97</ele>
      </trkpt>
      <trkpt lat="45.38651" lon="-72.5018">
        <ele>196.95</ele>
      </trkpt>
      <trkpt lat="45.387245" lon="-72.50148">
        <ele>196.8</ele>
      </trkpt>
      <trkpt lat="45.38798" lon="-72.50116">
        <ele>197.3</ele>
      </trkpt>
      <trkpt lat="45.38816" lon="-72.50104">
        <ele>198.1</ele>
      </trkpt>
      <trkpt lat="45.38828" lon="-72.50089">
        <ele>197.48</ele>
      </trkpt>
      <trkpt lat="45.3887" lon="-72.5008">
        <ele>196.8</ele>
      </trkpt>
      <trkpt lat="45.38951" lon="-72.5004">
        <ele>196.86</ele>
      </trkpt>
      <trkpt lat="45.39032" lon="-72.5000875">
        <ele>196.95</ele>
      </trkpt>
      <trkpt lat="45.39113" lon="-72.499775">
        <ele>197.3</ele>
      </trkpt>
      <trkpt lat="45.39194" lon="-72.4994625">
        <ele>198.38</ele>
      </trkpt>
      <trkpt lat="45.39275" lon="-72.49915">
        <ele>199.39</ele>
      </trkpt>
      <trkpt lat="45.39316" lon="-72.49903">
        <ele>199.53</ele>
      </trkpt>
      <trkpt lat="45.39339" lon="-72.49898">
        <ele>199.62</ele>
      </trkpt>
      <trkpt lat="45.3937" lon="-72.49898">
        <ele>199.93</ele>
      </trkpt>
      <trkpt lat="45.3941" lon="-72.49906">
        <ele>199.84</ele>
      </trkpt>
      <trkpt lat="45.39426" lon="-72.49911">
        <ele>199.77</ele>
      </trkpt>
      <trkpt lat="45.3946" lon="-72.49928">
        <ele>199.18</ele>
      </trkpt>
      <trkpt lat="45.3949" lon="-72.49951">
        <ele>198.51</ele>
      </trkpt>
      <trkpt lat="45.39531" lon="-72.49996">
        <ele>197.13</ele>
      </trkpt>
      <trkpt lat="45.39544" lon="-72.50014">
        <ele>197.13</ele>
      </trkpt>
      <trkpt lat="45.39568" lon="-72.50058">
        <ele>196.45</ele>
      </trkpt>
      <trkpt lat="45.39596" lon="-72.50129">
        <ele>195.94</ele>
      </trkpt>
      <trkpt lat="45.3961867" lon="-72.5021433">
        <ele>195.07</ele>
      </trkpt>
      <trkpt lat="45.3964133" lon="-72.5029967">
        <ele>194.23</ele>
      </trkpt>
      <trkpt lat="45.39664" lon="-72.50385">
        <ele>193.21</ele>
      </trkpt>
      <trkpt lat="45.39679" lon="-72.50434">
        <ele>192.93</ele>
      </trkpt>
      <trkpt lat="45.39718" lon="-72.50546">
        <ele>192.6</ele>
      </trkpt>
      <trkpt lat="45.39743" lon="-72.50609">
        <ele>191.83</ele>
      </trkpt>
      <trkpt lat="45.39779" lon="-72.50685">
        <ele>191.43</ele>
      </trkpt>
      <trkpt lat="45.39819" lon="-72.50762">
        <ele>190.58</ele>
      </trkpt>
      <trkpt lat="45.39858" lon="-72.50828">
        <ele>189.72</ele>
      </trkpt>
      <trkpt lat="45.3991133" lon="-72.5090867">
        <ele>188</ele>
      </trkpt>
      <trkpt lat="45.3996467" lon="-72.5098933">
        <ele>186.75</ele>
      </trkpt>
      <trkpt lat="45.40018" lon="-72.5107">
        <ele>185.03</ele>
      </trkpt>
      <trkpt lat="45.40047" lon="-72.51098">
        <ele>184.74</ele>
      </trkpt>
      <trkpt lat="45.40053" lon="-72.5111">
        <ele>184.87</ele>
      </trkpt>
      <trkpt lat="45.40054" lon="-72.51141">
        <ele>183.99</ele>
      </trkpt>
      <trkpt lat="45.40057" lon="-72.51147">
        <ele>183.99</ele>
      </trkpt>
      <trkpt lat="45.40081" lon="-72.51182">
        <ele>183.07</ele>
      </trkpt>
      <trkpt lat="45.40101" lon="-72.512">
        <ele>182.91</ele>
      </trkpt>
      <trkpt lat="45.40113" lon="-72.51214">
        <ele>182.55</ele>
      </trkpt>
      <trkpt lat="45.4016575" lon="-72.512935">
        <ele>181.02</ele>
      </trkpt>
      <trkpt lat="45.402185" lon="-72.51373">
        <ele>180.53</ele>
      </trkpt>
      <trkpt lat="45.4027125" lon="-72.514525">
        <ele>179.32</ele>
      </trkpt>
      <trkpt lat="45.40324" lon="-72.51532">
        <ele>178.47</ele>
      </trkpt>
      <trkpt lat="45.4036" lon="-72.51599">
        <ele>177.74</ele>
      </trkpt>
      <trkpt lat="45.40381" lon="-72.51648">
        <ele>177.12</ele>
      </trkpt>
      <trkpt lat="45.40409" lon="-72.51746">
        <ele>176.17</ele>
      </trkpt>
      <trkpt lat="45.40436" lon="-72.51866">
        <ele>174.33</ele>
      </trkpt>
      <trkpt lat="45.40456" lon="-72.5197">
        <ele>172.58</ele>
      </trkpt>
      <trkpt lat="45.404725" lon="-72.520665">
        <ele>170.93</ele>
      </trkpt>
      <trkpt lat="45.40489" lon="-72.52163">
        <ele>170.34</ele>
      </trkpt>
      <trkpt lat="45.40501" lon="-72.52216">
        <ele>169.58</ele>
      </trkpt>
      <trkpt lat="45.40514" lon="-72.52261">
        <ele>169.28</ele>
      </trkpt>
      <trkpt lat="45.40533" lon="-72.52311">
        <ele>168.85</ele>
      </trkpt>
      <trkpt lat="45.40552" lon="-72.52351">
        <ele>168.48</ele>
      </trkpt>
      <trkpt lat="45.40581" lon="-72.524">
        <ele>167.46</ele>
      </trkpt>
      <trkpt lat="45.40613" lon="-72.52444">
        <ele>167.22</ele>
      </trkpt>
      <trkpt lat="45.40635" lon="-72.52467">
        <ele>167.16</ele>
      </trkpt>
      <trkpt lat="45.40684" lon="-72.52511">
        <ele>166.63</ele>
      </trkpt>
      <trkpt lat="45.40741" lon="-72.52553">
        <ele>166.07</ele>
      </trkpt>
      <trkpt lat="45.407935" lon="-72.525885">
        <ele>165.69</ele>
      </trkpt>
      <trkpt lat="45.40846" lon="-72.52624">
        <ele>165.31</ele>
      </trkpt>
      <trkpt lat="45.40886" lon="-72.52655">
        <ele>165.26</ele>
      </trkpt>
      <trkpt lat="45.40926" lon="-72.52686">
        <ele>165.27</ele>
      </trkpt>
      <trkpt lat="45.40992" lon="-72.52736">
        <ele>164.52</ele>
      </trkpt>
      <trkpt lat="45.41048" lon="-72.52787">
        <ele>165</ele>
      </trkpt>
      <trkpt lat="45.41087" lon="-72.52834">
        <ele>163.49</ele>
      </trkpt>
      <trkpt lat="45.41124" lon="-72.52886">
        <ele>163.22</ele>
      </trkpt>
      <trkpt lat="45.41161" lon="-72.52938">
        <ele>163.15</ele>
      </trkpt>
      <trkpt lat="45.412096" lon="-72.530166">
        <ele>163.39</ele>
      </trkpt>
      <trkpt lat="45.412582" lon="-72.530952">
        <ele>163.39</ele>
      </trkpt>
      <trkpt lat="45.413068" lon="-72.531738">
        <ele>163.61</ele>
      </trkpt>
      <trkpt lat="45.413554" lon="-72.532524">
        <ele>163.89</ele>
      </trkpt>
      <trkpt lat="45.41404" lon="-72.53331">
        <ele>164.38</ele>
      </trkpt>
      <trkpt lat="45.41462" lon="-72.534205">
        <ele>164.54</ele>
      </trkpt>
      <trkpt lat="45.4152" lon="-72.5351">
        <ele>164.41</ele>
      </trkpt>
      <trkpt lat="45.41554" lon="-72.53568">
        <ele>164.29</ele>
      </trkpt>
      <trkpt lat="45.415895" lon="-72.536395">
        <ele>164.38</ele>
      </trkpt>
      <trkpt lat="45.41625" lon="-72.53711">
        <ele>164.22</ele>
      </trkpt>
      <trkpt lat="45.4166433" lon="-72.5381833">
        <ele>163.07</ele>
      </trkpt>
      <trkpt lat="45.4170367" lon="-72.5392567">
        <ele>162.75</ele>
      </trkpt>
      <trkpt lat="45.41743" lon="-72.54033">
        <ele>162.29</ele>
      </trkpt>
      <trkpt lat="45.41743" lon="-72.54033">
        <ele>162.29</ele>
      </trkpt>
      <trkpt lat="45.417805" lon="-72.541295">
        <ele>161.57</ele>
      </trkpt>
      <trkpt lat="45.41818" lon="-72.54226">
        <ele>162.43</ele>
      </trkpt>
      <trkpt lat="45.41854" lon="-72.54342">
        <ele>161.81</ele>
      </trkpt>
      <trkpt lat="45.41868" lon="-72.54405">
        <ele>161.97</ele>
      </trkpt>
      <trkpt lat="45.41883" lon="-72.5449">
        <ele>161.91</ele>
      </trkpt>
      <trkpt lat="45.4189233" lon="-72.5457667">
        <ele>161.54</ele>
      </trkpt>
      <trkpt lat="45.4190167" lon="-72.5466333">
        <ele>161.51</ele>
      </trkpt>
      <trkpt lat="45.41911" lon="-72.5475">
        <ele>161.53</ele>
      </trkpt>
      <trkpt lat="45.41925" lon="-72.54866">
        <ele>161.7</ele>
      </trkpt>
      <trkpt lat="45.419305" lon="-72.549355">
        <ele>161.9</ele>
      </trkpt>
      <trkpt lat="45.41936" lon="-72.55005">
        <ele>162.12</ele>
      </trkpt>
      <trkpt lat="45.41947" lon="-72.55087">
        <ele>162.47</ele>
      </trkpt>
      <trkpt lat="45.41971" lon="-72.55194">
        <ele>161.26</ele>
      </trkpt>
      <trkpt lat="45.41995" lon="-72.55251">
        <ele>160.81</ele>
      </trkpt>
      <trkpt lat="45.4203" lon="-72.55305">
        <ele>159.54</ele>
      </trkpt>
      <trkpt lat="45.42061" lon="-72.55342">
        <ele>159.06</ele>
      </trkpt>
      <trkpt lat="45.42118" lon="-72.5540025">
        <ele>158.24</ele>
      </trkpt>
      <trkpt lat="45.42175" lon="-72.554585">
        <ele>158.13</ele>
      </trkpt>
      <trkpt lat="45.42232" lon="-72.5551675">
        <ele>159.43</ele>
      </trkpt>
      <trkpt lat="45.42289" lon="-72.55575">
        <ele>160.62</ele>
      </trkpt>
      <trkpt lat="45.42336" lon="-72.55635">
        <ele>161.24</ele>
      </trkpt>
      <trkpt lat="45.42383" lon="-72.55695">
        <ele>161.74</ele>
      </trkpt>
      <trkpt lat="45.42422" lon="-72.557575">
        <ele>162.24</ele>
      </trkpt>
      <trkpt lat="45.42461" lon="-72.5582">
        <ele>161.8</ele>
      </trkpt>
      <trkpt lat="45.424935" lon="-72.55877">
        <ele>160.83</ele>
      </trkpt>
      <trkpt lat="45.42526" lon="-72.55934">
        <ele>160.38</ele>
      </trkpt>
      <trkpt lat="45.42526" lon="-72.55934">
        <ele>160.37</ele>
      </trkpt>
      <trkpt lat="45.425785" lon="-72.5602675">
        <ele>159.54</ele>
      </trkpt>
      <trkpt lat="45.42631" lon="-72.561195">
        <ele>158.7</ele>
      </trkpt>
      <trkpt lat="45.426835" lon="-72.5621225">
        <ele>159.16</ele>
      </trkpt>
      <trkpt lat="45.42736" lon="-72.56305">
        <ele>160.39</ele>
      </trkpt>
      <trkpt lat="45.42735" lon="-72.56228">
        <ele>160.13</ele>
      </trkpt>
      <trkpt lat="45.42741" lon="-72.56213">
        <ele>160.21</ele>
      </trkpt>
      <trkpt lat="45.42746" lon="-72.56232">
        <ele>160.21</ele>
      </trkpt>
      <trkpt lat="45.42783" lon="-72.56322">
        <ele>160</ele>
      </trkpt>
      <trkpt lat="45.42802" lon="-72.56354">
        <ele>160</ele>
      </trkpt>
      <trkpt lat="45.42823" lon="-72.56384">
        <ele>160.1</ele>
      </trkpt>
      <trkpt lat="45.42842" lon="-72.56402">
        <ele>160.1</ele>
      </trkpt>
      <trkpt lat="45.42883" lon="-72.56439">
        <ele>160.19</ele>
      </trkpt>
      <trkpt lat="45.4291" lon="-72.56456">
        <ele>160.6</ele>
      </trkpt>
      <trkpt lat="45.42936" lon="-72.5647">
        <ele>161.05</ele>
      </trkpt>
      <trkpt lat="45.42961" lon="-72.56478">
        <ele>161.79</ele>
      </trkpt>
      <trkpt lat="45.42987" lon="-72.56484">
        <ele>162.97</ele>
      </trkpt>
      <trkpt lat="45.43017" lon="-72.56486">
        <ele>164.61</ele>
      </trkpt>
      <trkpt lat="45.43017" lon="-72.56486">
        <ele>164.64</ele>
      </trkpt>
      <trkpt lat="45.43038" lon="-72.56487">
        <ele>166.22</ele>
      </trkpt>
      <trkpt lat="45.43125" lon="-72.564752">
        <ele>173.75</ele>
      </trkpt>
      <trkpt lat="45.43212" lon="-72.564634">
        <ele>183.35</ele>
      </trkpt>
      <trkpt lat="45.43299" lon="-72.564516">
        <ele>189.88</ele>
      </trkpt>
      <trkpt lat="45.43386" lon="-72.564398">
        <ele>198.68</ele>
      </trkpt>
      <trkpt lat="45.43473" lon="-72.56428">
        <ele>208.25</ele>
      </trkpt>
      <trkpt lat="45.4355043" lon="-72.56418">
        <ele>210.47</ele>
      </trkpt>
      <trkpt lat="45.4362786" lon="-72.56408">
        <ele>208.3</ele>
      </trkpt>
      <trkpt lat="45.4370529" lon="-72.56398">
        <ele>206.07</ele>
      </trkpt>
      <trkpt lat="45.4378271" lon="-72.56388">
        <ele>206.6</ele>
      </trkpt>
      <trkpt lat="45.4386014" lon="-72.56378">
        <ele>208.05</ele>
      </trkpt>
      <trkpt lat="45.4393757" lon="-72.56368">
        <ele>206.98</ele>
      </trkpt>
      <trkpt lat="45.44015" lon="-72.56358">
        <ele>208.69</ele>
      </trkpt>
      <trkpt lat="45.44081" lon="-72.56354">
        <ele>211.48</ele>
      </trkpt>
      <trkpt lat="45.44075" lon="-72.562474">
        <ele>213.44</ele>
      </trkpt>
      <trkpt lat="45.44069" lon="-72.561408">
        <ele>217.02</ele>
      </trkpt>
      <trkpt lat="45.44063" lon="-72.560342">
        <ele>217.79</ele>
      </trkpt>
      <trkpt lat="45.44057" lon="-72.559276">
        <ele>216.8</ele>
      </trkpt>
      <trkpt lat="45.44051" lon="-72.55821">
        <ele>214.58</ele>
      </trkpt>
      <trkpt lat="45.4404367" lon="-72.5570489">
        <ele>212.42</ele>
      </trkpt>
      <trkpt lat="45.4403634" lon="-72.5558878">
        <ele>212.66</ele>
      </trkpt>
      <trkpt lat="45.4402901" lon="-72.5547266">
        <ele>213.47</ele>
      </trkpt>
      <trkpt lat="45.4402168" lon="-72.5535655">
        <ele>213.75</ele>
      </trkpt>
      <trkpt lat="45.4401435" lon="-72.5524044">
        <ele>213.52</ele>
      </trkpt>
      <trkpt lat="45.4400701" lon="-72.5512433">
        <ele>214.83</ele>
      </trkpt>
      <trkpt lat="45.4399967" lon="-72.5500822">
        <ele>218.44</ele>
      </trkpt>
      <trkpt lat="45.4399234" lon="-72.5489211">
        <ele>219.95</ele>
      </trkpt>
      <trkpt lat="45.43985" lon="-72.54776">
        <ele>220.61</ele>
      </trkpt>
      <trkpt lat="45.43985" lon="-72.54776">
        <ele>220.6</ele>
      </trkpt>
      <trkpt lat="45.4397767" lon="-72.546605">
        <ele>222.45</ele>
      </trkpt>
      <trkpt lat="45.4397034" lon="-72.54545">
        <ele>223.64</ele>
      </trkpt>
      <trkpt lat="45.4396301" lon="-72.544295">
        <ele>224.21</ele>
      </trkpt>
      <trkpt lat="45.4395567" lon="-72.54314">
        <ele>226.76</ele>
      </trkpt>
      <trkpt lat="45.4394834" lon="-72.541985">
        <ele>229.63</ele>
      </trkpt>
      <trkpt lat="45.43941" lon="-72.54083">
        <ele>227.79</ele>
      </trkpt>
      <trkpt lat="45.4393372" lon="-72.5396057">
        <ele>227.63</ele>
      </trkpt>
      <trkpt lat="45.4392644" lon="-72.5383814">
        <ele>225.63</ele>
      </trkpt>
      <trkpt lat="45.4391916" lon="-72.5371571">
        <ele>224.19</ele>
      </trkpt>
      <trkpt lat="45.4391188" lon="-72.5359328">
        <ele>221.89</ele>
      </trkpt>
      <trkpt lat="45.439046" lon="-72.5347085">
        <ele>220.73</ele>
      </trkpt>
      <trkpt lat="45.4389732" lon="-72.5334842">
        <ele>218.29</ele>
      </trkpt>
      <trkpt lat="45.4389003" lon="-72.5322599">
        <ele>215.07</ele>
      </trkpt>
      <trkpt lat="45.4388275" lon="-72.5310356">
        <ele>214.1</ele>
      </trkpt>
      <trkpt lat="45.4387546" lon="-72.5298114">
        <ele>215.11</ele>
      </trkpt>
      <trkpt lat="45.4386817" lon="-72.5285871">
        <ele>214.36</ele>
      </trkpt>
      <trkpt lat="45.4386088" lon="-72.5273628">
        <ele>211.77</ele>
      </trkpt>
      <trkpt lat="45.4385359" lon="-72.5261385">
        <ele>202.43</ele>
      </trkpt>
      <trkpt lat="45.4384629" lon="-72.5249143">
        <ele>199.61</ele>
      </trkpt>
      <trkpt lat="45.43839" lon="-72.52369">
        <ele>201.51</ele>
      </trkpt>
      <trkpt lat="45.4383467" lon="-72.5227533">
        <ele>202.93</ele>
      </trkpt>
      <trkpt lat="45.4383033" lon="-72.5218167">
        <ele>206.27</ele>
      </trkpt>
      <trkpt lat="45.43826" lon="-72.52088">
        <ele>208.11</ele>
      </trkpt>
      <trkpt lat="45.4381933" lon="-72.5198">
        <ele>206.45</ele>
      </trkpt>
      <trkpt lat="45.4381267" lon="-72.51872">
        <ele>206.41</ele>
      </trkpt>
      <trkpt lat="45.43806" lon="-72.51764">
        <ele>209.56</ele>
      </trkpt>
      <trkpt lat="45.4380051" lon="-72.5164258">
        <ele>213.84</ele>
      </trkpt>
      <trkpt lat="45.4379501" lon="-72.5152116">
        <ele>215.61</ele>
      </trkpt>
      <trkpt lat="45.4378952" lon="-72.5139975">
        <ele>218.77</ele>
      </trkpt>
      <trkpt lat="45.4378402" lon="-72.5127833">
        <ele>221.41</ele>
      </trkpt>
      <trkpt lat="45.4377852" lon="-72.5115691">
        <ele>228.07</ele>
      </trkpt>
      <trkpt lat="45.4377302" lon="-72.510355">
        <ele>228.4</ele>
      </trkpt>
      <trkpt lat="45.4376752" lon="-72.5091408">
        <ele>222.04</ele>
      </trkpt>
      <trkpt lat="45.4376202" lon="-72.5079266">
        <ele>217.71</ele>
      </trkpt>
      <trkpt lat="45.4375652" lon="-72.5067125">
        <ele>215.42</ele>
      </trkpt>
      <trkpt lat="45.4375101" lon="-72.5054983">
        <ele>215.84</ele>
      </trkpt>
      <trkpt lat="45.4374551" lon="-72.5042842">
        <ele>215.47</ele>
      </trkpt>
      <trkpt lat="45.4374" lon="-72.50307">
        <ele>214.69</ele>
      </trkpt>
      <trkpt lat="45.4373421" lon="-72.501886">
        <ele>214.88</ele>
      </trkpt>
      <trkpt lat="45.4372841" lon="-72.500702">
        <ele>213.46</ele>
      </trkpt>
      <trkpt lat="45.4372261" lon="-72.499518">
        <ele>211.86</ele>
      </trkpt>
      <trkpt lat="45.4371681" lon="-72.498334">
        <ele>210.19</ele>
      </trkpt>
      <trkpt lat="45.4371102" lon="-72.49715">
        <ele>210.22</ele>
      </trkpt>
      <trkpt lat="45.4370521" lon="-72.495966">
        <ele>209.73</ele>
      </trkpt>
      <trkpt lat="45.4369941" lon="-72.494782">
        <ele>209.29</ele>
      </trkpt>
      <trkpt lat="45.4369361" lon="-72.493598">
        <ele>211.92</ele>
      </trkpt>
      <trkpt lat="45.4368781" lon="-72.492414">
        <ele>212.56</ele>
      </trkpt>
      <trkpt lat="45.43682" lon="-72.49123">
        <ele>211.43</ele>
      </trkpt>
      <trkpt lat="45.43682" lon="-72.49123">
        <ele>211.44</ele>
      </trkpt>
      <trkpt lat="45.4367608" lon="-72.49">
        <ele>210.93</ele>
      </trkpt>
      <trkpt lat="45.4367017" lon="-72.48877">
        <ele>207.56</ele>
      </trkpt>
      <trkpt lat="45.4366425" lon="-72.48754">
        <ele>206.08</ele>
      </trkpt>
      <trkpt lat="45.4365833" lon="-72.48631">
        <ele>203.79</ele>
      </trkpt>
      <trkpt lat="45.4365241" lon="-72.4850799">
        <ele>202.28</ele>
      </trkpt>
      <trkpt lat="45.4364649" lon="-72.4838499">
        <ele>201.22</ele>
      </trkpt>
      <trkpt lat="45.4364057" lon="-72.4826199">
        <ele>201.51</ele>
      </trkpt>
      <trkpt lat="45.4363464" lon="-72.4813899">
        <ele>199.86</ele>
      </trkpt>
      <trkpt lat="45.4362872" lon="-72.48016">
        <ele>198.83</ele>
      </trkpt>
      <trkpt lat="45.4362279" lon="-72.47893">
        <ele>198.53</ele>
      </trkpt>
      <trkpt lat="45.4361686" lon="-72.4777">
        <ele>198.43</ele>
      </trkpt>
      <trkpt lat="45.4361093" lon="-72.47647">
        <ele>195.66</ele>
      </trkpt>
      <trkpt lat="45.43605" lon="-72.47524">
        <ele>195</ele>
      </trkpt>
      <trkpt lat="45.436015" lon="-72.47424">
        <ele>197.5</ele>
      </trkpt>
      <trkpt lat="45.43598" lon="-72.47324">
        <ele>200.04</ele>
      </trkpt>
      <trkpt lat="45.4359225" lon="-72.47214">
        <ele>203.13</ele>
      </trkpt>
      <trkpt lat="45.435865" lon="-72.47104">
        <ele>200.91</ele>
      </trkpt>
      <trkpt lat="45.4358075" lon="-72.46994">
        <ele>200.51</ele>
      </trkpt>
      <trkpt lat="45.43575" lon="-72.46884">
        <ele>203.09</ele>
      </trkpt>
      <trkpt lat="45.43575" lon="-72.46786">
        <ele>207.79</ele>
      </trkpt>
      <trkpt lat="45.43567" lon="-72.46701">
        <ele>211.47</ele>
      </trkpt>
      <trkpt lat="45.435645" lon="-72.4662">
        <ele>212.15</ele>
      </trkpt>
      <trkpt lat="45.43562" lon="-72.46539">
        <ele>213.29</ele>
      </trkpt>
      <trkpt lat="45.436495" lon="-72.4654242">
        <ele>213.05</ele>
      </trkpt>
      <trkpt lat="45.43737" lon="-72.4654583">
        <ele>211.93</ele>
      </trkpt>
      <trkpt lat="45.438245" lon="-72.4654925">
        <ele>209.83</ele>
      </trkpt>
      <trkpt lat="45.43912" lon="-72.4655266">
        <ele>206.7</ele>
      </trkpt>
      <trkpt lat="45.439995" lon="-72.4655608">
        <ele>202.93</ele>
      </trkpt>
      <trkpt lat="45.44087" lon="-72.465595">
        <ele>199.55</ele>
      </trkpt>
      <trkpt lat="45.441745" lon="-72.4656291">
        <ele>195.46</ele>
      </trkpt>
      <trkpt lat="45.44262" lon="-72.4656633">
        <ele>192.03</ele>
      </trkpt>
      <trkpt lat="45.443495" lon="-72.4656975">
        <ele>191.9</ele>
      </trkpt>
      <trkpt lat="45.44437" lon="-72.4657317">
        <ele>193.18</ele>
      </trkpt>
      <trkpt lat="45.445245" lon="-72.4657658">
        <ele>192.57</ele>
      </trkpt>
      <trkpt lat="45.44612" lon="-72.4658">
        <ele>192.89</ele>
      </trkpt>
      <trkpt lat="45.44612" lon="-72.4658">
        <ele>192.89</ele>
      </trkpt>
      <trkpt lat="45.44684" lon="-72.46583">
        <ele>192.51</ele>
      </trkpt>
      <trkpt lat="45.44756" lon="-72.46586">
        <ele>192.39</ele>
      </trkpt>
      <trkpt lat="45.44828" lon="-72.46589">
        <ele>192.31</ele>
      </trkpt>
      <trkpt lat="45.448335" lon="-72.466815">
        <ele>191.83</ele>
      </trkpt>
      <trkpt lat="45.44839" lon="-72.46774">
        <ele>191.92</ele>
      </trkpt>
      <trkpt lat="45.44868" lon="-72.46757">
        <ele>191.42</ele>
      </trkpt>
      <trkpt lat="45.449175" lon="-72.4671">
        <ele>191.11</ele>
      </trkpt>
      <trkpt lat="45.44967" lon="-72.46663">
        <ele>192.38</ele>
      </trkpt>
      <trkpt lat="45.44992" lon="-72.46651">
        <ele>192.86</ele>
      </trkpt>
      <trkpt lat="45.45032" lon="-72.46642">
        <ele>194.24</ele>
      </trkpt>
      <trkpt lat="45.45081" lon="-72.466445">
        <ele>195.62</ele>
      </trkpt>
      <trkpt lat="45.4513" lon="-72.46647">
        <ele>194.78</ele>
      </trkpt>
      <trkpt lat="45.452192" lon="-72.466542">
        <ele>191.55</ele>
      </trkpt>
      <trkpt lat="45.453084" lon="-72.466614">
        <ele>188.73</ele>
      </trkpt>
      <trkpt lat="45.453976" lon="-72.466686">
        <ele>188.69</ele>
      </trkpt>
      <trkpt lat="45.454868" lon="-72.466758">
        <ele>189.6</ele>
      </trkpt>
      <trkpt lat="45.45576" lon="-72.46683">
        <ele>188.83</ele>
      </trkpt>
      <trkpt lat="45.45576" lon="-72.46683">
        <ele>188.84</ele>
      </trkpt>
      <trkpt lat="45.45662" lon="-72.4669015">
        <ele>186.92</ele>
      </trkpt>
      <trkpt lat="45.45748" lon="-72.4669731">
        <ele>187.44</ele>
      </trkpt>
      <trkpt lat="45.45834" lon="-72.4670446">
        <ele>189.9</ele>
      </trkpt>
      <trkpt lat="45.4592" lon="-72.4671161">
        <ele>191.88</ele>
      </trkpt>
      <trkpt lat="45.46006" lon="-72.4671876">
        <ele>191.02</ele>
      </trkpt>
      <trkpt lat="45.46092" lon="-72.4672592">
        <ele>195.5</ele>
      </trkpt>
      <trkpt lat="45.46178" lon="-72.4673307">
        <ele>197.32</ele>
      </trkpt>
      <trkpt lat="45.46264" lon="-72.4674023">
        <ele>198.39</ele>
      </trkpt>
      <trkpt lat="45.4635" lon="-72.4674738">
        <ele>196.99</ele>
      </trkpt>
      <trkpt lat="45.46436" lon="-72.4675454">
        <ele>197.11</ele>
      </trkpt>
      <trkpt lat="45.46522" lon="-72.4676169">
        <ele>200.81</ele>
      </trkpt>
      <trkpt lat="45.46608" lon="-72.4676884">
        <ele>200.21</ele>
      </trkpt>
      <trkpt lat="45.46694" lon="-72.46776">
        <ele>200.1</ele>
      </trkpt>
      <trkpt lat="45.4677511" lon="-72.4677311">
        <ele>201.55</ele>
      </trkpt>
      <trkpt lat="45.4685622" lon="-72.4677022">
        <ele>201.7</ele>
      </trkpt>
      <trkpt lat="45.4693733" lon="-72.4676733">
        <ele>202.1</ele>
      </trkpt>
      <trkpt lat="45.4701844" lon="-72.4676445">
        <ele>202.9</ele>
      </trkpt>
      <trkpt lat="45.4709956" lon="-72.4676156">
        <ele>202.37</ele>
      </trkpt>
      <trkpt lat="45.4718067" lon="-72.4675867">
        <ele>201.84</ele>
      </trkpt>
      <trkpt lat="45.4726178" lon="-72.4675578">
        <ele>201.37</ele>
      </trkpt>
      <trkpt lat="45.4734289" lon="-72.4675289">
        <ele>195.57</ele>
      </trkpt>
      <trkpt lat="45.47424" lon="-72.4675">
        <ele>189.85</ele>
      </trkpt>
      <trkpt lat="45.475024" lon="-72.467484">
        <ele>187.62</ele>
      </trkpt>
      <trkpt lat="45.475808" lon="-72.467468">
        <ele>187.19</ele>
      </trkpt>
      <trkpt lat="45.476592" lon="-72.467452">
        <ele>187.54</ele>
      </trkpt>
      <trkpt lat="45.477376" lon="-72.467436">
        <ele>189.28</ele>
      </trkpt>
      <trkpt lat="45.47816" lon="-72.46742">
        <ele>191.37</ele>
      </trkpt>
      <trkpt lat="45.47813" lon="-72.46742">
        <ele>191.08</ele>
      </trkpt>
      <trkpt lat="45.47882" lon="-72.4674067">
        <ele>191.88</ele>
      </trkpt>
      <trkpt lat="45.47951" lon="-72.4673933">
        <ele>192.37</ele>
      </trkpt>
      <trkpt lat="45.4802" lon="-72.46738">
        <ele>195.41</ele>
      </trkpt>
      <trkpt lat="45.48016" lon="-72.46619">
        <ele>193.77</ele>
      </trkpt>
      <trkpt lat="45.48012" lon="-72.465">
        <ele>193.75</ele>
      </trkpt>
      <trkpt lat="45.4800801" lon="-72.46381">
        <ele>194.25</ele>
      </trkpt>
      <trkpt lat="45.48004" lon="-72.46262">
        <ele>195.13</ele>
      </trkpt>
      <trkpt lat="45.48" lon="-72.46143">
        <ele>196.22</ele>
      </trkpt>
      <trkpt lat="45.47996" lon="-72.46024">
        <ele>195.55</ele>
      </trkpt>
      <trkpt lat="45.4799157" lon="-72.4591086">
        <ele>195.21</ele>
      </trkpt>
      <trkpt lat="45.4798715" lon="-72.4579771">
        <ele>195.02</ele>
      </trkpt>
      <trkpt lat="45.4798272" lon="-72.4568457">
        <ele>193.62</ele>
      </trkpt>
      <trkpt lat="45.4797829" lon="-72.4557143">
        <ele>193.95</ele>
      </trkpt>
      <trkpt lat="45.4797386" lon="-72.4545828">
        <ele>195.92</ele>
      </trkpt>
      <trkpt lat="45.4796943" lon="-72.4534514">
        <ele>196.41</ele>
      </trkpt>
      <trkpt lat="45.47965" lon="-72.45232">
        <ele>192.64</ele>
      </trkpt>
      <trkpt lat="45.4796233" lon="-72.4512167">
        <ele>188.29</ele>
      </trkpt>
      <trkpt lat="45.4795967" lon="-72.4501133">
        <ele>184.31</ele>
      </trkpt>
      <trkpt lat="45.47957" lon="-72.44901">
        <ele>183.54</ele>
      </trkpt>
      <trkpt lat="45.4795189" lon="-72.4477589">
        <ele>183.14</ele>
      </trkpt>
      <trkpt lat="45.4794679" lon="-72.4465078">
        <ele>183.28</ele>
      </trkpt>
      <trkpt lat="45.4794168" lon="-72.4452566">
        <ele>181.72</ele>
      </trkpt>
      <trkpt lat="45.4793657" lon="-72.4440055">
        <ele>181.01</ele>
      </trkpt>
      <trkpt lat="45.4793146" lon="-72.4427544">
        <ele>180.43</ele>
      </trkpt>
      <trkpt lat="45.4792635" lon="-72.4415033">
        <ele>180.38</ele>
      </trkpt>
      <trkpt lat="45.4792123" lon="-72.4402522">
        <ele>180.2</ele>
      </trkpt>
      <trkpt lat="45.4791612" lon="-72.4390011">
        <ele>180.29</ele>
      </trkpt>
      <trkpt lat="45.47911" lon="-72.43775">
        <ele>181.89</ele>
      </trkpt>
      <trkpt lat="45.4782844" lon="-72.4377867">
        <ele>181.1</ele>
      </trkpt>
      <trkpt lat="45.4774589" lon="-72.4378233">
        <ele>180.53</ele>
      </trkpt>
      <trkpt lat="45.4766333" lon="-72.43786">
        <ele>180.24</ele>
      </trkpt>
      <trkpt lat="45.4758078" lon="-72.4378967">
        <ele>181.56</ele>
      </trkpt>
      <trkpt lat="45.4749822" lon="-72.4379333">
        <ele>182.93</ele>
      </trkpt>
      <trkpt lat="45.4741567" lon="-72.43797">
        <ele>183.22</ele>
      </trkpt>
      <trkpt lat="45.4733311" lon="-72.4380067">
        <ele>183.69</ele>
      </trkpt>
      <trkpt lat="45.4725056" lon="-72.4380433">
        <ele>184.74</ele>
      </trkpt>
      <trkpt lat="45.47168" lon="-72.43808">
        <ele>186.92</ele>
      </trkpt>
      <trkpt lat="45.4716245" lon="-72.4369">
        <ele>188.49</ele>
      </trkpt>
      <trkpt lat="45.471569" lon="-72.43572">
        <ele>190.9</ele>
      </trkpt>
      <trkpt lat="45.4715134" lon="-72.43454">
        <ele>193.1</ele>
      </trkpt>
      <trkpt lat="45.4714579" lon="-72.43336">
        <ele>194.81</ele>
      </trkpt>
      <trkpt lat="45.4714023" lon="-72.43218">
        <ele>199.05</ele>
      </trkpt>
      <trkpt lat="45.4713468" lon="-72.431">
        <ele>202.9</ele>
      </trkpt>
      <trkpt lat="45.4712912" lon="-72.42982">
        <ele>204.46</ele>
      </trkpt>
      <trkpt lat="45.4712356" lon="-72.42864">
        <ele>205.05</ele>
      </trkpt>
      <trkpt lat="45.47118" lon="-72.42746">
        <ele>205.69</ele>
      </trkpt>
      <trkpt lat="45.47118" lon="-72.42745">
        <ele>205.69</ele>
      </trkpt>
      <trkpt lat="45.4711234" lon="-72.4262267">
        <ele>206.65</ele>
      </trkpt>
      <trkpt lat="45.4710667" lon="-72.4250033">
        <ele>208.92</ele>
      </trkpt>
      <trkpt lat="45.4710101" lon="-72.42378">
        <ele>210.12</ele>
      </trkpt>
      <trkpt lat="45.4709534" lon="-72.4225567">
        <ele>210.77</ele>
      </trkpt>
      <trkpt lat="45.4708967" lon="-72.4213333">
        <ele>211.15</ele>
      </trkpt>
      <trkpt lat="45.47084" lon="-72.42011">
        <ele>211.87</ele>
      </trkpt>
      <trkpt lat="45.4716867" lon="-72.4201008">
        <ele>208.58</ele>
      </trkpt>
      <trkpt lat="45.4725333" lon="-72.4200917">
        <ele>207.39</ele>
      </trkpt>
      <trkpt lat="45.47338" lon="-72.4200825">
        <ele>206.62</ele>
      </trkpt>
      <trkpt lat="45.4742267" lon="-72.4200733">
        <ele>205.17</ele>
      </trkpt>
      <trkpt lat="45.4750733" lon="-72.4200642">
        <ele>202.02</ele>
      </trkpt>
      <trkpt lat="45.47592" lon="-72.420055">
        <ele>197.08</ele>
      </trkpt>
      <trkpt lat="45.4767667" lon="-72.4200458">
        <ele>194.26</ele>
      </trkpt>
      <trkpt lat="45.4776133" lon="-72.4200367">
        <ele>193.3</ele>
      </trkpt>
      <trkpt lat="45.47846" lon="-72.4200275">
        <ele>191.55</ele>
      </trkpt>
      <trkpt lat="45.4793067" lon="-72.4200183">
        <ele>188.03</ele>
      </trkpt>
      <trkpt lat="45.4801533" lon="-72.4200092">
        <ele>187.46</ele>
      </trkpt>
      <trkpt lat="45.481" lon="-72.42">
        <ele>188.39</ele>
      </trkpt>
      <trkpt lat="45.48125" lon="-72.42">
        <ele>188.47</ele>
      </trkpt>
      <trkpt lat="45.48136" lon="-72.4199">
        <ele>188.47</ele>
      </trkpt>
      <trkpt lat="45.48144" lon="-72.41973">
        <ele>188.51</ele>
      </trkpt>
      <trkpt lat="45.48145" lon="-72.4195">
        <ele>188.51</ele>
      </trkpt>
      <trkpt lat="45.481365" lon="-72.418225">
        <ele>189.73</ele>
      </trkpt>
      <trkpt lat="45.48128" lon="-72.41695">
        <ele>189.72</ele>
      </trkpt>
      <trkpt lat="45.4811956" lon="-72.4156811">
        <ele>190.14</ele>
      </trkpt>
      <trkpt lat="45.4811112" lon="-72.4144122">
        <ele>190.85</ele>
      </trkpt>
      <trkpt lat="45.4810268" lon="-72.4131433">
        <ele>192.33</ele>
      </trkpt>
      <trkpt lat="45.4809424" lon="-72.4118744">
        <ele>197.22</ele>
      </trkpt>
      <trkpt lat="45.4808579" lon="-72.4106055">
        <ele>202.15</ele>
      </trkpt>
      <trkpt lat="45.4807735" lon="-72.4093366">
        <ele>210.14</ele>
      </trkpt>
      <trkpt lat="45.480689" lon="-72.4080678">
        <ele>213.34</ele>
      </trkpt>
      <trkpt lat="45.4806045" lon="-72.4067989">
        <ele>214.63</ele>
      </trkpt>
      <trkpt lat="45.48052" lon="-72.40553">
        <ele>212.72</ele>
      </trkpt>
      <trkpt lat="45.48056" lon="-72.40518">
        <ele>212.54</ele>
      </trkpt>
      <trkpt lat="45.48069" lon="-72.40505">
        <ele>212.91</ele>
      </trkpt>
      <trkpt lat="45.481541" lon="-72.405054">
        <ele>217</ele>
      </trkpt>
      <trkpt lat="45.482392" lon="-72.405058">
        <ele>220.24</ele>
      </trkpt>
      <trkpt lat="45.483243" lon="-72.405062">
        <ele>218.32</ele>
      </trkpt>
      <trkpt lat="45.484094" lon="-72.405066">
        <ele>212.23</ele>
      </trkpt>
      <trkpt lat="45.484945" lon="-72.40507">
        <ele>207.84</ele>
      </trkpt>
      <trkpt lat="45.485796" lon="-72.405074">
        <ele>203.71</ele>
      </trkpt>
      <trkpt lat="45.486647" lon="-72.405078">
        <ele>201.15</ele>
      </trkpt>
      <trkpt lat="45.487498" lon="-72.405082">
        <ele>198.18</ele>
      </trkpt>
      <trkpt lat="45.488349" lon="-72.405086">
        <ele>196.59</ele>
      </trkpt>
      <trkpt lat="45.4892" lon="-72.40509">
        <ele>195.82</ele>
      </trkpt>
      <trkpt lat="45.4892" lon="-72.40509">
        <ele>195.83</ele>
      </trkpt>
      <trkpt lat="45.4900233" lon="-72.4050967">
        <ele>193.98</ele>
      </trkpt>
      <trkpt lat="45.4908467" lon="-72.4051033">
        <ele>191.49</ele>
      </trkpt>
      <trkpt lat="45.49167" lon="-72.40511">
        <ele>188.8</ele>
      </trkpt>
      <trkpt lat="45.4924933" lon="-72.4051167">
        <ele>187.41</ele>
      </trkpt>
      <trkpt lat="45.4933167" lon="-72.4051233">
        <ele>186.49</ele>
      </trkpt>
      <trkpt lat="45.49414" lon="-72.40513">
        <ele>187.1</ele>
      </trkpt>
      <trkpt lat="45.4947833" lon="-72.40507">
        <ele>185.54</ele>
      </trkpt>
      <trkpt lat="45.4954267" lon="-72.40501">
        <ele>184.45</ele>
      </trkpt>
      <trkpt lat="45.49607" lon="-72.40495">
        <ele>184.51</ele>
      </trkpt>
      <trkpt lat="45.4969" lon="-72.40496">
        <ele>186.36</ele>
      </trkpt>
      <trkpt lat="45.49773" lon="-72.40497">
        <ele>186.39</ele>
      </trkpt>
      <trkpt lat="45.49856" lon="-72.40498">
        <ele>186.25</ele>
      </trkpt>
      <trkpt lat="45.49939" lon="-72.40499">
        <ele>186.55</ele>
      </trkpt>
      <trkpt lat="45.4994" lon="-72.40499">
        <ele>186.55</ele>
      </trkpt>
      <trkpt lat="45.49963" lon="-72.405">
        <ele>186.67</ele>
      </trkpt>
      <trkpt lat="45.4999" lon="-72.40491">
        <ele>186.51</ele>
      </trkpt>
      <trkpt lat="45.50006" lon="-72.40474">
        <ele>186.51</ele>
      </trkpt>
      <trkpt lat="45.50017" lon="-72.40451">
        <ele>186.49</ele>
      </trkpt>
      <trkpt lat="45.500455" lon="-72.40339">
        <ele>186.8</ele>
      </trkpt>
      <trkpt lat="45.50074" lon="-72.40227">
        <ele>187.65</ele>
      </trkpt>
      <trkpt lat="45.5008" lon="-72.40173">
        <ele>188.04</ele>
      </trkpt>
      <trkpt lat="45.5008933" lon="-72.40052">
        <ele>190.42</ele>
      </trkpt>
      <trkpt lat="45.5009867" lon="-72.39931">
        <ele>192.6</ele>
      </trkpt>
      <trkpt lat="45.50108" lon="-72.3981">
        <ele>193.22</ele>
      </trkpt>
      <trkpt lat="45.5012" lon="-72.39766">
        <ele>193.33</ele>
      </trkpt>
      <trkpt lat="45.50155" lon="-72.39695">
        <ele>194.7</ele>
      </trkpt>
      <trkpt lat="45.50172" lon="-72.3968">
        <ele>195.23</ele>
      </trkpt>
      <trkpt lat="45.50191" lon="-72.39675">
        <ele>195.54</ele>
      </trkpt>
      <trkpt lat="45.50196" lon="-72.39622">
        <ele>195.5</ele>
      </trkpt>
      <trkpt lat="45.50209" lon="-72.39551">
        <ele>194.58</ele>
      </trkpt>
      <trkpt lat="45.50222" lon="-72.3948">
        <ele>193.96</ele>
      </trkpt>
      <trkpt lat="45.502275" lon="-72.393575">
        <ele>195.01</ele>
      </trkpt>
      <trkpt lat="45.5023301" lon="-72.39235">
        <ele>197.13</ele>
      </trkpt>
      <trkpt lat="45.5023851" lon="-72.391125">
        <ele>198.28</ele>
      </trkpt>
      <trkpt lat="45.5024401" lon="-72.3899">
        <ele>199.54</ele>
      </trkpt>
      <trkpt lat="45.502495" lon="-72.388675">
        <ele>201.15</ele>
      </trkpt>
      <trkpt lat="45.50255" lon="-72.38745">
        <ele>203.69</ele>
      </trkpt>
      <trkpt lat="45.50255" lon="-72.38745">
        <ele>203.69</ele>
      </trkpt>
      <trkpt lat="45.5026" lon="-72.38635">
        <ele>206.74</ele>
      </trkpt>
      <trkpt lat="45.50265" lon="-72.38525">
        <ele>208.64</ele>
      </trkpt>
      <trkpt lat="45.5027" lon="-72.38415">
        <ele>213.09</ele>
      </trkpt>
      <trkpt lat="45.50275" lon="-72.38305">
        <ele>216.31</ele>
      </trkpt>
      <trkpt lat="45.502814" lon="-72.381862">
        <ele>220.88</ele>
      </trkpt>
      <trkpt lat="45.502878" lon="-72.380674">
        <ele>224.89</ele>
      </trkpt>
      <trkpt lat="45.502942" lon="-72.379486">
        <ele>221.19</ele>
      </trkpt>
      <trkpt lat="45.503006" lon="-72.378298">
        <ele>223.81</ele>
      </trkpt>
      <trkpt lat="45.50307" lon="-72.37711">
        <ele>232.06</ele>
      </trkpt>
      <trkpt lat="45.50317" lon="-72.37652">
        <ele>234.51</ele>
      </trkpt>
      <trkpt lat="45.50331" lon="-72.37603">
        <ele>234.25</ele>
      </trkpt>
      <trkpt lat="45.50362" lon="-72.37523">
        <ele>231.51</ele>
      </trkpt>
      <trkpt lat="45.50393" lon="-72.37443">
        <ele>230.07</ele>
      </trkpt>
      <trkpt lat="45.50411" lon="-72.37367">
        <ele>226.74</ele>
      </trkpt>
      <trkpt lat="45.50402" lon="-72.373035">
        <ele>224.49</ele>
      </trkpt>
      <trkpt lat="45.50393" lon="-72.3724">
        <ele>222.53</ele>
      </trkpt>
      <trkpt lat="45.5037167" lon="-72.3712077">
        <ele>219.47</ele>
      </trkpt>
      <trkpt lat="45.5035034" lon="-72.3700155">
        <ele>217.6</ele>
      </trkpt>
      <trkpt lat="45.5032901" lon="-72.3688233">
        <ele>217.25</ele>
      </trkpt>
      <trkpt lat="45.5030768" lon="-72.367631">
        <ele>217.37</ele>
      </trkpt>
      <trkpt lat="45.5028635" lon="-72.3664388">
        <ele>215.08</ele>
      </trkpt>
      <trkpt lat="45.5026501" lon="-72.3652466">
        <ele>214.04</ele>
      </trkpt>
      <trkpt lat="45.5024368" lon="-72.3640544">
        <ele>215.52</ele>
      </trkpt>
      <trkpt lat="45.5022234" lon="-72.3628622">
        <ele>221.77</ele>
      </trkpt>
      <trkpt lat="45.50201" lon="-72.36167">
        <ele>229.12</ele>
      </trkpt>
      <trkpt lat="45.50188" lon="-72.360725">
        <ele>232.13</ele>
      </trkpt>
      <trkpt lat="45.50175" lon="-72.35978">
        <ele>233.43</ele>
      </trkpt>
      <trkpt lat="45.5015475" lon="-72.3585825">
        <ele>232.79</ele>
      </trkpt>
      <trkpt lat="45.501345" lon="-72.357385">
        <ele>228.36</ele>
      </trkpt>
      <trkpt lat="45.5011425" lon="-72.3561875">
        <ele>226.5</ele>
      </trkpt>
      <trkpt lat="45.50094" lon="-72.35499">
        <ele>227.77</ele>
      </trkpt>
      <trkpt lat="45.500077" lon="-72.354892">
        <ele>228.36</ele>
      </trkpt>
      <trkpt lat="45.499214" lon="-72.354794">
        <ele>228.24</ele>
      </trkpt>
      <trkpt lat="45.498351" lon="-72.354696">
        <ele>226.57</ele>
      </trkpt>
      <trkpt lat="45.497488" lon="-72.354598">
        <ele>223.26</ele>
      </trkpt>
      <trkpt lat="45.496625" lon="-72.3545">
        <ele>219.21</ele>
      </trkpt>
      <trkpt lat="45.495762" lon="-72.354402">
        <ele>217.66</ele>
      </trkpt>
      <trkpt lat="45.494899" lon="-72.354304">
        <ele>220.18</ele>
      </trkpt>
      <trkpt lat="45.494036" lon="-72.354206">
        <ele>226.13</ele>
      </trkpt>
      <trkpt lat="45.493173" lon="-72.354108">
        <ele>230.08</ele>
      </trkpt>
      <trkpt lat="45.49231" lon="-72.35401">
        <ele>234.54</ele>
      </trkpt>
      <trkpt lat="45.4914233" lon="-72.35389">
        <ele>236.33</ele>
      </trkpt>
      <trkpt lat="45.4905367" lon="-72.35377">
        <ele>238.63</ele>
      </trkpt>
      <trkpt lat="45.48965" lon="-72.35365">
        <ele>240.09</ele>
      </trkpt>
      <trkpt lat="45.48966" lon="-72.35365">
        <ele>240.09</ele>
      </trkpt>
      <trkpt lat="45.488955" lon="-72.35356">
        <ele>238.5</ele>
      </trkpt>
      <trkpt lat="45.48825" lon="-72.35347">
        <ele>235.33</ele>
      </trkpt>
      <trkpt lat="45.488" lon="-72.35338">
        <ele>233.26</ele>
      </trkpt>
      <trkpt lat="45.48782" lon="-72.35329">
        <ele>231.34</ele>
      </trkpt>
      <trkpt lat="45.4877" lon="-72.35315">
        <ele>231.34</ele>
      </trkpt>
      <trkpt lat="45.48756" lon="-72.35294">
        <ele>230.21</ele>
      </trkpt>
      <trkpt lat="45.48749" lon="-72.35266">
        <ele>229.52</ele>
      </trkpt>
      <trkpt lat="45.48749" lon="-72.3517333">
        <ele>228.24</ele>
      </trkpt>
      <trkpt lat="45.48749" lon="-72.3508067">
        <ele>225.63</ele>
      </trkpt>
      <trkpt lat="45.48749" lon="-72.34988">
        <ele>223.79</ele>
      </trkpt>
      <trkpt lat="45.48753" lon="-72.34908">
        <ele>222.4</ele>
      </trkpt>
      <trkpt lat="45.4875375" lon="-72.3481175">
        <ele>218.82</ele>
      </trkpt>
      <trkpt lat="45.487545" lon="-72.347155">
        <ele>219.95</ele>
      </trkpt>
      <trkpt lat="45.4875525" lon="-72.3461925">
        <ele>224.26</ele>
      </trkpt>
      <trkpt lat="45.48756" lon="-72.34523">
        <ele>227.21</ele>
      </trkpt>
      <trkpt lat="45.4875867" lon="-72.3439767">
        <ele>229.44</ele>
      </trkpt>
      <trkpt lat="45.4876133" lon="-72.3427233">
        <ele>229.58</ele>
      </trkpt>
      <trkpt lat="45.48764" lon="-72.34147">
        <ele>227.76</ele>
      </trkpt>
      <trkpt lat="45.4876484" lon="-72.340225">
        <ele>221.02</ele>
      </trkpt>
      <trkpt lat="45.4876567" lon="-72.33898">
        <ele>214.26</ele>
      </trkpt>
      <trkpt lat="45.4876651" lon="-72.337735">
        <ele>210.33</ele>
      </trkpt>
      <trkpt lat="45.4876734" lon="-72.33649">
        <ele>209.16</ele>
      </trkpt>
      <trkpt lat="45.4876817" lon="-72.335245">
        <ele>207.15</ele>
      </trkpt>
      <trkpt lat="45.48769" lon="-72.334">
        <ele>204.07</ele>
      </trkpt>
      <trkpt lat="45.4877363" lon="-72.3328263">
        <ele>201.08</ele>
      </trkpt>
      <trkpt lat="45.4877826" lon="-72.3316525">
        <ele>199.22</ele>
      </trkpt>
      <trkpt lat="45.4878288" lon="-72.3304788">
        <ele>197.99</ele>
      </trkpt>
      <trkpt lat="45.4878751" lon="-72.329305">
        <ele>197.64</ele>
      </trkpt>
      <trkpt lat="45.4879213" lon="-72.3281313">
        <ele>198.45</ele>
      </trkpt>
      <trkpt lat="45.4879676" lon="-72.3269575">
        <ele>199.31</ele>
      </trkpt>
      <trkpt lat="45.4880138" lon="-72.3257838">
        <ele>200.17</ele>
      </trkpt>
      <trkpt lat="45.48806" lon="-72.32461">
        <ele>200.17</ele>
      </trkpt>
      <trkpt lat="45.4880933" lon="-72.3234733">
        <ele>200.03</ele>
      </trkpt>
      <trkpt lat="45.4881267" lon="-72.3223367">
        <ele>199.65</ele>
      </trkpt>
      <trkpt lat="45.48816" lon="-72.3212">
        <ele>199.57</ele>
      </trkpt>
      <trkpt lat="45.48816" lon="-72.32121">
        <ele>199.57</ele>
      </trkpt>
      <trkpt lat="45.4881917" lon="-72.320115">
        <ele>200.1</ele>
      </trkpt>
      <trkpt lat="45.4882234" lon="-72.31902">
        <ele>201.72</ele>
      </trkpt>
      <trkpt lat="45.488255" lon="-72.317925">
        <ele>204.75</ele>
      </trkpt>
      <trkpt lat="45.4882867" lon="-72.31683">
        <ele>207.99</ele>
      </trkpt>
      <trkpt lat="45.4883184" lon="-72.315735">
        <ele>209.94</ele>
      </trkpt>
      <trkpt lat="45.48835" lon="-72.31464">
        <ele>213.05</ele>
      </trkpt>
      <trkpt lat="45.487484" lon="-72.314598">
        <ele>213.59</ele>
      </trkpt>
      <trkpt lat="45.486618" lon="-72.314556">
        <ele>214.96</ele>
      </trkpt>
      <trkpt lat="45.485752" lon="-72.314514">
        <ele>215.17</ele>
      </trkpt>
      <trkpt lat="45.484886" lon="-72.314472">
        <ele>214.94</ele>
      </trkpt>
      <trkpt lat="45.48402" lon="-72.31443">
        <ele>215.07</ele>
      </trkpt>
      <trkpt lat="45.4834" lon="-72.314415">
        <ele>215.19</ele>
      </trkpt>
      <trkpt lat="45.48278" lon="-72.3144">
        <ele>215.14</ele>
      </trkpt>
      <trkpt lat="45.4819386" lon="-72.3143614">
        <ele>215.18</ele>
      </trkpt>
      <trkpt lat="45.4810971" lon="-72.3143229">
        <ele>215.34</ele>
      </trkpt>
      <trkpt lat="45.4802557" lon="-72.3142843">
        <ele>215.95</ele>
      </trkpt>
      <trkpt lat="45.4794143" lon="-72.3142457">
        <ele>216.77</ele>
      </trkpt>
      <trkpt lat="45.4785729" lon="-72.3142071">
        <ele>217.25</ele>
      </trkpt>
      <trkpt lat="45.4777314" lon="-72.3141686">
        <ele>217.61</ele>
      </trkpt>
      <trkpt lat="45.47689" lon="-72.31413">
        <ele>218.54</ele>
      </trkpt>
      <trkpt lat="45.4769" lon="-72.31479">
        <ele>215.63</ele>
      </trkpt>
      <trkpt lat="45.47692" lon="-72.31501">
        <ele>214.7</ele>
      </trkpt>
      <trkpt lat="45.477" lon="-72.31541">
        <ele>213.98</ele>
      </trkpt>
      <trkpt lat="45.477" lon="-72.31558">
        <ele>213.65</ele>
      </trkpt>
      <trkpt lat="45.47622" lon="-72.315545">
        <ele>213.95</ele>
      </trkpt>
      <trkpt lat="45.47544" lon="-72.31551">
        <ele>215.89</ele>
      </trkpt>
      <trkpt lat="45.4753" lon="-72.31555">
        <ele>215.99</ele>
      </trkpt>
      <trkpt lat="45.4752" lon="-72.31559">
        <ele>215.91</ele>
      </trkpt>
      <trkpt lat="45.47488" lon="-72.3159">
        <ele>215.03</ele>
      </trkpt>
      <trkpt lat="45.47479" lon="-72.31596">
        <ele>214.77</ele>
      </trkpt>
      <trkpt lat="45.4747" lon="-72.31599">
        <ele>214.77</ele>
      </trkpt>
      <trkpt lat="45.47429" lon="-72.316">
        <ele>214.87</ele>
      </trkpt>
      <trkpt lat="45.47391" lon="-72.31608">
        <ele>214.47</ele>
      </trkpt>
      <trkpt lat="45.47384" lon="-72.31608">
        <ele>214.47</ele>
      </trkpt>
      <trkpt lat="45.47362" lon="-72.31599">
        <ele>214.3</ele>
      </trkpt>
      <trkpt lat="45.47355" lon="-72.31599">
        <ele>214.34</ele>
      </trkpt>
      <trkpt lat="45.47319" lon="-72.31607">
        <ele>214.99</ele>
      </trkpt>
      <trkpt lat="45.47268" lon="-72.31647">
        <ele>214.49</ele>
      </trkpt>
      <trkpt lat="45.47217" lon="-72.31698">
        <ele>212.44</ele>
      </trkpt>
      <trkpt lat="45.47162" lon="-72.31764">
        <ele>212.89</ele>
      </trkpt>
      <trkpt lat="45.47106" lon="-72.318345">
        <ele>214.05</ele>
      </trkpt>
      <trkpt lat="45.4705" lon="-72.31905">
        <ele>214.72</ele>
      </trkpt>
      <trkpt lat="45.46994" lon="-72.319755">
        <ele>214.1</ele>
      </trkpt>
      <trkpt lat="45.46938" lon="-72.32046">
        <ele>213.79</ele>
      </trkpt>
      <trkpt lat="45.468715" lon="-72.3212801">
        <ele>212.89</ele>
      </trkpt>
      <trkpt lat="45.46805" lon="-72.3221001">
        <ele>213.37</ele>
      </trkpt>
      <trkpt lat="45.467385" lon="-72.3229201">
        <ele>213.41</ele>
      </trkpt>
      <trkpt lat="45.46672" lon="-72.3237402">
        <ele>212.07</ele>
      </trkpt>
      <trkpt lat="45.466055" lon="-72.3245601">
        <ele>211.68</ele>
      </trkpt>
      <trkpt lat="45.46539" lon="-72.3253801">
        <ele>211.08</ele>
      </trkpt>
      <trkpt lat="45.464725" lon="-72.3262001">
        <ele>211.2</ele>
      </trkpt>
      <trkpt lat="45.46406" lon="-72.32702">
        <ele>210.86</ele>
      </trkpt>
      <trkpt lat="45.46353" lon="-72.3276">
        <ele>211</ele>
      </trkpt>
      <trkpt lat="45.46304" lon="-72.32804">
        <ele>210.76</ele>
      </trkpt>
      <trkpt lat="45.46266" lon="-72.32831">
        <ele>210.99</ele>
      </trkpt>
      <trkpt lat="45.46235" lon="-72.32848">
        <ele>210.82</ele>
      </trkpt>
      <trkpt lat="45.461675" lon="-72.32868">
        <ele>211.15</ele>
      </trkpt>
      <trkpt lat="45.461" lon="-72.32888">
        <ele>211.48</ele>
      </trkpt>
      <trkpt lat="45.46063" lon="-72.32906">
        <ele>211.7</ele>
      </trkpt>
      <trkpt lat="45.46036" lon="-72.32924">
        <ele>211.63</ele>
      </trkpt>
      <trkpt lat="45.45982" lon="-72.32965">
        <ele>211.65</ele>
      </trkpt>
      <trkpt lat="45.45954" lon="-72.3299">
        <ele>211.5</ele>
      </trkpt>
      <trkpt lat="45.45954" lon="-72.3299">
        <ele>211.5</ele>
      </trkpt>
      <trkpt lat="45.45893" lon="-72.33046">
        <ele>211.01</ele>
      </trkpt>
      <trkpt lat="45.4582022" lon="-72.3310945">
        <ele>209.14</ele>
      </trkpt>
      <trkpt lat="45.4574745" lon="-72.331729">
        <ele>208.27</ele>
      </trkpt>
      <trkpt lat="45.4567467" lon="-72.3323635">
        <ele>208.25</ele>
      </trkpt>
      <trkpt lat="45.4560189" lon="-72.3329979">
        <ele>206.25</ele>
      </trkpt>
      <trkpt lat="45.4552911" lon="-72.3336324">
        <ele>205.74</ele>
      </trkpt>
      <trkpt lat="45.4545634" lon="-72.3342668">
        <ele>205.62</ele>
      </trkpt>
      <trkpt lat="45.4538356" lon="-72.3349012">
        <ele>205.79</ele>
      </trkpt>
      <trkpt lat="45.4531078" lon="-72.3355356">
        <ele>205.87</ele>
      </trkpt>
      <trkpt lat="45.45238" lon="-72.33617">
        <ele>207.1</ele>
      </trkpt>
      <trkpt lat="45.4517933" lon="-72.33667">
        <ele>207.74</ele>
      </trkpt>
      <trkpt lat="45.4512067" lon="-72.33717">
        <ele>209.44</ele>
      </trkpt>
      <trkpt lat="45.45062" lon="-72.33767">
        <ele>209.49</ele>
      </trkpt>
      <trkpt lat="45.4499" lon="-72.33837">
        <ele>209.01</ele>
      </trkpt>
      <trkpt lat="45.44934" lon="-72.33883">
        <ele>209.64</ele>
      </trkpt>
      <trkpt lat="45.44894" lon="-72.33914">
        <ele>209.72</ele>
      </trkpt>
      <trkpt lat="45.44854" lon="-72.33945">
        <ele>209.41</ele>
      </trkpt>
      <trkpt lat="45.44809" lon="-72.33972">
        <ele>209.13</ele>
      </trkpt>
      <trkpt lat="45.44745" lon="-72.34008">
        <ele>208.84</ele>
      </trkpt>
      <trkpt lat="45.44703" lon="-72.3403">
        <ele>208.82</ele>
      </trkpt>
      <trkpt lat="45.44647" lon="-72.34053">
        <ele>208.89</ele>
      </trkpt>
      <trkpt lat="45.44587" lon="-72.34071">
        <ele>208.84</ele>
      </trkpt>
      <trkpt lat="45.44535" lon="-72.34084">
        <ele>208.91</ele>
      </trkpt>
      <trkpt lat="45.44461" lon="-72.340955">
        <ele>208.99</ele>
      </trkpt>
      <trkpt lat="45.44387" lon="-72.34107">
        <ele>209.68</ele>
      </trkpt>
      <trkpt lat="45.4432" lon="-72.3411">
        <ele>210.51</ele>
      </trkpt>
      <trkpt lat="45.44232" lon="-72.3412">
        <ele>207.77</ele>
      </trkpt>
      <trkpt lat="45.44144" lon="-72.3413">
        <ele>208.16</ele>
      </trkpt>
      <trkpt lat="45.4406875" lon="-72.341375">
        <ele>209.05</ele>
      </trkpt>
      <trkpt lat="45.439935" lon="-72.34145">
        <ele>210</ele>
      </trkpt>
      <trkpt lat="45.4391825" lon="-72.341525">
        <ele>210.37</ele>
      </trkpt>
      <trkpt lat="45.43843" lon="-72.3416">
        <ele>210.88</ele>
      </trkpt>
      <trkpt lat="45.4375467" lon="-72.3417067">
        <ele>210.37</ele>
      </trkpt>
      <trkpt lat="45.4366633" lon="-72.3418133">
        <ele>210.28</ele>
      </trkpt>
      <trkpt lat="45.43578" lon="-72.34192">
        <ele>211.01</ele>
      </trkpt>
      <trkpt lat="45.43528" lon="-72.34192">
        <ele>211.21</ele>
      </trkpt>
      <trkpt lat="45.4346025" lon="-72.34191">
        <ele>211.35</ele>
      </trkpt>
      <trkpt lat="45.433925" lon="-72.3419">
        <ele>211.66</ele>
      </trkpt>
      <trkpt lat="45.4332475" lon="-72.34189">
        <ele>212.91</ele>
      </trkpt>
      <trkpt lat="45.43257" lon="-72.34188">
        <ele>214.05</ele>
      </trkpt>
      <trkpt lat="45.43174" lon="-72.34185">
        <ele>214.91</ele>
      </trkpt>
      <trkpt lat="45.43091" lon="-72.34182">
        <ele>215.21</ele>
      </trkpt>
      <trkpt lat="45.43008" lon="-72.34179">
        <ele>213.84</ele>
      </trkpt>
      <trkpt lat="45.429415" lon="-72.341745">
        <ele>213.89</ele>
      </trkpt>
      <trkpt lat="45.42875" lon="-72.3417">
        <ele>214.6</ele>
      </trkpt>
      <trkpt lat="45.4280025" lon="-72.341675">
        <ele>214.79</ele>
      </trkpt>
      <trkpt lat="45.427255" lon="-72.34165">
        <ele>215.01</ele>
      </trkpt>
      <trkpt lat="45.4265075" lon="-72.341625">
        <ele>215.23</ele>
      </trkpt>
      <trkpt lat="45.42576" lon="-72.3416">
        <ele>215.66</ele>
      </trkpt>
      <trkpt lat="45.4253" lon="-72.34155">
        <ele>217.26</ele>
      </trkpt>
      <trkpt lat="45.42523" lon="-72.34148">
        <ele>217.29</ele>
      </trkpt>
      <trkpt lat="45.42512" lon="-72.34146">
        <ele>217.27</ele>
      </trkpt>
      <trkpt lat="45.42475" lon="-72.341895">
        <ele>217.51</ele>
      </trkpt>
      <trkpt lat="45.42438" lon="-72.34233">
        <ele>217.9</ele>
      </trkpt>
      <trkpt lat="45.42388" lon="-72.34282">
        <ele>216.51</ele>
      </trkpt>
      <trkpt lat="45.42315" lon="-72.34344">
        <ele>216.29</ele>
      </trkpt>
      <trkpt lat="45.42238" lon="-72.34402">
        <ele>215.71</ele>
      </trkpt>
      <trkpt lat="45.42217" lon="-72.34411">
        <ele>216</ele>
      </trkpt>
      <trkpt lat="45.422" lon="-72.34417">
        <ele>216.44</ele>
      </trkpt>
      <trkpt lat="45.42164" lon="-72.34422">
        <ele>216.19</ele>
      </trkpt>
      <trkpt lat="45.4215" lon="-72.34426">
        <ele>215.55</ele>
      </trkpt>
      <trkpt lat="45.42148" lon="-72.34433">
        <ele>215.55</ele>
      </trkpt>
      <trkpt lat="45.42146" lon="-72.34446">
        <ele>214.97</ele>
      </trkpt>
      <trkpt lat="45.42148" lon="-72.34535">
        <ele>211.67</ele>
      </trkpt>
      <trkpt lat="45.42146" lon="-72.346105">
        <ele>211.53</ele>
      </trkpt>
      <trkpt lat="45.42144" lon="-72.34686">
        <ele>214.43</ele>
      </trkpt>
      <trkpt lat="45.422255" lon="-72.3468875">
        <ele>213.31</ele>
      </trkpt>
      <trkpt lat="45.42307" lon="-72.346915">
        <ele>212.31</ele>
      </trkpt>
      <trkpt lat="45.423885" lon="-72.3469425">
        <ele>212.65</ele>
      </trkpt>
      <trkpt lat="45.4247" lon="-72.34697">
        <ele>210.3</ele>
      </trkpt>
      <trkpt lat="45.42503" lon="-72.347965">
        <ele>208.44</ele>
      </trkpt>
      <trkpt lat="45.42536" lon="-72.34896">
        <ele>207.5</ele>
      </trkpt>
      <trkpt lat="45.42569" lon="-72.349955">
        <ele>208.64</ele>
      </trkpt>
      <trkpt lat="45.42602" lon="-72.35095">
        <ele>213.31</ele>
      </trkpt>
      <trkpt lat="45.42626" lon="-72.3515">
        <ele>213.78</ele>
      </trkpt>
      <trkpt lat="45.42651" lon="-72.35182">
        <ele>212.62</ele>
      </trkpt>
      <trkpt lat="45.4272475" lon="-72.3524425">
        <ele>211</ele>
      </trkpt>
      <trkpt lat="45.427985" lon="-72.353065">
        <ele>214.39</ele>
      </trkpt>
      <trkpt lat="45.4287225" lon="-72.3536875">
        <ele>214.77</ele>
      </trkpt>
      <trkpt lat="45.42946" lon="-72.35431">
        <ele>214.77</ele>
      </trkpt>
      <trkpt lat="45.42961" lon="-72.35445">
        <ele>214.51</ele>
      </trkpt>
      <trkpt lat="45.42975" lon="-72.3548">
        <ele>214.35</ele>
      </trkpt>
      <trkpt lat="45.4298" lon="-72.35503">
        <ele>214.35</ele>
      </trkpt>
      <trkpt lat="45.4298" lon="-72.355725">
        <ele>214.2</ele>
      </trkpt>
      <trkpt lat="45.4298" lon="-72.35642">
        <ele>214.07</ele>
      </trkpt>
      <trkpt lat="45.429786" lon="-72.357636">
        <ele>213.12</ele>
      </trkpt>
      <trkpt lat="45.429772" lon="-72.358852">
        <ele>211.45</ele>
      </trkpt>
      <trkpt lat="45.429758" lon="-72.360068">
        <ele>207.43</ele>
      </trkpt>
      <trkpt lat="45.429744" lon="-72.361284">
        <ele>205.97</ele>
      </trkpt>
      <trkpt lat="45.42973" lon="-72.3625">
        <ele>204.72</ele>
      </trkpt>
      <trkpt lat="45.42966" lon="-72.36361">
        <ele>205.15</ele>
      </trkpt>
      <trkpt lat="45.42962" lon="-72.364735">
        <ele>211.58</ele>
      </trkpt>
      <trkpt lat="45.42958" lon="-72.36586">
        <ele>221.64</ele>
      </trkpt>
      <trkpt lat="45.42954" lon="-72.366985">
        <ele>231.82</ele>
      </trkpt>
      <trkpt lat="45.4295" lon="-72.36811">
        <ele>241.14</ele>
      </trkpt>
      <trkpt lat="45.42945" lon="-72.3692889">
        <ele>245.22</ele>
      </trkpt>
      <trkpt lat="45.4294001" lon="-72.3704678">
        <ele>247</ele>
      </trkpt>
      <trkpt lat="45.4293501" lon="-72.3716467">
        <ele>247.18</ele>
      </trkpt>
      <trkpt lat="45.4293001" lon="-72.3728256">
        <ele>248.7</ele>
      </trkpt>
      <trkpt lat="45.4292501" lon="-72.3740045">
        <ele>250.03</ele>
      </trkpt>
      <trkpt lat="45.4292001" lon="-72.3751834">
        <ele>250.37</ele>
      </trkpt>
      <trkpt lat="45.4291501" lon="-72.3763622">
        <ele>245</ele>
      </trkpt>
      <trkpt lat="45.4291" lon="-72.3775411">
        <ele>242.04</ele>
      </trkpt>
      <trkpt lat="45.42905" lon="-72.37872">
        <ele>241.07</ele>
      </trkpt>
      <trkpt lat="45.42902" lon="-72.37961">
        <ele>244.14</ele>
      </trkpt>
      <trkpt lat="45.4290267" lon="-72.3806633">
        <ele>245.76</ele>
      </trkpt>
      <trkpt lat="45.4290333" lon="-72.3817167">
        <ele>242.5</ele>
      </trkpt>
      <trkpt lat="45.42904" lon="-72.38277">
        <ele>236.89</ele>
      </trkpt>
      <trkpt lat="45.42897" lon="-72.383855">
        <ele>235.29</ele>
      </trkpt>
      <trkpt lat="45.4289" lon="-72.38494">
        <ele>234.88</ele>
      </trkpt>
      <trkpt lat="45.4289" lon="-72.38491">
        <ele>234.07</ele>
      </trkpt>
      <trkpt lat="45.4288159" lon="-72.3861642">
        <ele>233.76</ele>
      </trkpt>
      <trkpt lat="45.4287318" lon="-72.3874184">
        <ele>228.51</ele>
      </trkpt>
      <trkpt lat="45.4286477" lon="-72.3886726">
        <ele>218.57</ele>
      </trkpt>
      <trkpt lat="45.4285636" lon="-72.3899267">
        <ele>215.45</ele>
      </trkpt>
      <trkpt lat="45.4284794" lon="-72.3911809">
        <ele>214.72</ele>
      </trkpt>
      <trkpt lat="45.4283952" lon="-72.3924351">
        <ele>221.33</ele>
      </trkpt>
      <trkpt lat="45.4283111" lon="-72.3936892">
        <ele>234.78</ele>
      </trkpt>
      <trkpt lat="45.4282269" lon="-72.3949434">
        <ele>243.26</ele>
      </trkpt>
      <trkpt lat="45.4281427" lon="-72.3961976">
        <ele>243.42</ele>
      </trkpt>
      <trkpt lat="45.4280585" lon="-72.3974517">
        <ele>244.22</ele>
      </trkpt>
      <trkpt lat="45.4279742" lon="-72.3987059">
        <ele>239.02</ele>
      </trkpt>
      <trkpt lat="45.42789" lon="-72.39996">
        <ele>239.84</ele>
      </trkpt>
      <trkpt lat="45.427115" lon="-72.39993">
        <ele>236.59</ele>
      </trkpt>
      <trkpt lat="45.42634" lon="-72.3999">
        <ele>230.93</ele>
      </trkpt>
      <trkpt lat="45.4256967" lon="-72.3998533">
        <ele>224.4</ele>
      </trkpt>
      <trkpt lat="45.4250533" lon="-72.3998067">
        <ele>220.69</ele>
      </trkpt>
      <trkpt lat="45.42441" lon="-72.39976">
        <ele>223.75</ele>
      </trkpt>
      <trkpt lat="45.42365" lon="-72.399725">
        <ele>231.01</ele>
      </trkpt>
      <trkpt lat="45.42289" lon="-72.39969">
        <ele>239.2</ele>
      </trkpt>
      <trkpt lat="45.42213" lon="-72.399655">
        <ele>241.66</ele>
      </trkpt>
      <trkpt lat="45.42137" lon="-72.39962">
        <ele>241.35</ele>
      </trkpt>
      <trkpt lat="45.42072" lon="-72.39951">
        <ele>241.78</ele>
      </trkpt>
      <trkpt lat="45.42007" lon="-72.3994">
        <ele>240.52</ele>
      </trkpt>
      <trkpt lat="45.41935" lon="-72.39946">
        <ele>240.92</ele>
      </trkpt>
      <trkpt lat="45.41863" lon="-72.39954">
        <ele>240.73</ele>
      </trkpt>
      <trkpt lat="45.417935" lon="-72.39953">
        <ele>239.67</ele>
      </trkpt>
      <trkpt lat="45.41724" lon="-72.39952">
        <ele>238.27</ele>
      </trkpt>
      <trkpt lat="45.41663" lon="-72.39955">
        <ele>235.64</ele>
      </trkpt>
      <trkpt lat="45.41662" lon="-72.39955">
        <ele>235.63</ele>
      </trkpt>
      <trkpt lat="45.41586" lon="-72.399575">
        <ele>233.35</ele>
      </trkpt>
      <trkpt lat="45.4151" lon="-72.3996">
        <ele>231.56</ele>
      </trkpt>
      <trkpt lat="45.414355" lon="-72.39972">
        <ele>228.9</ele>
      </trkpt>
      <trkpt lat="45.41361" lon="-72.39984">
        <ele>226.98</ele>
      </trkpt>
      <trkpt lat="45.41334" lon="-72.39984">
        <ele>226.87</ele>
      </trkpt>
      <trkpt lat="45.41317" lon="-72.39986">
        <ele>226.67</ele>
      </trkpt>
      <trkpt lat="45.4123656" lon="-72.4000434">
        <ele>228.39</ele>
      </trkpt>
      <trkpt lat="45.4115611" lon="-72.4002267">
        <ele>231.48</ele>
      </trkpt>
      <trkpt lat="45.4107567" lon="-72.40041">
        <ele>231.86</ele>
      </trkpt>
      <trkpt lat="45.4099522" lon="-72.4005934">
        <ele>234.17</ele>
      </trkpt>
      <trkpt lat="45.4091478" lon="-72.4007767">
        <ele>233.83</ele>
      </trkpt>
      <trkpt lat="45.4083433" lon="-72.40096">
        <ele>232.98</ele>
      </trkpt>
      <trkpt lat="45.4075389" lon="-72.4011434">
        <ele>232.53</ele>
      </trkpt>
      <trkpt lat="45.4067344" lon="-72.4013267">
        <ele>237.51</ele>
      </trkpt>
      <trkpt lat="45.40593" lon="-72.40151">
        <ele>242.12</ele>
      </trkpt>
      <trkpt lat="45.40586" lon="-72.40156">
        <ele>242.12</ele>
      </trkpt>
      <trkpt lat="45.40575" lon="-72.40172">
        <ele>242.67</ele>
      </trkpt>
      <trkpt lat="45.40566" lon="-72.40191">
        <ele>243.65</ele>
      </trkpt>
      <trkpt lat="45.4056" lon="-72.40217">
        <ele>244.26</ele>
      </trkpt>
      <trkpt lat="45.40549" lon="-72.4024">
        <ele>244.68</ele>
      </trkpt>
      <trkpt lat="45.40534" lon="-72.40255">
        <ele>245.34</ele>
      </trkpt>
      <trkpt lat="45.404615" lon="-72.402725">
        <ele>248.75</ele>
      </trkpt>
      <trkpt lat="45.40389" lon="-72.4029">
        <ele>255.01</ele>
      </trkpt>
      <trkpt lat="45.40303" lon="-72.40307">
        <ele>260.65</ele>
      </trkpt>
      <trkpt lat="45.402255" lon="-72.403285">
        <ele>266.65</ele>
      </trkpt>
      <trkpt lat="45.40148" lon="-72.4035">
        <ele>270.21</ele>
      </trkpt>
      <trkpt lat="45.40125" lon="-72.4036">
        <ele>270.44</ele>
      </trkpt>
      <trkpt lat="45.40084" lon="-72.40388">
        <ele>272.92</ele>
      </trkpt>
      <trkpt lat="45.400345" lon="-72.404265">
        <ele>277.04</ele>
      </trkpt>
      <trkpt lat="45.39985" lon="-72.40465">
        <ele>279.16</ele>
      </trkpt>
      <trkpt lat="45.39922" lon="-72.405025">
        <ele>280.02</ele>
      </trkpt>
      <trkpt lat="45.39859" lon="-72.4054">
        <ele>281.03</ele>
      </trkpt>
      <trkpt lat="45.39785" lon="-72.4059533">
        <ele>280.42</ele>
      </trkpt>
      <trkpt lat="45.39711" lon="-72.4065067">
        <ele>281.83</ele>
      </trkpt>
      <trkpt lat="45.39637" lon="-72.40706">
        <ele>285.06</ele>
      </trkpt>
      <trkpt lat="45.3956767" lon="-72.4075367">
        <ele>287.3</ele>
      </trkpt>
      <trkpt lat="45.3949833" lon="-72.4080133">
        <ele>286.6</ele>
      </trkpt>
      <trkpt lat="45.39429" lon="-72.40849">
        <ele>285.49</ele>
      </trkpt>
      <trkpt lat="45.39365" lon="-72.40884">
        <ele>282.61</ele>
      </trkpt>
      <trkpt lat="45.39282" lon="-72.40918">
        <ele>279.62</ele>
      </trkpt>
      <trkpt lat="45.39199" lon="-72.40952">
        <ele>282.28</ele>
      </trkpt>
      <trkpt lat="45.39166" lon="-72.4097">
        <ele>283.65</ele>
      </trkpt>
      <trkpt lat="45.39111" lon="-72.41007">
        <ele>286.15</ele>
      </trkpt>
      <trkpt lat="45.3909" lon="-72.41028">
        <ele>286.54</ele>
      </trkpt>
      <trkpt lat="45.39031" lon="-72.410995">
        <ele>285.92</ele>
      </trkpt>
      <trkpt lat="45.38972" lon="-72.41171">
        <ele>285.33</ele>
      </trkpt>
      <trkpt lat="45.38944" lon="-72.41199">
        <ele>285.15</ele>
      </trkpt>
      <trkpt lat="45.38914" lon="-72.41223">
        <ele>284.81</ele>
      </trkpt>
      <trkpt lat="45.3890967" lon="-72.4133833">
        <ele>289.84</ele>
      </trkpt>
      <trkpt lat="45.3890533" lon="-72.4145367">
        <ele>291.17</ele>
      </trkpt>
      <trkpt lat="45.38901" lon="-72.41569">
        <ele>287.38</ele>
      </trkpt>
      <trkpt lat="45.388945" lon="-72.4166975">
        <ele>284.55</ele>
      </trkpt>
      <trkpt lat="45.38888" lon="-72.417705">
        <ele>283.81</ele>
      </trkpt>
      <trkpt lat="45.388815" lon="-72.4187125">
        <ele>284.47</ele>
      </trkpt>
      <trkpt lat="45.38875" lon="-72.41972">
        <ele>285.01</ele>
      </trkpt>
      <trkpt lat="45.388664" lon="-72.420936">
        <ele>283.23</ele>
      </trkpt>
      <trkpt lat="45.388578" lon="-72.422152">
        <ele>278.41</ele>
      </trkpt>
      <trkpt lat="45.388492" lon="-72.423368">
        <ele>276.68</ele>
      </trkpt>
      <trkpt lat="45.388406" lon="-72.424584">
        <ele>275.72</ele>
      </trkpt>
      <trkpt lat="45.38832" lon="-72.4258">
        <ele>274.39</ele>
      </trkpt>
      <trkpt lat="45.38832" lon="-72.42581">
        <ele>274.37</ele>
      </trkpt>
      <trkpt lat="45.3882367" lon="-72.4270067">
        <ele>271.4</ele>
      </trkpt>
      <trkpt lat="45.3881533" lon="-72.4282033">
        <ele>264.08</ele>
      </trkpt>
      <trkpt lat="45.38807" lon="-72.4294">
        <ele>257.13</ele>
      </trkpt>
      <trkpt lat="45.3879933" lon="-72.43034">
        <ele>253.15</ele>
      </trkpt>
      <trkpt lat="45.3879167" lon="-72.43128">
        <ele>250.79</ele>
      </trkpt>
      <trkpt lat="45.38784" lon="-72.43222">
        <ele>250.09</ele>
      </trkpt>
      <trkpt lat="45.38773" lon="-72.43343">
        <ele>249.65</ele>
      </trkpt>
      <trkpt lat="45.38762" lon="-72.43464">
        <ele>248.79</ele>
      </trkpt>
      <trkpt lat="45.38763" lon="-72.43499">
        <ele>249.02</ele>
      </trkpt>
      <trkpt lat="45.38771" lon="-72.43562">
        <ele>250.39</ele>
      </trkpt>
      <trkpt lat="45.38784" lon="-72.43608">
        <ele>252.85</ele>
      </trkpt>
      <trkpt lat="45.38788" lon="-72.43647">
        <ele>256.26</ele>
      </trkpt>
      <trkpt lat="45.38788" lon="-72.43674">
        <ele>258.87</ele>
      </trkpt>
      <trkpt lat="45.38785" lon="-72.43692">
        <ele>259.57</ele>
      </trkpt>
      <trkpt lat="45.38751" lon="-72.43794">
        <ele>258.33</ele>
      </trkpt>
      <trkpt lat="45.38734" lon="-72.43858">
        <ele>257.88</ele>
      </trkpt>
      <trkpt lat="45.38722" lon="-72.4397">
        <ele>252.23</ele>
      </trkpt>
      <trkpt lat="45.3871167" lon="-72.4409067">
        <ele>252.97</ele>
      </trkpt>
      <trkpt lat="45.3870133" lon="-72.4421133">
        <ele>256.16</ele>
      </trkpt>
      <trkpt lat="45.38691" lon="-72.44332">
        <ele>264.41</ele>
      </trkpt>
      <trkpt lat="45.38686" lon="-72.44372">
        <ele>267.24</ele>
      </trkpt>
      <trkpt lat="45.38673" lon="-72.44408">
        <ele>269.47</ele>
      </trkpt>
      <trkpt lat="45.38642" lon="-72.44479">
        <ele>270.5</ele>
      </trkpt>
      <trkpt lat="45.38629" lon="-72.44524">
        <ele>269.8</ele>
      </trkpt>
      <trkpt lat="45.38623" lon="-72.44556">
        <ele>269.05</ele>
      </trkpt>
      <trkpt lat="45.38623" lon="-72.44592">
        <ele>267</ele>
      </trkpt>
      <trkpt lat="45.38625" lon="-72.44623">
        <ele>265.99</ele>
      </trkpt>
      <trkpt lat="45.38647" lon="-72.44708">
        <ele>265.62</ele>
      </trkpt>
      <trkpt lat="45.38669" lon="-72.44793">
        <ele>264.72</ele>
      </trkpt>
      <trkpt lat="45.38691" lon="-72.44878">
        <ele>265.96</ele>
      </trkpt>
      <trkpt lat="45.38709" lon="-72.44924">
        <ele>266.61</ele>
      </trkpt>
      <trkpt lat="45.3872" lon="-72.44941">
        <ele>266.64</ele>
      </trkpt>
      <trkpt lat="45.38735" lon="-72.44951">
        <ele>266.85</ele>
      </trkpt>
      <trkpt lat="45.3882" lon="-72.4498875">
        <ele>269.59</ele>
      </trkpt>
      <trkpt lat="45.38905" lon="-72.450265">
        <ele>269.76</ele>
      </trkpt>
      <trkpt lat="45.3899" lon="-72.4506425">
        <ele>266.83</ele>
      </trkpt>
      <trkpt lat="45.39075" lon="-72.45102">
        <ele>258.62</ele>
      </trkpt>
      <trkpt lat="45.39113" lon="-72.4513">
        <ele>256.84</ele>
      </trkpt>
      <trkpt lat="45.39145" lon="-72.45169">
        <ele>257.8</ele>
      </trkpt>
      <trkpt lat="45.39171" lon="-72.45214">
        <ele>260.01</ele>
      </trkpt>
      <trkpt lat="45.39186" lon="-72.45267">
        <ele>261.49</ele>
      </trkpt>
      <trkpt lat="45.3920175" lon="-72.4538925">
        <ele>264.66</ele>
      </trkpt>
      <trkpt lat="45.392175" lon="-72.455115">
        <ele>261.61</ele>
      </trkpt>
      <trkpt lat="45.3923325" lon="-72.4563375">
        <ele>263.86</ele>
      </trkpt>
      <trkpt lat="45.39249" lon="-72.45756">
        <ele>268.96</ele>
      </trkpt>
      <trkpt lat="45.39265" lon="-72.4585">
        <ele>269.84</ele>
      </trkpt>
      <trkpt lat="45.39292" lon="-72.45945">
        <ele>269.19</ele>
      </trkpt>
      <trkpt lat="45.39297" lon="-72.45989">
        <ele>267.47</ele>
      </trkpt>
      <trkpt lat="45.39284" lon="-72.4611">
        <ele>263.7</ele>
      </trkpt>
      <trkpt lat="45.39266" lon="-72.4615">
        <ele>263.22</ele>
      </trkpt>
      <trkpt lat="45.39247" lon="-72.46176">
        <ele>262.79</ele>
      </trkpt>
      <trkpt lat="45.3918033" lon="-72.46242">
        <ele>262.18</ele>
      </trkpt>
      <trkpt lat="45.3911367" lon="-72.46308">
        <ele>266.45</ele>
      </trkpt>
      <trkpt lat="45.39047" lon="-72.46374">
        <ele>270.2</ele>
      </trkpt>
      <trkpt lat="45.39002" lon="-72.46423">
        <ele>274.82</ele>
      </trkpt>
      <trkpt lat="45.38975" lon="-72.46459">
        <ele>277.32</ele>
      </trkpt>
      <trkpt lat="45.38924" lon="-72.46537">
        <ele>280.08</ele>
      </trkpt>
      <trkpt lat="45.38873" lon="-72.46615">
        <ele>280.4</ele>
      </trkpt>
      <trkpt lat="45.38856" lon="-72.46633">
        <ele>280.41</ele>
      </trkpt>
      <trkpt lat="45.38838" lon="-72.46647">
        <ele>280.64</ele>
      </trkpt>
      <trkpt lat="45.38829" lon="-72.4665">
        <ele>280.64</ele>
      </trkpt>
      <trkpt lat="45.3875833" lon="-72.4668867">
        <ele>282.83</ele>
      </trkpt>
      <trkpt lat="45.3868767" lon="-72.4672733">
        <ele>285.27</ele>
      </trkpt>
      <trkpt lat="45.38617" lon="-72.46766">
        <ele>286.56</ele>
      </trkpt>
      <trkpt lat="45.3853367" lon="-72.4681067">
        <ele>288.39</ele>
      </trkpt>
      <trkpt lat="45.3845033" lon="-72.4685533">
        <ele>289.01</ele>
      </trkpt>
      <trkpt lat="45.38367" lon="-72.469">
        <ele>289.9</ele>
      </trkpt>
      <trkpt lat="45.383075" lon="-72.46935">
        <ele>290.67</ele>
      </trkpt>
      <trkpt lat="45.38248" lon="-72.4697">
        <ele>291.1</ele>
      </trkpt>
      <trkpt lat="45.3819" lon="-72.4700267">
        <ele>291.5</ele>
      </trkpt>
      <trkpt lat="45.38132" lon="-72.4703533">
        <ele>291.54</ele>
      </trkpt>
      <trkpt lat="45.38074" lon="-72.47068">
        <ele>291.67</ele>
      </trkpt>
      <trkpt lat="45.38026" lon="-72.47098">
        <ele>291.4</ele>
      </trkpt>
      <trkpt lat="45.379535" lon="-72.4713575">
        <ele>289.05</ele>
      </trkpt>
      <trkpt lat="45.37881" lon="-72.471735">
        <ele>288.29</ele>
      </trkpt>
      <trkpt lat="45.378085" lon="-72.4721125">
        <ele>289.11</ele>
      </trkpt>
      <trkpt lat="45.37736" lon="-72.47249">
        <ele>290.55</ele>
      </trkpt>
      <trkpt lat="45.37667" lon="-72.47279">
        <ele>290.06</ele>
      </trkpt>
      <trkpt lat="45.37667" lon="-72.4728">
        <ele>290.05</ele>
      </trkpt>
      <trkpt lat="45.37593" lon="-72.47314">
        <ele>285.92</ele>
      </trkpt>
      <trkpt lat="45.37573" lon="-72.47327">
        <ele>285.02</ele>
      </trkpt>
      <trkpt lat="45.37553" lon="-72.47345">
        <ele>282.74</ele>
      </trkpt>
      <trkpt lat="45.37536" lon="-72.47372">
        <ele>281.24</ele>
      </trkpt>
      <trkpt lat="45.37532" lon="-72.47386">
        <ele>281.24</ele>
      </trkpt>
      <trkpt lat="45.37529" lon="-72.47408">
        <ele>278.93</ele>
      </trkpt>
      <trkpt lat="45.3753675" lon="-72.4753">
        <ele>276.22</ele>
      </trkpt>
      <trkpt lat="45.375445" lon="-72.47652">
        <ele>280.09</ele>
      </trkpt>
      <trkpt lat="45.3755225" lon="-72.47774">
        <ele>282.99</ele>
      </trkpt>
      <trkpt lat="45.3756" lon="-72.47896">
        <ele>283.16</ele>
      </trkpt>
      <trkpt lat="45.37562" lon="-72.47994">
        <ele>282.26</ele>
      </trkpt>
      <trkpt lat="45.37564" lon="-72.48092">
        <ele>279.02</ele>
      </trkpt>
      <trkpt lat="45.37567" lon="-72.48129">
        <ele>276.71</ele>
      </trkpt>
      <trkpt lat="45.37578" lon="-72.48209">
        <ele>269.35</ele>
      </trkpt>
      <trkpt lat="45.37585" lon="-72.48294">
        <ele>265.87</ele>
      </trkpt>
      <trkpt lat="45.375895" lon="-72.483815">
        <ele>265.36</ele>
      </trkpt>
      <trkpt lat="45.37594" lon="-72.48469">
        <ele>265.2</ele>
      </trkpt>
      <trkpt lat="45.37597" lon="-72.48585">
        <ele>262.33</ele>
      </trkpt>
      <trkpt lat="45.37594" lon="-72.48638">
        <ele>260.75</ele>
      </trkpt>
      <trkpt lat="45.37587" lon="-72.48688">
        <ele>259.44</ele>
      </trkpt>
      <trkpt lat="45.37576" lon="-72.48738">
        <ele>258.59</ele>
      </trkpt>
      <trkpt lat="45.37555" lon="-72.4882133">
        <ele>256.42</ele>
      </trkpt>
      <trkpt lat="45.37534" lon="-72.4890467">
        <ele>255.03</ele>
      </trkpt>
      <trkpt lat="45.37513" lon="-72.48988">
        <ele>253.31</ele>
      </trkpt>
      <trkpt lat="45.37488" lon="-72.49063">
        <ele>251.45</ele>
      </trkpt>
      <trkpt lat="45.374645" lon="-72.49122">
        <ele>250.43</ele>
      </trkpt>
      <trkpt lat="45.37441" lon="-72.49181">
        <ele>249.94</ele>
      </trkpt>
      <trkpt lat="45.37415" lon="-72.49231">
        <ele>249.22</ele>
      </trkpt>
      <trkpt lat="45.37378" lon="-72.49285">
        <ele>247.88</ele>
      </trkpt>
      <trkpt lat="45.37323" lon="-72.4935233">
        <ele>246.06</ele>
      </trkpt>
      <trkpt lat="45.37268" lon="-72.4941967">
        <ele>242.98</ele>
      </trkpt>
      <trkpt lat="45.37213" lon="-72.49487">
        <ele>242.03</ele>
      </trkpt>
      <trkpt lat="45.37198" lon="-72.49499">
        <ele>243.16</ele>
      </trkpt>
      <trkpt lat="45.371535" lon="-72.495105">
        <ele>244.09</ele>
      </trkpt>
      <trkpt lat="45.37109" lon="-72.49522">
        <ele>246.17</ele>
      </trkpt>
      <trkpt lat="45.3708" lon="-72.49535">
        <ele>246.47</ele>
      </trkpt>
      <trkpt lat="45.37056" lon="-72.49549">
        <ele>246.38</ele>
      </trkpt>
      <trkpt lat="45.36979" lon="-72.496015">
        <ele>244.97</ele>
      </trkpt>
      <trkpt lat="45.36902" lon="-72.49654">
        <ele>243.55</ele>
      </trkpt>
      <trkpt lat="45.36834" lon="-72.497065">
        <ele>241.66</ele>
      </trkpt>
      <trkpt lat="45.36766" lon="-72.49759">
        <ele>238.74</ele>
      </trkpt>
      <trkpt lat="45.36737" lon="-72.49785">
        <ele>236.09</ele>
      </trkpt>
      <trkpt lat="45.36674" lon="-72.49851">
        <ele>233.41</ele>
      </trkpt>
      <trkpt lat="45.36611" lon="-72.49917">
        <ele>232.64</ele>
      </trkpt>
      <trkpt lat="45.365735" lon="-72.49954">
        <ele>231.63</ele>
      </trkpt>
      <trkpt lat="45.36536" lon="-72.49991">
        <ele>231.25</ele>
      </trkpt>
      <trkpt lat="45.36502" lon="-72.5002">
        <ele>231</ele>
      </trkpt>
      <trkpt lat="45.36479" lon="-72.50038">
        <ele>230.86</ele>
      </trkpt>
      <trkpt lat="45.36422" lon="-72.50076">
        <ele>230.17</ele>
      </trkpt>
      <trkpt lat="45.36368" lon="-72.501">
        <ele>228.12</ele>
      </trkpt>
      <trkpt lat="45.36368" lon="-72.501">
        <ele>228.12</ele>
      </trkpt>
      <trkpt lat="45.36321" lon="-72.50122">
        <ele>226.76</ele>
      </trkpt>
      <trkpt lat="45.36274" lon="-72.50144">
        <ele>226.41</ele>
      </trkpt>
      <trkpt lat="45.3622" lon="-72.50171">
        <ele>227.59</ele>
      </trkpt>
      <trkpt lat="45.3614" lon="-72.502175">
        <ele>229.49</ele>
      </trkpt>
      <trkpt lat="45.3606" lon="-72.50264">
        <ele>230.16</ele>
      </trkpt>
      <trkpt lat="45.35977" lon="-72.50304">
        <ele>231.89</ele>
      </trkpt>
      <trkpt lat="45.35923" lon="-72.50331">
        <ele>232.97</ele>
      </trkpt>
      <trkpt lat="45.35869" lon="-72.50358">
        <ele>231.86</ele>
      </trkpt>
      <trkpt lat="45.35817" lon="-72.5039">
        <ele>230.21</ele>
      </trkpt>
      <trkpt lat="45.357775" lon="-72.504205">
        <ele>231.64</ele>
      </trkpt>
      <trkpt lat="45.35738" lon="-72.50451">
        <ele>233.19</ele>
      </trkpt>
      <trkpt lat="45.35698" lon="-72.504895">
        <ele>230.59</ele>
      </trkpt>
      <trkpt lat="45.35658" lon="-72.50528">
        <ele>227.18</ele>
      </trkpt>
      <trkpt lat="45.3564" lon="-72.50542">
        <ele>225.49</ele>
      </trkpt>
      <trkpt lat="45.35591" lon="-72.50573">
        <ele>222.92</ele>
      </trkpt>
      <trkpt lat="45.35564" lon="-72.50582">
        <ele>221.78</ele>
      </trkpt>
      <trkpt lat="45.35546" lon="-72.50582">
        <ele>220.65</ele>
      </trkpt>
      <trkpt lat="45.35508" lon="-72.50579">
        <ele>218.62</ele>
      </trkpt>
      <trkpt lat="45.3549" lon="-72.50583">
        <ele>217.58</ele>
      </trkpt>
      <trkpt lat="45.35465" lon="-72.50596">
        <ele>216.95</ele>
      </trkpt>
      <trkpt lat="45.35442" lon="-72.50612">
        <ele>216.89</ele>
      </trkpt>
      <trkpt lat="45.35374" lon="-72.50683">
        <ele>214.76</ele>
      </trkpt>
      <trkpt lat="45.353305" lon="-72.507175">
        <ele>211.2</ele>
      </trkpt>
      <trkpt lat="45.35287" lon="-72.50752">
        <ele>209.54</ele>
      </trkpt>
      <trkpt lat="45.3526" lon="-72.50775">
        <ele>209.24</ele>
      </trkpt>
      <trkpt lat="45.35243" lon="-72.50794">
        <ele>209.36</ele>
      </trkpt>
      <trkpt lat="45.35181" lon="-72.50883">
        <ele>209.94</ele>
      </trkpt>
      <trkpt lat="45.3516" lon="-72.50923">
        <ele>209.71</ele>
      </trkpt>
      <trkpt lat="45.35118" lon="-72.51029">
        <ele>207.68</ele>
      </trkpt>
      <trkpt lat="45.35089" lon="-72.51105">
        <ele>207.09</ele>
      </trkpt>
      <trkpt lat="45.35062" lon="-72.51188">
        <ele>206.85</ele>
      </trkpt>
      <trkpt lat="45.35035" lon="-72.51271">
        <ele>207.5</ele>
      </trkpt>
      <trkpt lat="45.3503" lon="-72.51294">
        <ele>207.5</ele>
      </trkpt>
      <trkpt lat="45.35028" lon="-72.51312">
        <ele>207.62</ele>
      </trkpt>
      <trkpt lat="45.35028" lon="-72.51364">
        <ele>207.55</ele>
      </trkpt>
      <trkpt lat="45.35032" lon="-72.51432">
        <ele>209.84</ele>
      </trkpt>
      <trkpt lat="45.35044" lon="-72.51544">
        <ele>211.48</ele>
      </trkpt>
      <trkpt lat="45.35028" lon="-72.51552">
        <ele>211.71</ele>
      </trkpt>
      <trkpt lat="45.3495225" lon="-72.5157875">
        <ele>212.48</ele>
      </trkpt>
      <trkpt lat="45.348765" lon="-72.516055">
        <ele>213.22</ele>
      </trkpt>
      <trkpt lat="45.3480075" lon="-72.5163225">
        <ele>213.8</ele>
      </trkpt>
      <trkpt lat="45.34725" lon="-72.51659">
        <ele>214.52</ele>
      </trkpt>
      <trkpt lat="45.34734" lon="-72.5171">
        <ele>213.61</ele>
      </trkpt>
      <trkpt lat="45.34733" lon="-72.51719">
        <ele>213.61</ele>
      </trkpt>
      <trkpt lat="45.34736" lon="-72.51735">
        <ele>213.29</ele>
      </trkpt>
    </trkseg>
  </trk>
</gpx>