<?xml version='1.0' encoding='utf-8'?>
<gpx xmlns="http://www.topografix.com/GPX/1/1" xmlns:xsi="http://www.w3.org/2001/XMLSchema-instance" version="1.1" creator="Gravelle Estrie" xsi:schemaLocation="http://www.topografix.com/GPX/1/1 http://www.topografix.com/GPX/1/1/gpx.xsd">
  <metadata>
    <name>When I Get To Heaven 53KM/500MD+</name>
  </metadata>
  <trk>
    <name>When I Get To Heaven 53KM/500MD+</name>
    <trkseg>
      <trkpt lat="45.22234" lon="-72.53275">
        <ele>202.31</ele>
      </trkpt>
      <trkpt lat="45.222305" lon="-72.531585">
        <ele>202.73</ele>
      </trkpt>
      <trkpt lat="45.22227" lon="-72.53042">
        <ele>203.03</ele>
      </trkpt>
      <trkpt lat="45.22218" lon="-72.52972">
        <ele>203.11</ele>
      </trkpt>
      <trkpt lat="45.22205" lon="-72.52914">
        <ele>202.66</ele>
      </trkpt>
      <trkpt lat="45.22188" lon="-72.52854">
        <ele>202.55</ele>
      </trkpt>
      <trkpt lat="45.2215633" lon="-72.5273967">
        <ele>202.09</ele>
      </trkpt>
      <trkpt lat="45.2212467" lon="-72.5262533">
        <ele>202.15</ele>
      </trkpt>
      <trkpt lat="45.22093" lon="-72.52511">
        <ele>202.92</ele>
      </trkpt>
      <trkpt lat="45.221345" lon="-72.5247">
        <ele>202.01</ele>
      </trkpt>
      <trkpt lat="45.22176" lon="-72.52429">
        <ele>202</ele>
      </trkpt>
      <trkpt lat="45.22242" lon="-72.52356">
        <ele>203.77</ele>
      </trkpt>
      <trkpt lat="45.22242" lon="-72.52357">
        <ele>203.7</ele>
      </trkpt>
      <trkpt lat="45.22259" lon="-72.52337">
        <ele>205.08</ele>
      </trkpt>
      <trkpt lat="45.22272" lon="-72.52306">
        <ele>205.86</ele>
      </trkpt>
      <trkpt lat="45.22277" lon="-72.52283">
        <ele>206.32</ele>
      </trkpt>
      <trkpt lat="45.22279" lon="-72.52248">
        <ele>206.85</ele>
      </trkpt>
      <trkpt lat="45.22279" lon="-72.52211">
        <ele>206.85</ele>
      </trkpt>
      <trkpt lat="45.22275" lon="-72.5214">
        <ele>207.88</ele>
      </trkpt>
      <trkpt lat="45.22266" lon="-72.52095">
        <ele>208.17</ele>
      </trkpt>
      <trkpt lat="45.22249" lon="-72.52033">
        <ele>208.63</ele>
      </trkpt>
      <trkpt lat="45.2224" lon="-72.52006">
        <ele>208.71</ele>
      </trkpt>
      <trkpt lat="45.2221" lon="-72.51929">
        <ele>209.61</ele>
      </trkpt>
      <trkpt lat="45.22201" lon="-72.51898">
        <ele>209.85</ele>
      </trkpt>
      <trkpt lat="45.22196" lon="-72.51871">
        <ele>209.92</ele>
      </trkpt>
      <trkpt lat="45.22192" lon="-72.51783">
        <ele>209.51</ele>
      </trkpt>
      <trkpt lat="45.22188" lon="-72.51695">
        <ele>209.15</ele>
      </trkpt>
      <trkpt lat="45.22192" lon="-72.51694">
        <ele>209.15</ele>
      </trkpt>
      <trkpt lat="45.2219" lon="-72.51676">
        <ele>209.14</ele>
      </trkpt>
      <trkpt lat="45.2224275" lon="-72.5159575">
        <ele>208.69</ele>
      </trkpt>
      <trkpt lat="45.222955" lon="-72.515155">
        <ele>207.77</ele>
      </trkpt>
      <trkpt lat="45.2234825" lon="-72.5143525">
        <ele>206.7</ele>
      </trkpt>
      <trkpt lat="45.22401" lon="-72.51355">
        <ele>206.22</ele>
      </trkpt>
      <trkpt lat="45.224" lon="-72.51355">
        <ele>206.22</ele>
      </trkpt>
      <trkpt lat="45.22431" lon="-72.513085">
        <ele>205.17</ele>
      </trkpt>
      <trkpt lat="45.22462" lon="-72.51262">
        <ele>203.99</ele>
      </trkpt>
      <trkpt lat="45.225" lon="-72.51191">
        <ele>202.94</ele>
      </trkpt>
      <trkpt lat="45.22535" lon="-72.51097">
        <ele>202.71</ele>
      </trkpt>
      <trkpt lat="45.22545" lon="-72.51048">
        <ele>202.68</ele>
      </trkpt>
      <trkpt lat="45.22558" lon="-72.50927">
        <ele>202.47</ele>
      </trkpt>
      <trkpt lat="45.22559" lon="-72.50852">
        <ele>202.55</ele>
      </trkpt>
      <trkpt lat="45.22553" lon="-72.507355">
        <ele>202.68</ele>
      </trkpt>
      <trkpt lat="45.22547" lon="-72.50619">
        <ele>202.27</ele>
      </trkpt>
      <trkpt lat="45.2254" lon="-72.50551">
        <ele>202</ele>
      </trkpt>
      <trkpt lat="45.22539" lon="-72.50511">
        <ele>202.11</ele>
      </trkpt>
      <trkpt lat="45.22541" lon="-72.5047">
        <ele>202.11</ele>
      </trkpt>
      <trkpt lat="45.22545" lon="-72.5044">
        <ele>202.37</ele>
      </trkpt>
      <trkpt lat="45.22579" lon="-72.50337">
        <ele>202.46</ele>
      </trkpt>
      <trkpt lat="45.22579" lon="-72.50318">
        <ele>202.36</ele>
      </trkpt>
      <trkpt lat="45.22575" lon="-72.50297">
        <ele>202.36</ele>
      </trkpt>
      <trkpt lat="45.22588" lon="-72.50264">
        <ele>202.11</ele>
      </trkpt>
      <trkpt lat="45.22607" lon="-72.50232">
        <ele>202.24</ele>
      </trkpt>
      <trkpt lat="45.22665" lon="-72.50152">
        <ele>201.76</ele>
      </trkpt>
      <trkpt lat="45.2272433" lon="-72.5006367">
        <ele>201.65</ele>
      </trkpt>
      <trkpt lat="45.2278367" lon="-72.4997534">
        <ele>201.56</ele>
      </trkpt>
      <trkpt lat="45.22843" lon="-72.49887">
        <ele>201.36</ele>
      </trkpt>
      <trkpt lat="45.22874" lon="-72.49843">
        <ele>201.28</ele>
      </trkpt>
      <trkpt lat="45.2289" lon="-72.49822">
        <ele>200.92</ele>
      </trkpt>
      <trkpt lat="45.22918" lon="-72.49798">
        <ele>201.5</ele>
      </trkpt>
      <trkpt lat="45.22975" lon="-72.49762">
        <ele>202</ele>
      </trkpt>
      <trkpt lat="45.230225" lon="-72.497375">
        <ele>201.81</ele>
      </trkpt>
      <trkpt lat="45.2307" lon="-72.49713">
        <ele>202.04</ele>
      </trkpt>
      <trkpt lat="45.23069" lon="-72.49713">
        <ele>202.04</ele>
      </trkpt>
      <trkpt lat="45.23114" lon="-72.49691">
        <ele>201.96</ele>
      </trkpt>
      <trkpt lat="45.23183" lon="-72.49651">
        <ele>202.86</ele>
      </trkpt>
      <trkpt lat="45.23232" lon="-72.49616">
        <ele>203.97</ele>
      </trkpt>
      <trkpt lat="45.2330775" lon="-72.495585">
        <ele>204.1</ele>
      </trkpt>
      <trkpt lat="45.233835" lon="-72.49501">
        <ele>204.2</ele>
      </trkpt>
      <trkpt lat="45.2345925" lon="-72.494435">
        <ele>204</ele>
      </trkpt>
      <trkpt lat="45.23535" lon="-72.49386">
        <ele>204.46</ele>
      </trkpt>
      <trkpt lat="45.23601" lon="-72.4933967">
        <ele>204.49</ele>
      </trkpt>
      <trkpt lat="45.23667" lon="-72.4929333">
        <ele>204.56</ele>
      </trkpt>
      <trkpt lat="45.23733" lon="-72.49247">
        <ele>204.24</ele>
      </trkpt>
      <trkpt lat="45.2380967" lon="-72.49201">
        <ele>203.25</ele>
      </trkpt>
      <trkpt lat="45.2388633" lon="-72.49155">
        <ele>202.99</ele>
      </trkpt>
      <trkpt lat="45.23963" lon="-72.49109">
        <ele>202.98</ele>
      </trkpt>
      <trkpt lat="45.23993" lon="-72.49082">
        <ele>203.07</ele>
      </trkpt>
      <trkpt lat="45.24017" lon="-72.49051">
        <ele>203.16</ele>
      </trkpt>
      <trkpt lat="45.24077" lon="-72.48964">
        <ele>202.8</ele>
      </trkpt>
      <trkpt lat="45.24137" lon="-72.48877">
        <ele>202.89</ele>
      </trkpt>
      <trkpt lat="45.24136" lon="-72.48877">
        <ele>202.89</ele>
      </trkpt>
      <trkpt lat="45.241865" lon="-72.488075">
        <ele>203.52</ele>
      </trkpt>
      <trkpt lat="45.24237" lon="-72.48738">
        <ele>204.08</ele>
      </trkpt>
      <trkpt lat="45.24246" lon="-72.4872">
        <ele>204.26</ele>
      </trkpt>
      <trkpt lat="45.24286" lon="-72.48679">
        <ele>204.1</ele>
      </trkpt>
      <trkpt lat="45.24328" lon="-72.48639">
        <ele>204.48</ele>
      </trkpt>
      <trkpt lat="45.24363" lon="-72.48613">
        <ele>204.66</ele>
      </trkpt>
      <trkpt lat="45.244055" lon="-72.48588">
        <ele>205.27</ele>
      </trkpt>
      <trkpt lat="45.24448" lon="-72.48563">
        <ele>205.36</ele>
      </trkpt>
      <trkpt lat="45.24477" lon="-72.4855">
        <ele>205.41</ele>
      </trkpt>
      <trkpt lat="45.24562" lon="-72.4853">
        <ele>205.48</ele>
      </trkpt>
      <trkpt lat="45.24604" lon="-72.48528">
        <ele>205.2</ele>
      </trkpt>
      <trkpt lat="45.2468133" lon="-72.4853683">
        <ele>204.18</ele>
      </trkpt>
      <trkpt lat="45.2475867" lon="-72.4854567">
        <ele>203.48</ele>
      </trkpt>
      <trkpt lat="45.24836" lon="-72.485545">
        <ele>203.16</ele>
      </trkpt>
      <trkpt lat="45.2491333" lon="-72.4856333">
        <ele>203</ele>
      </trkpt>
      <trkpt lat="45.2499067" lon="-72.4857217">
        <ele>200.56</ele>
      </trkpt>
      <trkpt lat="45.25068" lon="-72.48581">
        <ele>200.38</ele>
      </trkpt>
      <trkpt lat="45.25138" lon="-72.48591">
        <ele>200.7</ele>
      </trkpt>
      <trkpt lat="45.25157" lon="-72.48598">
        <ele>200.62</ele>
      </trkpt>
      <trkpt lat="45.25233" lon="-72.48604">
        <ele>200.65</ele>
      </trkpt>
      <trkpt lat="45.25289" lon="-72.48612">
        <ele>200.13</ele>
      </trkpt>
      <trkpt lat="45.25289" lon="-72.48612">
        <ele>200.13</ele>
      </trkpt>
      <trkpt lat="45.2537817" lon="-72.4862317">
        <ele>200.18</ele>
      </trkpt>
      <trkpt lat="45.2546733" lon="-72.4863433">
        <ele>200.19</ele>
      </trkpt>
      <trkpt lat="45.255565" lon="-72.486455">
        <ele>200.41</ele>
      </trkpt>
      <trkpt lat="45.2564567" lon="-72.4865667">
        <ele>200.4</ele>
      </trkpt>
      <trkpt lat="45.2573483" lon="-72.4866783">
        <ele>200.46</ele>
      </trkpt>
      <trkpt lat="45.25824" lon="-72.48679">
        <ele>200.58</ele>
      </trkpt>
      <trkpt lat="45.25842" lon="-72.48675">
        <ele>200.59</ele>
      </trkpt>
      <trkpt lat="45.25848" lon="-72.48675">
        <ele>200.56</ele>
      </trkpt>
      <trkpt lat="45.25867" lon="-72.48684">
        <ele>200.42</ele>
      </trkpt>
      <trkpt lat="45.2593867" lon="-72.4869133">
        <ele>200.32</ele>
      </trkpt>
      <trkpt lat="45.2601033" lon="-72.4869867">
        <ele>200.2</ele>
      </trkpt>
      <trkpt lat="45.26082" lon="-72.48706">
        <ele>200.45</ele>
      </trkpt>
      <trkpt lat="45.2615467" lon="-72.4871767">
        <ele>200.38</ele>
      </trkpt>
      <trkpt lat="45.2622733" lon="-72.4872933">
        <ele>199.93</ele>
      </trkpt>
      <trkpt lat="45.263" lon="-72.48741">
        <ele>199.81</ele>
      </trkpt>
      <trkpt lat="45.2637267" lon="-72.4875067">
        <ele>199.85</ele>
      </trkpt>
      <trkpt lat="45.2644533" lon="-72.4876033">
        <ele>199.81</ele>
      </trkpt>
      <trkpt lat="45.26518" lon="-72.4877">
        <ele>199.79</ele>
      </trkpt>
      <trkpt lat="45.2660246" lon="-72.4877946">
        <ele>199.62</ele>
      </trkpt>
      <trkpt lat="45.2668692" lon="-72.4878892">
        <ele>199.62</ele>
      </trkpt>
      <trkpt lat="45.2677138" lon="-72.4879838">
        <ele>199.66</ele>
      </trkpt>
      <trkpt lat="45.2685585" lon="-72.4880784">
        <ele>199.81</ele>
      </trkpt>
      <trkpt lat="45.2694031" lon="-72.488173">
        <ele>199.83</ele>
      </trkpt>
      <trkpt lat="45.2702477" lon="-72.4882676">
        <ele>199.76</ele>
      </trkpt>
      <trkpt lat="45.2710923" lon="-72.4883622">
        <ele>199.74</ele>
      </trkpt>
      <trkpt lat="45.2719369" lon="-72.4884569">
        <ele>199.6</ele>
      </trkpt>
      <trkpt lat="45.2727815" lon="-72.4885515">
        <ele>199.33</ele>
      </trkpt>
      <trkpt lat="45.2736262" lon="-72.4886461">
        <ele>199.27</ele>
      </trkpt>
      <trkpt lat="45.2744708" lon="-72.4887407">
        <ele>199.73</ele>
      </trkpt>
      <trkpt lat="45.2753154" lon="-72.4888354">
        <ele>199.79</ele>
      </trkpt>
      <trkpt lat="45.27616" lon="-72.48893">
        <ele>200.09</ele>
      </trkpt>
      <trkpt lat="45.2770163" lon="-72.4890387">
        <ele>199.04</ele>
      </trkpt>
      <trkpt lat="45.2778725" lon="-72.4891475">
        <ele>198.58</ele>
      </trkpt>
      <trkpt lat="45.2787288" lon="-72.4892562">
        <ele>198.72</ele>
      </trkpt>
      <trkpt lat="45.279585" lon="-72.489365">
        <ele>198.72</ele>
      </trkpt>
      <trkpt lat="45.2804413" lon="-72.4894737">
        <ele>199.59</ele>
      </trkpt>
      <trkpt lat="45.2812975" lon="-72.4895825">
        <ele>200.73</ele>
      </trkpt>
      <trkpt lat="45.2821538" lon="-72.4896912">
        <ele>203.67</ele>
      </trkpt>
      <trkpt lat="45.28301" lon="-72.4898">
        <ele>206.05</ele>
      </trkpt>
      <trkpt lat="45.28334" lon="-72.48988">
        <ele>206.05</ele>
      </trkpt>
      <trkpt lat="45.28376" lon="-72.49002">
        <ele>207.06</ele>
      </trkpt>
      <trkpt lat="45.28421" lon="-72.49027">
        <ele>208.1</ele>
      </trkpt>
      <trkpt lat="45.28421" lon="-72.49027">
        <ele>208.08</ele>
      </trkpt>
      <trkpt lat="45.28442" lon="-72.49038">
        <ele>208.66</ele>
      </trkpt>
      <trkpt lat="45.28495" lon="-72.49074">
        <ele>210.08</ele>
      </trkpt>
      <trkpt lat="45.28548" lon="-72.4911">
        <ele>211.8</ele>
      </trkpt>
      <trkpt lat="45.28565" lon="-72.49128">
        <ele>212.36</ele>
      </trkpt>
      <trkpt lat="45.28578" lon="-72.49154">
        <ele>212.62</ele>
      </trkpt>
      <trkpt lat="45.28639" lon="-72.49207">
        <ele>214.47</ele>
      </trkpt>
      <trkpt lat="45.2865" lon="-72.49207">
        <ele>214.59</ele>
      </trkpt>
      <trkpt lat="45.28651" lon="-72.49188">
        <ele>214.72</ele>
      </trkpt>
      <trkpt lat="45.28693" lon="-72.49235">
        <ele>214.4</ele>
      </trkpt>
      <trkpt lat="45.2871" lon="-72.49248">
        <ele>214.4</ele>
      </trkpt>
      <trkpt lat="45.28719" lon="-72.49251">
        <ele>214.36</ele>
      </trkpt>
      <trkpt lat="45.28722" lon="-72.49257">
        <ele>214.4</ele>
      </trkpt>
      <trkpt lat="45.287655" lon="-72.493015">
        <ele>214.71</ele>
      </trkpt>
      <trkpt lat="45.28809" lon="-72.49346">
        <ele>213.97</ele>
      </trkpt>
      <trkpt lat="45.28858" lon="-72.49391">
        <ele>213.58</ele>
      </trkpt>
      <trkpt lat="45.28926" lon="-72.49447">
        <ele>213.59</ele>
      </trkpt>
      <trkpt lat="45.2899925" lon="-72.495105">
        <ele>213.21</ele>
      </trkpt>
      <trkpt lat="45.290725" lon="-72.49574">
        <ele>213.43</ele>
      </trkpt>
      <trkpt lat="45.2914575" lon="-72.496375">
        <ele>212.81</ele>
      </trkpt>
      <trkpt lat="45.29219" lon="-72.49701">
        <ele>213.05</ele>
      </trkpt>
      <trkpt lat="45.29258" lon="-72.49727">
        <ele>212.98</ele>
      </trkpt>
      <trkpt lat="45.29306" lon="-72.49749">
        <ele>213.56</ele>
      </trkpt>
      <trkpt lat="45.29322" lon="-72.49753">
        <ele>213.52</ele>
      </trkpt>
      <trkpt lat="45.29332" lon="-72.49758">
        <ele>212.87</ele>
      </trkpt>
      <trkpt lat="45.2936" lon="-72.49763">
        <ele>212.47</ele>
      </trkpt>
      <trkpt lat="45.29393" lon="-72.49764">
        <ele>212.29</ele>
      </trkpt>
      <trkpt lat="45.2942" lon="-72.49763">
        <ele>212.41</ele>
      </trkpt>
      <trkpt lat="45.29499" lon="-72.4975633">
        <ele>212.57</ele>
      </trkpt>
      <trkpt lat="45.29578" lon="-72.4974967">
        <ele>213.53</ele>
      </trkpt>
      <trkpt lat="45.29657" lon="-72.49743">
        <ele>214.04</ele>
      </trkpt>
      <trkpt lat="45.29657" lon="-72.49744">
        <ele>214.04</ele>
      </trkpt>
      <trkpt lat="45.29729" lon="-72.49737">
        <ele>213.88</ele>
      </trkpt>
      <trkpt lat="45.297995" lon="-72.497295">
        <ele>214.39</ele>
      </trkpt>
      <trkpt lat="45.2987" lon="-72.49722">
        <ele>214.63</ele>
      </trkpt>
      <trkpt lat="45.299405" lon="-72.497145">
        <ele>215.02</ele>
      </trkpt>
      <trkpt lat="45.30011" lon="-72.49707">
        <ele>215.73</ele>
      </trkpt>
      <trkpt lat="45.3007433" lon="-72.4970167">
        <ele>215.82</ele>
      </trkpt>
      <trkpt lat="45.3013767" lon="-72.4969633">
        <ele>216.6</ele>
      </trkpt>
      <trkpt lat="45.30201" lon="-72.49691">
        <ele>217.3</ele>
      </trkpt>
      <trkpt lat="45.30231" lon="-72.49691">
        <ele>217.63</ele>
      </trkpt>
      <trkpt lat="45.3029" lon="-72.49701">
        <ele>218.21</ele>
      </trkpt>
      <trkpt lat="45.30352" lon="-72.49723">
        <ele>218.85</ele>
      </trkpt>
      <trkpt lat="45.304336" lon="-72.49756">
        <ele>219.72</ele>
      </trkpt>
      <trkpt lat="45.305152" lon="-72.49789">
        <ele>220.81</ele>
      </trkpt>
      <trkpt lat="45.305968" lon="-72.49822">
        <ele>221.15</ele>
      </trkpt>
      <trkpt lat="45.306784" lon="-72.49855">
        <ele>221.78</ele>
      </trkpt>
      <trkpt lat="45.3076" lon="-72.49888">
        <ele>222.73</ele>
      </trkpt>
      <trkpt lat="45.30806" lon="-72.49902">
        <ele>223</ele>
      </trkpt>
      <trkpt lat="45.30828" lon="-72.49906">
        <ele>223.42</ele>
      </trkpt>
      <trkpt lat="45.30877" lon="-72.49904">
        <ele>224.09</ele>
      </trkpt>
      <trkpt lat="45.30883" lon="-72.4993">
        <ele>223.8</ele>
      </trkpt>
      <trkpt lat="45.30848" lon="-72.49933">
        <ele>222.81</ele>
      </trkpt>
      <trkpt lat="45.3082" lon="-72.49932">
        <ele>222.47</ele>
      </trkpt>
      <trkpt lat="45.30757" lon="-72.49914">
        <ele>220.76</ele>
      </trkpt>
      <trkpt lat="45.30757" lon="-72.5002425">
        <ele>220.49</ele>
      </trkpt>
      <trkpt lat="45.30757" lon="-72.501345">
        <ele>223.19</ele>
      </trkpt>
      <trkpt lat="45.30757" lon="-72.5024475">
        <ele>223.53</ele>
      </trkpt>
      <trkpt lat="45.30757" lon="-72.50355">
        <ele>223.59</ele>
      </trkpt>
      <trkpt lat="45.307545" lon="-72.50469">
        <ele>222.64</ele>
      </trkpt>
      <trkpt lat="45.30752" lon="-72.50583">
        <ele>224.09</ele>
      </trkpt>
      <trkpt lat="45.30752" lon="-72.50584">
        <ele>224.1</ele>
      </trkpt>
      <trkpt lat="45.30752" lon="-72.50596">
        <ele>224.92</ele>
      </trkpt>
      <trkpt lat="45.30757" lon="-72.50663">
        <ele>226.66</ele>
      </trkpt>
      <trkpt lat="45.3077" lon="-72.50722">
        <ele>227.07</ele>
      </trkpt>
      <trkpt lat="45.30783" lon="-72.50761">
        <ele>225.96</ele>
      </trkpt>
      <trkpt lat="45.30823" lon="-72.50849">
        <ele>222.7</ele>
      </trkpt>
      <trkpt lat="45.30863" lon="-72.50937">
        <ele>223.38</ele>
      </trkpt>
      <trkpt lat="45.30903" lon="-72.51025">
        <ele>229.7</ele>
      </trkpt>
      <trkpt lat="45.30924" lon="-72.51075">
        <ele>231.12</ele>
      </trkpt>
      <trkpt lat="45.30951" lon="-72.51172">
        <ele>226.52</ele>
      </trkpt>
      <trkpt lat="45.30959" lon="-72.51232">
        <ele>225.53</ele>
      </trkpt>
      <trkpt lat="45.30962" lon="-72.513165">
        <ele>227.49</ele>
      </trkpt>
      <trkpt lat="45.30965" lon="-72.51401">
        <ele>230.32</ele>
      </trkpt>
      <trkpt lat="45.30959" lon="-72.51501">
        <ele>229.8</ele>
      </trkpt>
      <trkpt lat="45.30953" lon="-72.51601">
        <ele>228.75</ele>
      </trkpt>
      <trkpt lat="45.309465" lon="-72.516715">
        <ele>227.03</ele>
      </trkpt>
      <trkpt lat="45.3094" lon="-72.51742">
        <ele>226.33</ele>
      </trkpt>
      <trkpt lat="45.30922" lon="-72.51867">
        <ele>224.99</ele>
      </trkpt>
      <trkpt lat="45.30899" lon="-72.5197125">
        <ele>223.18</ele>
      </trkpt>
      <trkpt lat="45.30876" lon="-72.520755">
        <ele>220.38</ele>
      </trkpt>
      <trkpt lat="45.30853" lon="-72.5217975">
        <ele>216.58</ele>
      </trkpt>
      <trkpt lat="45.3083" lon="-72.52284">
        <ele>214.07</ele>
      </trkpt>
      <trkpt lat="45.3082" lon="-72.52338">
        <ele>212.46</ele>
      </trkpt>
      <trkpt lat="45.308095" lon="-72.524165">
        <ele>208.89</ele>
      </trkpt>
      <trkpt lat="45.30799" lon="-72.52495">
        <ele>207.06</ele>
      </trkpt>
      <trkpt lat="45.307785" lon="-72.525755">
        <ele>210.49</ele>
      </trkpt>
      <trkpt lat="45.30758" lon="-72.52656">
        <ele>217.1</ele>
      </trkpt>
      <trkpt lat="45.30749" lon="-72.527">
        <ele>221.46</ele>
      </trkpt>
      <trkpt lat="45.30746" lon="-72.52745">
        <ele>223.48</ele>
      </trkpt>
      <trkpt lat="45.3074572" lon="-72.52855">
        <ele>224.79</ele>
      </trkpt>
      <trkpt lat="45.3074543" lon="-72.52965">
        <ele>223.97</ele>
      </trkpt>
      <trkpt lat="45.3074515" lon="-72.53075">
        <ele>226.3</ele>
      </trkpt>
      <trkpt lat="45.3074486" lon="-72.53185">
        <ele>227.01</ele>
      </trkpt>
      <trkpt lat="45.3074458" lon="-72.53295">
        <ele>226.6</ele>
      </trkpt>
      <trkpt lat="45.3074429" lon="-72.53405">
        <ele>227.8</ele>
      </trkpt>
      <trkpt lat="45.30744" lon="-72.53515">
        <ele>229.96</ele>
      </trkpt>
      <trkpt lat="45.3074315" lon="-72.5363343">
        <ele>227.23</ele>
      </trkpt>
      <trkpt lat="45.3074229" lon="-72.5375186">
        <ele>226.18</ele>
      </trkpt>
      <trkpt lat="45.3074144" lon="-72.5387029">
        <ele>228.11</ele>
      </trkpt>
      <trkpt lat="45.3074058" lon="-72.5398871">
        <ele>230.82</ele>
      </trkpt>
      <trkpt lat="45.3073972" lon="-72.5410714">
        <ele>231.16</ele>
      </trkpt>
      <trkpt lat="45.3073886" lon="-72.5422557">
        <ele>230.52</ele>
      </trkpt>
      <trkpt lat="45.30738" lon="-72.54344">
        <ele>230.2</ele>
      </trkpt>
      <trkpt lat="45.307375" lon="-72.5447167">
        <ele>229.08</ele>
      </trkpt>
      <trkpt lat="45.3073701" lon="-72.5459933">
        <ele>229.09</ele>
      </trkpt>
      <trkpt lat="45.3073651" lon="-72.54727">
        <ele>228.96</ele>
      </trkpt>
      <trkpt lat="45.3073601" lon="-72.5485467">
        <ele>228.9</ele>
      </trkpt>
      <trkpt lat="45.307355" lon="-72.5498233">
        <ele>227.36</ele>
      </trkpt>
      <trkpt lat="45.30735" lon="-72.5511">
        <ele>227.43</ele>
      </trkpt>
      <trkpt lat="45.30733" lon="-72.552285">
        <ele>226.86</ele>
      </trkpt>
      <trkpt lat="45.30731" lon="-72.55347">
        <ele>225.97</ele>
      </trkpt>
      <trkpt lat="45.3073025" lon="-72.5547025">
        <ele>225.64</ele>
      </trkpt>
      <trkpt lat="45.307295" lon="-72.555935">
        <ele>225.81</ele>
      </trkpt>
      <trkpt lat="45.3072875" lon="-72.5571675">
        <ele>225.95</ele>
      </trkpt>
      <trkpt lat="45.30728" lon="-72.5584">
        <ele>226.69</ele>
      </trkpt>
      <trkpt lat="45.30728" lon="-72.5584">
        <ele>226.69</ele>
      </trkpt>
      <trkpt lat="45.3072733" lon="-72.5593367">
        <ele>226.1</ele>
      </trkpt>
      <trkpt lat="45.3072667" lon="-72.5602733">
        <ele>223.31</ele>
      </trkpt>
      <trkpt lat="45.30726" lon="-72.56121">
        <ele>221.3</ele>
      </trkpt>
      <trkpt lat="45.3072625" lon="-72.56217">
        <ele>217.05</ele>
      </trkpt>
      <trkpt lat="45.307265" lon="-72.56313">
        <ele>212.72</ele>
      </trkpt>
      <trkpt lat="45.3072675" lon="-72.56409">
        <ele>210.2</ele>
      </trkpt>
      <trkpt lat="45.30727" lon="-72.56505">
        <ele>208.4</ele>
      </trkpt>
      <trkpt lat="45.3073" lon="-72.56581">
        <ele>207.83</ele>
      </trkpt>
      <trkpt lat="45.30744" lon="-72.566975">
        <ele>207.41</ele>
      </trkpt>
      <trkpt lat="45.30758" lon="-72.56814">
        <ele>205.44</ele>
      </trkpt>
      <trkpt lat="45.3076" lon="-72.56855">
        <ele>201.69</ele>
      </trkpt>
      <trkpt lat="45.30756" lon="-72.56896">
        <ele>198.31</ele>
      </trkpt>
      <trkpt lat="45.30742" lon="-72.56963">
        <ele>194.92</ele>
      </trkpt>
      <trkpt lat="45.30734" lon="-72.57015">
        <ele>193.02</ele>
      </trkpt>
      <trkpt lat="45.30731" lon="-72.5706">
        <ele>192.87</ele>
      </trkpt>
      <trkpt lat="45.3073" lon="-72.5711">
        <ele>193.24</ele>
      </trkpt>
      <trkpt lat="45.307288" lon="-72.572344">
        <ele>188.88</ele>
      </trkpt>
      <trkpt lat="45.307276" lon="-72.573588">
        <ele>183.18</ele>
      </trkpt>
      <trkpt lat="45.307264" lon="-72.574832">
        <ele>176.33</ele>
      </trkpt>
      <trkpt lat="45.307252" lon="-72.576076">
        <ele>171.02</ele>
      </trkpt>
      <trkpt lat="45.30724" lon="-72.57732">
        <ele>169.22</ele>
      </trkpt>
      <trkpt lat="45.3072425" lon="-72.5784512">
        <ele>168.49</ele>
      </trkpt>
      <trkpt lat="45.3072451" lon="-72.5795825">
        <ele>169.06</ele>
      </trkpt>
      <trkpt lat="45.3072476" lon="-72.5807137">
        <ele>168.34</ele>
      </trkpt>
      <trkpt lat="45.3072501" lon="-72.581845">
        <ele>165.55</ele>
      </trkpt>
      <trkpt lat="45.3072526" lon="-72.5829762">
        <ele>163.94</ele>
      </trkpt>
      <trkpt lat="45.3072551" lon="-72.5841075">
        <ele>167.58</ele>
      </trkpt>
      <trkpt lat="45.3072575" lon="-72.5852387">
        <ele>172.58</ele>
      </trkpt>
      <trkpt lat="45.30726" lon="-72.58637">
        <ele>173.53</ele>
      </trkpt>
      <trkpt lat="45.307275" lon="-72.58718">
        <ele>172.55</ele>
      </trkpt>
      <trkpt lat="45.30729" lon="-72.58799">
        <ele>170.79</ele>
      </trkpt>
      <trkpt lat="45.3072884" lon="-72.5892417">
        <ele>166.44</ele>
      </trkpt>
      <trkpt lat="45.3072867" lon="-72.5904933">
        <ele>162.43</ele>
      </trkpt>
      <trkpt lat="45.3072851" lon="-72.591745">
        <ele>159.31</ele>
      </trkpt>
      <trkpt lat="45.3072834" lon="-72.5929967">
        <ele>159.31</ele>
      </trkpt>
      <trkpt lat="45.3072817" lon="-72.5942483">
        <ele>157.79</ele>
      </trkpt>
      <trkpt lat="45.30728" lon="-72.5955">
        <ele>155.92</ele>
      </trkpt>
      <trkpt lat="45.3081475" lon="-72.5954625">
        <ele>154.37</ele>
      </trkpt>
      <trkpt lat="45.309015" lon="-72.595425">
        <ele>156.55</ele>
      </trkpt>
      <trkpt lat="45.3098825" lon="-72.5953875">
        <ele>156.02</ele>
      </trkpt>
      <trkpt lat="45.31075" lon="-72.59535">
        <ele>156.93</ele>
      </trkpt>
      <trkpt lat="45.31074" lon="-72.59535">
        <ele>156.92</ele>
      </trkpt>
      <trkpt lat="45.31146" lon="-72.59531">
        <ele>157.91</ele>
      </trkpt>
      <trkpt lat="45.31218" lon="-72.59527">
        <ele>159.44</ele>
      </trkpt>
      <trkpt lat="45.312895" lon="-72.595255">
        <ele>162.06</ele>
      </trkpt>
      <trkpt lat="45.31361" lon="-72.59524">
        <ele>162.36</ele>
      </trkpt>
      <trkpt lat="45.3144867" lon="-72.5952">
        <ele>160.1</ele>
      </trkpt>
      <trkpt lat="45.3153633" lon="-72.59516">
        <ele>160.55</ele>
      </trkpt>
      <trkpt lat="45.31624" lon="-72.59512">
        <ele>161.02</ele>
      </trkpt>
      <trkpt lat="45.31705" lon="-72.59511">
        <ele>159.92</ele>
      </trkpt>
      <trkpt lat="45.31736" lon="-72.59505">
        <ele>160.19</ele>
      </trkpt>
      <trkpt lat="45.31754" lon="-72.59489">
        <ele>160.38</ele>
      </trkpt>
      <trkpt lat="45.31777" lon="-72.5946">
        <ele>160.54</ele>
      </trkpt>
      <trkpt lat="45.31812" lon="-72.59404">
        <ele>161.2</ele>
      </trkpt>
      <trkpt lat="45.31847" lon="-72.59348">
        <ele>162.05</ele>
      </trkpt>
      <trkpt lat="45.31864" lon="-72.5933">
        <ele>162.01</ele>
      </trkpt>
      <trkpt lat="45.31882" lon="-72.59317">
        <ele>161.9</ele>
      </trkpt>
      <trkpt lat="45.31902" lon="-72.59308">
        <ele>161.91</ele>
      </trkpt>
      <trkpt lat="45.31923" lon="-72.59308">
        <ele>162.04</ele>
      </trkpt>
      <trkpt lat="45.3199917" lon="-72.5931233">
        <ele>165.4</ele>
      </trkpt>
      <trkpt lat="45.3207533" lon="-72.5931667">
        <ele>169.7</ele>
      </trkpt>
      <trkpt lat="45.321515" lon="-72.59321">
        <ele>171.27</ele>
      </trkpt>
      <trkpt lat="45.3222767" lon="-72.5932533">
        <ele>173.38</ele>
      </trkpt>
      <trkpt lat="45.3230383" lon="-72.5932967">
        <ele>175.49</ele>
      </trkpt>
      <trkpt lat="45.3238" lon="-72.59334">
        <ele>176.17</ele>
      </trkpt>
      <trkpt lat="45.32378" lon="-72.59259">
        <ele>175.36</ele>
      </trkpt>
      <trkpt lat="45.32379" lon="-72.59222">
        <ele>175.23</ele>
      </trkpt>
      <trkpt lat="45.32385" lon="-72.59147">
        <ele>175.31</ele>
      </trkpt>
      <trkpt lat="45.32396" lon="-72.59075">
        <ele>175.98</ele>
      </trkpt>
      <trkpt lat="45.32412" lon="-72.59004">
        <ele>176.57</ele>
      </trkpt>
      <trkpt lat="45.32432" lon="-72.58937">
        <ele>177.17</ele>
      </trkpt>
      <trkpt lat="45.32445" lon="-72.58903">
        <ele>177.82</ele>
      </trkpt>
      <trkpt lat="45.32445" lon="-72.58904">
        <ele>177.81</ele>
      </trkpt>
      <trkpt lat="45.32457" lon="-72.58874">
        <ele>178.11</ele>
      </trkpt>
      <trkpt lat="45.3250633" lon="-72.58774">
        <ele>179.16</ele>
      </trkpt>
      <trkpt lat="45.3255567" lon="-72.58674">
        <ele>180.62</ele>
      </trkpt>
      <trkpt lat="45.32605" lon="-72.58574">
        <ele>182.01</ele>
      </trkpt>
      <trkpt lat="45.32638" lon="-72.58501">
        <ele>183.33</ele>
      </trkpt>
      <trkpt lat="45.32671" lon="-72.58386">
        <ele>184.06</ele>
      </trkpt>
      <trkpt lat="45.32688" lon="-72.58287">
        <ele>184.71</ele>
      </trkpt>
      <trkpt lat="45.32692" lon="-72.58251">
        <ele>185.56</ele>
      </trkpt>
      <trkpt lat="45.32697" lon="-72.58165">
        <ele>186.22</ele>
      </trkpt>
      <trkpt lat="45.326928" lon="-72.580506">
        <ele>186.53</ele>
      </trkpt>
      <trkpt lat="45.326886" lon="-72.579362">
        <ele>187.26</ele>
      </trkpt>
      <trkpt lat="45.326844" lon="-72.578218">
        <ele>188.89</ele>
      </trkpt>
      <trkpt lat="45.326802" lon="-72.577074">
        <ele>189.62</ele>
      </trkpt>
      <trkpt lat="45.32676" lon="-72.57593">
        <ele>190.96</ele>
      </trkpt>
      <trkpt lat="45.32677" lon="-72.57486">
        <ele>192.19</ele>
      </trkpt>
      <trkpt lat="45.32682" lon="-72.57405">
        <ele>193.57</ele>
      </trkpt>
      <trkpt lat="45.32698" lon="-72.57281">
        <ele>195.03</ele>
      </trkpt>
      <trkpt lat="45.32714" lon="-72.57204">
        <ele>195.27</ele>
      </trkpt>
      <trkpt lat="45.32732" lon="-72.57132">
        <ele>195.57</ele>
      </trkpt>
      <trkpt lat="45.32756" lon="-72.57056">
        <ele>196.14</ele>
      </trkpt>
      <trkpt lat="45.32787" lon="-72.56972">
        <ele>196.72</ele>
      </trkpt>
      <trkpt lat="45.32836" lon="-72.56872">
        <ele>198.48</ele>
      </trkpt>
      <trkpt lat="45.3288817" lon="-72.5677351">
        <ele>199.22</ele>
      </trkpt>
      <trkpt lat="45.3294034" lon="-72.5667502">
        <ele>200.78</ele>
      </trkpt>
      <trkpt lat="45.3299251" lon="-72.5657652">
        <ele>202.03</ele>
      </trkpt>
      <trkpt lat="45.3304468" lon="-72.5647803">
        <ele>203.59</ele>
      </trkpt>
      <trkpt lat="45.3309685" lon="-72.5637953">
        <ele>204.94</ele>
      </trkpt>
      <trkpt lat="45.3314902" lon="-72.5628103">
        <ele>206.38</ele>
      </trkpt>
      <trkpt lat="45.3320118" lon="-72.5618253">
        <ele>207.88</ele>
      </trkpt>
      <trkpt lat="45.3325335" lon="-72.5608403">
        <ele>208.65</ele>
      </trkpt>
      <trkpt lat="45.3330551" lon="-72.5598552">
        <ele>210.09</ele>
      </trkpt>
      <trkpt lat="45.3335768" lon="-72.5588702">
        <ele>210.83</ele>
      </trkpt>
      <trkpt lat="45.3340984" lon="-72.5578851">
        <ele>211.71</ele>
      </trkpt>
      <trkpt lat="45.33462" lon="-72.5569">
        <ele>212.21</ele>
      </trkpt>
      <trkpt lat="45.33496" lon="-72.55619">
        <ele>212.58</ele>
      </trkpt>
      <trkpt lat="45.33534" lon="-72.55517">
        <ele>212.84</ele>
      </trkpt>
      <trkpt lat="45.3356" lon="-72.55431">
        <ele>213.34</ele>
      </trkpt>
      <trkpt lat="45.335735" lon="-72.55368">
        <ele>213.72</ele>
      </trkpt>
      <trkpt lat="45.33587" lon="-72.55305">
        <ele>213.99</ele>
      </trkpt>
      <trkpt lat="45.33601" lon="-72.55208">
        <ele>214.35</ele>
      </trkpt>
      <trkpt lat="45.3361" lon="-72.5511367">
        <ele>214.38</ele>
      </trkpt>
      <trkpt lat="45.33619" lon="-72.5501933">
        <ele>214.54</ele>
      </trkpt>
      <trkpt lat="45.33628" lon="-72.54925">
        <ele>214.61</ele>
      </trkpt>
      <trkpt lat="45.33627" lon="-72.54925">
        <ele>214.61</ele>
      </trkpt>
      <trkpt lat="45.3363909" lon="-72.5480092">
        <ele>214.62</ele>
      </trkpt>
      <trkpt lat="45.3365118" lon="-72.5467684">
        <ele>214.56</ele>
      </trkpt>
      <trkpt lat="45.3366327" lon="-72.5455276">
        <ele>214.16</ele>
      </trkpt>
      <trkpt lat="45.3367535" lon="-72.5442868">
        <ele>214</ele>
      </trkpt>
      <trkpt lat="45.3368744" lon="-72.5430459">
        <ele>213.63</ele>
      </trkpt>
      <trkpt lat="45.3369952" lon="-72.5418051">
        <ele>212.84</ele>
      </trkpt>
      <trkpt lat="45.3371161" lon="-72.5405643">
        <ele>212.37</ele>
      </trkpt>
      <trkpt lat="45.3372369" lon="-72.5393234">
        <ele>211.73</ele>
      </trkpt>
      <trkpt lat="45.3373577" lon="-72.5380826">
        <ele>211.25</ele>
      </trkpt>
      <trkpt lat="45.3374785" lon="-72.5368417">
        <ele>210.97</ele>
      </trkpt>
      <trkpt lat="45.3375992" lon="-72.5356009">
        <ele>210.77</ele>
      </trkpt>
      <trkpt lat="45.33772" lon="-72.53436">
        <ele>211.3</ele>
      </trkpt>
      <trkpt lat="45.33775" lon="-72.53375">
        <ele>211.33</ele>
      </trkpt>
      <trkpt lat="45.3377833" lon="-72.53278">
        <ele>211.36</ele>
      </trkpt>
      <trkpt lat="45.3378167" lon="-72.53181">
        <ele>212.06</ele>
      </trkpt>
      <trkpt lat="45.33785" lon="-72.53084">
        <ele>212.37</ele>
      </trkpt>
      <trkpt lat="45.33791" lon="-72.52995">
        <ele>212.43</ele>
      </trkpt>
      <trkpt lat="45.33799" lon="-72.52924">
        <ele>211.98</ele>
      </trkpt>
      <trkpt lat="45.3381" lon="-72.52852">
        <ele>212.08</ele>
      </trkpt>
      <trkpt lat="45.3382" lon="-72.52802">
        <ele>212.01</ele>
      </trkpt>
      <trkpt lat="45.3384467" lon="-72.5270233">
        <ele>211.47</ele>
      </trkpt>
      <trkpt lat="45.3386933" lon="-72.5260267">
        <ele>211.31</ele>
      </trkpt>
      <trkpt lat="45.33894" lon="-72.52503">
        <ele>210.55</ele>
      </trkpt>
      <trkpt lat="45.339095" lon="-72.52423">
        <ele>210.5</ele>
      </trkpt>
      <trkpt lat="45.33925" lon="-72.52343">
        <ele>211.12</ele>
      </trkpt>
      <trkpt lat="45.33949" lon="-72.52342">
        <ele>210.45</ele>
      </trkpt>
      <trkpt lat="45.33975" lon="-72.52337">
        <ele>210.12</ele>
      </trkpt>
      <trkpt lat="45.340485" lon="-72.523165">
        <ele>210.2</ele>
      </trkpt>
      <trkpt lat="45.34122" lon="-72.52296">
        <ele>211.08</ele>
      </trkpt>
      <trkpt lat="45.34196" lon="-72.522765">
        <ele>211.5</ele>
      </trkpt>
      <trkpt lat="45.3427" lon="-72.52257">
        <ele>212.22</ele>
      </trkpt>
      <trkpt lat="45.34276" lon="-72.52252">
        <ele>212.22</ele>
      </trkpt>
      <trkpt lat="45.34285" lon="-72.52194">
        <ele>213.9</ele>
      </trkpt>
      <trkpt lat="45.3429" lon="-72.5218">
        <ele>213.9</ele>
      </trkpt>
      <trkpt lat="45.34295" lon="-72.52174">
        <ele>213.83</ele>
      </trkpt>
      <trkpt lat="45.34367" lon="-72.52158">
        <ele>212.42</ele>
      </trkpt>
      <trkpt lat="45.34382" lon="-72.52157">
        <ele>212.67</ele>
      </trkpt>
      <trkpt lat="45.34387" lon="-72.52126">
        <ele>212.18</ele>
      </trkpt>
      <trkpt lat="45.34387" lon="-72.5208">
        <ele>212</ele>
      </trkpt>
      <trkpt lat="45.34381" lon="-72.52037">
        <ele>211.64</ele>
      </trkpt>
      <trkpt lat="45.34368" lon="-72.51976">
        <ele>211.4</ele>
      </trkpt>
      <trkpt lat="45.34365" lon="-72.51948">
        <ele>211.35</ele>
      </trkpt>
      <trkpt lat="45.34364" lon="-72.51912">
        <ele>211.21</ele>
      </trkpt>
      <trkpt lat="45.34364" lon="-72.51913">
        <ele>211.21</ele>
      </trkpt>
      <trkpt lat="45.34365" lon="-72.51894">
        <ele>211.21</ele>
      </trkpt>
      <trkpt lat="45.3438" lon="-72.5180667">
        <ele>211.85</ele>
      </trkpt>
      <trkpt lat="45.34395" lon="-72.5171933">
        <ele>214.31</ele>
      </trkpt>
      <trkpt lat="45.3441" lon="-72.51632">
        <ele>216.3</ele>
      </trkpt>
      <trkpt lat="45.343356" lon="-72.516056">
        <ele>215.72</ele>
      </trkpt>
      <trkpt lat="45.342612" lon="-72.515792">
        <ele>213.91</ele>
      </trkpt>
      <trkpt lat="45.341868" lon="-72.515528">
        <ele>213.81</ele>
      </trkpt>
      <trkpt lat="45.341124" lon="-72.515264">
        <ele>213.3</ele>
      </trkpt>
      <trkpt lat="45.34038" lon="-72.515">
        <ele>212.12</ele>
      </trkpt>
      <trkpt lat="45.339715" lon="-72.514775">
        <ele>212.83</ele>
      </trkpt>
      <trkpt lat="45.33905" lon="-72.51455">
        <ele>216.15</ele>
      </trkpt>
      <trkpt lat="45.33891" lon="-72.51452">
        <ele>216.77</ele>
      </trkpt>
      <trkpt lat="45.33865" lon="-72.51451">
        <ele>216.96</ele>
      </trkpt>
      <trkpt lat="45.33853" lon="-72.51444">
        <ele>217.14</ele>
      </trkpt>
      <trkpt lat="45.33841" lon="-72.51428">
        <ele>217.47</ele>
      </trkpt>
      <trkpt lat="45.33836" lon="-72.51415">
        <ele>217.58</ele>
      </trkpt>
      <trkpt lat="45.33819" lon="-72.51338">
        <ele>217.73</ele>
      </trkpt>
      <trkpt lat="45.33802" lon="-72.51347">
        <ele>217.33</ele>
      </trkpt>
      <trkpt lat="45.33797" lon="-72.5134">
        <ele>217.33</ele>
      </trkpt>
      <trkpt lat="45.3377" lon="-72.512295">
        <ele>216.94</ele>
      </trkpt>
      <trkpt lat="45.33743" lon="-72.51119">
        <ele>217.5</ele>
      </trkpt>
      <trkpt lat="45.33663" lon="-72.51156">
        <ele>215.04</ele>
      </trkpt>
      <trkpt lat="45.3361325" lon="-72.51082">
        <ele>213.78</ele>
      </trkpt>
      <trkpt lat="45.335635" lon="-72.51008">
        <ele>213.73</ele>
      </trkpt>
      <trkpt lat="45.3351375" lon="-72.50934">
        <ele>213.17</ele>
      </trkpt>
      <trkpt lat="45.33464" lon="-72.5086">
        <ele>212.66</ele>
      </trkpt>
      <trkpt lat="45.3344" lon="-72.50828">
        <ele>212.34</ele>
      </trkpt>
      <trkpt lat="45.33411" lon="-72.50801">
        <ele>211.74</ele>
      </trkpt>
      <trkpt lat="45.33395" lon="-72.50788">
        <ele>211.27</ele>
      </trkpt>
      <trkpt lat="45.33363" lon="-72.50766">
        <ele>211.07</ele>
      </trkpt>
      <trkpt lat="45.33328" lon="-72.50752">
        <ele>210.86</ele>
      </trkpt>
      <trkpt lat="45.33277" lon="-72.50743">
        <ele>210.54</ele>
      </trkpt>
      <trkpt lat="45.3320825" lon="-72.5074175">
        <ele>210.76</ele>
      </trkpt>
      <trkpt lat="45.331395" lon="-72.507405">
        <ele>211.46</ele>
      </trkpt>
      <trkpt lat="45.3307075" lon="-72.5073925">
        <ele>212.43</ele>
      </trkpt>
      <trkpt lat="45.33002" lon="-72.50738">
        <ele>214.02</ele>
      </trkpt>
      <trkpt lat="45.32915" lon="-72.50728">
        <ele>216.44</ele>
      </trkpt>
      <trkpt lat="45.32884" lon="-72.50721">
        <ele>216.96</ele>
      </trkpt>
      <trkpt lat="45.32863" lon="-72.50712">
        <ele>217.38</ele>
      </trkpt>
      <trkpt lat="45.32817" lon="-72.50685">
        <ele>218.11</ele>
      </trkpt>
      <trkpt lat="45.32793" lon="-72.50664">
        <ele>218.19</ele>
      </trkpt>
      <trkpt lat="45.32751" lon="-72.50623">
        <ele>218.12</ele>
      </trkpt>
      <trkpt lat="45.32751" lon="-72.50623">
        <ele>218.12</ele>
      </trkpt>
      <trkpt lat="45.3269167" lon="-72.50563">
        <ele>217.87</ele>
      </trkpt>
      <trkpt lat="45.3263233" lon="-72.50503">
        <ele>217.32</ele>
      </trkpt>
      <trkpt lat="45.32573" lon="-72.50443">
        <ele>218.72</ele>
      </trkpt>
      <trkpt lat="45.32556" lon="-72.50427">
        <ele>218.83</ele>
      </trkpt>
      <trkpt lat="45.32497" lon="-72.50377">
        <ele>220.76</ele>
      </trkpt>
      <trkpt lat="45.32472" lon="-72.50363">
        <ele>221.44</ele>
      </trkpt>
      <trkpt lat="45.32425" lon="-72.50341">
        <ele>222.44</ele>
      </trkpt>
      <trkpt lat="45.3238" lon="-72.50331">
        <ele>222.77</ele>
      </trkpt>
      <trkpt lat="45.32291" lon="-72.50318">
        <ele>223.93</ele>
      </trkpt>
      <trkpt lat="45.32202" lon="-72.50305">
        <ele>225.46</ele>
      </trkpt>
      <trkpt lat="45.32199" lon="-72.50206">
        <ele>225.77</ele>
      </trkpt>
      <trkpt lat="45.32203" lon="-72.50117">
        <ele>227.14</ele>
      </trkpt>
      <trkpt lat="45.32197" lon="-72.50067">
        <ele>227.8</ele>
      </trkpt>
      <trkpt lat="45.32194" lon="-72.50063">
        <ele>228.13</ele>
      </trkpt>
      <trkpt lat="45.32177" lon="-72.50053">
        <ele>228.8</ele>
      </trkpt>
      <trkpt lat="45.32173" lon="-72.50045">
        <ele>229.88</ele>
      </trkpt>
      <trkpt lat="45.32176" lon="-72.49964">
        <ele>231.52</ele>
      </trkpt>
      <trkpt lat="45.32182" lon="-72.49955">
        <ele>231.52</ele>
      </trkpt>
      <trkpt lat="45.32204" lon="-72.49957">
        <ele>232.06</ele>
      </trkpt>
      <trkpt lat="45.32207" lon="-72.49955">
        <ele>232.06</ele>
      </trkpt>
      <trkpt lat="45.32209" lon="-72.49925">
        <ele>232.25</ele>
      </trkpt>
      <trkpt lat="45.32212" lon="-72.49919">
        <ele>232.28</ele>
      </trkpt>
      <trkpt lat="45.32222" lon="-72.4991">
        <ele>232.19</ele>
      </trkpt>
      <trkpt lat="45.32224" lon="-72.49902">
        <ele>232.19</ele>
      </trkpt>
      <trkpt lat="45.322325" lon="-72.49817">
        <ele>233.63</ele>
      </trkpt>
      <trkpt lat="45.32241" lon="-72.49732">
        <ele>230.53</ele>
      </trkpt>
      <trkpt lat="45.32245" lon="-72.49718">
        <ele>230.26</ele>
      </trkpt>
      <trkpt lat="45.32275" lon="-72.4966">
        <ele>231.07</ele>
      </trkpt>
      <trkpt lat="45.32282" lon="-72.49633">
        <ele>232.33</ele>
      </trkpt>
      <trkpt lat="45.3229238" lon="-72.49517">
        <ele>233.12</ele>
      </trkpt>
      <trkpt lat="45.3230276" lon="-72.49401">
        <ele>232.21</ele>
      </trkpt>
      <trkpt lat="45.3231313" lon="-72.49285">
        <ele>231.61</ele>
      </trkpt>
      <trkpt lat="45.3232351" lon="-72.49169">
        <ele>231.47</ele>
      </trkpt>
      <trkpt lat="45.3233388" lon="-72.49053">
        <ele>234.72</ele>
      </trkpt>
      <trkpt lat="45.3234426" lon="-72.48937">
        <ele>236.05</ele>
      </trkpt>
      <trkpt lat="45.3235463" lon="-72.48821">
        <ele>234.27</ele>
      </trkpt>
      <trkpt lat="45.32365" lon="-72.48705">
        <ele>237.28</ele>
      </trkpt>
      <trkpt lat="45.32373" lon="-72.486095">
        <ele>244.57</ele>
      </trkpt>
      <trkpt lat="45.32381" lon="-72.48514">
        <ele>246.89</ele>
      </trkpt>
      <trkpt lat="45.32389" lon="-72.48442">
        <ele>245.54</ele>
      </trkpt>
      <trkpt lat="45.32397" lon="-72.4837">
        <ele>242.69</ele>
      </trkpt>
      <trkpt lat="45.32396" lon="-72.48353">
        <ele>242.45</ele>
      </trkpt>
      <trkpt lat="45.32392" lon="-72.48339">
        <ele>242.4</ele>
      </trkpt>
      <trkpt lat="45.3238" lon="-72.48307">
        <ele>241.47</ele>
      </trkpt>
      <trkpt lat="45.32379" lon="-72.48289">
        <ele>241.1</ele>
      </trkpt>
      <trkpt lat="45.32385" lon="-72.482065">
        <ele>241.05</ele>
      </trkpt>
      <trkpt lat="45.32391" lon="-72.48124">
        <ele>243.07</ele>
      </trkpt>
      <trkpt lat="45.323155" lon="-72.480885">
        <ele>246.65</ele>
      </trkpt>
      <trkpt lat="45.3224" lon="-72.48053">
        <ele>251.48</ele>
      </trkpt>
      <trkpt lat="45.32159" lon="-72.48011">
        <ele>252.04</ele>
      </trkpt>
      <trkpt lat="45.32078" lon="-72.47969">
        <ele>257.81</ele>
      </trkpt>
      <trkpt lat="45.3206" lon="-72.47968">
        <ele>260.21</ele>
      </trkpt>
      <trkpt lat="45.31987" lon="-72.47972">
        <ele>268.57</ele>
      </trkpt>
      <trkpt lat="45.31969" lon="-72.4797">
        <ele>269.89</ele>
      </trkpt>
      <trkpt lat="45.31932" lon="-72.47945">
        <ele>273.15</ele>
      </trkpt>
      <trkpt lat="45.318645" lon="-72.478975">
        <ele>273.42</ele>
      </trkpt>
      <trkpt lat="45.31797" lon="-72.4785">
        <ele>275.07</ele>
      </trkpt>
      <trkpt lat="45.31737" lon="-72.47811">
        <ele>278.25</ele>
      </trkpt>
      <trkpt lat="45.31737" lon="-72.4781">
        <ele>278.26</ele>
      </trkpt>
      <trkpt lat="45.31681" lon="-72.47774">
        <ele>278.12</ele>
      </trkpt>
      <trkpt lat="45.31648" lon="-72.47756">
        <ele>278.26</ele>
      </trkpt>
      <trkpt lat="45.31606" lon="-72.47736">
        <ele>277.39</ele>
      </trkpt>
      <trkpt lat="45.31562" lon="-72.477225">
        <ele>277.05</ele>
      </trkpt>
      <trkpt lat="45.31518" lon="-72.47709">
        <ele>278.58</ele>
      </trkpt>
      <trkpt lat="45.314382" lon="-72.476872">
        <ele>280</ele>
      </trkpt>
      <trkpt lat="45.313584" lon="-72.476654">
        <ele>279.74</ele>
      </trkpt>
      <trkpt lat="45.312786" lon="-72.476436">
        <ele>278.81</ele>
      </trkpt>
      <trkpt lat="45.311988" lon="-72.476218">
        <ele>277.99</ele>
      </trkpt>
      <trkpt lat="45.31119" lon="-72.476">
        <ele>273.13</ele>
      </trkpt>
      <trkpt lat="45.3105367" lon="-72.4757967">
        <ele>269.77</ele>
      </trkpt>
      <trkpt lat="45.3098833" lon="-72.4755933">
        <ele>265.33</ele>
      </trkpt>
      <trkpt lat="45.30923" lon="-72.47539">
        <ele>263.75</ele>
      </trkpt>
      <trkpt lat="45.30857" lon="-72.4752767">
        <ele>261.37</ele>
      </trkpt>
      <trkpt lat="45.30791" lon="-72.4751633">
        <ele>260.62</ele>
      </trkpt>
      <trkpt lat="45.30725" lon="-72.47505">
        <ele>262.33</ele>
      </trkpt>
      <trkpt lat="45.30651" lon="-72.47493">
        <ele>266.47</ele>
      </trkpt>
      <trkpt lat="45.30598" lon="-72.47489">
        <ele>268.68</ele>
      </trkpt>
      <trkpt lat="45.30563" lon="-72.47489">
        <ele>270.48</ele>
      </trkpt>
      <trkpt lat="45.30504" lon="-72.47496">
        <ele>273.06</ele>
      </trkpt>
      <trkpt lat="45.30426" lon="-72.4751">
        <ele>272.84</ele>
      </trkpt>
      <trkpt lat="45.3036567" lon="-72.47523">
        <ele>271.66</ele>
      </trkpt>
      <trkpt lat="45.3030533" lon="-72.47536">
        <ele>268.75</ele>
      </trkpt>
      <trkpt lat="45.30245" lon="-72.47549">
        <ele>266.82</ele>
      </trkpt>
      <trkpt lat="45.30218" lon="-72.47552">
        <ele>266.1</ele>
      </trkpt>
      <trkpt lat="45.30195" lon="-72.47551">
        <ele>264.32</ele>
      </trkpt>
      <trkpt lat="45.30172" lon="-72.47546">
        <ele>263.81</ele>
      </trkpt>
      <trkpt lat="45.30126" lon="-72.47516">
        <ele>262.42</ele>
      </trkpt>
      <trkpt lat="45.30057" lon="-72.47453">
        <ele>262.41</ele>
      </trkpt>
      <trkpt lat="45.30006" lon="-72.47397">
        <ele>261.2</ele>
      </trkpt>
      <trkpt lat="45.2993875" lon="-72.4732925">
        <ele>258.95</ele>
      </trkpt>
      <trkpt lat="45.298715" lon="-72.472615">
        <ele>255.53</ele>
      </trkpt>
      <trkpt lat="45.2980425" lon="-72.4719375">
        <ele>254.63</ele>
      </trkpt>
      <trkpt lat="45.29737" lon="-72.47126">
        <ele>254.38</ele>
      </trkpt>
      <trkpt lat="45.296785" lon="-72.47063">
        <ele>252.67</ele>
      </trkpt>
      <trkpt lat="45.2962" lon="-72.47">
        <ele>251.45</ele>
      </trkpt>
      <trkpt lat="45.29551" lon="-72.46931">
        <ele>250.41</ele>
      </trkpt>
      <trkpt lat="45.29482" lon="-72.46862">
        <ele>249.41</ele>
      </trkpt>
      <trkpt lat="45.29413" lon="-72.46793">
        <ele>248.47</ele>
      </trkpt>
      <trkpt lat="45.29413" lon="-72.46793">
        <ele>248.46</ele>
      </trkpt>
      <trkpt lat="45.2934225" lon="-72.46722">
        <ele>246.5</ele>
      </trkpt>
      <trkpt lat="45.292715" lon="-72.46651">
        <ele>242.89</ele>
      </trkpt>
      <trkpt lat="45.2920075" lon="-72.4658">
        <ele>238.51</ele>
      </trkpt>
      <trkpt lat="45.2913" lon="-72.46509">
        <ele>236.44</ele>
      </trkpt>
      <trkpt lat="45.29062" lon="-72.46448">
        <ele>234.07</ele>
      </trkpt>
      <trkpt lat="45.28994" lon="-72.46387">
        <ele>231.38</ele>
      </trkpt>
      <trkpt lat="45.28933" lon="-72.46335">
        <ele>228.02</ele>
      </trkpt>
      <trkpt lat="45.28872" lon="-72.46283">
        <ele>225.02</ele>
      </trkpt>
      <trkpt lat="45.28811" lon="-72.46231">
        <ele>222.66</ele>
      </trkpt>
      <trkpt lat="45.28746" lon="-72.461765">
        <ele>217.56</ele>
      </trkpt>
      <trkpt lat="45.28681" lon="-72.46122">
        <ele>217.41</ele>
      </trkpt>
      <trkpt lat="45.28616" lon="-72.460675">
        <ele>216.64</ele>
      </trkpt>
      <trkpt lat="45.28551" lon="-72.46013">
        <ele>215.22</ele>
      </trkpt>
      <trkpt lat="45.28487" lon="-72.45965">
        <ele>215.15</ele>
      </trkpt>
      <trkpt lat="45.2840867" lon="-72.45908">
        <ele>214.86</ele>
      </trkpt>
      <trkpt lat="45.2833033" lon="-72.45851">
        <ele>214.77</ele>
      </trkpt>
      <trkpt lat="45.28252" lon="-72.45794">
        <ele>216.21</ele>
      </trkpt>
      <trkpt lat="45.28221" lon="-72.45769">
        <ele>217.46</ele>
      </trkpt>
      <trkpt lat="45.28152" lon="-72.45704">
        <ele>221.55</ele>
      </trkpt>
      <trkpt lat="45.28083" lon="-72.45639">
        <ele>224.44</ele>
      </trkpt>
      <trkpt lat="45.2802333" lon="-72.4558667">
        <ele>232.26</ele>
      </trkpt>
      <trkpt lat="45.2796367" lon="-72.4553433">
        <ele>239.63</ele>
      </trkpt>
      <trkpt lat="45.27904" lon="-72.45482">
        <ele>244.18</ele>
      </trkpt>
      <trkpt lat="45.27879" lon="-72.45456">
        <ele>247.45</ele>
      </trkpt>
      <trkpt lat="45.27851" lon="-72.45422">
        <ele>249.55</ele>
      </trkpt>
      <trkpt lat="45.27816" lon="-72.45384">
        <ele>250.96</ele>
      </trkpt>
      <trkpt lat="45.27782" lon="-72.45339">
        <ele>253.37</ele>
      </trkpt>
      <trkpt lat="45.277325" lon="-72.452675">
        <ele>258.84</ele>
      </trkpt>
      <trkpt lat="45.27683" lon="-72.45196">
        <ele>264.57</ele>
      </trkpt>
      <trkpt lat="45.27648" lon="-72.45147">
        <ele>269.55</ele>
      </trkpt>
      <trkpt lat="45.27602" lon="-72.4509">
        <ele>272.67</ele>
      </trkpt>
      <trkpt lat="45.27588" lon="-72.45076">
        <ele>273.69</ele>
      </trkpt>
      <trkpt lat="45.27558" lon="-72.45053">
        <ele>275.02</ele>
      </trkpt>
      <trkpt lat="45.27485" lon="-72.45016">
        <ele>276.91</ele>
      </trkpt>
      <trkpt lat="45.274152" lon="-72.449848">
        <ele>277.43</ele>
      </trkpt>
      <trkpt lat="45.273454" lon="-72.449536">
        <ele>278.59</ele>
      </trkpt>
      <trkpt lat="45.272756" lon="-72.449224">
        <ele>279.69</ele>
      </trkpt>
      <trkpt lat="45.272058" lon="-72.448912">
        <ele>280.63</ele>
      </trkpt>
      <trkpt lat="45.27136" lon="-72.4486">
        <ele>282.32</ele>
      </trkpt>
      <trkpt lat="45.27099" lon="-72.44839">
        <ele>283.07</ele>
      </trkpt>
      <trkpt lat="45.27065" lon="-72.44813">
        <ele>283.62</ele>
      </trkpt>
      <trkpt lat="45.2703" lon="-72.44779">
        <ele>283.56</ele>
      </trkpt>
      <trkpt lat="45.26979" lon="-72.44718">
        <ele>281.84</ele>
      </trkpt>
      <trkpt lat="45.26928" lon="-72.44657">
        <ele>278.84</ele>
      </trkpt>
      <trkpt lat="45.26877" lon="-72.44596">
        <ele>276.13</ele>
      </trkpt>
      <trkpt lat="45.26816" lon="-72.44526">
        <ele>274.44</ele>
      </trkpt>
      <trkpt lat="45.26762" lon="-72.44475">
        <ele>275.06</ele>
      </trkpt>
      <trkpt lat="45.267135" lon="-72.444315">
        <ele>276.35</ele>
      </trkpt>
      <trkpt lat="45.26665" lon="-72.44388">
        <ele>276.88</ele>
      </trkpt>
      <trkpt lat="45.26665" lon="-72.44388">
        <ele>276.89</ele>
      </trkpt>
      <trkpt lat="45.266215" lon="-72.44349">
        <ele>277.59</ele>
      </trkpt>
      <trkpt lat="45.26578" lon="-72.4431">
        <ele>279.79</ele>
      </trkpt>
      <trkpt lat="45.26524" lon="-72.44255">
        <ele>282.17</ele>
      </trkpt>
      <trkpt lat="45.26489" lon="-72.44215">
        <ele>283.05</ele>
      </trkpt>
      <trkpt lat="45.26449" lon="-72.44158">
        <ele>285.53</ele>
      </trkpt>
      <trkpt lat="45.26427" lon="-72.44122">
        <ele>286.05</ele>
      </trkpt>
      <trkpt lat="45.26398" lon="-72.44057">
        <ele>289.77</ele>
      </trkpt>
      <trkpt lat="45.263705" lon="-72.43987">
        <ele>290.43</ele>
      </trkpt>
      <trkpt lat="45.26343" lon="-72.43917">
        <ele>294.72</ele>
      </trkpt>
      <trkpt lat="45.26328" lon="-72.439">
        <ele>294.91</ele>
      </trkpt>
      <trkpt lat="45.26314" lon="-72.43893">
        <ele>294.96</ele>
      </trkpt>
      <trkpt lat="45.26255" lon="-72.43891">
        <ele>294.23</ele>
      </trkpt>
      <trkpt lat="45.26185" lon="-72.43895">
        <ele>291.96</ele>
      </trkpt>
      <trkpt lat="45.26115" lon="-72.43899">
        <ele>288.32</ele>
      </trkpt>
      <trkpt lat="45.260595" lon="-72.439005">
        <ele>289.47</ele>
      </trkpt>
      <trkpt lat="45.26004" lon="-72.43902">
        <ele>292.27</ele>
      </trkpt>
      <trkpt lat="45.25977" lon="-72.43898">
        <ele>292.51</ele>
      </trkpt>
      <trkpt lat="45.25951" lon="-72.43886">
        <ele>292.78</ele>
      </trkpt>
      <trkpt lat="45.25874" lon="-72.43827">
        <ele>297.42</ele>
      </trkpt>
      <trkpt lat="45.25805" lon="-72.43764">
        <ele>304.26</ele>
      </trkpt>
      <trkpt lat="45.25754" lon="-72.4371">
        <ele>309.35</ele>
      </trkpt>
      <trkpt lat="45.25718" lon="-72.43678">
        <ele>310.11</ele>
      </trkpt>
      <trkpt lat="45.25653" lon="-72.43635">
        <ele>309.29</ele>
      </trkpt>
      <trkpt lat="45.25588" lon="-72.43592">
        <ele>309.29</ele>
      </trkpt>
      <trkpt lat="45.25523" lon="-72.43549">
        <ele>308.78</ele>
      </trkpt>
      <trkpt lat="45.254585" lon="-72.435225">
        <ele>312.98</ele>
      </trkpt>
      <trkpt lat="45.25394" lon="-72.43496">
        <ele>320.03</ele>
      </trkpt>
      <trkpt lat="45.25332" lon="-72.43486">
        <ele>323.49</ele>
      </trkpt>
      <trkpt lat="45.2528" lon="-72.43486">
        <ele>325.51</ele>
      </trkpt>
      <trkpt lat="45.25228" lon="-72.43486">
        <ele>327.6</ele>
      </trkpt>
      <trkpt lat="45.25152" lon="-72.43488">
        <ele>332.42</ele>
      </trkpt>
      <trkpt lat="45.25076" lon="-72.43492">
        <ele>337.63</ele>
      </trkpt>
      <trkpt lat="45.25" lon="-72.43496">
        <ele>344.35</ele>
      </trkpt>
      <trkpt lat="45.249395" lon="-72.435045">
        <ele>347.56</ele>
      </trkpt>
      <trkpt lat="45.24879" lon="-72.43513">
        <ele>347.63</ele>
      </trkpt>
      <trkpt lat="45.24845" lon="-72.43514">
        <ele>348.37</ele>
      </trkpt>
      <trkpt lat="45.24761" lon="-72.43513">
        <ele>350.81</ele>
      </trkpt>
      <trkpt lat="45.24707" lon="-72.43506">
        <ele>351.87</ele>
      </trkpt>
      <trkpt lat="45.24659" lon="-72.43504">
        <ele>352.96</ele>
      </trkpt>
      <trkpt lat="45.24624" lon="-72.43499">
        <ele>353.72</ele>
      </trkpt>
      <trkpt lat="45.24607" lon="-72.43497">
        <ele>353.72</ele>
      </trkpt>
      <trkpt lat="45.24582" lon="-72.43499">
        <ele>354.83</ele>
      </trkpt>
      <trkpt lat="45.245335" lon="-72.43508">
        <ele>355.62</ele>
      </trkpt>
      <trkpt lat="45.24485" lon="-72.43517">
        <ele>356.93</ele>
      </trkpt>
      <trkpt lat="45.24431" lon="-72.43529">
        <ele>357.63</ele>
      </trkpt>
      <trkpt lat="45.243555" lon="-72.435525">
        <ele>358.79</ele>
      </trkpt>
      <trkpt lat="45.2428" lon="-72.43576">
        <ele>359.34</ele>
      </trkpt>
      <trkpt lat="45.24211" lon="-72.43593">
        <ele>359.05</ele>
      </trkpt>
      <trkpt lat="45.24188" lon="-72.43602">
        <ele>359.04</ele>
      </trkpt>
      <trkpt lat="45.24123" lon="-72.43634">
        <ele>359.29</ele>
      </trkpt>
      <trkpt lat="45.24089" lon="-72.43655">
        <ele>357.93</ele>
      </trkpt>
      <trkpt lat="45.240485" lon="-72.43687">
        <ele>355.61</ele>
      </trkpt>
      <trkpt lat="45.24008" lon="-72.43719">
        <ele>354.67</ele>
      </trkpt>
      <trkpt lat="45.24007" lon="-72.43719">
        <ele>354.66</ele>
      </trkpt>
      <trkpt lat="45.23986" lon="-72.43737">
        <ele>354.56</ele>
      </trkpt>
      <trkpt lat="45.23921" lon="-72.437975">
        <ele>353.19</ele>
      </trkpt>
      <trkpt lat="45.23856" lon="-72.43858">
        <ele>350.17</ele>
      </trkpt>
      <trkpt lat="45.23822" lon="-72.43884">
        <ele>347.58</ele>
      </trkpt>
      <trkpt lat="45.23777" lon="-72.43925">
        <ele>345.14</ele>
      </trkpt>
      <trkpt lat="45.23753" lon="-72.43942">
        <ele>345.71</ele>
      </trkpt>
      <trkpt lat="45.23731" lon="-72.43951">
        <ele>346.84</ele>
      </trkpt>
      <trkpt lat="45.23699" lon="-72.43956">
        <ele>347.55</ele>
      </trkpt>
      <trkpt lat="45.23613" lon="-72.439595">
        <ele>348.98</ele>
      </trkpt>
      <trkpt lat="45.23527" lon="-72.43963">
        <ele>353.42</ele>
      </trkpt>
      <trkpt lat="45.23477" lon="-72.43966">
        <ele>354.63</ele>
      </trkpt>
      <trkpt lat="45.234185" lon="-72.43968">
        <ele>356.65</ele>
      </trkpt>
      <trkpt lat="45.2336" lon="-72.4397">
        <ele>358.94</ele>
      </trkpt>
      <trkpt lat="45.23336" lon="-72.43973">
        <ele>359.92</ele>
      </trkpt>
      <trkpt lat="45.23292" lon="-72.43973">
        <ele>363.85</ele>
      </trkpt>
      <trkpt lat="45.23292" lon="-72.440935">
        <ele>352.92</ele>
      </trkpt>
      <trkpt lat="45.23292" lon="-72.44214">
        <ele>344.3</ele>
      </trkpt>
      <trkpt lat="45.2329067" lon="-72.44307">
        <ele>338.04</ele>
      </trkpt>
      <trkpt lat="45.2328933" lon="-72.444">
        <ele>332.46</ele>
      </trkpt>
      <trkpt lat="45.23288" lon="-72.44493">
        <ele>328.98</ele>
      </trkpt>
      <trkpt lat="45.23286" lon="-72.44525">
        <ele>328.21</ele>
      </trkpt>
      <trkpt lat="45.2328" lon="-72.44574">
        <ele>326.75</ele>
      </trkpt>
      <trkpt lat="45.23268" lon="-72.44602">
        <ele>325.69</ele>
      </trkpt>
      <trkpt lat="45.23254" lon="-72.44628">
        <ele>324.55</ele>
      </trkpt>
      <trkpt lat="45.232175" lon="-72.44706">
        <ele>323.05</ele>
      </trkpt>
      <trkpt lat="45.23181" lon="-72.44784">
        <ele>323.67</ele>
      </trkpt>
      <trkpt lat="45.23158" lon="-72.448465">
        <ele>321.73</ele>
      </trkpt>
      <trkpt lat="45.23135" lon="-72.44909">
        <ele>318.4</ele>
      </trkpt>
      <trkpt lat="45.23116" lon="-72.44968">
        <ele>313.95</ele>
      </trkpt>
      <trkpt lat="45.23094" lon="-72.45013">
        <ele>308.89</ele>
      </trkpt>
      <trkpt lat="45.230695" lon="-72.450955">
        <ele>304.1</ele>
      </trkpt>
      <trkpt lat="45.23045" lon="-72.45178">
        <ele>300.1</ele>
      </trkpt>
      <trkpt lat="45.23018" lon="-72.4525">
        <ele>297.67</ele>
      </trkpt>
      <trkpt lat="45.23009" lon="-72.45295">
        <ele>294.01</ele>
      </trkpt>
      <trkpt lat="45.22991" lon="-72.45351">
        <ele>292.33</ele>
      </trkpt>
      <trkpt lat="45.22967" lon="-72.45424">
        <ele>295.18</ele>
      </trkpt>
      <trkpt lat="45.22965" lon="-72.45465">
        <ele>298.67</ele>
      </trkpt>
      <trkpt lat="45.2296" lon="-72.45487">
        <ele>299</ele>
      </trkpt>
      <trkpt lat="45.22933" lon="-72.45536">
        <ele>297.92</ele>
      </trkpt>
      <trkpt lat="45.22921" lon="-72.45564">
        <ele>296.82</ele>
      </trkpt>
      <trkpt lat="45.22908" lon="-72.45679">
        <ele>298.65</ele>
      </trkpt>
      <trkpt lat="45.2291" lon="-72.45743">
        <ele>297.86</ele>
      </trkpt>
      <trkpt lat="45.22908" lon="-72.45797">
        <ele>295.88</ele>
      </trkpt>
      <trkpt lat="45.229" lon="-72.45823">
        <ele>295.52</ele>
      </trkpt>
      <trkpt lat="45.22892" lon="-72.45836">
        <ele>295.5</ele>
      </trkpt>
      <trkpt lat="45.22871" lon="-72.45854">
        <ele>295.53</ele>
      </trkpt>
      <trkpt lat="45.22841" lon="-72.45868">
        <ele>296.26</ele>
      </trkpt>
      <trkpt lat="45.22824" lon="-72.45881">
        <ele>296.93</ele>
      </trkpt>
      <trkpt lat="45.22803" lon="-72.459">
        <ele>297.55</ele>
      </trkpt>
      <trkpt lat="45.22785" lon="-72.45934">
        <ele>297.48</ele>
      </trkpt>
      <trkpt lat="45.22766" lon="-72.45989">
        <ele>296.55</ele>
      </trkpt>
      <trkpt lat="45.22761" lon="-72.4602">
        <ele>296.55</ele>
      </trkpt>
      <trkpt lat="45.22762" lon="-72.46051">
        <ele>295.66</ele>
      </trkpt>
      <trkpt lat="45.22768" lon="-72.46074">
        <ele>295.48</ele>
      </trkpt>
      <trkpt lat="45.22788" lon="-72.46105">
        <ele>294.97</ele>
      </trkpt>
      <trkpt lat="45.22806" lon="-72.46127">
        <ele>294.33</ele>
      </trkpt>
      <trkpt lat="45.22825" lon="-72.46158">
        <ele>293.63</ele>
      </trkpt>
      <trkpt lat="45.2283" lon="-72.46178">
        <ele>293.12</ele>
      </trkpt>
      <trkpt lat="45.22829" lon="-72.46204">
        <ele>291.96</ele>
      </trkpt>
      <trkpt lat="45.22815" lon="-72.46257">
        <ele>287.79</ele>
      </trkpt>
      <trkpt lat="45.22797" lon="-72.46312">
        <ele>280.51</ele>
      </trkpt>
      <trkpt lat="45.22774" lon="-72.46369">
        <ele>276.25</ele>
      </trkpt>
      <trkpt lat="45.2276" lon="-72.46392">
        <ele>274.34</ele>
      </trkpt>
      <trkpt lat="45.22752" lon="-72.46415">
        <ele>273.07</ele>
      </trkpt>
      <trkpt lat="45.22749" lon="-72.46454">
        <ele>270.88</ele>
      </trkpt>
      <trkpt lat="45.227485" lon="-72.465345">
        <ele>268.21</ele>
      </trkpt>
      <trkpt lat="45.22748" lon="-72.46615">
        <ele>266</ele>
      </trkpt>
      <trkpt lat="45.2275133" lon="-72.4671367">
        <ele>260.31</ele>
      </trkpt>
      <trkpt lat="45.2275467" lon="-72.4681233">
        <ele>256.83</ele>
      </trkpt>
      <trkpt lat="45.22758" lon="-72.46911">
        <ele>257.07</ele>
      </trkpt>
      <trkpt lat="45.22758" lon="-72.46911">
        <ele>257.07</ele>
      </trkpt>
      <trkpt lat="45.2276133" lon="-72.4702">
        <ele>256.78</ele>
      </trkpt>
      <trkpt lat="45.2276467" lon="-72.47129">
        <ele>254.34</ele>
      </trkpt>
      <trkpt lat="45.22768" lon="-72.47238">
        <ele>252.55</ele>
      </trkpt>
      <trkpt lat="45.227775" lon="-72.473475">
        <ele>254.7</ele>
      </trkpt>
      <trkpt lat="45.22787" lon="-72.47457">
        <ele>259.77</ele>
      </trkpt>
      <trkpt lat="45.22786" lon="-72.47506">
        <ele>260.48</ele>
      </trkpt>
      <trkpt lat="45.22781" lon="-72.476">
        <ele>261.54</ele>
      </trkpt>
      <trkpt lat="45.22776" lon="-72.4765">
        <ele>261.97</ele>
      </trkpt>
      <trkpt lat="45.22751" lon="-72.47735">
        <ele>260.65</ele>
      </trkpt>
      <trkpt lat="45.22743" lon="-72.47749">
        <ele>260.14</ele>
      </trkpt>
      <trkpt lat="45.22717" lon="-72.47788">
        <ele>257.93</ele>
      </trkpt>
      <trkpt lat="45.22674" lon="-72.47838">
        <ele>254.13</ele>
      </trkpt>
      <trkpt lat="45.22651" lon="-72.4787">
        <ele>251.14</ele>
      </trkpt>
      <trkpt lat="45.225934" lon="-72.479426">
        <ele>244.36</ele>
      </trkpt>
      <trkpt lat="45.225358" lon="-72.480152">
        <ele>240.98</ele>
      </trkpt>
      <trkpt lat="45.224782" lon="-72.480878">
        <ele>240.49</ele>
      </trkpt>
      <trkpt lat="45.224206" lon="-72.481604">
        <ele>242.37</ele>
      </trkpt>
      <trkpt lat="45.22363" lon="-72.48233">
        <ele>242.44</ele>
      </trkpt>
      <trkpt lat="45.22339" lon="-72.48271">
        <ele>239.97</ele>
      </trkpt>
      <trkpt lat="45.22321" lon="-72.48304">
        <ele>238.19</ele>
      </trkpt>
      <trkpt lat="45.22315" lon="-72.48321">
        <ele>237.9</ele>
      </trkpt>
      <trkpt lat="45.22304" lon="-72.48375">
        <ele>237.09</ele>
      </trkpt>
      <trkpt lat="45.22295" lon="-72.48464">
        <ele>237.28</ele>
      </trkpt>
      <trkpt lat="45.2229367" lon="-72.48591">
        <ele>241.02</ele>
      </trkpt>
      <trkpt lat="45.2229233" lon="-72.48718">
        <ele>245.05</ele>
      </trkpt>
      <trkpt lat="45.22291" lon="-72.48845">
        <ele>245.15</ele>
      </trkpt>
      <trkpt lat="45.22291" lon="-72.48873">
        <ele>245.15</ele>
      </trkpt>
      <trkpt lat="45.22282" lon="-72.4893">
        <ele>244.28</ele>
      </trkpt>
      <trkpt lat="45.2227" lon="-72.48961">
        <ele>243.4</ele>
      </trkpt>
      <trkpt lat="45.22254" lon="-72.48986">
        <ele>242.86</ele>
      </trkpt>
      <trkpt lat="45.22185" lon="-72.4906">
        <ele>244.54</ele>
      </trkpt>
      <trkpt lat="45.22164" lon="-72.49086">
        <ele>244.88</ele>
      </trkpt>
      <trkpt lat="45.22125" lon="-72.49176">
        <ele>245.67</ele>
      </trkpt>
      <trkpt lat="45.22098" lon="-72.492535">
        <ele>245.28</ele>
      </trkpt>
      <trkpt lat="45.22071" lon="-72.49331">
        <ele>244.53</ele>
      </trkpt>
      <trkpt lat="45.22061" lon="-72.49383">
        <ele>242.16</ele>
      </trkpt>
      <trkpt lat="45.22059" lon="-72.49401">
        <ele>241.43</ele>
      </trkpt>
      <trkpt lat="45.22063" lon="-72.49445">
        <ele>238.01</ele>
      </trkpt>
      <trkpt lat="45.22072" lon="-72.49483">
        <ele>235.78</ele>
      </trkpt>
      <trkpt lat="45.22087" lon="-72.49526">
        <ele>232.76</ele>
      </trkpt>
      <trkpt lat="45.2213" lon="-72.49633">
        <ele>227.13</ele>
      </trkpt>
      <trkpt lat="45.22135" lon="-72.49651">
        <ele>226.54</ele>
      </trkpt>
      <trkpt lat="45.22137" lon="-72.49672">
        <ele>225.76</ele>
      </trkpt>
      <trkpt lat="45.22139" lon="-72.49733">
        <ele>224.43</ele>
      </trkpt>
      <trkpt lat="45.2214" lon="-72.49844">
        <ele>220.72</ele>
      </trkpt>
      <trkpt lat="45.22139" lon="-72.499225">
        <ele>218.9</ele>
      </trkpt>
      <trkpt lat="45.22138" lon="-72.50001">
        <ele>219.82</ele>
      </trkpt>
      <trkpt lat="45.221385" lon="-72.500705">
        <ele>223.46</ele>
      </trkpt>
      <trkpt lat="45.22139" lon="-72.5014">
        <ele>224.55</ele>
      </trkpt>
      <trkpt lat="45.22151" lon="-72.50211">
        <ele>222.33</ele>
      </trkpt>
      <trkpt lat="45.22153" lon="-72.5025">
        <ele>221.66</ele>
      </trkpt>
      <trkpt lat="45.22149" lon="-72.50269">
        <ele>221.56</ele>
      </trkpt>
      <trkpt lat="45.22117" lon="-72.50364">
        <ele>222.6</ele>
      </trkpt>
      <trkpt lat="45.2208" lon="-72.50464">
        <ele>224.01</ele>
      </trkpt>
      <trkpt lat="45.22043" lon="-72.50564">
        <ele>224.17</ele>
      </trkpt>
      <trkpt lat="45.22026" lon="-72.50596">
        <ele>223.38</ele>
      </trkpt>
      <trkpt lat="45.21984" lon="-72.506695">
        <ele>223.34</ele>
      </trkpt>
      <trkpt lat="45.21942" lon="-72.50743">
        <ele>221.94</ele>
      </trkpt>
      <trkpt lat="45.21888" lon="-72.50831">
        <ele>220.25</ele>
      </trkpt>
      <trkpt lat="45.21898" lon="-72.5091">
        <ele>217.57</ele>
      </trkpt>
      <trkpt lat="45.21913" lon="-72.50986">
        <ele>216.2</ele>
      </trkpt>
      <trkpt lat="45.21933" lon="-72.51052">
        <ele>215.06</ele>
      </trkpt>
      <trkpt lat="45.219625" lon="-72.51123">
        <ele>212.66</ele>
      </trkpt>
      <trkpt lat="45.21992" lon="-72.51194">
        <ele>212.16</ele>
      </trkpt>
      <trkpt lat="45.2202" lon="-72.51254">
        <ele>212.71</ele>
      </trkpt>
      <trkpt lat="45.22048" lon="-72.51314">
        <ele>212.33</ele>
      </trkpt>
      <trkpt lat="45.2208567" lon="-72.5139967">
        <ele>210.21</ele>
      </trkpt>
      <trkpt lat="45.2212333" lon="-72.5148533">
        <ele>210.09</ele>
      </trkpt>
      <trkpt lat="45.22161" lon="-72.51571">
        <ele>209.52</ele>
      </trkpt>
      <trkpt lat="45.22181" lon="-72.51627">
        <ele>209.08</ele>
      </trkpt>
      <trkpt lat="45.22188" lon="-72.51695">
        <ele>209.26</ele>
      </trkpt>
      <trkpt lat="45.22192" lon="-72.51783">
        <ele>209.51</ele>
      </trkpt>
      <trkpt lat="45.22196" lon="-72.51871">
        <ele>209.91</ele>
      </trkpt>
      <trkpt lat="45.22201" lon="-72.51898">
        <ele>209.75</ele>
      </trkpt>
      <trkpt lat="45.2221" lon="-72.51929">
        <ele>209.61</ele>
      </trkpt>
      <trkpt lat="45.2224" lon="-72.52006">
        <ele>208.71</ele>
      </trkpt>
      <trkpt lat="45.22249" lon="-72.52033">
        <ele>208.63</ele>
      </trkpt>
      <trkpt lat="45.22266" lon="-72.52095">
        <ele>208.17</ele>
      </trkpt>
      <trkpt lat="45.22275" lon="-72.5214">
        <ele>207.88</ele>
      </trkpt>
      <trkpt lat="45.22279" lon="-72.52211">
        <ele>206.85</ele>
      </trkpt>
      <trkpt lat="45.22279" lon="-72.52248">
        <ele>206.47</ele>
      </trkpt>
      <trkpt lat="45.22277" lon="-72.52283">
        <ele>206.32</ele>
      </trkpt>
      <trkpt lat="45.22272" lon="-72.52306">
        <ele>205.86</ele>
      </trkpt>
      <trkpt lat="45.22259" lon="-72.52337">
        <ele>205.08</ele>
      </trkpt>
      <trkpt lat="45.22192" lon="-72.52412">
        <ele>201.94</ele>
      </trkpt>
      <trkpt lat="45.221425" lon="-72.524615">
        <ele>202.01</ele>
      </trkpt>
      <trkpt lat="45.22093" lon="-72.52511">
        <ele>202.92</ele>
      </trkpt>
      <trkpt lat="45.2212467" lon="-72.5262533">
        <ele>202.15</ele>
      </trkpt>
      <trkpt lat="45.2215633" lon="-72.5273967">
        <ele>202.09</ele>
      </trkpt>
      <trkpt lat="45.22188" lon="-72.52854">
        <ele>202.55</ele>
      </trkpt>
      <trkpt lat="45.22205" lon="-72.52914">
        <ele>202.66</ele>
      </trkpt>
      <trkpt lat="45.22218" lon="-72.52972">
        <ele>203.11</ele>
      </trkpt>
      <trkpt lat="45.22227" lon="-72.53042">
        <ele>203.03</ele>
      </trkpt>
      <trkpt lat="45.222305" lon="-72.531585">
        <ele>202.73</ele>
      </trkpt>
      <trkpt lat="45.22234" lon="-72.53275">
        <ele>202.31</ele>
      </trkpt>
    </trkseg>
  </trk>
</gpx>